{
  "id": 85792265,
  "type": "Feature",
  "properties": {
    "edtf:cessation": "",
    "edtf:inception": "",
    "geom:area": 0.00009168601449997022,
    "geom:area_square_m": 706062.304317,
    "geom:bbox": "-0.313825,51.474540,-0.300108,51.486514",
    "geom:latitude": 51.480579063241734,
    "geom:longitude": -0.3080908503888606,
    "gn:id": "",
    "iso:country": "GB",
    "lbl:latitude": 51.48501,
    "lbl:longitude": -0.302206,
    "lbl:max_zoom": 18,
    "mps:latitude": 51.480134,
    "mps:longitude": -0.308558,
    "mz:hierarchy_label": 1,
    "mz:is_current": 1,
    "mz:is_funky": 0,
    "mz:is_hard_boundary": 0,
    "mz:is_landuse_aoi": 0,
    "mz:is_official": 0,
    "mz:max_zoom": 19,
    "mz:min_zoom": 15,
    "mz:tier_locality": 7,
    "mz:tier_metro": 1,
    "name:ara_x_preferred": [
      "برينتفورد"
    ],
    "name:azb_x_preferred": [
      "برنتفورد"
    ],
    "name:bul_x_preferred": [
      "Брентфорд"
    ],
    "name:cat_x_preferred": [
      "Brentford"
    ],
    "name:ceb_x_preferred": [
      "Brentford"
    ],
    "name:cym_x_preferred": [
      "Brentford"
    ],
    "name:deu_x_preferred": [
      "Brentford"
    ],
    "name:ell_x_preferred": [
      "Μπρέντφορντ"
    ],
    "name:eng_x_preferred": [
      "Old Brentford"
    ],
    "name:eng_x_variant": [
      "Brentford"
    ],
    "name:eus_x_preferred": [
      "Brentford"
    ],
    "name:fas_x_preferred": [
      "برنتفورد"
    ],
    "name:fra_x_preferred": [
      "Brentford"
    ],
    "name:fry_x_preferred": [
      "Brentford"
    ],
    "name:gle_x_preferred": [
      "Brentford"
    ],
    "name:heb_x_preferred": [
      "ברנטפורד"
    ],
    "name:hin_x_preferred": [
      "ब्रेंटफ़र्ड"
    ],
    "name:ind_x_preferred": [
      "Brentford"
    ],
    "name:ita_x_preferred": [
      "Brentford"
    ],
    "name:jpn_x_preferred": [
      "ブレントフォード"
    ],
    "name:kat_x_preferred": [
      "ბრენტფორდი"
    ],
    "name:kor_x_preferred": [
      "브렌트퍼드"
    ],
    "name:lld_x_preferred": [
      "Brentford"
    ],
    "name:new_x_preferred": [
      "ब्रेंटफर्ड"
    ],
    "name:nld_x_preferred": [
      "Brentford"
    ],
    "name:nno_x_preferred": [
      "Brentford"
    ],
    "name:nob_x_preferred": [
      "Brentford"
    ],
    "name:pol_x_preferred": [
      "Brentford"
    ],
    "name:ron_x_preferred": [
      "Brentford"
    ],
    "name:rus_x_preferred": [
      "Брентфорд"
    ],
    "name:spa_x_preferred": [
      "Brentford"
    ],
    "name:swe_x_preferred": [
      "Brentford"
    ],
    "name:tgk_x_preferred": [
      "Брентфурд"
    ],
    "name:ukr_x_preferred": [
      "Брентфорд"
    ],
    "name:urd_x_preferred": [
      "برینٹفرڈ"
    ],
    "name:vie_x_preferred": [
      "Brentford"
    ],
    "name:yue_x_preferred": [
      "賓福特"
    ],
    "name:zho_x_preferred": [
      "賓福特"
    ],
    "qs:gn_adm0_cc": "GB",
    "qs:gn_fcode": "PPL",
    "qs:gn_local": 2643743,
    "qs:gn_namadm1": "ENG",
    "qs:gn_name": "Brentford",
    "qs:local_max": 40697,
    "qs:local_sum": 1675717,
    "qs:localhoods": 643,
    "qs:name": "Old Brentford",
    "qs:name_adm0": "United Kingdom",
    "qs:name_adm1": "England",
    "qs:name_adm2": "Greater London",
    "qs:name_lau": "London Borough of Hounslow",
    "qs:name_local": "London",
    "qs:photo_max": 1160,
    "qs:photo_sum": 6113,
    "qs:placetype": "Suburb",
    "qs:quad_count": 89,
    "qs:woe_adm0": 23424975,
    "qs:woe_adm1": 24554868,
    "qs:woe_adm2": 23416974,
    "qs:woe_funk": "Parented by a neighborhood",
    "qs:woe_lau": 12695832,
    "qs:woe_local": 44418,
    "qs:woe_ver": "7.10.0",
    "reversegeo:latitude": 51.480134,
    "reversegeo:longitude": -0.308558,
    "src:geom": "mz",
    "src:geom_alt": [
      "quattroshapes_pg",
      "quattroshapes"
    ],
    "src:lbl_centroid": "mz",
    "src:population": "wikidata",
    "wd:wordcount": 3408,
    "wof:belongsto": [
      1880762729,
      102191581,
      1880762179,
      85633159,
      404227469,
      101750367,
      136253055,
      1158857259,
      1880771825
    ],
    "wof:breaches": [],
    "wof:concordances": {
      "gp:id": 43349,
      "qs_pg:id": 595847,
      "wd:id": "Q1013528"
    },
    "wof:country": "GB",
    "wof:created": 1765391266,
    "wof:geom_alt": [
      "quattroshapes_pg",
      "quattroshapes"
    ],
    "wof:geomhash": "0d7798418a01d46e2560505d4f54c631",
    "wof:hierarchy": [
      {
        "borough_id": 1158857259,
        "continent_id": 102191581,
        "country_id": 85633159,
        "county_id": 1880771825,
        "empire_id": 136253055,
        "locality_id": 101750367,
        "macrocounty_id": 1880762179,
        "macroregion_id": 404227469,
        "neighbourhood_id": 85792265,
        "region_id": 1880762729
      }
    ],
    "wof:id": 85792265,
    "wof:lang": [
      "eng"
    ],
    "wof:lastmodified": 1765391266,
    "wof:name": "Old Brentford",
    "wof:parent_id": 1158857259,
    "wof:placetype": "neighbourhood",
    "wof:population": 16571,
    "wof:population_rank": 6,
    "wof:repo": "whosonfirst-data-admin-gb",
    "wof:superseded_by": [],
    "wof:supersedes": [],
    "wof:tags": []
  },
  "bbox": [
    -0.313825,
    51.47454,
    -0.300108,
    51.486514
  ],
  "geometry": {"type":"MultiPolygon","coordinates":[[[[-0.310399,51.47454],[-0.31311,51.47454],[-0.31311,51.475486],[-0.313587,51.476251],[-0.31341,51.477103],[-0.313405,51.477106],[-0.31311,51.477579],[-0.31311,51.477962],[-0.31311,51.479672],[-0.31311,51.480437],[-0.31311,51.481383],[-0.313825,51.482531],[-0.313708,51.483093],[-0.31311,51.483093],[-0.310364,51.483093],[-0.310364,51.484804],[-0.307617,51.484804],[-0.307617,51.486514],[-0.304871,51.486514],[-0.304871,51.484804],[-0.302124,51.484804],[-0.302124,51.483093],[-0.300771,51.483093],[-0.301321,51.482981],[-0.301382,51.48301],[-0.303433,51.482604],[-0.303957,51.482516],[-0.304271,51.482396],[-0.304181,51.482213],[-0.304159,51.482213],[-0.303958,51.482231],[-0.303346,51.482319],[-0.302208,51.482529],[-0.300561,51.482848],[-0.300467,51.48285],[-0.300407,51.482846],[-0.300346,51.482835],[-0.30028,51.482815],[-0.300225,51.482793],[-0.300175,51.482766],[-0.300128,51.482732],[-0.300108,51.482711],[-0.300324,51.482373],[-0.300533,51.482141],[-0.300559,51.4821],[-0.30059,51.482075],[-0.300659,51.482041],[-0.30088,51.481992],[-0.300882,51.481916],[-0.300785,51.481891],[-0.30077,51.481882],[-0.300762,51.481871],[-0.30077,51.481846],[-0.300822,51.481811],[-0.301432,51.481339],[-0.301748,51.481136],[-0.302758,51.480512],[-0.303565,51.479906],[-0.303721,51.479937],[-0.30375,51.479934],[-0.303772,51.479927],[-0.303747,51.479866],[-0.303838,51.47982],[-0.303953,51.47985],[-0.304004,51.479844],[-0.304032,51.479829],[-0.304045,51.47981],[-0.304047,51.479796],[-0.304041,51.479779],[-0.30398,51.479716],[-0.304092,51.479629],[-0.304145,51.479614],[-0.304183,51.479623],[-0.304298,51.479743],[-0.304483,51.479825],[-0.304488,51.479762],[-0.304342,51.479625],[-0.304336,51.479612],[-0.304339,51.479596],[-0.304354,51.479577],[-0.30437,51.479568],[-0.304472,51.479542],[-0.304426,51.479459],[-0.304512,51.479425],[-0.304527,51.479414],[-0.304497,51.479309],[-0.304568,51.47924],[-0.304494,51.479207],[-0.304503,51.479149],[-0.304733,51.478903],[-0.30494,51.478631],[-0.305022,51.478566],[-0.30503,51.478528],[-0.305053,51.478504],[-0.305083,51.478479],[-0.305208,51.478408],[-0.30525,51.478309],[-0.305319,51.478273],[-0.305558,51.478327],[-0.305624,51.478325],[-0.305592,51.478251],[-0.30543,51.478157],[-0.305502,51.478018],[-0.305592,51.477975],[-0.305601,51.477966],[-0.305606,51.477956],[-0.305577,51.477896],[-0.305704,51.477714],[-0.305839,51.47769],[-0.305856,51.477667],[-0.305864,51.477644],[-0.305794,51.477614],[-0.306032,51.477233],[-0.306067,51.477146],[-0.306249,51.477016],[-0.306329,51.476985],[-0.306295,51.476957],[-0.306297,51.476926],[-0.306313,51.476915],[-0.306434,51.476875],[-0.306439,51.476787],[-0.306514,51.476689],[-0.306981,51.476254],[-0.307099,51.476178],[-0.307193,51.476137],[-0.307408,51.476074],[-0.307437,51.476023],[-0.307464,51.476009],[-0.307574,51.475981],[-0.30759,51.475917],[-0.307605,51.475894],[-0.30763,51.475873],[-0.307697,51.475849],[-0.307846,51.475846],[-0.307873,51.475782],[-0.30795,51.47572],[-0.307976,51.475708],[-0.308017,51.475698],[-0.308086,51.475692],[-0.308129,51.475694],[-0.308207,51.475707],[-0.308247,51.475703],[-0.308278,51.475647],[-0.308495,51.475472],[-0.308533,51.475458],[-0.308691,51.475447],[-0.308702,51.475423],[-0.308715,51.475357],[-0.308743,51.475332],[-0.308854,51.475291],[-0.308956,51.475272],[-0.308983,51.47526],[-0.309118,51.47515],[-0.309233,51.475131],[-0.309373,51.47501],[-0.309475,51.474968],[-0.30954,51.474954],[-0.309558,51.47495],[-0.30958,51.474929],[-0.30962,51.474874],[-0.30964,51.474861],[-0.309665,51.474855],[-0.309831,51.474857],[-0.309877,51.47478],[-0.30992,51.474748],[-0.309947,51.474735],[-0.310107,51.474709],[-0.310177,51.474673],[-0.310296,51.474666],[-0.310346,51.474575],[-0.310399,51.47454]]]]}
}
