{
  "id": 85788723,
  "type": "Feature",
  "properties": {
    "edtf:cessation": "",
    "edtf:inception": "",
    "geom:area": 0.0006387414249999269,
    "geom:area_square_m": 4417830.494221,
    "geom:bbox": "-3.174216,55.973773,-3.140330,56.003773",
    "geom:latitude": 55.98866897375872,
    "geom:longitude": -3.1581040908895113,
    "gn:latitude": 55.9713,
    "gn:longitude": -3.1723,
    "iso:country": "GB",
    "lbl:latitude": 55.975528,
    "lbl:longitude": -3.168001,
    "lbl:max_zoom": 18,
    "mps:latitude": 55.988057,
    "mps:longitude": -3.155063,
    "mz:hierarchy_label": 1,
    "mz:is_current": -1,
    "mz:is_funky": 0,
    "mz:is_hard_boundary": 0,
    "mz:is_landuse_aoi": 0,
    "mz:is_official": 0,
    "mz:max_zoom": 18,
    "mz:min_zoom": 11,
    "mz:tier_locality": 5,
    "mz:tier_metro": 1,
    "name:ara_x_preferred": [
      "ليث"
    ],
    "name:arz_x_preferred": [
      "ليث"
    ],
    "name:ast_x_preferred": [
      "Leith"
    ],
    "name:bel_x_preferred": [
      "Лейт"
    ],
    "name:cat_x_preferred": [
      "Leith"
    ],
    "name:ces_x_preferred": [
      "Leith"
    ],
    "name:cym_x_preferred": [
      "Leith"
    ],
    "name:dan_x_preferred": [
      "Leith"
    ],
    "name:deu_x_preferred": [
      "Leith"
    ],
    "name:ell_x_preferred": [
      "Λιθ"
    ],
    "name:eng_x_preferred": [
      "Leith"
    ],
    "name:est_x_preferred": [
      "Leith"
    ],
    "name:eus_x_preferred": [
      "Leith"
    ],
    "name:fao_x_preferred": [
      "Leith"
    ],
    "name:fin_x_preferred": [
      "Leith"
    ],
    "name:fra_x_preferred": [
      "Leith"
    ],
    "name:gla_x_preferred": [
      "Lìte"
    ],
    "name:gle_x_preferred": [
      "Lìte"
    ],
    "name:heb_x_preferred": [
      "ליית'"
    ],
    "name:hye_x_preferred": [
      "Լիթ"
    ],
    "name:ind_x_preferred": [
      "Leith"
    ],
    "name:ita_x_preferred": [
      "Leith"
    ],
    "name:jpn_x_preferred": [
      "リース"
    ],
    "name:kal_x_preferred": [
      "Leith"
    ],
    "name:kat_x_preferred": [
      "ლეითი"
    ],
    "name:kaz_x_preferred": [
      "Лит"
    ],
    "name:kor_x_preferred": [
      "리스"
    ],
    "name:nld_x_preferred": [
      "Leith"
    ],
    "name:nno_x_preferred": [
      "Leith"
    ],
    "name:nob_x_preferred": [
      "Leith"
    ],
    "name:pol_x_preferred": [
      "Leith"
    ],
    "name:por_x_preferred": [
      "Leith"
    ],
    "name:ron_x_preferred": [
      "Leith"
    ],
    "name:rus_x_preferred": [
      "Лит"
    ],
    "name:sco_x_preferred": [
      "Leith"
    ],
    "name:slk_x_preferred": [
      "Leith"
    ],
    "name:slv_x_preferred": [
      "Leith"
    ],
    "name:spa_x_preferred": [
      "Leith"
    ],
    "name:swe_x_preferred": [
      "Leith"
    ],
    "name:tha_x_preferred": [
      "ลีธ"
    ],
    "name:ukr_x_preferred": [
      "Лейт"
    ],
    "name:zho_x_preferred": [
      "利斯"
    ],
    "qs:gn_adm0_cc": "GB",
    "qs:gn_fcode": "PPL",
    "qs:gn_local": 2645970,
    "qs:gn_nam_loc": "tynron",
    "qs:gn_namadm1": "SCT",
    "qs:gn_name": "Leith",
    "qs:local_max": 8134,
    "qs:local_sum": 175937,
    "qs:localhoods": 78,
    "qs:name": "Leith",
    "qs:name_adm0": "United Kingdom",
    "qs:name_adm1": "Scotland",
    "qs:name_adm2": "Lothian",
    "qs:name_lau": "City of Edinburgh",
    "qs:name_local": "Edinburgh",
    "qs:photo_max": 314,
    "qs:photo_sum": 2559,
    "qs:placetype": "Suburb",
    "qs:quad_count": 52,
    "qs:woe_adm0": 23424975,
    "qs:woe_adm1": 12578048,
    "qs:woe_adm2": 12602204,
    "qs:woe_lau": 12696195,
    "qs:woe_local": 19344,
    "qs:woe_ver": "7.10.0",
    "src:geom": "quattroshapes",
    "src:geom_alt": [
      "quattroshapes_pg"
    ],
    "src:lbl_centroid": "mz",
    "src:population": "wikidata",
    "wd:wordcount": 5446,
    "wof:belongsto": [
      1880772893,
      102191581,
      85633159,
      1880762089,
      404227471,
      101750629,
      136253055,
      1360698761
    ],
    "wof:breaches": [],
    "wof:concordances": {
      "gn:id": 2644641,
      "gp:id": 26095,
      "qs_pg:id": 1165290,
      "wd:id": "Q1018540",
      "wk:page": "Leith"
    },
    "wof:country": "GB",
    "wof:created": 1765391094,
    "wof:geom_alt": [
      "quattroshapes_pg"
    ],
    "wof:geomhash": "d5e4cf7b037803086d2241fa6e4a0d78",
    "wof:hierarchy": [
      {
        "continent_id": 102191581,
        "country_id": 85633159,
        "county_id": 1360698761,
        "empire_id": 136253055,
        "locality_id": 101750629,
        "macrocounty_id": 1880762089,
        "macroregion_id": 404227471,
        "neighbourhood_id": 85788723,
        "region_id": 1880772893
      }
    ],
    "wof:id": 85788723,
    "wof:lang": [
      "eng"
    ],
    "wof:lastmodified": 1765391094,
    "wof:name": "Leith",
    "wof:parent_id": 101750629,
    "wof:placetype": "neighbourhood",
    "wof:population": 50030,
    "wof:population_rank": 8,
    "wof:repo": "whosonfirst-data-admin-gb",
    "wof:superseded_by": [],
    "wof:supersedes": [],
    "wof:tags": []
  },
  "bbox": [
    -3.174216,
    55.973773,
    -3.14033,
    56.003773
  ],
  "geometry": {"type":"Polygon","coordinates":[[[-3.154245,55.997772],[-3.153633,55.997026],[-3.153623,55.997028],[-3.15228,55.997436],[-3.15033,55.997628],[-3.148379,55.997436],[-3.146503,55.996867],[-3.144774,55.995943],[-3.143259,55.994699],[-3.142015,55.993184],[-3.141091,55.991455],[-3.140522,55.989579],[-3.14033,55.987628],[-3.14036,55.987322],[-3.147583,55.983018],[-3.147583,55.979945],[-3.147583,55.976872],[-3.147583,55.976872],[-3.153076,55.976872],[-3.153076,55.97541],[-3.153076,55.973798],[-3.155781,55.973798],[-3.155823,55.973773],[-3.155864,55.973798],[-3.158569,55.973798],[-3.161316,55.973798],[-3.164062,55.973798],[-3.166358,55.973798],[-3.166809,55.973798],[-3.166809,55.975335],[-3.168182,55.975335],[-3.168182,55.975701],[-3.168859,55.976104],[-3.168869,55.976104],[-3.168869,55.97611],[-3.168869,55.976488],[-3.169556,55.976488],[-3.169709,55.976488],[-3.169781,55.976872],[-3.170929,55.976872],[-3.170929,55.97764],[-3.170929,55.978006],[-3.170929,55.978409],[-3.170253,55.978409],[-3.170242,55.978415],[-3.170232,55.978409],[-3.169556,55.978409],[-3.169556,55.979177],[-3.169556,55.979781],[-3.169556,55.979945],[-3.169556,55.980751],[-3.169556,55.981482],[-3.166809,55.981482],[-3.166809,55.982994],[-3.166809,55.983019],[-3.166767,55.983019],[-3.164062,55.98463],[-3.164062,55.986092],[-3.164063,55.987628],[-3.165781,55.989164],[-3.167837,55.989164],[-3.172645,55.993462],[-3.174216,55.999079],[-3.173416,56.001225],[-3.172365,56.002088],[-3.170636,56.003012],[-3.16876,56.003581],[-3.166809,56.003773],[-3.164858,56.003581],[-3.162982,56.003012],[-3.161253,56.002088],[-3.159738,56.000844],[-3.159471,56.000519],[-3.159432,56.000515],[-3.159365,56.000508],[-3.157489,55.999939],[-3.15576,55.999015],[-3.154245,55.997772]]]}
}
