{
  "id": 420782143,
  "type": "Feature",
  "properties": {
    "edtf:cessation": "",
    "edtf:inception": "",
    "geom:area": 0,
    "geom:area_square_m": 0,
    "geom:bbox": "-0.048684,51.657192,-0.048684,51.657192",
    "geom:latitude": 51.657192,
    "geom:longitude": -0.048684,
    "iso:country": "GB",
    "lbl:bbox": "-0.0536842125023,51.6521920149,-0.0436842125023,51.6621920149",
    "lbl:latitude": 51.657192,
    "lbl:longitude": -0.048684,
    "lbl:max_zoom": 18,
    "mz:hierarchy_label": 1,
    "mz:is_current": -1,
    "mz:is_funky": 0,
    "mz:is_hard_boundary": 0,
    "mz:is_landuse_aoi": 0,
    "mz:is_official": 0,
    "mz:max_zoom": 18,
    "mz:min_zoom": 15,
    "mz:tier_locality": 0,
    "name:eng_x_preferred": [
      "Enfield Highway"
    ],
    "name:fra_x_preferred": [
      "Enfield Highway"
    ],
    "name:gle_x_preferred": [
      "Enfield Highway"
    ],
    "name:urd_x_preferred": [
      "اینفیلڈ ہائی وے"
    ],
    "name:zho_x_preferred": [
      "地方政府大樓"
    ],
    "src:geom": "unknown",
    "src:population": "wikidata",
    "wd:wordcount": 877,
    "wof:belongsto": [
      1880762729,
      102191581,
      1880762179,
      85633159,
      404227469,
      101750367,
      136253055,
      1158857281,
      1880771825
    ],
    "wof:breaches": [],
    "wof:concordances": {
      "gp:id": 13933,
      "wd:id": "Q5377306"
    },
    "wof:country": "GB",
    "wof:created": 1458871830,
    "wof:geomhash": "20183ed7e4ad692366de3b4878ddec03",
    "wof:hierarchy": [
      {
        "borough_id": 1158857281,
        "continent_id": 102191581,
        "country_id": 85633159,
        "county_id": 1880771825,
        "empire_id": 136253055,
        "locality_id": 101750367,
        "macrocounty_id": 1880762179,
        "macroregion_id": 404227469,
        "neighbourhood_id": 420782143,
        "region_id": 1880762729
      }
    ],
    "wof:id": 420782143,
    "wof:lastmodified": 1765390906,
    "wof:name": "Enfield Highway",
    "wof:parent_id": 1158857281,
    "wof:placetype": "neighbourhood",
    "wof:population": 16027,
    "wof:population_rank": 6,
    "wof:repo": "whosonfirst-data-admin-gb",
    "wof:superseded_by": [],
    "wof:supersedes": [],
    "wof:tags": []
  },
  "bbox": [
    -0.048684,
    51.657192,
    -0.048684,
    51.657192
  ],
  "geometry": {"type":"Point","coordinates":[-0.048684,51.657192]}
}
