{
  "id": 85789315,
  "type": "Feature",
  "properties": {
    "edtf:cessation": "",
    "edtf:inception": "",
    "geom:area": 0,
    "geom:area_square_m": 0,
    "geom:bbox": "1.217377,52.655400,1.217377,52.655400",
    "geom:latitude": 52.6554,
    "geom:longitude": 1.217377,
    "gn:id": "",
    "iso:country": "GB",
    "lbl:bbox": "1.212377,52.6504,1.222377,52.6604",
    "lbl:latitude": 52.6554,
    "lbl:longitude": 1.217377,
    "lbl:max_zoom": 18,
    "mps:latitude": 52.650156,
    "mps:longitude": 1.177551,
    "mz:hierarchy_label": 0,
    "mz:is_current": -1,
    "mz:is_funky": 0,
    "mz:is_hard_boundary": 0,
    "mz:is_landuse_aoi": 0,
    "mz:is_official": 0,
    "mz:max_zoom": 18,
    "mz:min_zoom": 14,
    "mz:tier_locality": 3,
    "name:ben_x_preferred": [
      "কস্টেসি"
    ],
    "name:cat_x_preferred": [
      "Costessey"
    ],
    "name:ceb_x_preferred": [
      "Costessey"
    ],
    "name:cym_x_preferred": [
      "Costessey"
    ],
    "name:deu_x_preferred": [
      "Costessey"
    ],
    "name:eng_x_preferred": [
      "New Costessey"
    ],
    "name:eng_x_variant": [
      "Costessey"
    ],
    "name:fra_x_preferred": [
      "Costessey"
    ],
    "name:gle_x_preferred": [
      "Costessey"
    ],
    "name:guj_x_preferred": [
      "કૉસ્ટેસી"
    ],
    "name:ita_x_preferred": [
      "Costessey"
    ],
    "name:jpn_x_preferred": [
      "コステッシー"
    ],
    "name:kan_x_preferred": [
      "ಕಾಸ್ಟೆಸ್ಸೆ"
    ],
    "name:kor_x_preferred": [
      "코스티세이"
    ],
    "name:lit_x_preferred": [
      "Kostesis"
    ],
    "name:lld_x_preferred": [
      "Costessey"
    ],
    "name:nld_x_preferred": [
      "Costessey"
    ],
    "name:pol_x_preferred": [
      "Costessey"
    ],
    "name:por_x_preferred": [
      "Costessey"
    ],
    "name:rus_x_preferred": [
      "Костесси"
    ],
    "name:spa_x_preferred": [
      "Costessey"
    ],
    "name:swe_x_preferred": [
      "Costessey"
    ],
    "name:tam_x_preferred": [
      "காஸ்டெசெய்"
    ],
    "name:tel_x_preferred": [
      "కస్తేస్సీ"
    ],
    "name:tur_x_preferred": [
      "Costessey"
    ],
    "name:urd_x_preferred": [
      "کوستیسیی"
    ],
    "qs:gn_adm0_cc": "GB",
    "qs:gn_fcode": "PPL",
    "qs:gn_local": 2641181,
    "qs:gn_nam_loc": "Norwich, Norwich, Norfolk, England, GB",
    "qs:gn_namadm1": "ENG",
    "qs:gn_name": "Costessey",
    "qs:local_max": 5858,
    "qs:local_sum": 22582,
    "qs:localhoods": 10,
    "qs:name": "New Costessey",
    "qs:name_adm0": "United Kingdom",
    "qs:name_adm1": "England",
    "qs:name_adm2": "Norfolk",
    "qs:name_lau": "South Norfolk District",
    "qs:name_local": "Norwich",
    "qs:photo_max": 72,
    "qs:photo_sum": 304,
    "qs:placetype": "Suburb",
    "qs:quad_count": 38,
    "qs:woe_adm0": 23424975,
    "qs:woe_adm1": 24554868,
    "qs:woe_adm2": 12602141,
    "qs:woe_lau": 12696029,
    "qs:woe_local": 30704,
    "qs:woe_ver": "7.10.0",
    "src:geom": "mz",
    "src:geom_alt": [
      "quattroshapes_pg",
      "quattroshapes"
    ],
    "src:lbl_centroid": "yerbashapes",
    "src:population": "wikidata",
    "wd:latitude": 52.660231,
    "wd:longitude": 1.216139,
    "wd:wordcount": 1396,
    "wof:belongsto": [
      404441869,
      1880762037,
      1125909111,
      1880771585
    ],
    "wof:breaches": [],
    "wof:concordances": {
      "gp:id": 29905,
      "qs_pg:id": 1079635,
      "wd:id": "Q2201571"
    },
    "wof:country": "GB",
    "wof:created": 1765391123,
    "wof:geom_alt": [
      "quattroshapes",
      "quattroshapes_pg"
    ],
    "wof:geomhash": "ce7b3d3dc60a5a4a88deb16598aa5d1c",
    "wof:hierarchy": [
      {
        "continent_id": -1,
        "country_id": -1,
        "county_id": 1880771585,
        "localadmin_id": 404441869,
        "locality_id": 1125909111,
        "macrocounty_id": 1880762037,
        "neighbourhood_id": 85789315,
        "region_id": -1
      }
    ],
    "wof:id": 85789315,
    "wof:lang": [
      "eng"
    ],
    "wof:lastmodified": 1765391123,
    "wof:name": "New Costessey",
    "wof:parent_id": 1125909111,
    "wof:placetype": "neighbourhood",
    "wof:population": 16694,
    "wof:population_rank": 6,
    "wof:repo": "whosonfirst-data-admin-gb",
    "wof:superseded_by": [],
    "wof:supersedes": [],
    "wof:tags": []
  },
  "bbox": [
    1.217377,
    52.6554,
    1.217377,
    52.6554
  ],
  "geometry": {"type":"Point","coordinates":[1.217377,52.6554]}
}
