{
  "id": 420784493,
  "type": "Feature",
  "properties": {
    "edtf:cessation": "",
    "edtf:inception": "",
    "geom:area": 0,
    "geom:area_square_m": 0,
    "geom:bbox": "-2.267172,53.398176,-2.267172,53.398176",
    "geom:latitude": 53.398176,
    "geom:longitude": -2.267172,
    "iso:country": "GB",
    "lbl:bbox": "-2.2721721268,53.3931755659,-2.2621721268,53.4031755659",
    "lbl:latitude": 53.398176,
    "lbl:longitude": -2.267172,
    "lbl:max_zoom": 18,
    "mz:hierarchy_label": 1,
    "mz:is_current": -1,
    "mz:is_funky": 0,
    "mz:is_hard_boundary": 0,
    "mz:is_landuse_aoi": 0,
    "mz:is_official": 0,
    "mz:max_zoom": 18,
    "mz:min_zoom": 12,
    "mz:tier_locality": 0,
    "name:ben_x_preferred": [
      "উইদেনশবে"
    ],
    "name:cat_x_preferred": [
      "Wythenshawe"
    ],
    "name:cym_x_preferred": [
      "Wythenshawe"
    ],
    "name:deu_x_preferred": [
      "Wythenshawe"
    ],
    "name:eng_x_preferred": [
      "Wythenshawe"
    ],
    "name:fra_x_preferred": [
      "Wythenshawe"
    ],
    "name:gle_x_preferred": [
      "Wythenshawe"
    ],
    "name:guj_x_preferred": [
      "વાયથેનશાવે"
    ],
    "name:heb_x_preferred": [
      "וית'נשו"
    ],
    "name:ita_x_preferred": [
      "Wythenshawe"
    ],
    "name:jpn_x_preferred": [
      "ウィゼンソー"
    ],
    "name:kan_x_preferred": [
      "ವೈತೆನ್ಶಾ"
    ],
    "name:kor_x_preferred": [
      "센쇼"
    ],
    "name:lit_x_preferred": [
      "Vitenšavė"
    ],
    "name:por_x_preferred": [
      "Wythenshawe"
    ],
    "name:rus_x_preferred": [
      "Уитеншоув"
    ],
    "name:slv_x_preferred": [
      "Wythenshawe"
    ],
    "name:spa_x_preferred": [
      "Wythenshawe"
    ],
    "name:swe_x_preferred": [
      "Wythenshawe"
    ],
    "name:tam_x_preferred": [
      "வ்ய்த்தேன்சாவெ"
    ],
    "name:tel_x_preferred": [
      "వైతెన్షా"
    ],
    "name:ukr_x_preferred": [
      "Вітеншо"
    ],
    "name:und_x_variant": [
      "Wythenshawe Estate"
    ],
    "name:urd_x_preferred": [
      "ویتھینشاوی"
    ],
    "name:zho_x_preferred": [
      "威森肖"
    ],
    "src:geom": "unknown",
    "src:population": "wikidata",
    "wd:wordcount": 3127,
    "wof:belongsto": [
      1880773095,
      102191581,
      85633159,
      1880762163,
      404227469,
      101750525,
      136253055,
      1360698893
    ],
    "wof:breaches": [],
    "wof:concordances": {
      "gn:id": 2633432,
      "gp:id": 28835511,
      "qs_pg:id": 1059926,
      "wd:id": "Q3570246"
    },
    "wof:country": "GB",
    "wof:created": 1458871928,
    "wof:geomhash": "e8fb4e9b7ffa33ff1cbaeb81c0c538f4",
    "wof:hierarchy": [
      {
        "continent_id": 102191581,
        "country_id": 85633159,
        "county_id": 1360698893,
        "empire_id": 136253055,
        "locality_id": 101750525,
        "macrocounty_id": 1880762163,
        "macroregion_id": 404227469,
        "neighbourhood_id": 420784493,
        "region_id": 1880773095
      }
    ],
    "wof:id": 420784493,
    "wof:lastmodified": 1765390910,
    "wof:name": "Wythenshawe",
    "wof:parent_id": 101750525,
    "wof:placetype": "neighbourhood",
    "wof:population": 110000,
    "wof:population_rank": 9,
    "wof:repo": "whosonfirst-data-admin-gb",
    "wof:superseded_by": [],
    "wof:supersedes": [],
    "wof:tags": []
  },
  "bbox": [
    -2.267172,
    53.398176,
    -2.267172,
    53.398176
  ],
  "geometry": {"type":"Point","coordinates":[-2.267172,53.398176]}
}
