{
  "id": 85787941,
  "type": "Feature",
  "properties": {
    "edtf:cessation": "",
    "edtf:inception": "",
    "geom:area": 0.00040390439250003905,
    "geom:area_square_m": 3109907.472988,
    "geom:bbox": "-0.444946,51.473010,-0.422974,51.500194",
    "geom:latitude": 51.48718911209902,
    "geom:longitude": -0.43272681595111523,
    "iso:country": "GB",
    "lbl:latitude": 51.48432,
    "lbl:longitude": -0.437191,
    "lbl:max_zoom": 18,
    "mps:latitude": 51.486565,
    "mps:longitude": -0.431838,
    "mz:hierarchy_label": 1,
    "mz:is_current": 1,
    "mz:is_funky": 0,
    "mz:is_hard_boundary": 0,
    "mz:is_landuse_aoi": 0,
    "mz:is_official": 0,
    "mz:max_zoom": 18,
    "mz:min_zoom": 14,
    "mz:tier_locality": 7,
    "mz:tier_metro": 1,
    "name:azb_x_preferred": [
      "هارلینقتون"
    ],
    "name:eng_x_preferred": [
      "Harlington"
    ],
    "name:fas_x_preferred": [
      "هارلینگتون، لندن"
    ],
    "name:fas_x_variant": [
      "هارلینگتون"
    ],
    "name:fra_x_preferred": [
      "Harlington"
    ],
    "name:gle_x_preferred": [
      "Harlington"
    ],
    "name:hin_x_preferred": [
      "हार्लिंगटन"
    ],
    "name:ita_x_preferred": [
      "Harlington"
    ],
    "name:jpn_x_preferred": [
      "ハーリントン"
    ],
    "name:nld_x_preferred": [
      "Harlington"
    ],
    "name:pol_x_preferred": [
      "Harlington"
    ],
    "name:spa_x_preferred": [
      "Harlington"
    ],
    "name:urd_x_preferred": [
      "ہارلنگٹن"
    ],
    "src:geom": "quattroshapes",
    "src:geom_alt": [
      "quattroshapes_pg"
    ],
    "src:lbl_centroid": "mz",
    "src:population": "wikidata",
    "wof:belongsto": [
      1880762729,
      102191581,
      1880762179,
      85633159,
      404227469,
      101750367,
      136253055,
      1158857261,
      1880771825
    ],
    "wof:breaches": [],
    "wof:concordances": {
      "gn:id": 2647464,
      "gp:id": 22468,
      "qs_pg:id": 408498,
      "wd:id": "Q2344963",
      "wk:page": "Harlington, Bedfordshire"
    },
    "wof:country": "GB",
    "wof:created": 1765391057,
    "wof:geom_alt": [
      "quattroshapes_pg"
    ],
    "wof:geomhash": "cc79bfcdd137824266db731566663b00",
    "wof:hierarchy": [
      {
        "borough_id": 1158857261,
        "continent_id": 102191581,
        "country_id": 85633159,
        "county_id": 1880771825,
        "empire_id": 136253055,
        "locality_id": 101750367,
        "macrocounty_id": 1880762179,
        "macroregion_id": 404227469,
        "neighbourhood_id": 85787941,
        "region_id": 1880762729
      }
    ],
    "wof:id": 85787941,
    "wof:lang": [
      "eng"
    ],
    "wof:lastmodified": 1765391057,
    "wof:name": "Harlington",
    "wof:parent_id": 1158857261,
    "wof:placetype": "neighbourhood",
    "wof:population": 2278,
    "wof:population_rank": 4,
    "wof:repo": "whosonfirst-data-admin-gb",
    "wof:superseded_by": [],
    "wof:supersedes": [],
    "wof:tags": []
  },
  "bbox": [
    -0.444946,
    51.47301,
    -0.422974,
    51.500194
  ],
  "geometry": {"type":"Polygon","coordinates":[[[-0.429349,51.499901],[-0.428467,51.498485],[-0.428467,51.498485],[-0.422974,51.498485],[-0.422974,51.49825],[-0.422974,51.495065],[-0.422974,51.495065],[-0.422974,51.491645],[-0.422974,51.491645],[-0.422974,51.488224],[-0.422974,51.488224],[-0.422974,51.484804],[-0.422974,51.484804],[-0.422974,51.482913],[-0.422974,51.481383],[-0.42572,51.481383],[-0.42572,51.480437],[-0.42572,51.479672],[-0.428467,51.479672],[-0.428467,51.478344],[-0.428467,51.477962],[-0.428467,51.476251],[-0.428943,51.476251],[-0.431213,51.476251],[-0.431213,51.47454],[-0.431213,51.47448],[-0.43396,51.47301],[-0.436707,51.47448],[-0.436707,51.47454],[-0.436707,51.476251],[-0.439453,51.476251],[-0.439453,51.477962],[-0.4422,51.477962],[-0.4422,51.478525],[-0.4422,51.479672],[-0.4422,51.481383],[-0.444946,51.481383],[-0.444946,51.482148],[-0.444946,51.483093],[-0.444946,51.484804],[-0.444414,51.485659],[-0.442732,51.485659],[-0.4422,51.486514],[-0.4422,51.488224],[-0.4422,51.489935],[-0.4422,51.490996],[-0.440182,51.491645],[-0.439727,51.491791],[-0.439453,51.491645],[-0.439453,51.491645],[-0.439453,51.491645],[-0.438724,51.491645],[-0.437533,51.492027],[-0.436707,51.493355],[-0.43588,51.494682],[-0.436595,51.495065],[-0.439453,51.495065],[-0.439453,51.496595],[-0.439453,51.498484],[-0.439453,51.498485],[-0.43396,51.498485],[-0.43396,51.498485],[-0.432896,51.500194],[-0.429774,51.500194],[-0.429349,51.499901]]]}
}
