{
  "id": 85787249,
  "type": "Feature",
  "properties": {
    "edtf:cessation": "",
    "edtf:inception": "",
    "geom:area": 0.000655671428999991,
    "geom:area_square_m": 5032602.68353,
    "geom:bbox": "-0.073242,51.616484,-0.033619,51.641885",
    "geom:latitude": 51.62974635945543,
    "geom:longitude": -0.054735179079107465,
    "iso:country": "GB",
    "lbl:latitude": 51.62088,
    "lbl:longitude": -0.061555,
    "lbl:max_zoom": 18,
    "mps:latitude": 51.628818,
    "mps:longitude": -0.055113,
    "mz:hierarchy_label": 1,
    "mz:is_current": -1,
    "mz:is_funky": 0,
    "mz:is_hard_boundary": 0,
    "mz:is_landuse_aoi": 0,
    "mz:is_official": 0,
    "mz:max_zoom": 18,
    "mz:min_zoom": 13,
    "mz:tier_locality": 7,
    "mz:tier_metro": 1,
    "name:ara_x_preferred": [
      "إدمونتون"
    ],
    "name:arz_x_preferred": [
      "ادمونتون"
    ],
    "name:ast_x_preferred": [
      "Edmonton"
    ],
    "name:azb_x_preferred": [
      "ادمونتون"
    ],
    "name:bel_x_preferred": [
      "Эдмантан"
    ],
    "name:cat_x_preferred": [
      "Edmonton"
    ],
    "name:ces_x_preferred": [
      "Edmonton"
    ],
    "name:cym_x_preferred": [
      "Edmonton"
    ],
    "name:dan_x_preferred": [
      "Edmonton"
    ],
    "name:deu_x_preferred": [
      "Edmonton"
    ],
    "name:ell_x_preferred": [
      "Έντμοντον"
    ],
    "name:eng_x_preferred": [
      "Edmonton"
    ],
    "name:fas_x_preferred": [
      "ادمونتون، لندن"
    ],
    "name:fas_x_variant": [
      "ادمونتون"
    ],
    "name:fra_x_preferred": [
      "Edmonton"
    ],
    "name:gle_x_preferred": [
      "Edmonton"
    ],
    "name:heb_x_preferred": [
      "אדמונטון"
    ],
    "name:ita_x_preferred": [
      "Edmonton"
    ],
    "name:jpn_x_preferred": [
      "エドモントン"
    ],
    "name:kat_x_preferred": [
      "ედმონტონი"
    ],
    "name:lld_x_preferred": [
      "Edmonton"
    ],
    "name:new_x_preferred": [
      "एडमंटन"
    ],
    "name:nld_x_preferred": [
      "Edmonton"
    ],
    "name:nob_x_preferred": [
      "Edmonton"
    ],
    "name:pam_x_preferred": [
      "Edmonton"
    ],
    "name:pol_x_preferred": [
      "Edmonton"
    ],
    "name:por_x_preferred": [
      "Edmonton"
    ],
    "name:rus_x_preferred": [
      "Эдмонтон"
    ],
    "name:slv_x_preferred": [
      "Edmonton"
    ],
    "name:spa_x_preferred": [
      "Edmonton"
    ],
    "name:swe_x_preferred": [
      "Edmonton"
    ],
    "name:tgl_x_preferred": [
      "Edmonton"
    ],
    "name:ukr_x_preferred": [
      "Едмонтон"
    ],
    "name:urd_x_preferred": [
      "ایڈمونٹن"
    ],
    "name:vie_x_preferred": [
      "Edmonton"
    ],
    "name:zho_x_preferred": [
      "埃德蒙頓"
    ],
    "src:geom": "quattroshapes",
    "src:geom_alt": [
      "quattroshapes_pg"
    ],
    "src:lbl_centroid": "mz",
    "src:population": "wikidata",
    "wof:belongsto": [
      1880762729,
      102191581,
      1880762179,
      85633159,
      404227469,
      101750367,
      136253055,
      1158857281,
      1880771825
    ],
    "wof:breaches": [],
    "wof:concordances": {
      "gn:id": 2650209,
      "gp:id": 19368,
      "qs_pg:id": 217760,
      "wd:id": "Q1997321",
      "wk:page": "Edmonton, London"
    },
    "wof:country": "GB",
    "wof:created": 1765391026,
    "wof:geom_alt": [
      "quattroshapes_pg"
    ],
    "wof:geomhash": "bfdf0b47808db55b1844e6e6d8be38fa",
    "wof:hierarchy": [
      {
        "borough_id": 1158857281,
        "continent_id": 102191581,
        "country_id": 85633159,
        "county_id": 1880771825,
        "empire_id": 136253055,
        "locality_id": 101750367,
        "macrocounty_id": 1880762179,
        "macroregion_id": 404227469,
        "neighbourhood_id": 85787249,
        "region_id": 1880762729
      }
    ],
    "wof:id": 85787249,
    "wof:lang": [
      "eng"
    ],
    "wof:lastmodified": 1765391026,
    "wof:name": "Edmonton",
    "wof:parent_id": 1158857281,
    "wof:placetype": "neighbourhood",
    "wof:population": 80546,
    "wof:population_rank": 8,
    "wof:repo": "whosonfirst-data-admin-gb",
    "wof:superseded_by": [],
    "wof:supersedes": [],
    "wof:tags": []
  },
  "bbox": [
    -0.073242,
    51.616484,
    -0.033619,
    51.641885
  ],
  "geometry": {"type":"Polygon","coordinates":[[[-0.054932,51.641885],[-0.053874,51.640181],[-0.050742,51.640181],[-0.050312,51.639884],[-0.049439,51.638476],[-0.049438,51.638476],[-0.043945,51.638476],[-0.043945,51.638476],[-0.042887,51.636771],[-0.039756,51.636771],[-0.039326,51.637069],[-0.038452,51.636599],[-0.035599,51.635067],[-0.033619,51.634004],[-0.033699,51.633362],[-0.033619,51.63272],[-0.035598,51.631657],[-0.038452,51.630125],[-0.038452,51.628248],[-0.038452,51.628247],[-0.038452,51.624837],[-0.038452,51.624837],[-0.0437,51.624837],[-0.043945,51.6246],[-0.043945,51.621664],[-0.0437,51.621427],[-0.041935,51.619722],[-0.042994,51.618017],[-0.043945,51.616484],[-0.046799,51.618017],[-0.047513,51.6184],[-0.048702,51.618017],[-0.049438,51.617779],[-0.049684,51.618016],[-0.054932,51.618016],[-0.059473,51.618016],[-0.059473,51.618017],[-0.060425,51.618017],[-0.060425,51.619722],[-0.063171,51.619722],[-0.063701,51.620574],[-0.065918,51.620574],[-0.06634,51.620574],[-0.066869,51.621427],[-0.066923,51.621514],[-0.067844,51.62181],[-0.068665,51.623132],[-0.069723,51.624837],[-0.070353,51.624837],[-0.070353,51.624837],[-0.071411,51.626543],[-0.071411,51.628248],[-0.071411,51.62978],[-0.071994,51.630719],[-0.071411,51.631657],[-0.071411,51.631657],[-0.071411,51.635067],[-0.071411,51.635067],[-0.073242,51.638016],[-0.072576,51.638476],[-0.071411,51.638476],[-0.071411,51.638476],[-0.065918,51.638476],[-0.065918,51.638476],[-0.06486,51.640181],[-0.061483,51.640181],[-0.060425,51.641885],[-0.060425,51.641885],[-0.054932,51.641885],[-0.054932,51.641885]]]}
}
