{
  "id": 101873531,
  "type": "Feature",
  "properties": {
    "edtf:cessation": "",
    "edtf:inception": "",
    "geom:area": 0,
    "geom:area_square_m": 0,
    "geom:bbox": "-3.423694,55.887661,-3.423694,55.887661",
    "geom:latitude": 55.887661,
    "geom:longitude": -3.423694,
    "gn:population": 1755,
    "iso:country": "GB",
    "lbl:bbox": "-3.443694,55.867661,-3.403694,55.907661",
    "lbl:latitude": 55.887661,
    "lbl:longitude": -3.423694,
    "lbl:max_zoom": 16,
    "lbl:min_zoom": 12,
    "mps:latitude": 55.887661,
    "mps:longitude": -3.423694,
    "mz:hierarchy_label": 1,
    "mz:is_current": 1,
    "mz:min_zoom": 11,
    "name:cat_x_preferred": [
      "Kirknewton"
    ],
    "name:ceb_x_preferred": [
      "Kirknewton"
    ],
    "name:cym_x_preferred": [
      "Kirknewton"
    ],
    "name:deu_x_preferred": [
      "Kirknewton"
    ],
    "name:eng_x_preferred": [
      "Kirknewton"
    ],
    "name:eus_x_preferred": [
      "Kirknewton"
    ],
    "name:fra_x_preferred": [
      "Kirknewton"
    ],
    "name:gle_x_preferred": [
      "Eaglais a' Bhaile Úir"
    ],
    "name:ita_x_preferred": [
      "Kirknewton"
    ],
    "name:jpn_x_preferred": [
      "カークニュートン"
    ],
    "name:nld_x_preferred": [
      "Kirknewton"
    ],
    "name:oci_x_preferred": [
      "Kirknewton"
    ],
    "name:spa_x_preferred": [
      "Kirknewton"
    ],
    "name:swe_x_preferred": [
      "Kirknewton"
    ],
    "name:zho_x_preferred": [
      "阿馬"
    ],
    "qs:a0": "United Kingdom",
    "qs:a1": "*West Lothian",
    "qs:a1_lc": "GB11RH0000",
    "qs:a1r": "0Scotland",
    "qs:a1r_lc": "GB11000000",
    "qs:adm0": "United Kingdom",
    "qs:id": 0,
    "qs:la_lc": "*",
    "qs:level": "locality",
    "qs:loc": "Kirknewton",
    "qs:loc_alt": "Kirknewton",
    "qs:pop": 0,
    "qs:source": "RCustom EuroGlobalMap + UMZ Urban Polygons + Geonames + GeoPlanet",
    "qs:type": "buffered point",
    "src:geom": "whosonfirst",
    "src:geom_alt": [
      "quattroshapes_pg",
      "quattroshapes"
    ],
    "src:geom_via": "quattroshapes",
    "src:lbl_centroid": "mapshaper",
    "src:population": "wikidata",
    "wd:wordcount": 21,
    "wof:belongsto": [
      1880773117,
      102191581,
      85633159,
      1880762081,
      404227471,
      136253055,
      1360699027
    ],
    "wof:breaches": [],
    "wof:concordances": {
      "gn:id": 2645241,
      "gp:id": 25423,
      "qs_pg:id": 245665,
      "wd:id": "Q3980"
    },
    "wof:country": "GB",
    "wof:created": 1765385072,
    "wof:geom_alt": [
      "quattroshapes_pg",
      "quattroshapes"
    ],
    "wof:geomhash": "5b6f341d389545d577f4c559105fe37d",
    "wof:hierarchy": [
      {
        "continent_id": 102191581,
        "country_id": 85633159,
        "county_id": 1360699027,
        "empire_id": 136253055,
        "locality_id": 101873531,
        "macrocounty_id": 1880762081,
        "macroregion_id": 404227471,
        "region_id": 1880773117
      }
    ],
    "wof:id": 101873531,
    "wof:lastmodified": 1765385072,
    "wof:name": "Kirknewton",
    "wof:parent_id": 1360699027,
    "wof:placetype": "locality",
    "wof:population": 1980,
    "wof:population_rank": 3,
    "wof:repo": "whosonfirst-data-admin-gb",
    "wof:superseded_by": [],
    "wof:supersedes": [],
    "wof:tags": []
  },
  "bbox": [
    -3.423694,
    55.887661,
    -3.423694,
    55.887661
  ],
  "geometry": {"type":"Point","coordinates":[-3.423694,55.887661]}
}
