{
  "id": 85684061,
  "type": "Feature",
  "properties": {
    "edtf:cessation": "",
    "edtf:deprecated": "2017-12-20",
    "edtf:inception": "",
    "geom:area": 0.0028470304480000506,
    "geom:area_square_m": 21908662.348718,
    "geom:bbox": "-0.215968,51.483833,-0.111038,51.539791",
    "geom:latitude": 51.513454318771764,
    "geom:longitude": -0.16043415790099308,
    "iso:country": "GB",
    "lbl:latitude": 51.518462,
    "lbl:longitude": -0.168357,
    "mps:latitude": 51.518462,
    "mps:longitude": -0.168357,
    "mz:hierarchy_label": 1,
    "mz:is_current": 0,
    "mz:is_funky": 1,
    "mz:max_zoom": 11,
    "mz:min_zoom": 11,
    "name:afr_x_preferred": [
      "City of Westminster"
    ],
    "name:ara_x_preferred": [
      "مدينة وستمنستر"
    ],
    "name:aze_x_preferred": [
      "Vestminster şəhəri"
    ],
    "name:bel_x_preferred": [
      "Вэстмінстэр"
    ],
    "name:ben_x_preferred": [
      "ওয়েস্টমিনস্টার শহর"
    ],
    "name:bul_x_preferred": [
      "Уестминстър"
    ],
    "name:cat_x_preferred": [
      "Ciutat de Westminster"
    ],
    "name:ceb_x_preferred": [
      "City of Westminster"
    ],
    "name:ces_x_preferred": [
      "Westminster"
    ],
    "name:cym_x_preferred": [
      "Dinas Westminster"
    ],
    "name:dan_x_preferred": [
      "City of Westminster"
    ],
    "name:deu_x_preferred": [
      "City of Westminster"
    ],
    "name:ell_x_preferred": [
      "Πόλη του Ουεστμίνστερ"
    ],
    "name:eng_x_preferred": [
      "City of Westminster"
    ],
    "name:est_x_preferred": [
      "Westminster"
    ],
    "name:eus_x_preferred": [
      "Westminster Hiria"
    ],
    "name:fas_x_preferred": [
      "شهر وست‌مینستر"
    ],
    "name:fin_x_preferred": [
      "City of Westminster"
    ],
    "name:fra_x_preferred": [
      "Cité de Westminster"
    ],
    "name:fra_x_variant": [
      "cité de Westminster"
    ],
    "name:gla_x_preferred": [
      "Cathair Westminster"
    ],
    "name:gle_x_preferred": [
      "Cathair Westminster"
    ],
    "name:glg_x_preferred": [
      "Westminster"
    ],
    "name:guj_x_preferred": [
      "પશ્ચિમમિન્સ્ટરનું શહેર"
    ],
    "name:hbs_x_preferred": [
      "City of Westminster"
    ],
    "name:heb_x_preferred": [
      "הסיטי של וסטמינסטר"
    ],
    "name:hin_x_preferred": [
      "सिटी ऑफ़ वेस्टमिंस्टर"
    ],
    "name:hun_x_preferred": [
      "City of Westminster"
    ],
    "name:hye_x_preferred": [
      "Վեստմինստեր"
    ],
    "name:ind_x_preferred": [
      "Kota Westminster"
    ],
    "name:isl_x_preferred": [
      "Westminsterborg"
    ],
    "name:ita_x_preferred": [
      "Città di Westminster"
    ],
    "name:jpn_x_preferred": [
      "シティ・オブ・ウェストミンスター"
    ],
    "name:kan_x_preferred": [
      "ಸಿಟಿ ಆಫ್ ವೆಸ್ಟ್ಮಿನಿಸ್ಟರ್"
    ],
    "name:kor_x_preferred": [
      "시티오브웨스트민스터"
    ],
    "name:lat_x_preferred": [
      "Vestmonasterium"
    ],
    "name:lav_x_preferred": [
      "Vestminstera"
    ],
    "name:lit_x_preferred": [
      "Vestminsterio miestas"
    ],
    "name:mar_x_preferred": [
      "सिटी ऑफ वेस्टमिन्स्टर"
    ],
    "name:mkd_x_preferred": [
      "Вестминстер"
    ],
    "name:msa_x_preferred": [
      "Bandar Westminster"
    ],
    "name:mzn_x_preferred": [
      "وستمینستر"
    ],
    "name:nld_x_preferred": [
      "City of Westminster"
    ],
    "name:nno_x_preferred": [
      "City of Westminster"
    ],
    "name:nob_x_preferred": [
      "City of Westminster"
    ],
    "name:nor_x_preferred": [
      "City of Westminster"
    ],
    "name:pnb_x_preferred": [
      "ویسٹمنسٹر"
    ],
    "name:pol_x_preferred": [
      "City of Westminster"
    ],
    "name:por_x_preferred": [
      "Cidade de Westminster"
    ],
    "name:ron_x_preferred": [
      "City of Westminster"
    ],
    "name:rus_x_preferred": [
      "Вестминстер"
    ],
    "name:sco_x_preferred": [
      "Ceety o Wastmeenster"
    ],
    "name:sin_x_preferred": [
      "වෙස්ට්මිනිස්ටර් නගරය"
    ],
    "name:slk_x_preferred": [
      "City of Westminster"
    ],
    "name:slv_x_preferred": [
      "City of Westminster"
    ],
    "name:spa_x_preferred": [
      "Ciudad de Westminster"
    ],
    "name:swe_x_preferred": [
      "City of Westminster"
    ],
    "name:tam_x_preferred": [
      "வெஸ்ட்மின்ஸ்டர் நகரம்"
    ],
    "name:tel_x_preferred": [
      "వెస్ట్మిన్స్టర్ నగరం"
    ],
    "name:tgl_x_preferred": [
      "Westminster"
    ],
    "name:tha_x_preferred": [
      "นครเวสต์มินสเตอร์"
    ],
    "name:tur_x_preferred": [
      "Westminster"
    ],
    "name:uig_x_preferred": [
      "Wéstminstér Shehiri"
    ],
    "name:ukr_x_preferred": [
      "Вестмінстер"
    ],
    "name:urd_x_preferred": [
      "ویسٹمنسٹر شہر"
    ],
    "name:vie_x_preferred": [
      "Thành phố Westminster"
    ],
    "name:vls_x_preferred": [
      "City of Westminster"
    ],
    "name:war_x_preferred": [
      "Westminster"
    ],
    "name:yid_x_preferred": [
      "סיטי פון וועסטמינסטער"
    ],
    "name:yue_x_preferred": [
      "西敏市"
    ],
    "name:zho_x_preferred": [
      "西敏市"
    ],
    "name:zho_yue_x_preferred": [
      "西敏市"
    ],
    "ne:abbrev": "Westmins",
    "ne:adm0_a3": "GBR",
    "ne:adm0_label": "7",
    "ne:adm0_sr": "1",
    "ne:adm1_cod_1": "GBR-2080",
    "ne:adm1_code": "GBR-2080",
    "ne:admin": "United Kingdom",
    "ne:area_sqkm": "0.00000000000",
    "ne:check_me": "20",
    "ne:code_hasc": "GB.WE",
    "ne:code_local": "",
    "ne:datarank": "5",
    "ne:diss_me": "2080",
    "ne:featurecla": "Admin-1 scale rank",
    "ne:fips": "UK17",
    "ne:fips_alt": "UKP5",
    "ne:gadm_level": "2",
    "ne:geonunit": "England",
    "ne:gn_a1_code": "GB.",
    "ne:gn_id": "-2648110",
    "ne:gn_level": "-2",
    "ne:gn_name": "Greater London",
    "ne:gn_region": "",
    "ne:gns_adm1": "",
    "ne:gns_id": "6077660",
    "ne:gns_lang": "ind",
    "ne:gns_level": "1",
    "ne:gns_name": "Westminster, City and London Borough of",
    "ne:gns_region": "UK35",
    "ne:gu_a3": "ENG",
    "ne:hasc_maybe": "",
    "ne:iso_3166_2": "GB-",
    "ne:iso_a2": "GB",
    "ne:labelrank": "9",
    "ne:latitude": "51.51150000000",
    "ne:longitude": "-0.16165100000",
    "ne:mapcolor13": 3,
    "ne:mapcolor9": 6,
    "ne:name": "Westminster",
    "ne:name_alt": "",
    "ne:name_len": 11,
    "ne:name_local": "",
    "ne:note": "",
    "ne:postal": "WE",
    "ne:provnum_ne": "3",
    "ne:region": "Greater London",
    "ne:region_cod": "",
    "ne:region_sub": "Greater London",
    "ne:sameascity": "-99",
    "ne:scalerank": "8",
    "ne:sov_a3": "GB1",
    "ne:sub_code": "",
    "ne:type": "London Borough (city)",
    "ne:type_en": "London Borough (city)",
    "ne:wikipedia": "",
    "ne:woe_id": 12695819,
    "ne:woe_label": "",
    "ne:woe_name": "City of Westminster",
    "qs:a0": "United Kingdom",
    "qs:a0_lc": "GB00000000",
    "qs:a1": "City of Westminster",
    "qs:a1_alt": "City of Westminster",
    "qs:a1_lc": "GB12BK0000",
    "qs:a1r": "England",
    "qs:a1r_alt": "England",
    "qs:a1r_lc": "GB12000000",
    "qs:adm0": "United Kingdom",
    "qs:adm0_a3": "GBR",
    "qs:level": "adm1",
    "qs:source": "EuroGlobalMap",
    "qs:type": "London Borough",
    "src:geom": "quattroshapes",
    "src:geom_alt": [],
    "src:lbl:centroid": "mapshaper",
    "src:population": "wikidata",
    "unlc:subdivision": "GB-WSM",
    "wd:wordcount": 3284,
    "wof:belongsto": [
      102191581,
      85633159,
      404227469
    ],
    "wof:breaches": [],
    "wof:concordances": {
      "fips:code": "UK17",
      "gn:id": -2648110,
      "gp:id": 12695819,
      "hasc:id": "GB.WE",
      "unlc:id": "GB-WSM",
      "wd:id": "Q179351"
    },
    "wof:country": "GB",
    "wof:created": 1765390941,
    "wof:geomhash": "804152233b35a6161115cc384b661921",
    "wof:hierarchy": [
      {
        "continent_id": 102191581,
        "country_id": 85633159,
        "macroregion_id": 404227469,
        "region_id": 85684061
      }
    ],
    "wof:id": 85684061,
    "wof:lastmodified": 1765390941,
    "wof:name": "City of Westminster",
    "wof:parent_id": 404227469,
    "wof:placetype": "region",
    "wof:population": 211365,
    "wof:population_rank": 10,
    "wof:repo": "whosonfirst-data-admin-gb",
    "wof:shortcode": "WE",
    "wof:subdivision": "GB-WSM",
    "wof:superseded_by": [
      1158857245
    ],
    "wof:supersedes": [
      1125343729
    ],
    "wof:tags": []
  },
  "bbox": [
    -0.215968,
    51.483833,
    -0.111038,
    51.539791
  ],
  "geometry": {"type":"Polygon","coordinates":[[[-0.111489,51.51522],[-0.111038,51.513824],[-0.111918,51.513683],[-0.111676,51.513195],[-0.11246,51.512722],[-0.111504,51.51173],[-0.111511,51.510753],[-0.111398,51.509742],[-0.115504,51.50914],[-0.117688,51.508377],[-0.120487,51.506008],[-0.123942,51.49118],[-0.127035,51.487644],[-0.129508,51.485897],[-0.132817,51.484699],[-0.138049,51.483833],[-0.145108,51.484581],[-0.149782,51.484558],[-0.149949,51.485515],[-0.150305,51.486229],[-0.155813,51.489605],[-0.155135,51.490047],[-0.15576,51.491447],[-0.154756,51.491962],[-0.155928,51.493198],[-0.154953,51.493854],[-0.155952,51.494491],[-0.155257,51.495064],[-0.155986,51.497509],[-0.157813,51.499016],[-0.158415,51.502247],[-0.160963,51.501587],[-0.165445,51.498695],[-0.165742,51.499241],[-0.167582,51.498298],[-0.168353,51.499019],[-0.17951,51.497776],[-0.180275,51.501461],[-0.184198,51.501793],[-0.187872,51.510177],[-0.192082,51.509865],[-0.192923,51.51181],[-0.194004,51.511757],[-0.195012,51.51503],[-0.199147,51.514549],[-0.200686,51.517975],[-0.201427,51.517799],[-0.203615,51.520584],[-0.200532,51.520649],[-0.201523,51.522743],[-0.203769,51.523494],[-0.20588,51.525814],[-0.212641,51.52689],[-0.215452,51.526737],[-0.215968,51.527927],[-0.215147,51.531387],[-0.207408,51.532863],[-0.202931,51.532902],[-0.201636,51.532631],[-0.198237,51.530445],[-0.197738,51.5279],[-0.196508,51.527652],[-0.192497,51.532627],[-0.192974,51.533989],[-0.191422,51.536289],[-0.188712,51.534523],[-0.183812,51.538376],[-0.178292,51.539791],[-0.17386,51.539474],[-0.17408,51.5382],[-0.173449,51.537632],[-0.17192,51.538383],[-0.170828,51.537792],[-0.169481,51.538597],[-0.164899,51.535778],[-0.160425,51.537281],[-0.159376,51.536361],[-0.15267,51.537517],[-0.147133,51.525039],[-0.145754,51.525268],[-0.145136,51.523994],[-0.144093,51.523994],[-0.144117,51.524639],[-0.143435,51.52462],[-0.143458,51.523948],[-0.136971,51.518883],[-0.135196,51.518932],[-0.132413,51.516716],[-0.130769,51.517101],[-0.128935,51.513431],[-0.127238,51.512626],[-0.122825,51.515106],[-0.122003,51.514591],[-0.11944,51.514469],[-0.114623,51.515983],[-0.113754,51.514759],[-0.111489,51.51522]]]}
}
