{
  "id": 1360791439,
  "type": "Feature",
  "properties": {
    "edtf:cessation": "",
    "edtf:inception": "",
    "geom:area": 0,
    "geom:area_square_m": 0,
    "geom:bbox": "-1.120430,50.841720,-1.120430,50.841720",
    "geom:latitude": 50.84172,
    "geom:longitude": -1.12043,
    "gn:country": "GB",
    "gn:fcode": "PPL",
    "gn:population": 0,
    "iso:country": "GB",
    "lbl:bbox": "-1.12543,50.83672,-1.11543,50.84672",
    "lbl:latitude": 50.84172,
    "lbl:longitude": -1.12043,
    "lbl:max_zoom": 18,
    "mz:hierarchy_label": 1,
    "mz:is_current": 1,
    "mz:min_zoom": 15,
    "mz:note": "Quattroshapes Point Gazetteer import 20170519",
    "name:ast_x_preferred": [
      "Portchester"
    ],
    "name:azb_x_preferred": [
      "پورتچستر"
    ],
    "name:cat_x_preferred": [
      "Portchester"
    ],
    "name:deu_x_preferred": [
      "Portchester"
    ],
    "name:ell_x_preferred": [
      "Πόρτσεστερ"
    ],
    "name:eng_x_preferred": [
      "Portchester"
    ],
    "name:fas_x_preferred": [
      "پورتچستر"
    ],
    "name:fra_x_preferred": [
      "Portchester"
    ],
    "name:gle_x_preferred": [
      "Portchester"
    ],
    "name:heb_x_preferred": [
      "פורטצ'סטר"
    ],
    "name:hye_x_preferred": [
      "Փորթչեստեր"
    ],
    "name:ita_x_preferred": [
      "Portchester"
    ],
    "name:jpn_x_preferred": [
      "ポートチェスター"
    ],
    "name:lat_x_preferred": [
      "Portchester"
    ],
    "name:nld_x_preferred": [
      "Portchester"
    ],
    "name:nrm_x_preferred": [
      "Portchêtre"
    ],
    "name:pol_x_preferred": [
      "Portchester"
    ],
    "name:rus_x_preferred": [
      "Портчестер"
    ],
    "name:sco_x_preferred": [
      "Portchester"
    ],
    "name:swe_x_preferred": [
      "Portchester"
    ],
    "name:und_x_variant": [
      "Porchester"
    ],
    "name:zho_x_preferred": [
      "波特切斯特"
    ],
    "qs_pg:aaroncc": "GB",
    "qs_pg:gn_country": "GB",
    "qs_pg:gn_fcode": "PPL",
    "qs_pg:gn_id": 2640071,
    "qs_pg:gn_pop": 0,
    "qs_pg:name": "Portchester",
    "qs_pg:name_adm0": "United Kingdom",
    "qs_pg:name_adm1": "England",
    "qs_pg:photos": 1075,
    "qs_pg:photos_1k": 218,
    "qs_pg:photos_9k": 5,
    "qs_pg:photos_9r": 7,
    "qs_pg:photos_all": 1075,
    "qs_pg:photos_sr": 11,
    "qs_pg:pop_sr": 0,
    "qs_pg:qs_id": 439330,
    "qs_pg:qs_pg_placetype": "locality",
    "qs_pg:qs_pg_placetype_gp": "Town",
    "qs_pg:woe_adm0": 23424975,
    "qs_pg:woe_id": 32389,
    "src:geom": "qs_pg",
    "src:lbl_centroid": "qs_pg",
    "src:population": "wikidata",
    "woe:adm0_id": 23424975,
    "woe:name_adm0": "United Kingdom",
    "woe:name_adm1": "England",
    "woe:placetype": "Town",
    "wof:belongsto": [
      1880762717,
      102191581,
      85633159,
      1880762155,
      404227469,
      101750353,
      136253055,
      1880771475
    ],
    "wof:breaches": [],
    "wof:concordances": {
      "gn:id": 2640071,
      "gp:id": 32389,
      "qs_pg:id": 439330,
      "wd:id": "Q1238552"
    },
    "wof:country": "GB",
    "wof:created": 1497290097,
    "wof:geomhash": "f6b8fe4b2ea6955ddcddd793b6068508",
    "wof:hierarchy": [
      {
        "continent_id": 102191581,
        "country_id": 85633159,
        "county_id": 1880771475,
        "empire_id": 136253055,
        "locality_id": 101750353,
        "macrocounty_id": 1880762155,
        "macroregion_id": 404227469,
        "neighbourhood_id": 1360791439,
        "region_id": 1880762717
      }
    ],
    "wof:id": 1360791439,
    "wof:lastmodified": 1765389477,
    "wof:name": "Portchester",
    "wof:parent_id": 101750353,
    "wof:placetype": "neighbourhood",
    "wof:population": 17789,
    "wof:population_rank": 6,
    "wof:repo": "whosonfirst-data-admin-gb",
    "wof:superseded_by": [],
    "wof:supersedes": [
      1125771937
    ],
    "wof:tags": []
  },
  "bbox": [
    -1.12043,
    50.84172,
    -1.12043,
    50.84172
  ],
  "geometry": {"type":"Point","coordinates":[-1.12043,50.84172]}
}
