{
  "id": 1125953205,
  "type": "Feature",
  "properties": {
    "edtf:cessation": "",
    "edtf:inception": "",
    "geom:area": 0,
    "geom:area_square_m": 0,
    "geom:bbox": "-5.074740,56.230520,-5.074740,56.230520",
    "geom:latitude": 56.23052,
    "geom:longitude": -5.07474,
    "gn:country": "GB",
    "gn:fcode": "PPL",
    "gn:population": 568,
    "iso:country": "GB",
    "lbl:bbox": "-5.09474,56.21052,-5.05474,56.25052",
    "lbl:latitude": 56.23052,
    "lbl:longitude": -5.07474,
    "lbl:max_zoom": 17,
    "lbl:min_zoom": 12.5,
    "mz:hierarchy_label": 1,
    "mz:is_current": 1,
    "mz:min_zoom": 11,
    "mz:note": "Quattroshapes Point Gazetteer import 20170519",
    "name:ast_x_preferred": [
      "Inveraray"
    ],
    "name:bre_x_preferred": [
      "Inbhir Aora"
    ],
    "name:bul_x_preferred": [
      "Инверарай"
    ],
    "name:cat_x_preferred": [
      "Inveraray"
    ],
    "name:ceb_x_preferred": [
      "Inveraray"
    ],
    "name:ces_x_preferred": [
      "Inveraray"
    ],
    "name:cym_x_preferred": [
      "Inveraray"
    ],
    "name:deu_x_preferred": [
      "Inveraray"
    ],
    "name:eng_x_preferred": [
      "Inveraray"
    ],
    "name:eus_x_preferred": [
      "Inveraray"
    ],
    "name:fas_x_preferred": [
      "اینوراری"
    ],
    "name:fra_x_preferred": [
      "Inveraray"
    ],
    "name:gla_x_preferred": [
      "Inbhir Aora"
    ],
    "name:gle_x_preferred": [
      "Inbhir Aora"
    ],
    "name:glg_x_preferred": [
      "Inveraray"
    ],
    "name:heb_x_preferred": [
      "אינוורארי"
    ],
    "name:ita_x_preferred": [
      "Inveraray"
    ],
    "name:jpn_x_preferred": [
      "インバレライ"
    ],
    "name:nld_x_preferred": [
      "Inveraray"
    ],
    "name:nno_x_preferred": [
      "Inveraray"
    ],
    "name:nob_x_preferred": [
      "Inveraray"
    ],
    "name:pol_x_preferred": [
      "Inveraray"
    ],
    "name:rus_x_preferred": [
      "Инверерей"
    ],
    "name:sco_x_preferred": [
      "Inverara"
    ],
    "name:sco_x_variant": [
      "Inverera"
    ],
    "name:spa_x_preferred": [
      "Inveraray"
    ],
    "name:swe_x_preferred": [
      "Inveraray"
    ],
    "name:zho_x_preferred": [
      "因弗拉裡"
    ],
    "qs_pg:aaroncc": "GB",
    "qs_pg:gn_country": "GB",
    "qs_pg:gn_fcode": "PPL",
    "qs_pg:gn_id": 2646140,
    "qs_pg:gn_pop": 568,
    "qs_pg:name": "Inveraray",
    "qs_pg:name_adm0": "United Kingdom",
    "qs_pg:name_adm1": "Scotland",
    "qs_pg:photos": 4996,
    "qs_pg:photos_1k": 1000,
    "qs_pg:photos_9k": 22,
    "qs_pg:photos_9r": 14,
    "qs_pg:photos_all": 4996,
    "qs_pg:photos_sr": 24,
    "qs_pg:pop_sr": 2,
    "qs_pg:qs_id": 1289041,
    "qs_pg:qs_pg_placetype": "locality",
    "qs_pg:qs_pg_placetype_gp": "Town",
    "qs_pg:woe_adm0": 23424975,
    "qs_pg:woe_id": 24456,
    "src:geom": "qs_pg",
    "src:lbl_centroid": "qs_pg",
    "src:population": "wikidata",
    "woe:adm0_id": 23424975,
    "woe:name_adm0": "United Kingdom",
    "woe:name_adm1": "Scotland",
    "woe:placetype": "Town",
    "wof:belongsto": [
      1880772977,
      102191581,
      85633159,
      1880762047,
      404227471,
      136253055,
      1360698863
    ],
    "wof:breaches": [],
    "wof:concordances": {
      "gn:id": 2646140,
      "gp:id": 24456,
      "qs_pg:id": 1289041,
      "wd:id": "Q219530"
    },
    "wof:country": "GB",
    "wof:created": 1497297532,
    "wof:geomhash": "d49c54a20acfd5ef9cf40e799fbe7147",
    "wof:hierarchy": [
      {
        "continent_id": 102191581,
        "country_id": 85633159,
        "county_id": 1360698863,
        "empire_id": 136253055,
        "locality_id": 1125953205,
        "macrocounty_id": 1880762047,
        "macroregion_id": 404227471,
        "region_id": 1880772977
      }
    ],
    "wof:id": 1125953205,
    "wof:lastmodified": 1765386923,
    "wof:name": "Inveraray",
    "wof:parent_id": 1360698863,
    "wof:placetype": "locality",
    "wof:population": 560,
    "wof:population_rank": 2,
    "wof:repo": "whosonfirst-data-admin-gb",
    "wof:superseded_by": [],
    "wof:supersedes": [],
    "wof:tags": []
  },
  "bbox": [
    -5.07474,
    56.23052,
    -5.07474,
    56.23052
  ],
  "geometry": {"type":"Point","coordinates":[-5.07474,56.23052]}
}
