{
  "id": 101750639,
  "type": "Feature",
  "properties": {
    "edtf:cessation": "",
    "edtf:inception": "",
    "geom:area": 0.005761501006000049,
    "geom:area_square_m": 38641401.253666,
    "geom:bbox": "-2.199752,57.108402,-2.064559,57.218129",
    "geom:latitude": 57.153068517648634,
    "geom:longitude": -2.1355121549904226,
    "gn:population": 183790,
    "iso:country": "GB",
    "lbl:latitude": 57.146262,
    "lbl:longitude": -2.136575,
    "lbl:max_zoom": 14,
    "lbl:min_zoom": 9,
    "mps:latitude": 57.146262,
    "mps:longitude": -2.136575,
    "mz:hierarchy_label": 1,
    "mz:is_current": 1,
    "mz:min_zoom": 6.1,
    "name:afr_x_preferred": [
      "Aberdeen"
    ],
    "name:ara_x_preferred": [
      "أبردين"
    ],
    "name:arz_x_preferred": [
      "ابردين"
    ],
    "name:ast_x_preferred": [
      "Aberdeen"
    ],
    "name:azb_x_preferred": [
      "ابردین"
    ],
    "name:aze_x_preferred": [
      "Aberdin"
    ],
    "name:bak_x_preferred": [
      "Абердин"
    ],
    "name:bel_x_preferred": [
      "Абердзін"
    ],
    "name:ben_x_preferred": [
      "অ্যাবরদিন"
    ],
    "name:bos_x_preferred": [
      "Aberdeen"
    ],
    "name:bre_x_preferred": [
      "Obar Dheathain"
    ],
    "name:bre_x_variant": [
      "Obair Dheathain"
    ],
    "name:bul_x_preferred": [
      "Абърдийн"
    ],
    "name:cat_x_preferred": [
      "Aberdeen"
    ],
    "name:ceb_x_preferred": [
      "Aberdeen"
    ],
    "name:ces_x_preferred": [
      "Aberdeen"
    ],
    "name:cos_x_preferred": [
      "Aberdeen"
    ],
    "name:cym_x_preferred": [
      "Aberdeen"
    ],
    "name:dan_x_preferred": [
      "Aberdeen"
    ],
    "name:deu_x_preferred": [
      "Aberdeen"
    ],
    "name:diq_x_preferred": [
      "Aberdeen"
    ],
    "name:ell_x_preferred": [
      "Αμπερντήν"
    ],
    "name:ell_x_variant": [
      "Αμπερντίν"
    ],
    "name:eng_x_preferred": [
      "Aberdeen"
    ],
    "name:epo_x_preferred": [
      "Aberdeen"
    ],
    "name:est_x_preferred": [
      "Aberdeen"
    ],
    "name:eus_x_preferred": [
      "Aberdeen"
    ],
    "name:fao_x_preferred": [
      "Aberdeen"
    ],
    "name:fas_x_preferred": [
      "ابردین"
    ],
    "name:fin_x_preferred": [
      "Aberdeen"
    ],
    "name:fra_x_preferred": [
      "Aberdeen"
    ],
    "name:frr_x_preferred": [
      "Aberdeen"
    ],
    "name:fry_x_preferred": [
      "Aberdeen"
    ],
    "name:gla_x_preferred": [
      "Obar Dheathain"
    ],
    "name:gle_x_preferred": [
      "Obar Dheathain"
    ],
    "name:glg_x_preferred": [
      "Aberdeen"
    ],
    "name:glv_x_preferred": [
      "Aberdon"
    ],
    "name:guj_x_preferred": [
      "એબરડીન"
    ],
    "name:hak_x_preferred": [
      "Â-pak-tên"
    ],
    "name:heb_x_preferred": [
      "אברדין"
    ],
    "name:hin_x_preferred": [
      "एबरडीन"
    ],
    "name:hrv_x_preferred": [
      "Aberdeen"
    ],
    "name:hun_x_preferred": [
      "Aberdeen"
    ],
    "name:hye_x_preferred": [
      "Աբերդին"
    ],
    "name:ile_x_preferred": [
      "Aberdeen"
    ],
    "name:ind_x_preferred": [
      "Aberdeen"
    ],
    "name:isl_x_preferred": [
      "Aberdeen"
    ],
    "name:ita_x_preferred": [
      "Aberdeen"
    ],
    "name:jpn_x_preferred": [
      "アバディーン"
    ],
    "name:kan_x_preferred": [
      "ಅಬರ್ದೀನ್"
    ],
    "name:kat_x_preferred": [
      "აბერდინი"
    ],
    "name:kaz_x_preferred": [
      "Абердин"
    ],
    "name:kor_x_preferred": [
      "애버딘"
    ],
    "name:kur_x_preferred": [
      "Aberdeen"
    ],
    "name:lat_x_preferred": [
      "Devanha"
    ],
    "name:lat_x_variant": [
      "Aberdonia"
    ],
    "name:lav_x_preferred": [
      "Aberdīna"
    ],
    "name:lit_x_preferred": [
      "Aberdynas"
    ],
    "name:lmo_x_preferred": [
      "Aberdeen"
    ],
    "name:mal_x_preferred": [
      "അബർഡീൻ"
    ],
    "name:mar_x_preferred": [
      "अ‍ॅबर्डीन"
    ],
    "name:mdf_x_preferred": [
      "Абэрдин"
    ],
    "name:mkd_x_preferred": [
      "Абердин"
    ],
    "name:mlt_x_preferred": [
      "Aberdeen"
    ],
    "name:mni_x_preferred": [
      "ꯑꯦꯕꯔꯗꯤꯟ"
    ],
    "name:mon_x_preferred": [
      "Абердин"
    ],
    "name:msa_x_preferred": [
      "Aberdeen"
    ],
    "name:mya_x_preferred": [
      "အဘာဒင်းမြို့"
    ],
    "name:myv_x_preferred": [
      "Абердин"
    ],
    "name:nan_x_preferred": [
      "Aberdeen"
    ],
    "name:nds_x_preferred": [
      "Aberdeen"
    ],
    "name:nld_x_preferred": [
      "Aberdeen"
    ],
    "name:nno_x_preferred": [
      "Aberdeen"
    ],
    "name:nob_x_preferred": [
      "Aberdeen"
    ],
    "name:nor_x_preferred": [
      "Aberdeen"
    ],
    "name:oci_x_preferred": [
      "Aberdeen"
    ],
    "name:oss_x_preferred": [
      "Абердин"
    ],
    "name:pms_x_preferred": [
      "Aberdeen"
    ],
    "name:pnb_x_preferred": [
      "ابردین"
    ],
    "name:pol_x_preferred": [
      "Aberdeen"
    ],
    "name:por_x_preferred": [
      "Aberdeen"
    ],
    "name:que_x_preferred": [
      "Aberdeen"
    ],
    "name:ron_x_preferred": [
      "Aberdeen"
    ],
    "name:rup_x_preferred": [
      "Aberdeen"
    ],
    "name:rus_x_preferred": [
      "Абердин"
    ],
    "name:sco_x_preferred": [
      "Aiberdeen"
    ],
    "name:sgs_x_preferred": [
      "Aberdīns"
    ],
    "name:sin_x_preferred": [
      "ඇබර්ඩීන්"
    ],
    "name:slk_x_preferred": [
      "Aberdeen"
    ],
    "name:slv_x_preferred": [
      "Aberdeen"
    ],
    "name:snd_x_preferred": [
      "ايبرڊين"
    ],
    "name:spa_x_preferred": [
      "Aberdeen"
    ],
    "name:sqi_x_preferred": [
      "Aberdeen"
    ],
    "name:srp_x_preferred": [
      "Абердин"
    ],
    "name:swa_x_preferred": [
      "Aberdeen"
    ],
    "name:swe_x_preferred": [
      "Aberdeen"
    ],
    "name:szl_x_preferred": [
      "Aberdeen"
    ],
    "name:tam_x_preferred": [
      "அபெர்டின்"
    ],
    "name:tat_x_preferred": [
      "Әбердин"
    ],
    "name:tel_x_preferred": [
      "అబెర్డీన్"
    ],
    "name:tgk_x_preferred": [
      "Абердин"
    ],
    "name:tgl_x_preferred": [
      "Aberdeen"
    ],
    "name:tha_x_preferred": [
      "แอเบอร์ดีน"
    ],
    "name:tur_x_preferred": [
      "Aberdeen"
    ],
    "name:ukr_x_preferred": [
      "Абердин"
    ],
    "name:urd_x_preferred": [
      "ابرڈین"
    ],
    "name:uzb_x_preferred": [
      "Aberdin"
    ],
    "name:vec_x_preferred": [
      "Aberdeen"
    ],
    "name:vie_x_preferred": [
      "Aberdeen"
    ],
    "name:vol_x_preferred": [
      "Aberdeen"
    ],
    "name:war_x_preferred": [
      "Aberdeen"
    ],
    "name:wuu_x_preferred": [
      "阿伯丁"
    ],
    "name:yid_x_preferred": [
      "אבערדין"
    ],
    "name:yid_x_variant": [
      "אַבערדין"
    ],
    "name:yor_x_preferred": [
      "Aberdeen"
    ],
    "name:yue_x_preferred": [
      "鴨巴甸"
    ],
    "name:zho_x_preferred": [
      "阿伯丁"
    ],
    "ne:ADM0CAP": 0,
    "ne:ADM0NAME": "United Kingdom",
    "ne:ADM0_A3": "GBR",
    "ne:ADM1NAME": "Aberdeen",
    "ne:ADMIN1_COD": 0,
    "ne:CAPALT": 0,
    "ne:CAPIN": null,
    "ne:CHANGED": 0,
    "ne:CHECKME": 0,
    "ne:CITYALT": null,
    "ne:COMPARE": 0,
    "ne:DIFFASCII": 0,
    "ne:DIFFNOTE": null,
    "ne:ELEVATION": 0,
    "ne:FEATURECLA": "Populated place",
    "ne:FEATURE_CL": "P",
    "ne:FEATURE_CO": "PPL",
    "ne:GEONAMEID": 2657832,
    "ne:GEONAMESNO": "GeoNames match with ascii name + lat + long whole numbers.",
    "ne:GN_ASCII": "Aberdeen",
    "ne:GN_POP": 183790,
    "ne:GTOPO30": 36,
    "ne:ISO_A2": "GB",
    "ne:LABELRANK": 5,
    "ne:LATITUDE": 57.170398,
    "ne:LONGITUDE": -2.079987,
    "ne:LS_MATCH": 1,
    "ne:LS_NAME": "Aberdeen3",
    "ne:MAX_AREAKM": 76,
    "ne:MAX_AREAMI": 29,
    "ne:MAX_BBXMAX": -2.058333,
    "ne:MAX_BBXMIN": -2.225,
    "ne:MAX_BBYMAX": 57.216667,
    "ne:MAX_BBYMIN": 57.091667,
    "ne:MAX_NATSCA": 20,
    "ne:MAX_PERKM": 85,
    "ne:MAX_PERMI": 53,
    "ne:MAX_POP10": 189364,
    "ne:MAX_POP20": 189364,
    "ne:MAX_POP300": 0,
    "ne:MAX_POP310": 0,
    "ne:MAX_POP50": 0,
    "ne:MEAN_BBXC": -2.135199,
    "ne:MEAN_BBYC": 57.154678,
    "ne:MEGACITY": 0,
    "ne:MEGANAME": null,
    "ne:MIN_AREAKM": 76,
    "ne:MIN_AREAMI": 29,
    "ne:MIN_BBXMAX": -2.058333,
    "ne:MIN_BBXMIN": -2.225,
    "ne:MIN_BBYMAX": 57.216667,
    "ne:MIN_BBYMIN": 57.091667,
    "ne:MIN_PERKM": 85,
    "ne:MIN_PERMI": 53,
    "ne:NAME": "Aberdeen",
    "ne:NAMEALT": null,
    "ne:NAMEASCII": "Aberdeen",
    "ne:NAMEDIFF": 0,
    "ne:NAMEPAR": null,
    "ne:NATSCALE": 20,
    "ne:NOTE": null,
    "ne:POP1950": 0,
    "ne:POP1955": 0,
    "ne:POP1960": 0,
    "ne:POP1965": 0,
    "ne:POP1970": 0,
    "ne:POP1975": 0,
    "ne:POP1980": 0,
    "ne:POP1985": 0,
    "ne:POP1990": 0,
    "ne:POP1995": 0,
    "ne:POP2000": 0,
    "ne:POP2005": 0,
    "ne:POP2010": 0,
    "ne:POP2015": 0,
    "ne:POP2020": 0,
    "ne:POP2025": 0,
    "ne:POP2050": 0,
    "ne:POP_MAX": 189364,
    "ne:POP_MIN": 183790,
    "ne:POP_OTHER": 26041,
    "ne:RANK_MAX": 9,
    "ne:RANK_MIN": 9,
    "ne:SCALERANK": 7,
    "ne:SOV0NAME": "United Kingdom",
    "ne:SOV_A3": "GBR",
    "ne:TIMEZONE": "Europe/London",
    "ne:UN_ADM0": null,
    "ne:UN_FID": 0,
    "ne:UN_LAT": 0,
    "ne:UN_LONG": 0,
    "ne:WORLDCITY": 0,
    "qs:a0": "United Kingdom",
    "qs:a1": "*Aberdeen City",
    "qs:a1_lc": "GB11QA0000",
    "qs:a1r": "0Scotland",
    "qs:a1r_lc": "GB11000000",
    "qs:adm0": "United Kingdom",
    "qs:id": 0,
    "qs:la_lc": "*",
    "qs:level": "locality",
    "qs:loc": "Aberdeen",
    "qs:loc_alt": "Aberdeen",
    "qs:pop": 0,
    "qs:source": "RCustom EuroGlobalMap + UMZ Urban Polygons + Geonames + GeoPlanet",
    "qs:type": "urban core",
    "src:geom": "quattroshapes",
    "src:geom_alt": [
      "quattroshapes_pg"
    ],
    "src:lbl_centroid": "mapshaper",
    "src:population": "wikidata",
    "wd:latitude": 57.15,
    "wd:longitude": -2.1,
    "wd:population": 196670,
    "wd:wordcount": 11480,
    "wof:belongsto": [
      1880773079,
      102191581,
      85633159,
      1880762093,
      404227471,
      136253055,
      1360698989
    ],
    "wof:breaches": [],
    "wof:concordances": {
      "gn:id": 2657832,
      "gp:id": 10243,
      "qs_pg:id": 238262,
      "wd:id": "Q36405",
      "wk:page": "Aberdeen"
    },
    "wof:concordances_alt": {
      "qs_pg:id": 352040
    },
    "wof:country": "GB",
    "wof:created": 1765384719,
    "wof:geom_alt": [
      "quattroshapes_pg"
    ],
    "wof:geomhash": "223d69d9e366d49961ccb3be545647f0",
    "wof:hierarchy": [
      {
        "continent_id": 102191581,
        "country_id": 85633159,
        "county_id": 1360698989,
        "empire_id": 136253055,
        "locality_id": 101750639,
        "macrocounty_id": 1880762093,
        "macroregion_id": 404227471,
        "region_id": 1880773079
      }
    ],
    "wof:id": 101750639,
    "wof:lastmodified": 1765384719,
    "wof:name": "Aberdeen",
    "wof:parent_id": 1360698989,
    "wof:placetype": "locality",
    "wof:population": 200680,
    "wof:population_rank": 10,
    "wof:repo": "whosonfirst-data-admin-gb",
    "wof:superseded_by": [],
    "wof:supersedes": [],
    "wof:tags": []
  },
  "bbox": [
    -2.199752,
    57.108402,
    -2.064559,
    57.218129
  ],
  "geometry": {"type":"Polygon","coordinates":[[[-2.165737,57.176062],[-2.148066,57.173996],[-2.131103,57.172012],[-2.130271,57.173076],[-2.128304,57.175594],[-2.115079,57.177674],[-2.10414,57.169792],[-2.096747,57.169377],[-2.089917,57.168994],[-2.088725,57.154892],[-2.079799,57.154897],[-2.077144,57.149958],[-2.069341,57.143504],[-2.068582,57.142897],[-2.071673,57.141517],[-2.082711,57.145039],[-2.092136,57.144949],[-2.090944,57.14476],[-2.08909,57.144469],[-2.089085,57.144468],[-2.079452,57.142951],[-2.090348,57.142583],[-2.07828,57.140076],[-2.09348,57.139347],[-2.094891,57.136192],[-2.097258,57.1309],[-2.098617,57.130629],[-2.115748,57.127201],[-2.1197,57.123328],[-2.097086,57.128384],[-2.092293,57.127131],[-2.092162,57.128711],[-2.091911,57.131733],[-2.09133,57.13872],[-2.073156,57.139271],[-2.064559,57.136491],[-2.079086,57.130464],[-2.078646,57.129228],[-2.077424,57.125793],[-2.089205,57.119198],[-2.092391,57.117415],[-2.111306,57.112475],[-2.113642,57.108402],[-2.114506,57.108555],[-2.117838,57.109143],[-2.117696,57.11633],[-2.122218,57.118358],[-2.124693,57.119468],[-2.127288,57.120632],[-2.14842,57.118902],[-2.155136,57.123381],[-2.159848,57.126524],[-2.166338,57.137385],[-2.163061,57.141484],[-2.162887,57.141702],[-2.16434,57.141597],[-2.179406,57.140511],[-2.180892,57.143056],[-2.185056,57.150187],[-2.189574,57.157924],[-2.171224,57.157771],[-2.171404,57.161004],[-2.175928,57.160992],[-2.175942,57.16969],[-2.160315,57.172121],[-2.178088,57.175817],[-2.191601,57.169455],[-2.194772,57.17184],[-2.194337,57.183429],[-2.198482,57.185129],[-2.198226,57.18513],[-2.183427,57.185152],[-2.199076,57.203364],[-2.195557,57.206742],[-2.195299,57.206989],[-2.199752,57.218129],[-2.185563,57.215242],[-2.186607,57.212628],[-2.185539,57.212142],[-2.174091,57.206932],[-2.171683,57.199089],[-2.181009,57.198001],[-2.175342,57.192254],[-2.177942,57.187161],[-2.17885,57.18538],[-2.176202,57.184557],[-2.173815,57.183815],[-2.159106,57.179352],[-2.164442,57.177172],[-2.166659,57.176267],[-2.166843,57.176192],[-2.165737,57.176062]]]}
}
