{
  "id": 85786631,
  "type": "Feature",
  "properties": {
    "edtf:cessation": "",
    "edtf:inception": "",
    "geom:area": 0.0008713152810000068,
    "geom:area_square_m": 6418323.130207,
    "geom:bbox": "-2.296143,53.417717,-2.252197,53.452078",
    "geom:latitude": 53.43538175535893,
    "geom:longitude": -2.277020031845936,
    "gn:latitude": 53.43505,
    "gn:longitude": -2.2631,
    "gn:population": 4741,
    "iso:country": "GB",
    "lbl:latitude": 53.441679,
    "lbl:longitude": -2.279699,
    "lbl:max_zoom": 18,
    "mps:latitude": 53.436078,
    "mps:longitude": -2.279187,
    "mz:hierarchy_label": 1,
    "mz:is_current": -1,
    "mz:is_funky": 0,
    "mz:is_hard_boundary": 0,
    "mz:is_landuse_aoi": 0,
    "mz:is_official": 0,
    "mz:max_zoom": 18,
    "mz:min_zoom": 13,
    "mz:tier_locality": 4,
    "mz:tier_metro": 1,
    "name:ara_x_preferred": [
      "تشورلتون كمهاردي"
    ],
    "name:cat_x_preferred": [
      "Chorlton-cum-Hardy"
    ],
    "name:ceb_x_preferred": [
      "Chorlton cum Hardy"
    ],
    "name:cym_x_preferred": [
      "Chorlton-cum-Hardy"
    ],
    "name:deu_x_preferred": [
      "Chorlton-cum-Hardy"
    ],
    "name:eng_x_preferred": [
      "Chorlton Cum Hardy"
    ],
    "name:eng_x_variant": [
      "Chorlton-cum-Hardy",
      "Chorlton cum Hardy",
      "Chorlton"
    ],
    "name:fas_x_preferred": [
      "چورلتون کام هاردی"
    ],
    "name:fra_x_preferred": [
      "Chorlton-cum-Hardy"
    ],
    "name:gle_x_preferred": [
      "Chorlton-cum-Hardy"
    ],
    "name:heb_x_preferred": [
      "צ'ורלטון-קם-הארדי"
    ],
    "name:ita_x_preferred": [
      "Chorlton-cum-Hardy"
    ],
    "name:nld_x_preferred": [
      "Chorlton-cum-Hardy"
    ],
    "name:nob_x_preferred": [
      "Chorlton-cum-Hardy"
    ],
    "name:pol_x_preferred": [
      "Chorlton-cum-Hardy"
    ],
    "name:pol_x_variant": [
      "Chipstead"
    ],
    "name:por_x_preferred": [
      "Chorlton-cum-Hardy"
    ],
    "name:rus_x_preferred": [
      "Чорлтон-кам-Харди"
    ],
    "name:spa_x_preferred": [
      "Chorlton-cum-Hardy"
    ],
    "name:swe_x_preferred": [
      "Chorlton cum Hardy"
    ],
    "name:swe_x_variant": [
      "Chorlton-cum-Hardy"
    ],
    "name:zho_x_preferred": [
      "乔尔顿旁哈迪"
    ],
    "qs:gn_adm0_cc": "GB",
    "qs:gn_fcode": "PPLX",
    "qs:gn_local": 2643123,
    "qs:gn_namadm1": "ENG",
    "qs:gn_name": "Chorlton cum Hardy",
    "qs:local_max": 9270,
    "qs:local_sum": 123713,
    "qs:localhoods": 57,
    "qs:name": "Chorlton Cum Hardy",
    "qs:name_adm0": "United Kingdom",
    "qs:name_adm1": "England",
    "qs:name_adm2": "Greater Manchester",
    "qs:name_lau": "Manchester City",
    "qs:name_local": "Manchester",
    "qs:photo_max": 362,
    "qs:photo_sum": 4666,
    "qs:placetype": "Suburb",
    "qs:quad_count": 123,
    "qs:woe_adm0": 23424975,
    "qs:woe_adm1": 24554868,
    "qs:woe_adm2": 12602158,
    "qs:woe_lau": 12695841,
    "qs:woe_local": 28218,
    "qs:woe_ver": "7.10.0",
    "src:geom": "quattroshapes",
    "src:geom_alt": [
      "quattroshapes_pg"
    ],
    "src:lbl_centroid": "mz",
    "src:population": "wikidata",
    "wd:wordcount": 5911,
    "wof:belongsto": [
      1880773095,
      102191581,
      85633159,
      1880762163,
      404227469,
      101750525,
      136253055,
      1360698893
    ],
    "wof:breaches": [],
    "wof:concordances": {
      "gn:id": 6691248,
      "gp:id": 16012,
      "qs_pg:id": 1074114,
      "wd:id": "Q1024118",
      "wk:page": "Chorlton-cum-Hardy"
    },
    "wof:country": "GB",
    "wof:created": 1765390998,
    "wof:geom_alt": [
      "quattroshapes_pg"
    ],
    "wof:geomhash": "00eb455a820e55624fd663c7b50a8f19",
    "wof:hierarchy": [
      {
        "continent_id": 102191581,
        "country_id": 85633159,
        "county_id": 1360698893,
        "empire_id": 136253055,
        "locality_id": 101750525,
        "macrocounty_id": 1880762163,
        "macroregion_id": 404227469,
        "neighbourhood_id": 85786631,
        "region_id": 1880773095
      }
    ],
    "wof:id": 85786631,
    "wof:lang": [
      "eng"
    ],
    "wof:lastmodified": 1765390998,
    "wof:name": "Chorlton Cum Hardy",
    "wof:parent_id": 101750525,
    "wof:placetype": "neighbourhood",
    "wof:population": 14138,
    "wof:population_rank": 6,
    "wof:repo": "whosonfirst-data-admin-gb",
    "wof:superseded_by": [],
    "wof:supersedes": [],
    "wof:tags": []
  },
  "bbox": [
    -2.296143,
    53.417717,
    -2.252197,
    53.452078
  ],
  "geometry": {"type":"Polygon","coordinates":[[[-2.279663,53.448807],[-2.276917,53.448807],[-2.27417,53.448807],[-2.268677,53.448807],[-2.268677,53.447245],[-2.268677,53.447097],[-2.267747,53.445535],[-2.267724,53.445498],[-2.26593,53.444896],[-2.26412,53.445504],[-2.263184,53.444717],[-2.262652,53.444271],[-2.262253,53.442264],[-2.25769,53.442264],[-2.25769,53.442263],[-2.25769,53.440553],[-2.25676,53.438991],[-2.252197,53.438991],[-2.252197,53.43743],[-2.252197,53.436002],[-2.252197,53.435719],[-2.252478,53.435719],[-2.252478,53.435719],[-2.25676,53.435719],[-2.25769,53.434158],[-2.25769,53.432729],[-2.25769,53.432447],[-2.258532,53.432447],[-2.259695,53.432056],[-2.260437,53.43081],[-2.263184,53.43081],[-2.263184,53.429174],[-2.264114,53.429174],[-2.264114,53.429174],[-2.268677,53.429174],[-2.268677,53.427462],[-2.267746,53.425901],[-2.268071,53.424264],[-2.267746,53.422627],[-2.268677,53.421066],[-2.268677,53.419354],[-2.268677,53.419354],[-2.269652,53.417717],[-2.273194,53.417717],[-2.27417,53.419354],[-2.279663,53.419354],[-2.279663,53.419354],[-2.280428,53.420638],[-2.280919,53.420991],[-2.284181,53.420991],[-2.285156,53.422627],[-2.285156,53.422628],[-2.286132,53.424264],[-2.289674,53.424264],[-2.290649,53.425901],[-2.290649,53.425901],[-2.290649,53.427612],[-2.293396,53.429149],[-2.293396,53.429174],[-2.293396,53.43081],[-2.296143,53.43081],[-2.296143,53.432447],[-2.296143,53.434083],[-2.296143,53.435719],[-2.296143,53.438991],[-2.296143,53.440553],[-2.296143,53.440702],[-2.296143,53.442264],[-2.29158,53.442264],[-2.290649,53.443825],[-2.290649,53.443973],[-2.290649,53.445535],[-2.287903,53.445535],[-2.287903,53.447171],[-2.287903,53.448807],[-2.285156,53.448807],[-2.285156,53.452078],[-2.284226,53.452078],[-2.279663,53.452078],[-2.279663,53.448807]]]}
}
