{
  "id": 1360790859,
  "type": "Feature",
  "properties": {
    "edtf:cessation": "",
    "edtf:inception": "",
    "geom:area": 0,
    "geom:area_square_m": 0,
    "geom:bbox": "-0.100846,50.995288,-0.100846,50.995288",
    "geom:latitude": 50.995288,
    "geom:longitude": -0.100846,
    "iso:country": "GB",
    "lbl:bbox": "-0.105846,50.990288,-0.095846,51.000288",
    "lbl:latitude": 50.995288,
    "lbl:longitude": -0.100846,
    "lbl:max_zoom": 18,
    "mps:latitude": 50.995288,
    "mps:longitude": -0.100846,
    "mz:hierarchy_label": 1,
    "mz:is_current": 1,
    "mz:min_zoom": 15,
    "name:ast_x_preferred": [
      "Haywards Heath"
    ],
    "name:azb_x_preferred": [
      "هایواردز هیث"
    ],
    "name:bel_x_preferred": [
      "Хэйуардс-хіт"
    ],
    "name:ben_x_preferred": [
      "হাওয়ার্ড হেথ"
    ],
    "name:ben_x_variant": [
      "হেওয়ার্ডস হিথ"
    ],
    "name:bul_x_preferred": [
      "Хейуърдс Хийт"
    ],
    "name:cat_x_preferred": [
      "Haywards Heath"
    ],
    "name:ceb_x_preferred": [
      "Haywards Heath"
    ],
    "name:cym_x_preferred": [
      "Haywards Heath"
    ],
    "name:deu_x_preferred": [
      "Haywards Heath"
    ],
    "name:ell_x_preferred": [
      "Χέιουορντς Χιθ"
    ],
    "name:eng_x_preferred": [
      "Haywards Heath"
    ],
    "name:eng_x_variant": [
      "Baywards Heath"
    ],
    "name:epo_x_preferred": [
      "Haywards Heath"
    ],
    "name:est_x_preferred": [
      "Haywards Heath"
    ],
    "name:fas_x_preferred": [
      "هایواردز هیث"
    ],
    "name:fra_x_preferred": [
      "Haywards Heath"
    ],
    "name:gle_x_preferred": [
      "Haywards Heath"
    ],
    "name:guj_x_preferred": [
      "હેવર્ડ્સ હીથ"
    ],
    "name:heb_x_preferred": [
      "הייוורדס הית'"
    ],
    "name:hun_x_preferred": [
      "Haywards Heath"
    ],
    "name:ita_x_preferred": [
      "Haywards Heath"
    ],
    "name:jpn_x_preferred": [
      "ヘイウァ―ズ・ヒース"
    ],
    "name:kan_x_preferred": [
      "ಹೇವರ್ಡ್ಸ್ ಹೀತ್"
    ],
    "name:kor_x_preferred": [
      "헤이워즈 히스"
    ],
    "name:lit_x_preferred": [
      "Heivords Hitas"
    ],
    "name:lld_x_preferred": [
      "Haywards Heath"
    ],
    "name:nan_x_preferred": [
      "Haywards Heath"
    ],
    "name:nld_x_preferred": [
      "Haywards Heath"
    ],
    "name:nno_x_preferred": [
      "Haywards Heath"
    ],
    "name:pol_x_preferred": [
      "Haywards Heath"
    ],
    "name:por_x_preferred": [
      "Haywards Heath"
    ],
    "name:ron_x_preferred": [
      "Haywards Heath"
    ],
    "name:rus_x_preferred": [
      "Хэйуордс-хит"
    ],
    "name:rus_x_variant": [
      "Хэйуордс-Хит"
    ],
    "name:spa_x_preferred": [
      "Haywards Heath"
    ],
    "name:swe_x_preferred": [
      "Haywards Heath"
    ],
    "name:szl_x_preferred": [
      "Haywards Heath"
    ],
    "name:tam_x_preferred": [
      "ஹயவர்ட்ஸ் ஹீத்"
    ],
    "name:tam_x_variant": [
      "ஹயவர்ட்ஸ்  ஹீத்"
    ],
    "name:tel_x_preferred": [
      "హేవ్వర్స్ హీత్"
    ],
    "name:ukr_x_preferred": [
      "Гейвордс-Гіт"
    ],
    "name:urd_x_preferred": [
      "ہایواردس ہیاتھ"
    ],
    "name:zho_x_preferred": [
      "海沃茲希斯"
    ],
    "qs:a0": "United Kingdom",
    "qs:a1": "*West Sussex",
    "qs:a1_lc": "GB12450000",
    "qs:a1r": "0England",
    "qs:a1r_lc": "GB12000000",
    "qs:adm0": "United Kingdom",
    "qs:id": 0,
    "qs:la_lc": "*",
    "qs:level": "locality",
    "qs:loc": "Haywards Heath",
    "qs:loc_alt": "Haywards Heath",
    "qs:pop": 0,
    "qs:source": "RCustom EuroGlobalMap + UMZ Urban Polygons + Geonames + GeoPlanet",
    "qs:type": "buffered point",
    "src:geom": "whosonfirst",
    "src:geom_alt": [
      "quattroshapes_pg",
      "quattroshapes"
    ],
    "src:geom_via": "quattroshapes",
    "src:lbl_centroid": "mapshaper",
    "src:population": "wikidata",
    "wd:latitude": 51.0048,
    "wd:longitude": -0.0979,
    "wd:wordcount": 1970,
    "wof:belongsto": [
      1880762709,
      102191581,
      1880762061,
      404445831,
      85633159,
      404227469,
      1293524743,
      136253055,
      1880771687
    ],
    "wof:breaches": [],
    "wof:concordances": {
      "fct:id": "0aa21c08-8f76-11e1-848f-cfd5bf3ef515",
      "gn:id": 6324500,
      "gp:id": 22847,
      "qs_pg:id": 424551,
      "wd:id": "Q920646",
      "wk:page": "Haywards Heath"
    },
    "wof:concordances_alt": {
      "qs_pg:id": 1062484
    },
    "wof:country": "GB",
    "wof:created": 1765389435,
    "wof:geomhash": "f998edf000648799c47c77dd9e0e1edd",
    "wof:hierarchy": [
      {
        "continent_id": 102191581,
        "country_id": 85633159,
        "county_id": 1880771687,
        "empire_id": 136253055,
        "localadmin_id": 404445831,
        "locality_id": 1293524743,
        "macrocounty_id": 1880762061,
        "macroregion_id": 404227469,
        "neighbourhood_id": 1360790859,
        "region_id": 1880762709
      }
    ],
    "wof:id": 1360790859,
    "wof:lang": [
      "eng"
    ],
    "wof:lastmodified": 1765389435,
    "wof:name": "Haywards Heath",
    "wof:parent_id": 1293524743,
    "wof:placetype": "neighbourhood",
    "wof:population": 30826,
    "wof:population_rank": 7,
    "wof:repo": "whosonfirst-data-admin-gb",
    "wof:superseded_by": [],
    "wof:supersedes": [
      101854599
    ],
    "wof:tags": []
  },
  "bbox": [
    -0.100846,
    50.995288,
    -0.100846,
    50.995288
  ],
  "geometry": {"type":"Point","coordinates":[-0.100846,50.995288]}
}
