{
  "id": 1360805963,
  "type": "Feature",
  "properties": {
    "edtf:cessation": "",
    "edtf:inception": "",
    "geom:area": 0,
    "geom:area_square_m": 0,
    "geom:bbox": "-0.370383,51.225915,-0.370383,51.225915",
    "geom:latitude": 51.225915,
    "geom:longitude": -0.370383,
    "gn:country": null,
    "iso:country": "GB",
    "lbl:bbox": "-0.375383,51.220915,-0.365383,51.230915",
    "lbl:latitude": 51.225915,
    "lbl:longitude": -0.370383,
    "lbl:max_zoom": 18,
    "mz:hierarchy_label": 1,
    "mz:is_current": 1,
    "mz:min_zoom": 15,
    "mz:note": "Quattroshapes Point Gazetteer import 20170519",
    "name:eng_x_preferred": [
      "Westcott"
    ],
    "name:fra_x_preferred": [
      "Westcott"
    ],
    "name:gle_x_preferred": [
      "Westcott"
    ],
    "name:heb_x_preferred": [
      "ווסטקוט"
    ],
    "name:ita_x_preferred": [
      "Westcott"
    ],
    "name:jpn_x_preferred": [
      "ウェストコット"
    ],
    "name:kat_x_preferred": [
      "უესკოტი"
    ],
    "name:nld_x_preferred": [
      "Westcott"
    ],
    "name:pol_x_preferred": [
      "Westcott"
    ],
    "name:rus_x_preferred": [
      "Уэсткотт"
    ],
    "name:spa_x_preferred": [
      "Westcott"
    ],
    "name:swe_x_preferred": [
      "Westcott"
    ],
    "name:tur_x_preferred": [
      "Westcott"
    ],
    "name:urd_x_preferred": [
      "ویسکوٹ"
    ],
    "name:zho_x_preferred": [
      "韦斯科特"
    ],
    "qs_pg:aaroncc": "GB",
    "qs_pg:gn_country": null,
    "qs_pg:name": "Westcott",
    "qs_pg:name_adm0": "United Kingdom",
    "qs_pg:name_adm1": "England",
    "qs_pg:photos": 648,
    "qs_pg:photos_1k": 131,
    "qs_pg:photos_9k": 3,
    "qs_pg:photos_9r": 5,
    "qs_pg:photos_all": 648,
    "qs_pg:photos_sr": 8,
    "qs_pg:pop_sr": 0,
    "qs_pg:qs_id": 1073927,
    "qs_pg:qs_pg_placetype": "locality",
    "qs_pg:qs_pg_placetype_gp": "Town",
    "qs_pg:woe_adm0": 23424975,
    "qs_pg:woe_id": 39887,
    "src:geom": "qs_pg",
    "src:lbl_centroid": "qs_pg",
    "src:population": "wikidata",
    "woe:adm0_id": 23424975,
    "woe:name_adm0": "United Kingdom",
    "woe:name_adm1": "England",
    "woe:placetype": "Town",
    "wof:belongsto": [
      1880762727,
      102191581,
      85633159,
      1880761993,
      404227469,
      136253055,
      1880771663
    ],
    "wof:breaches": [],
    "wof:concordances": {
      "gp:id": 39887,
      "qs_pg:id": 1073927,
      "wd:id": "Q7987310"
    },
    "wof:country": "GB",
    "wof:created": 1497304084,
    "wof:geomhash": "9ae210bbd98fed253cbe9816463fff7d",
    "wof:hierarchy": [
      {
        "continent_id": 102191581,
        "country_id": 85633159,
        "county_id": 1880771663,
        "empire_id": 136253055,
        "locality_id": -1,
        "macrocounty_id": 1880761993,
        "macroregion_id": 404227469,
        "neighbourhood_id": 1360805963,
        "region_id": 1880762727
      }
    ],
    "wof:id": 1360805963,
    "wof:lastmodified": 1765390341,
    "wof:name": "Westcott",
    "wof:parent_id": -1,
    "wof:placetype": "neighbourhood",
    "wof:population": 2251,
    "wof:population_rank": 4,
    "wof:repo": "whosonfirst-data-admin-gb",
    "wof:superseded_by": [],
    "wof:supersedes": [
      1126060251
    ],
    "wof:tags": []
  },
  "bbox": [
    -0.370383,
    51.225915,
    -0.370383,
    51.225915
  ],
  "geometry": {"type":"Point","coordinates":[-0.370383,51.225915]}
}
