{
  "id": 1125803737,
  "type": "Feature",
  "properties": {
    "edtf:cessation": "",
    "edtf:inception": "",
    "geom:area": 0,
    "geom:area_square_m": 0,
    "geom:bbox": "-3.990730,57.334490,-3.990730,57.334490",
    "geom:latitude": 57.33449,
    "geom:longitude": -3.99073,
    "gn:country": "GB",
    "gn:fcode": "PPL",
    "gn:population": 0,
    "iso:country": "GB",
    "lbl:bbox": "-4.01073,57.31449,-3.97073,57.35449",
    "lbl:latitude": 57.33449,
    "lbl:longitude": -3.99073,
    "lbl:max_zoom": 18,
    "lbl:min_zoom": 13.5,
    "mz:hierarchy_label": 1,
    "mz:is_current": 1,
    "mz:min_zoom": 12,
    "mz:note": "Quattroshapes Point Gazetteer import 20170519",
    "name:deu_x_preferred": [
      "Tomatin"
    ],
    "name:eng_x_preferred": [
      "Tomatin"
    ],
    "name:eus_x_preferred": [
      "Tomatin"
    ],
    "name:gla_x_preferred": [
      "Tom Aitinn"
    ],
    "name:gle_x_preferred": [
      "Tom Aitinn"
    ],
    "name:nld_x_preferred": [
      "Tomatin"
    ],
    "name:swe_x_preferred": [
      "Tomatin"
    ],
    "name:zho_x_preferred": [
      "汤玛丁"
    ],
    "qs_pg:aaroncc": "GB",
    "qs_pg:gn_country": "GB",
    "qs_pg:gn_fcode": "PPL",
    "qs_pg:gn_id": 2635710,
    "qs_pg:gn_pop": 0,
    "qs_pg:name": "Tomatin",
    "qs_pg:name_adm0": "United Kingdom",
    "qs_pg:name_adm1": "Scotland",
    "qs_pg:photos": 336,
    "qs_pg:photos_1k": 68,
    "qs_pg:photos_9k": 1,
    "qs_pg:photos_9r": 5,
    "qs_pg:photos_all": 336,
    "qs_pg:photos_sr": 5,
    "qs_pg:pop_sr": 0,
    "qs_pg:qs_id": 1082476,
    "qs_pg:qs_pg_placetype": "locality",
    "qs_pg:qs_pg_placetype_gp": "Town",
    "qs_pg:woe_adm0": 23424975,
    "qs_pg:woe_id": 37747,
    "src:geom": "qs_pg",
    "src:lbl_centroid": "qs_pg",
    "src:population": "wikidata",
    "woe:adm0_id": 23424975,
    "woe:name_adm0": "United Kingdom",
    "woe:name_adm1": "Scotland",
    "woe:placetype": "Town",
    "wof:belongsto": [
      1880762005,
      1360699045
    ],
    "wof:breaches": [],
    "wof:concordances": {
      "gn:id": 2635710,
      "gp:id": 37747,
      "qs_pg:id": 1082476,
      "wd:id": "Q2440565"
    },
    "wof:country": "GB",
    "wof:created": 1497291378,
    "wof:geomhash": "8b3fb40efb6659372590b107bcd6c02b",
    "wof:hierarchy": [
      {
        "continent_id": -1,
        "country_id": -1,
        "county_id": 1360699045,
        "locality_id": 1125803737,
        "macrocounty_id": 1880762005,
        "region_id": -1
      }
    ],
    "wof:id": 1125803737,
    "wof:lastmodified": 1765385609,
    "wof:name": "Tomatin",
    "wof:parent_id": 1360699045,
    "wof:placetype": "locality",
    "wof:population": 183,
    "wof:population_rank": 1,
    "wof:repo": "whosonfirst-data-admin-gb",
    "wof:superseded_by": [],
    "wof:supersedes": [],
    "wof:tags": []
  },
  "bbox": [
    -3.99073,
    57.33449,
    -3.99073,
    57.33449
  ],
  "geometry": {"type":"Point","coordinates":[-3.99073,57.33449]}
}
