{
  "id": 85789817,
  "type": "Feature",
  "properties": {
    "edtf:cessation": "",
    "edtf:inception": "",
    "geom:area": 0.0004223760565000052,
    "geom:area_square_m": 3258890.653611,
    "geom:bbox": "0.065918,51.382067,0.094179,51.402974",
    "geom:latitude": 51.3922949971437,
    "geom:longitude": 0.07960868222196044,
    "gn:id": "",
    "iso:country": "GB",
    "lbl:latitude": 51.390892,
    "lbl:longitude": 0.077916,
    "lbl:max_zoom": 18,
    "mps:latitude": 51.39235,
    "mps:longitude": 0.07934,
    "mz:hierarchy_label": 1,
    "mz:is_current": -1,
    "mz:is_funky": 0,
    "mz:is_hard_boundary": 0,
    "mz:is_landuse_aoi": 0,
    "mz:is_official": 0,
    "mz:max_zoom": 18,
    "mz:min_zoom": 15,
    "mz:tier_locality": 7,
    "mz:tier_metro": 1,
    "name:eng_x_preferred": [
      "Petts Wood"
    ],
    "name:fra_x_preferred": [
      "Petts Wood"
    ],
    "name:gle_x_preferred": [
      "Petts Wood"
    ],
    "name:hin_x_preferred": [
      "पेट्स वुड"
    ],
    "name:hun_x_preferred": [
      "Petts Wood"
    ],
    "name:ita_x_preferred": [
      "Petts Wood"
    ],
    "name:nld_x_preferred": [
      "Petts Wood"
    ],
    "name:rus_x_preferred": [
      "Петс-Вуд"
    ],
    "name:urd_x_preferred": [
      "پیٹس وڈ"
    ],
    "qs:gn_adm0_cc": "GB",
    "qs:gn_id": 0,
    "qs:gn_local": 2643743,
    "qs:local_max": 40697,
    "qs:local_sum": 1675717,
    "qs:localhoods": 643,
    "qs:name": "Petts Wood",
    "qs:name_adm0": "United Kingdom",
    "qs:name_adm1": "England",
    "qs:name_adm2": "Greater London",
    "qs:name_lau": "London Borough of Bromley",
    "qs:name_local": "London",
    "qs:photo_max": 110,
    "qs:photo_sum": 1146,
    "qs:placetype": "Suburb",
    "qs:quad_count": 70,
    "qs:woe_adm0": 23424975,
    "qs:woe_adm1": 24554868,
    "qs:woe_adm2": 23416974,
    "qs:woe_funk": "Parented by a neighborhood",
    "qs:woe_lau": 12695824,
    "qs:woe_local": 44418,
    "qs:woe_ver": "7.10.0",
    "src:geom": "quattroshapes",
    "src:geom_alt": [
      "quattroshapes_pg"
    ],
    "src:lbl_centroid": "mz",
    "src:population": "wikidata",
    "wd:wordcount": 1116,
    "wof:belongsto": [
      1880762729,
      102191581,
      1880762179,
      85633159,
      404227469,
      101750367,
      136253055,
      1158857297,
      1880771825
    ],
    "wof:breaches": [],
    "wof:concordances": {
      "gp:id": 31958,
      "qs_pg:id": 219136,
      "wd:id": "Q123296"
    },
    "wof:country": "GB",
    "wof:created": 1765391146,
    "wof:geom_alt": [
      "quattroshapes_pg"
    ],
    "wof:geomhash": "b33c21167ba032a595ae9aa1b54bd9f7",
    "wof:hierarchy": [
      {
        "borough_id": 1158857297,
        "continent_id": 102191581,
        "country_id": 85633159,
        "county_id": 1880771825,
        "empire_id": 136253055,
        "locality_id": 101750367,
        "macrocounty_id": 1880762179,
        "macroregion_id": 404227469,
        "neighbourhood_id": 85789817,
        "region_id": 1880762729
      }
    ],
    "wof:id": 85789817,
    "wof:lang": [
      "eng"
    ],
    "wof:lastmodified": 1765391146,
    "wof:name": "Petts Wood",
    "wof:parent_id": 1158857297,
    "wof:placetype": "neighbourhood",
    "wof:population": 13651,
    "wof:population_rank": 6,
    "wof:repo": "whosonfirst-data-admin-gb",
    "wof:superseded_by": [],
    "wof:supersedes": [],
    "wof:tags": []
  },
  "bbox": [
    0.065918,
    51.382067,
    0.094179,
    51.402974
  ],
  "geometry": {"type":"Polygon","coordinates":[[[0.075223,51.402974],[0.07572,51.402633],[0.076904,51.402633],[0.076904,51.402633],[0.082397,51.402633],[0.082397,51.402633],[0.082397,51.399206],[0.087891,51.399206],[0.087891,51.399206],[0.087891,51.397307],[0.088845,51.395778],[0.093384,51.395778],[0.093384,51.395778],[0.094179,51.394504],[0.094042,51.393405],[0.093384,51.392351],[0.093384,51.392351],[0.093384,51.388923],[0.093384,51.388923],[0.093384,51.385495],[0.093384,51.385495],[0.088845,51.385495],[0.087891,51.383966],[0.087891,51.382067],[0.087891,51.382067],[0.082397,51.382067],[0.076904,51.382067],[0.076904,51.382067],[0.076904,51.385263],[0.076181,51.385495],[0.074158,51.386144],[0.072382,51.385574],[0.071411,51.386352],[0.069199,51.386352],[0.068665,51.387209],[0.068665,51.388923],[0.065918,51.388923],[0.065918,51.390452],[0.065918,51.390822],[0.065918,51.392351],[0.065918,51.395778],[0.065918,51.396635],[0.065918,51.399206],[0.070457,51.399206],[0.071411,51.400735],[0.072595,51.402632],[0.074158,51.402632],[0.075223,51.402974]]]}
}
