{
  "id": 85785743,
  "type": "Feature",
  "properties": {
    "edtf:cessation": "",
    "edtf:inception": "",
    "geom:area": 0.0012107010354999515,
    "geom:area_square_m": 8390203.938769,
    "geom:bbox": "-4.263738,55.898416,-4.207764,55.933047",
    "geom:latitude": 55.91326642273811,
    "geom:longitude": -4.237780221106896,
    "gn:latitude": 55.90669,
    "gn:longitude": -4.21869,
    "gn:population": 22668,
    "iso:country": "GB",
    "lbl:latitude": 55.906357,
    "lbl:longitude": -4.228215,
    "lbl:max_zoom": 18,
    "mps:latitude": 55.913828,
    "mps:longitude": -4.242843,
    "mz:hierarchy_label": 1,
    "mz:is_current": -1,
    "mz:is_funky": 0,
    "mz:is_hard_boundary": 0,
    "mz:is_landuse_aoi": 0,
    "mz:is_official": 0,
    "mz:max_zoom": 18,
    "mz:min_zoom": 14,
    "mz:tier_locality": 4,
    "name:ara_x_preferred": [
      "بيشاب بريغز"
    ],
    "name:arz_x_preferred": [
      "بيشاب بريجز"
    ],
    "name:ast_x_preferred": [
      "Bishopbriggs"
    ],
    "name:azb_x_preferred": [
      "بیشاپ بریقز"
    ],
    "name:aze_x_preferred": [
      "Bişopbriqqs"
    ],
    "name:ben_x_preferred": [
      "বিশপব্রিগস"
    ],
    "name:bul_x_preferred": [
      "Бишопбригс"
    ],
    "name:bul_x_variant": [
      "Бишъпбригс"
    ],
    "name:cat_x_preferred": [
      "Bishopbriggs"
    ],
    "name:ceb_x_preferred": [
      "Bishopbriggs"
    ],
    "name:cym_x_preferred": [
      "Bishopbriggs"
    ],
    "name:deu_x_preferred": [
      "Bishopbriggs"
    ],
    "name:eng_x_preferred": [
      "Bishopbriggs"
    ],
    "name:eus_x_preferred": [
      "Bishopbriggs"
    ],
    "name:fas_x_preferred": [
      "بیشاپ بریگز"
    ],
    "name:fra_x_preferred": [
      "Bishopbriggs"
    ],
    "name:gla_x_preferred": [
      "Coille Dobhair"
    ],
    "name:gle_x_preferred": [
      "Coille Dobhair"
    ],
    "name:guj_x_preferred": [
      "બિશપબ્રિગ્સ"
    ],
    "name:heb_x_preferred": [
      "בישופבריגס"
    ],
    "name:isl_x_preferred": [
      "Bishopbriggs"
    ],
    "name:ita_x_preferred": [
      "Bishopbriggs"
    ],
    "name:jpn_x_preferred": [
      "ビショップブリッグズ"
    ],
    "name:kan_x_preferred": [
      "ಬಿಷಪ್ಬ್ರಿಗ್ಸ್"
    ],
    "name:kor_x_preferred": [
      "비샵브리스"
    ],
    "name:lit_x_preferred": [
      "Bišopbrigsas"
    ],
    "name:nld_x_preferred": [
      "Bishopbriggs"
    ],
    "name:nob_x_preferred": [
      "Bishopbriggs"
    ],
    "name:pol_x_preferred": [
      "Bishopbriggs"
    ],
    "name:por_x_preferred": [
      "Bishopbriggs"
    ],
    "name:rus_x_preferred": [
      "Бишопбриггс"
    ],
    "name:sco_x_preferred": [
      "Beeshops' Rigs"
    ],
    "name:sco_x_variant": [
      "The Briggs"
    ],
    "name:spa_x_preferred": [
      "Bishopbriggs"
    ],
    "name:swe_x_preferred": [
      "Bishopbriggs"
    ],
    "name:tam_x_preferred": [
      "பிஷப்பிரிக்க்ஸ்"
    ],
    "name:tel_x_preferred": [
      "బిషప్బ్రిగ్స్"
    ],
    "name:ukr_x_preferred": [
      "Бішопбріггс"
    ],
    "name:urd_x_preferred": [
      "بیشوپبریججس"
    ],
    "name:zho_x_preferred": [
      "毕晓普布里格斯"
    ],
    "qs:gn_fcode": "PPL",
    "qs:gn_local": 0,
    "qs:gn_namadm1": "SCT",
    "qs:gn_name": "Bishopbriggs",
    "qs:local_max": 6837,
    "qs:local_sum": 153221,
    "qs:localhoods": 91,
    "qs:name": "Bishopbriggs",
    "qs:name_adm0": "United Kingdom",
    "qs:name_adm1": "Scotland",
    "qs:name_adm2": "Strathclyde",
    "qs:name_lau": "East Dunbartonshire",
    "qs:name_local": "Glasgow",
    "qs:photo_max": 117,
    "qs:photo_sum": 403,
    "qs:placetype": "Suburb",
    "qs:quad_count": 36,
    "qs:woe_adm0": 23424975,
    "qs:woe_adm1": 12578048,
    "qs:woe_adm2": 12602207,
    "qs:woe_lau": 12696192,
    "qs:woe_local": 21125,
    "qs:woe_ver": "7.10.0",
    "src:geom": "quattroshapes",
    "src:geom_alt": [
      "quattroshapes_pg"
    ],
    "src:lbl_centroid": "yerbashapes",
    "src:population": "wikidata",
    "wd:latitude": 55.9,
    "wd:longitude": -4.233333,
    "wd:wordcount": 4701,
    "wof:belongsto": [
      102191581,
      404451795,
      85633159,
      404227471,
      1360698835,
      1360698701
    ],
    "wof:breaches": [],
    "wof:concordances": {
      "gn:id": 2655582,
      "gp:id": 12758,
      "qs_pg:id": 237078,
      "wd:id": "Q866347",
      "wk:page": "Bishopbriggs"
    },
    "wof:country": "GB",
    "wof:created": 1765390971,
    "wof:geom_alt": [
      "quattroshapes_pg"
    ],
    "wof:geomhash": "28638d9e66f713b3e0dbaa26ddc2ea6d",
    "wof:hierarchy": [
      {
        "continent_id": 102191581,
        "country_id": 85633159,
        "county_id": 1360698835,
        "localadmin_id": 404451795,
        "locality_id": -1,
        "macroregion_id": 404227471,
        "neighbourhood_id": 85785743,
        "region_id": 1360698701
      }
    ],
    "wof:id": 85785743,
    "wof:lang": [
      "eng"
    ],
    "wof:lastmodified": 1765390971,
    "wof:name": "Bishopbriggs",
    "wof:parent_id": -1,
    "wof:placetype": "neighbourhood",
    "wof:population": 23540,
    "wof:population_rank": 7,
    "wof:repo": "whosonfirst-data-admin-gb",
    "wof:superseded_by": [],
    "wof:supersedes": [],
    "wof:tags": []
  },
  "bbox": [
    -4.263738,
    55.898416,
    -4.207764,
    55.933047
  ],
  "geometry": {"type":"Polygon","coordinates":[[[-4.224243,55.915352],[-4.223261,55.915352],[-4.222134,55.915754],[-4.221497,55.915375],[-4.221457,55.915352],[-4.21875,55.915352],[-4.213257,55.915352],[-4.213257,55.915351],[-4.211532,55.915351],[-4.211532,55.915351],[-4.209489,55.915351],[-4.207764,55.913812],[-4.207764,55.912273],[-4.207764,55.909194],[-4.207764,55.906115],[-4.210024,55.904771],[-4.21017,55.904249],[-4.21153,55.903036],[-4.213257,55.899956],[-4.213257,55.899956],[-4.21875,55.899956],[-4.219613,55.898416],[-4.224243,55.898416],[-4.228873,55.898416],[-4.229736,55.899956],[-4.235229,55.899956],[-4.240723,55.899956],[-4.242449,55.899956],[-4.242449,55.899956],[-4.24967,55.899956],[-4.251267,55.900668],[-4.25167,55.902825],[-4.260027,55.907795],[-4.263738,55.914415],[-4.263694,55.91456],[-4.26277,55.916289],[-4.261527,55.917805],[-4.260011,55.919048],[-4.25849,55.919862],[-4.258455,55.91988],[-4.258428,55.919969],[-4.25877,55.921096],[-4.258962,55.923047],[-4.25877,55.924998],[-4.258201,55.926874],[-4.257277,55.928603],[-4.256033,55.930118],[-4.254518,55.931362],[-4.252789,55.932286],[-4.250913,55.932855],[-4.248962,55.933047],[-4.247011,55.932855],[-4.245136,55.932286],[-4.243407,55.931362],[-4.241891,55.930118],[-4.240648,55.928603],[-4.239724,55.926874],[-4.239722,55.926867],[-4.239715,55.926844],[-4.239554,55.92704],[-4.238039,55.928284],[-4.236956,55.928862],[-4.236958,55.928882],[-4.23491,55.927663],[-4.229736,55.923047],[-4.229736,55.921508],[-4.229736,55.91843],[-4.224243,55.91843],[-4.224243,55.915352]],[[-4.224243,55.915352],[-4.22457,55.915352],[-4.224489,55.914914],[-4.224243,55.915001],[-4.224243,55.915352]]]}
}
