{
  "id": 1360809399,
  "type": "Feature",
  "properties": {
    "edtf:cessation": "",
    "edtf:inception": "",
    "geom:area": 0,
    "geom:area_square_m": 0,
    "geom:bbox": "-1.089190,53.408870,-1.089190,53.408870",
    "geom:latitude": 53.40886999999999,
    "geom:longitude": -1.08919,
    "gn:admin1_code": "ENG",
    "gn:admin2_code": "J9",
    "gn:admin3_code": "37UC",
    "gn:admin4_code": "37UC055",
    "gn:asciiname": "Styrrup",
    "gn:country_code": "GB",
    "gn:dem": 16,
    "gn:feature_class": "P",
    "gn:feature_code": "PPL",
    "gn:geonameid": 2636576,
    "gn:latitude": 53.40887,
    "gn:longitude": -1.08919,
    "gn:modification_date": "2018-07-03",
    "gn:name": "Styrrup",
    "gn:population": 0,
    "gn:timezone": "Europe/London",
    "iso:country": "GB",
    "lbl:bbox": "-1.09419,53.40387,-1.08419,53.41387",
    "lbl:max_zoom": 18,
    "mz:hierarchy_label": 1,
    "mz:is_current": 1,
    "mz:min_zoom": 15,
    "name:pol_x_preferred": [
      "Styrrup"
    ],
    "src:geom": "geonames",
    "src:population": "wikidata",
    "wof:belongsto": [
      1880762689,
      102191581,
      1880762077,
      404450455,
      85633159,
      404227469,
      1360755179,
      136253055,
      1880771595
    ],
    "wof:breaches": [],
    "wof:concordances": {
      "gn:id": 2636576,
      "wk:page": "Styrrup"
    },
    "wof:country": "GB",
    "wof:created": 1765390703,
    "wof:geomhash": "f927af28c55141c8927959fced22ab5b",
    "wof:hierarchy": [
      {
        "continent_id": 102191581,
        "country_id": 85633159,
        "county_id": 1880771595,
        "empire_id": 136253055,
        "localadmin_id": 404450455,
        "locality_id": 1360755179,
        "macrocounty_id": 1880762077,
        "macroregion_id": 404227469,
        "neighbourhood_id": 1360809399,
        "region_id": 1880762689
      }
    ],
    "wof:id": 1360809399,
    "wof:lastmodified": 1765390703,
    "wof:name": "Styrrup",
    "wof:parent_id": 1360755179,
    "wof:placetype": "neighbourhood",
    "wof:population": 731,
    "wof:population_rank": 2,
    "wof:repo": "whosonfirst-data-admin-gb",
    "wof:superseded_by": [],
    "wof:supersedes": [
      1360113931
    ],
    "wof:tags": []
  },
  "bbox": [
    -1.08919,
    53.40886999999999,
    -1.08919,
    53.40886999999999
  ],
  "geometry": {"type":"Point","coordinates":[-1.08919,53.40886999999999]}
}
