{
  "id": 1326957601,
  "type": "Feature",
  "properties": {
    "edtf:cessation": "",
    "edtf:inception": "",
    "geom:area": 0,
    "geom:area_square_m": 0,
    "geom:bbox": "-6.133330,57.350000,-6.133330,57.350000",
    "geom:latitude": 57.35,
    "geom:longitude": -6.13333,
    "gn:admin1_code": "SCT",
    "gn:admin2_code": "V3",
    "gn:asciiname": "Ollach",
    "gn:country_code": "GB",
    "gn:dem": 61,
    "gn:feature_class": "P",
    "gn:feature_code": "PPL",
    "gn:geonameid": 2640978,
    "gn:latitude": 57.35,
    "gn:longitude": -6.13333,
    "gn:modification_date": "2012-01-17",
    "gn:name": "Ollach",
    "gn:population": 0,
    "gn:timezone": "Europe/London",
    "iso:country": "GB",
    "lbl:bbox": "-6.15333,57.33,-6.11333,57.37",
    "lbl:max_zoom": 18,
    "lbl:min_zoom": 13.5,
    "mz:hierarchy_label": 1,
    "mz:is_current": -1,
    "mz:min_zoom": 12,
    "name:eus_x_preferred": [
      "Ollach"
    ],
    "name:gle_x_preferred": [
      "An t-Olach"
    ],
    "src:geom": "geonames",
    "src:population": "wikidata",
    "wof:belongsto": [
      1880762005,
      1360699045
    ],
    "wof:breaches": [],
    "wof:concordances": {
      "gn:id": 2640978,
      "wk:page": "Ollach"
    },
    "wof:country": "GB",
    "wof:created": 1765388928,
    "wof:geomhash": "7c17242d02274a88d7369f32ee8adc5e",
    "wof:hierarchy": [
      {
        "continent_id": -1,
        "country_id": -1,
        "county_id": 1360699045,
        "locality_id": 1326957601,
        "macrocounty_id": 1880762005,
        "region_id": -1
      }
    ],
    "wof:id": 1326957601,
    "wof:lastmodified": 1765388928,
    "wof:name": "Ollach",
    "wof:parent_id": 1360699045,
    "wof:placetype": "locality",
    "wof:population": 20,
    "wof:population_rank": 1,
    "wof:repo": "whosonfirst-data-admin-gb",
    "wof:superseded_by": [],
    "wof:supersedes": [],
    "wof:tags": []
  },
  "bbox": [
    -6.13333,
    57.35,
    -6.13333,
    57.35
  ],
  "geometry": {"type":"Point","coordinates":[-6.13333,57.35]}
}
