{
  "id": 85861037,
  "type": "Feature",
  "properties": {
    "edtf:cessation": "",
    "edtf:inception": "",
    "geom:area": 0,
    "geom:area_square_m": 0,
    "geom:bbox": "-2.214138,53.062224,-2.214138,53.062224",
    "geom:latitude": 53.062224,
    "geom:longitude": -2.214138,
    "gn:id": "",
    "iso:country": "GB",
    "lbl:bbox": "-2.219138,53.057224,-2.209138,53.067224",
    "lbl:latitude": 53.062224,
    "lbl:longitude": -2.214138,
    "lbl:max_zoom": 18,
    "mps:latitude": 53.062071,
    "mps:longitude": -2.219906,
    "mz:hierarchy_label": 0,
    "mz:is_current": 1,
    "mz:is_funky": 0,
    "mz:is_hard_boundary": 0,
    "mz:is_landuse_aoi": 0,
    "mz:is_official": 0,
    "mz:max_zoom": 18,
    "mz:min_zoom": 13,
    "mz:tier_locality": 3,
    "name:ceb_x_preferred": [
      "Tunstall"
    ],
    "name:eng_x_preferred": [
      "Tunstall"
    ],
    "name:fas_x_preferred": [
      "تونستال"
    ],
    "name:nld_x_preferred": [
      "Tunstall"
    ],
    "name:pol_x_preferred": [
      "Tunstall"
    ],
    "name:swe_x_preferred": [
      "Tunstall"
    ],
    "qs:gn_adm0_cc": "GB",
    "qs:gn_fcode": "PPL",
    "qs:gn_local": 2636841,
    "qs:gn_namadm1": "ENG",
    "qs:gn_name": "Dunstall",
    "qs:local_max": 5204,
    "qs:local_sum": 30618,
    "qs:localhoods": 23,
    "qs:name": "Tunstall",
    "qs:name_adm0": "United Kingdom",
    "qs:name_adm1": "England",
    "qs:name_adm2": "Staffordshire",
    "qs:name_lau": "Stoke-on-Trent City",
    "qs:name_local": "Stoke-on-Trent",
    "qs:photo_max": 644,
    "qs:photo_sum": 4601,
    "qs:placetype": "Suburb",
    "qs:quad_count": 82,
    "qs:woe_adm0": 23424975,
    "qs:woe_adm1": 24554868,
    "qs:woe_adm2": 12602189,
    "qs:woe_lau": 12696161,
    "qs:woe_local": 36240,
    "qs:woe_ver": "7.10.0",
    "src:geom": "mz",
    "src:geom_alt": [
      "quattroshapes_pg",
      "quattroshapes"
    ],
    "src:lbl_centroid": "yerbashapes",
    "src:population": "wikidata",
    "wof:belongsto": [
      1880762719,
      102191581,
      85633159,
      1880761999,
      404227469,
      1175612703,
      136253055,
      1360698805
    ],
    "wof:breaches": [],
    "wof:concordances": {
      "fct:id": "0ab47e98-8f76-11e1-848f-cfd5bf3ef515",
      "gn:id": 2635355,
      "gp:id": 20092106,
      "qs_pg:id": 536054,
      "wk:page": "Tunstall, Suffolk"
    },
    "wof:concordances_alt": {
      "qs_pg:id": 1229732
    },
    "wof:country": "GB",
    "wof:created": 1765391344,
    "wof:geom_alt": [
      "quattroshapes",
      "quattroshapes_pg"
    ],
    "wof:geomhash": "14436bbc03cf2514011d29cd870b5a75",
    "wof:hierarchy": [
      {
        "continent_id": 102191581,
        "country_id": 85633159,
        "county_id": 1360698805,
        "empire_id": 136253055,
        "locality_id": 1175612703,
        "macrocounty_id": 1880761999,
        "macroregion_id": 404227469,
        "neighbourhood_id": 85861037,
        "region_id": 1880762719
      }
    ],
    "wof:id": 85861037,
    "wof:lang": [
      "eng"
    ],
    "wof:lastmodified": 1765391344,
    "wof:name": "Tunstall",
    "wof:parent_id": 1175612703,
    "wof:placetype": "neighbourhood",
    "wof:population": 571,
    "wof:population_rank": 2,
    "wof:repo": "whosonfirst-data-admin-gb",
    "wof:superseded_by": [],
    "wof:supersedes": [],
    "wof:tags": []
  },
  "bbox": [
    -2.214138,
    53.062224,
    -2.214138,
    53.062224
  ],
  "geometry": {"type":"Point","coordinates":[-2.214138,53.062224]}
}
