{
  "id": 85787597,
  "type": "Feature",
  "properties": {
    "edtf:cessation": "",
    "edtf:inception": "",
    "geom:area": 0.0003021959550000439,
    "geom:area_square_m": 2100160.206522,
    "geom:bbox": "-4.313869,55.792017,-4.284668,55.807456",
    "geom:latitude": 55.801396821030764,
    "geom:longitude": -4.297085497919657,
    "gn:id": "",
    "iso:country": "GB",
    "lbl:latitude": 55.798223,
    "lbl:longitude": -4.294944,
    "lbl:max_zoom": 18,
    "mps:latitude": 55.800571,
    "mps:longitude": -4.29535,
    "mz:hierarchy_label": 1,
    "mz:is_current": -1,
    "mz:is_funky": 0,
    "mz:is_hard_boundary": 0,
    "mz:is_landuse_aoi": 0,
    "mz:is_official": 0,
    "mz:max_zoom": 18,
    "mz:min_zoom": 14,
    "mz:tier_locality": 4,
    "name:ast_x_preferred": [
      "Giffnock"
    ],
    "name:aze_x_preferred": [
      "Qiffnok"
    ],
    "name:ben_x_preferred": [
      "গিফনক"
    ],
    "name:bre_x_preferred": [
      "Giofnag"
    ],
    "name:bre_x_variant": [
      "Giffnock"
    ],
    "name:cat_x_preferred": [
      "Giffnock"
    ],
    "name:ceb_x_preferred": [
      "Giffnock"
    ],
    "name:ces_x_preferred": [
      "Giffnock"
    ],
    "name:cym_x_preferred": [
      "Giffnock"
    ],
    "name:deu_x_preferred": [
      "Giffnock"
    ],
    "name:eng_x_preferred": [
      "Giffnock"
    ],
    "name:eng_x_variant": [
      "Giffneck"
    ],
    "name:eus_x_preferred": [
      "Giffnock"
    ],
    "name:fas_x_preferred": [
      "گیفناک"
    ],
    "name:fra_x_preferred": [
      "Giffnock"
    ],
    "name:gla_x_preferred": [
      "Giofnag"
    ],
    "name:gle_x_preferred": [
      "Giofnag"
    ],
    "name:guj_x_preferred": [
      "ગિફનોક"
    ],
    "name:hbs_x_preferred": [
      "Giffnock"
    ],
    "name:hye_x_preferred": [
      "Գիֆնոկ"
    ],
    "name:ita_x_preferred": [
      "Giffnock"
    ],
    "name:jpn_x_preferred": [
      "ギフノック"
    ],
    "name:kan_x_preferred": [
      "ಜಿಫ್ನಾಕ್"
    ],
    "name:kor_x_preferred": [
      "기프넉"
    ],
    "name:lit_x_preferred": [
      "Gifnokas"
    ],
    "name:nld_x_preferred": [
      "Giffnock"
    ],
    "name:nno_x_preferred": [
      "Giffnock"
    ],
    "name:nob_x_preferred": [
      "Giffnock"
    ],
    "name:nor_x_preferred": [
      "Giffnock"
    ],
    "name:pol_x_preferred": [
      "Giffnock"
    ],
    "name:por_x_preferred": [
      "Giffnock"
    ],
    "name:rus_x_preferred": [
      "Гифнок"
    ],
    "name:rus_x_variant": [
      "Гиффнок"
    ],
    "name:sco_x_preferred": [
      "Giffnock"
    ],
    "name:slv_x_preferred": [
      "Giffnock"
    ],
    "name:spa_x_preferred": [
      "Giffnock"
    ],
    "name:swe_x_preferred": [
      "Giffnock"
    ],
    "name:tam_x_preferred": [
      "கிப்ப்பினோக்"
    ],
    "name:tel_x_preferred": [
      "గిఫ్ఫ్నాక్"
    ],
    "name:ukr_x_preferred": [
      "Гіффнок"
    ],
    "name:urd_x_preferred": [
      "جیفنوک"
    ],
    "name:yid_x_preferred": [
      "גיפנאק"
    ],
    "name:zho_x_preferred": [
      "吉夫诺克"
    ],
    "qs:gn_id": 0,
    "qs:gn_local": 0,
    "qs:local_max": 6837,
    "qs:local_sum": 153221,
    "qs:localhoods": 91,
    "qs:name": "Giffnock",
    "qs:name_adm0": "United Kingdom",
    "qs:name_adm1": "Scotland",
    "qs:name_adm2": "Strathclyde",
    "qs:name_lau": "East Renfrewshire",
    "qs:name_local": "Glasgow",
    "qs:photo_max": 107,
    "qs:photo_sum": 334,
    "qs:placetype": "Suburb",
    "qs:quad_count": 20,
    "qs:woe_adm0": 23424975,
    "qs:woe_adm1": 12578048,
    "qs:woe_adm2": 12602207,
    "qs:woe_lau": 12696194,
    "qs:woe_local": 21125,
    "qs:woe_ver": "7.10.0",
    "src:geom": "quattroshapes",
    "src:geom_alt": [
      "quattroshapes_pg"
    ],
    "src:lbl_centroid": "yerbashapes",
    "src:population": "wikidata",
    "wd:latitude": 55.798333,
    "wd:longitude": -4.290556,
    "wd:wordcount": 3984,
    "wof:belongsto": [
      102191581,
      404435263,
      85633159,
      404227471,
      1360699117,
      1360698699
    ],
    "wof:breaches": [],
    "wof:concordances": {
      "gp:id": 21022,
      "qs_pg:id": 276683,
      "wd:id": "Q1016935"
    },
    "wof:country": "GB",
    "wof:created": 1765391043,
    "wof:geom_alt": [
      "quattroshapes_pg"
    ],
    "wof:geomhash": "746a3d095451ff58fe832a0388feaccd",
    "wof:hierarchy": [
      {
        "continent_id": 102191581,
        "country_id": 85633159,
        "county_id": 1360699117,
        "localadmin_id": 404435263,
        "locality_id": -1,
        "macroregion_id": 404227471,
        "neighbourhood_id": 85787597,
        "region_id": 1360698699
      }
    ],
    "wof:id": 85787597,
    "wof:lang": [
      "eng"
    ],
    "wof:lastmodified": 1765391043,
    "wof:name": "Giffnock",
    "wof:parent_id": -1,
    "wof:placetype": "neighbourhood",
    "wof:population": 12300,
    "wof:population_rank": 6,
    "wof:repo": "whosonfirst-data-admin-gb",
    "wof:superseded_by": [],
    "wof:supersedes": [],
    "wof:tags": []
  },
  "bbox": [
    -4.313869,
    55.792017,
    -4.284668,
    55.807456
  ],
  "geometry": {"type":"Polygon","coordinates":[[[-4.286346,55.801383],[-4.286266,55.801281],[-4.285224,55.798193],[-4.28527,55.797785],[-4.286547,55.796649],[-4.287415,55.795105],[-4.290161,55.795105],[-4.290161,55.792017],[-4.291065,55.792017],[-4.291065,55.792017],[-4.295654,55.792017],[-4.295654,55.792017],[-4.296279,55.793128],[-4.296847,55.793561],[-4.301147,55.793561],[-4.301147,55.795105],[-4.301147,55.796586],[-4.303858,55.798193],[-4.303894,55.798193],[-4.303894,55.798215],[-4.303894,55.799737],[-4.303894,55.800651],[-4.305666,55.801281],[-4.306641,55.801281],[-4.307616,55.801281],[-4.308745,55.800879],[-4.309387,55.80126],[-4.309423,55.801281],[-4.312134,55.801281],[-4.312134,55.802889],[-4.313489,55.803692],[-4.313869,55.804368],[-4.313869,55.804368],[-4.312134,55.807455],[-4.312134,55.807456],[-4.306641,55.807456],[-4.301147,55.807456],[-4.295654,55.807456],[-4.290161,55.807456],[-4.284668,55.807456],[-4.284668,55.807455],[-4.284668,55.804368],[-4.284668,55.804368],[-4.286346,55.801383]]]}
}
