{
  "id": 1276149997,
  "type": "Feature",
  "properties": {
    "edtf:cessation": "",
    "edtf:inception": "",
    "geom:area": 0,
    "geom:area_square_m": 0,
    "geom:bbox": "-2.083330,55.800000,-2.083330,55.800000",
    "geom:latitude": 55.8,
    "geom:longitude": -2.08333,
    "gn:admin1_code": "SCT",
    "gn:admin2_code": "T9",
    "gn:asciiname": "Mordington Mains",
    "gn:cc2": "GB",
    "gn:country_code": "GB",
    "gn:dem": 121,
    "gn:feature_class": "P",
    "gn:feature_code": "PPL",
    "gn:geonameid": 2642231,
    "gn:latitude": 55.8,
    "gn:longitude": -2.08333,
    "gn:modification_date": "2012-01-17",
    "gn:name": "Mordington Mains",
    "gn:population": 0,
    "gn:timezone": "Europe/London",
    "iso:country": "GB",
    "lbl:bbox": "-2.10333,55.78,-2.06333,55.82",
    "lbl:max_zoom": 18,
    "lbl:min_zoom": 13.5,
    "mz:hierarchy_label": 1,
    "mz:is_current": -1,
    "mz:min_zoom": 12,
    "name:eus_x_preferred": [
      "Mordington"
    ],
    "name:und_x_variant": [
      "Mordington Mains"
    ],
    "src:geom": "geonames",
    "src:population": "wikidata",
    "wof:belongsto": [
      1880773105,
      102191581,
      85633159,
      1880761991,
      404227471,
      1360699015
    ],
    "wof:breaches": [],
    "wof:concordances": {
      "gn:id": 2642231,
      "wk:page": "Mordington"
    },
    "wof:country": "GB",
    "wof:created": 1765388541,
    "wof:geomhash": "f121123469dce1cca924f97abd3554bd",
    "wof:hierarchy": [
      {
        "continent_id": 102191581,
        "country_id": 85633159,
        "county_id": 1360699015,
        "locality_id": 1276149997,
        "macrocounty_id": 1880761991,
        "macroregion_id": 404227471,
        "region_id": 1880773105
      }
    ],
    "wof:id": 1276149997,
    "wof:lastmodified": 1765388541,
    "wof:name": "Mordington Mains",
    "wof:parent_id": 1360699015,
    "wof:placetype": "locality",
    "wof:population": 145,
    "wof:population_rank": 1,
    "wof:repo": "whosonfirst-data-admin-gb",
    "wof:superseded_by": [],
    "wof:supersedes": [],
    "wof:tags": []
  },
  "bbox": [
    -2.08333,
    55.8,
    -2.08333,
    55.8
  ],
  "geometry": {"type":"Point","coordinates":[-2.08333,55.8]}
}
