{
  "id": 1360790807,
  "type": "Feature",
  "properties": {
    "edtf:cessation": "",
    "edtf:inception": "",
    "geom:area": 0,
    "geom:area_square_m": 0,
    "geom:bbox": "0.796417,51.419348,0.796417,51.419348",
    "geom:latitude": 51.419348,
    "geom:longitude": 0.796417,
    "iso:country": "GB",
    "lbl:bbox": "0.791417,51.414348,0.801417,51.424348",
    "lbl:latitude": 51.419349,
    "lbl:longitude": 0.796417,
    "lbl:max_zoom": 18,
    "mps:latitude": 51.419349,
    "mps:longitude": 0.796417,
    "mz:hierarchy_label": 1,
    "mz:is_current": 1,
    "mz:min_zoom": 15,
    "name:ast_x_preferred": [
      "Minster"
    ],
    "name:azb_x_preferred": [
      "مینستر"
    ],
    "name:ben_x_preferred": [
      "মিন্সটার-অন-সী"
    ],
    "name:cym_x_preferred": [
      "Minster"
    ],
    "name:cym_x_variant": [
      "Minster-on-Sea"
    ],
    "name:deu_x_preferred": [
      "Minster"
    ],
    "name:eng_x_preferred": [
      "Minster"
    ],
    "name:fas_x_preferred": [
      "مینستر، کنت"
    ],
    "name:fas_x_variant": [
      "مینستر"
    ],
    "name:fra_x_preferred": [
      "Minster-on-Sea"
    ],
    "name:guj_x_preferred": [
      "મિન્સટર"
    ],
    "name:ita_x_preferred": [
      "Minster"
    ],
    "name:jpn_x_preferred": [
      "ミンスター・オン・シー"
    ],
    "name:kan_x_preferred": [
      "ಮಿನ್ಸ್ಟರ್"
    ],
    "name:kor_x_preferred": [
      "민스터-온-씨"
    ],
    "name:lit_x_preferred": [
      "Minsteris"
    ],
    "name:lld_x_preferred": [
      "Minster"
    ],
    "name:nld_x_preferred": [
      "Minster"
    ],
    "name:pol_x_preferred": [
      "Minster"
    ],
    "name:por_x_preferred": [
      "Minster"
    ],
    "name:rus_x_preferred": [
      "Минстер"
    ],
    "name:spa_x_preferred": [
      "Minster-on-Sea"
    ],
    "name:swe_x_preferred": [
      "Minster-on-Sea"
    ],
    "name:tam_x_preferred": [
      "மின்ஸ்டர்"
    ],
    "name:tel_x_preferred": [
      "మినిస్టర్"
    ],
    "name:urd_x_preferred": [
      "مینستیر"
    ],
    "name:vol_x_preferred": [
      "Minster-in-Sheppey"
    ],
    "qs:a0": "United Kingdom",
    "qs:a1": "*Kent",
    "qs:a1_lc": "GB12290000",
    "qs:a1r": "0England",
    "qs:a1r_lc": "GB12000000",
    "qs:adm0": "United Kingdom",
    "qs:la_lc": "*",
    "qs:level": "locality",
    "qs:loc": "Minster",
    "qs:loc_alt": "Minster",
    "qs:pop": 0,
    "qs:source": "RCustom EuroGlobalMap + UMZ Urban Polygons + Geonames + GeoPlanet",
    "qs:type": "buffered point",
    "src:geom": "whosonfirst",
    "src:geom_alt": [
      "quattroshapes_pg",
      "quattroshapes"
    ],
    "src:geom_via": "quattroshapes",
    "src:lbl_centroid": "mapshaper",
    "src:population": "wikidata",
    "wd:latitude": 51.421,
    "wd:longitude": 0.809,
    "wd:wordcount": 727,
    "wof:belongsto": [
      1880762705,
      102191581,
      1880762057,
      404436029,
      85633159,
      404227469,
      1125872683,
      136253055,
      1880771523
    ],
    "wof:breaches": [],
    "wof:concordances": {
      "gn:id": 2642434,
      "gp:id": 29104,
      "qs_pg:id": 906137,
      "wd:id": "Q609390",
      "wk:page": "Minster, Swale"
    },
    "wof:country": "GB",
    "wof:created": 1765389431,
    "wof:geomhash": "8dae6477a31696b8dcbed02c2a4cebd0",
    "wof:hierarchy": [
      {
        "continent_id": 102191581,
        "country_id": 85633159,
        "county_id": 1880771523,
        "empire_id": 136253055,
        "localadmin_id": 404436029,
        "locality_id": 1125872683,
        "macrocounty_id": 1880762057,
        "macroregion_id": 404227469,
        "neighbourhood_id": 1360790807,
        "region_id": 1880762705
      }
    ],
    "wof:id": 1360790807,
    "wof:lastmodified": 1765389431,
    "wof:name": "Minster",
    "wof:parent_id": 1125872683,
    "wof:placetype": "neighbourhood",
    "wof:population": 17389,
    "wof:population_rank": 6,
    "wof:repo": "whosonfirst-data-admin-gb",
    "wof:superseded_by": [],
    "wof:supersedes": [
      101853499
    ],
    "wof:tags": []
  },
  "bbox": [
    0.796417,
    51.419348,
    0.796417,
    51.419348
  ],
  "geometry": {"type":"Point","coordinates":[0.796417,51.419348]}
}
