{
  "id": 1309833425,
  "type": "Feature",
  "properties": {
    "edtf:cessation": "",
    "edtf:inception": "",
    "geom:area": 0,
    "geom:area_square_m": 0,
    "geom:bbox": "-7.666670,54.550000,-7.666670,54.550000",
    "geom:latitude": 54.55,
    "geom:longitude": -7.66667,
    "gn:admin1_code": "NIR",
    "gn:admin2_code": "N09000006",
    "gn:asciiname": "Ederny",
    "gn:country_code": "GB",
    "gn:dem": 116,
    "gn:feature_class": "P",
    "gn:feature_code": "PPL",
    "gn:geonameid": 2650238,
    "gn:latitude": 54.55,
    "gn:longitude": -7.66667,
    "gn:modification_date": "2016-12-04",
    "gn:name": "Ederny",
    "gn:population": 0,
    "gn:timezone": "Europe/London",
    "iso:country": "GB",
    "lbl:bbox": "-7.68667,54.53,-7.64667,54.57",
    "lbl:max_zoom": 18,
    "lbl:min_zoom": 13.5,
    "mz:hierarchy_label": 1,
    "mz:is_current": -1,
    "mz:min_zoom": 12,
    "src:geom": "geonames",
    "src:population": "wikidata",
    "wof:belongsto": [
      1360699235,
      102191581,
      85633159,
      1880762231,
      404227473,
      136253055,
      1880762257
    ],
    "wof:breaches": [],
    "wof:concordances": {
      "gn:id": 2650238,
      "wk:page": "Ederny"
    },
    "wof:country": "GB",
    "wof:created": 1765388742,
    "wof:geomhash": "57431edb6c083302103d0803bbb0ca10",
    "wof:hierarchy": [
      {
        "continent_id": 102191581,
        "country_id": 85633159,
        "county_id": 1880762257,
        "empire_id": 136253055,
        "locality_id": 1309833425,
        "macrocounty_id": 1880762231,
        "macroregion_id": 404227473,
        "region_id": 1360699235
      }
    ],
    "wof:id": 1309833425,
    "wof:lastmodified": 1765388742,
    "wof:name": "Ederny",
    "wof:parent_id": 1880762257,
    "wof:placetype": "locality",
    "wof:population": 587,
    "wof:population_rank": 2,
    "wof:repo": "whosonfirst-data-admin-gb",
    "wof:superseded_by": [],
    "wof:supersedes": [],
    "wof:tags": []
  },
  "bbox": [
    -7.66667,
    54.55,
    -7.66667,
    54.55
  ],
  "geometry": {"type":"Point","coordinates":[-7.66667,54.55]}
}
