{
  "id": 1360791069,
  "type": "Feature",
  "properties": {
    "edtf:cessation": "",
    "edtf:inception": "",
    "geom:area": 0,
    "geom:area_square_m": 0,
    "geom:bbox": "-2.596346,53.617804,-2.596346,53.617804",
    "geom:latitude": 53.617804,
    "geom:longitude": -2.596346,
    "gn:population": 7965,
    "iso:country": "GB",
    "lbl:bbox": "-2.601346,53.612804,-2.591346,53.622804",
    "lbl:latitude": 53.617804,
    "lbl:longitude": -2.596346,
    "lbl:max_zoom": 18,
    "mps:latitude": 53.617804,
    "mps:longitude": -2.596346,
    "mz:hierarchy_label": 1,
    "mz:is_current": 1,
    "mz:min_zoom": 15,
    "name:ast_x_preferred": [
      "Adlington"
    ],
    "name:azb_x_preferred": [
      "ادلینقتون"
    ],
    "name:bel_x_preferred": [
      "Адлінгтан"
    ],
    "name:ben_x_preferred": [
      "এডলিংটন"
    ],
    "name:cat_x_preferred": [
      "Adlington"
    ],
    "name:ceb_x_preferred": [
      "Adlington"
    ],
    "name:cym_x_preferred": [
      "Adlington"
    ],
    "name:deu_x_preferred": [
      "Adlington"
    ],
    "name:eng_x_preferred": [
      "Adlington"
    ],
    "name:fas_x_preferred": [
      "ادلینگتون، لانکاشر"
    ],
    "name:fas_x_variant": [
      "ادلینگتون"
    ],
    "name:fra_x_preferred": [
      "Adlington"
    ],
    "name:gle_x_preferred": [
      "Adlington"
    ],
    "name:guj_x_preferred": [
      "ઍડલિંગ્ટન"
    ],
    "name:ita_x_preferred": [
      "Adlington"
    ],
    "name:jpn_x_preferred": [
      "アドリントン"
    ],
    "name:kan_x_preferred": [
      "ಅಡ್ಲಿಂಗ್ಟನ್"
    ],
    "name:kor_x_preferred": [
      "애들링턴"
    ],
    "name:lit_x_preferred": [
      "Adlingtonas"
    ],
    "name:nld_x_preferred": [
      "Adlington"
    ],
    "name:nno_x_preferred": [
      "Adlington i Lancashire"
    ],
    "name:nob_x_preferred": [
      "Adlington"
    ],
    "name:nor_x_preferred": [
      "Adlington"
    ],
    "name:pol_x_preferred": [
      "Adlington"
    ],
    "name:por_x_preferred": [
      "Adlington"
    ],
    "name:ron_x_preferred": [
      "Adlington"
    ],
    "name:rus_x_preferred": [
      "Адлингтон"
    ],
    "name:spa_x_preferred": [
      "Adlington"
    ],
    "name:swe_x_preferred": [
      "Adlington"
    ],
    "name:tam_x_preferred": [
      "அட்லிங்க்டோன்"
    ],
    "name:tel_x_preferred": [
      "అడ్లింగ్టన్"
    ],
    "name:tur_x_preferred": [
      "Adlington"
    ],
    "name:urd_x_preferred": [
      "ادلینجٹن"
    ],
    "name:vol_x_preferred": [
      "Adlington"
    ],
    "name:zho_x_preferred": [
      "阿德林頓"
    ],
    "qs:a0": "United Kingdom",
    "qs:a1": "*Lancashire",
    "qs:a1_lc": "GB12300000",
    "qs:a1r": "0England",
    "qs:a1r_lc": "GB12000000",
    "qs:adm0": "United Kingdom",
    "qs:la_lc": "*",
    "qs:level": "locality",
    "qs:loc": "Adlington",
    "qs:loc_alt": "Adlington",
    "qs:pop": 0,
    "qs:source": "RCustom EuroGlobalMap + UMZ Urban Polygons + Geonames + GeoPlanet",
    "qs:type": "buffered point",
    "src:geom": "whosonfirst",
    "src:geom_alt": [
      "quattroshapes_pg",
      "quattroshapes"
    ],
    "src:geom_via": "quattroshapes",
    "src:lbl_centroid": "mapshaper",
    "src:population": "wikidata",
    "wd:latitude": 53.616546,
    "wd:longitude": -2.598583,
    "wd:wordcount": 1634,
    "wof:belongsto": [
      1880762711,
      102191581,
      1880762053,
      404447707,
      85633159,
      404227469,
      1126020059,
      136253055,
      1880771533
    ],
    "wof:breaches": [],
    "wof:concordances": {
      "gn:id": 6693201,
      "gp:id": 10425,
      "qs_pg:id": 1254883,
      "wd:id": "Q2293656",
      "wk:page": "Adlington, Lancashire"
    },
    "wof:concordances_alt": {
      "qs_pg:id": 1324475
    },
    "wof:country": "GB",
    "wof:created": 1765389451,
    "wof:geomhash": "5e16253ac0990ae75aca11888aea3252",
    "wof:hierarchy": [
      {
        "continent_id": 102191581,
        "country_id": 85633159,
        "county_id": 1880771533,
        "empire_id": 136253055,
        "localadmin_id": 404447707,
        "locality_id": 1126020059,
        "macrocounty_id": 1880762053,
        "macroregion_id": 404227469,
        "neighbourhood_id": 1360791069,
        "region_id": 1880762711
      }
    ],
    "wof:id": 1360791069,
    "wof:lastmodified": 1765389451,
    "wof:name": "Adlington",
    "wof:parent_id": 1126020059,
    "wof:placetype": "neighbourhood",
    "wof:population": 6572,
    "wof:population_rank": 5,
    "wof:repo": "whosonfirst-data-admin-gb",
    "wof:superseded_by": [],
    "wof:supersedes": [
      101872291
    ],
    "wof:tags": []
  },
  "bbox": [
    -2.596346,
    53.617804,
    -2.596346,
    53.617804
  ],
  "geometry": {"type":"Point","coordinates":[-2.596346,53.617804]}
}
