{
  "id": 85791675,
  "type": "Feature",
  "properties": {
    "edtf:cessation": "",
    "edtf:inception": "",
    "geom:area": 0.0007407043475000214,
    "geom:area_square_m": 5711400.8529,
    "geom:bbox": "-0.230713,51.406059,-0.192261,51.435941",
    "geom:latitude": 51.422051613512764,
    "geom:longitude": -0.20973891129288247,
    "gn:latitude": 51.42212,
    "gn:longitude": -0.20805,
    "iso:country": "GB",
    "lbl:latitude": 51.421807,
    "lbl:longitude": -0.212516,
    "lbl:max_zoom": 18,
    "mps:latitude": 51.421475,
    "mps:longitude": -0.209376,
    "mz:hierarchy_label": 1,
    "mz:is_current": -1,
    "mz:is_funky": 0,
    "mz:is_hard_boundary": 0,
    "mz:is_landuse_aoi": 0,
    "mz:is_official": 0,
    "mz:max_zoom": 18,
    "mz:min_zoom": 13,
    "mz:tier_locality": 7,
    "mz:tier_metro": 1,
    "name:ara_x_preferred": [
      "بطولة ويمبلدون"
    ],
    "name:ara_x_variant": [
      "ويمبلدون"
    ],
    "name:arg_x_preferred": [
      "Wimbledon"
    ],
    "name:arz_x_preferred": [
      "ويمبلدون"
    ],
    "name:ast_x_preferred": [
      "Wimbledon"
    ],
    "name:aze_x_preferred": [
      "Uimbldon"
    ],
    "name:bel_x_preferred": [
      "Уімблдан"
    ],
    "name:bul_x_preferred": [
      "Уимбълдън"
    ],
    "name:cat_x_preferred": [
      "Wimbledon"
    ],
    "name:ces_x_preferred": [
      "Wimbledon"
    ],
    "name:cym_x_preferred": [
      "Wimbledon"
    ],
    "name:dan_x_preferred": [
      "Wimbledon"
    ],
    "name:deu_x_preferred": [
      "Wimbledon"
    ],
    "name:ell_x_preferred": [
      "Γουίμπλεντον"
    ],
    "name:eng_x_preferred": [
      "Wimbledon"
    ],
    "name:epo_x_preferred": [
      "Wimbledon"
    ],
    "name:est_x_preferred": [
      "Wimbledon"
    ],
    "name:eus_x_preferred": [
      "Wimbledon"
    ],
    "name:fas_x_preferred": [
      "ویمبلدون"
    ],
    "name:fin_x_preferred": [
      "Wimbledon"
    ],
    "name:fra_x_preferred": [
      "Wimbledon"
    ],
    "name:gle_x_preferred": [
      "Wimbledon"
    ],
    "name:glg_x_preferred": [
      "Wimbledon"
    ],
    "name:heb_x_preferred": [
      "אליפות וימבלדון"
    ],
    "name:heb_x_variant": [
      "וימבלדון"
    ],
    "name:hin_x_preferred": [
      "विंबलडन"
    ],
    "name:hrv_x_preferred": [
      "Wimbledon"
    ],
    "name:hun_x_preferred": [
      "Wimbledon"
    ],
    "name:hye_x_preferred": [
      "Ուիմբլդոն"
    ],
    "name:ile_x_preferred": [
      "Wimbledon"
    ],
    "name:ind_x_preferred": [
      "Wimbledon"
    ],
    "name:ita_x_preferred": [
      "Wimbledon"
    ],
    "name:jpn_x_preferred": [
      "ウィンブルドン"
    ],
    "name:kan_x_preferred": [
      "ವಿಂಬಲ್ಡನ್"
    ],
    "name:kan_x_variant": [
      "ವಿಂಬಲ್ಡನ್‌"
    ],
    "name:kat_x_preferred": [
      "უიმბლდონი"
    ],
    "name:kor_x_preferred": [
      "윔블던"
    ],
    "name:lat_x_preferred": [
      "Wimbledon"
    ],
    "name:lat_x_variant": [
      "Wimbledonia"
    ],
    "name:lit_x_preferred": [
      "Vimbldonas"
    ],
    "name:lld_x_preferred": [
      "Wimbledon"
    ],
    "name:ltz_x_preferred": [
      "Wimbledon"
    ],
    "name:mar_x_preferred": [
      "विंबल्डन"
    ],
    "name:mkd_x_preferred": [
      "Вимблдон"
    ],
    "name:nld_x_preferred": [
      "Wimbledon"
    ],
    "name:nno_x_preferred": [
      "Wimbledon i London"
    ],
    "name:nob_x_preferred": [
      "Wimbledon"
    ],
    "name:nor_x_preferred": [
      "Wimbledon"
    ],
    "name:pol_x_preferred": [
      "Wimbledon"
    ],
    "name:por_x_preferred": [
      "Wimbledon"
    ],
    "name:ron_x_preferred": [
      "Wimbledon"
    ],
    "name:rus_x_preferred": [
      "Уимблдон"
    ],
    "name:sco_x_preferred": [
      "Wimbledon"
    ],
    "name:slk_x_preferred": [
      "Wimbledon"
    ],
    "name:slv_x_preferred": [
      "Wimbledon"
    ],
    "name:spa_x_preferred": [
      "Wimbledon"
    ],
    "name:srp_x_preferred": [
      "Вимблдон"
    ],
    "name:swe_x_preferred": [
      "Wimbledon"
    ],
    "name:tam_x_preferred": [
      "விம்பிள்டன்"
    ],
    "name:tel_x_preferred": [
      "వింబుల్డన్"
    ],
    "name:tha_x_preferred": [
      "เทนนิสวิมเบิลดัน"
    ],
    "name:tha_x_variant": [
      "การแข่งขันเทนนิสวิมเบิลดัน"
    ],
    "name:tur_x_preferred": [
      "Wimbledon"
    ],
    "name:ukr_x_preferred": [
      "Вімблдон"
    ],
    "name:urd_x_preferred": [
      "ومبلڈن، لندن"
    ],
    "name:urd_x_variant": [
      "ومبلڈن"
    ],
    "name:vie_x_preferred": [
      "Wimbledon"
    ],
    "name:yid_x_preferred": [
      "ווימבלדאן"
    ],
    "name:yue_x_preferred": [
      "溫布頓"
    ],
    "name:zho_x_preferred": [
      "温布尔登"
    ],
    "qs:gn_adm0_cc": "GB",
    "qs:gn_fcode": "PPL",
    "qs:gn_local": 2643743,
    "qs:gn_namadm1": "ENG",
    "qs:gn_name": "Wimbledon",
    "qs:local_max": 40697,
    "qs:local_sum": 1675717,
    "qs:localhoods": 643,
    "qs:name": "Wimbledon",
    "qs:name_adm0": "United Kingdom",
    "qs:name_adm1": "England",
    "qs:name_adm2": "Greater London",
    "qs:name_lau": "London Borough of Merton",
    "qs:name_local": "London",
    "qs:photo_max": 610,
    "qs:photo_sum": 4804,
    "qs:placetype": "Suburb",
    "qs:quad_count": 102,
    "qs:woe_adm0": 23424975,
    "qs:woe_adm1": 24554868,
    "qs:woe_adm2": 23416974,
    "qs:woe_lau": 12695834,
    "qs:woe_local": 44418,
    "qs:woe_ver": "7.10.0",
    "src:geom": "quattroshapes",
    "src:geom_alt": [
      "quattroshapes_pg"
    ],
    "src:lbl_centroid": "mz",
    "src:population": "wikidata",
    "wof:belongsto": [
      1880762729,
      102191581,
      1880762179,
      85633159,
      404227469,
      101750367,
      136253055,
      1158857305,
      1880771825
    ],
    "wof:breaches": [],
    "wof:concordances": {
      "gn:id": 2633866,
      "gp:id": 40591,
      "qs_pg:id": 454305,
      "wd:id": "Q736742",
      "wk:page": "Wimbledon, London"
    },
    "wof:country": "GB",
    "wof:created": 1765391236,
    "wof:geom_alt": [
      "quattroshapes_pg"
    ],
    "wof:geomhash": "422a97b66fa02c3ce6b1f8d02f53417e",
    "wof:hierarchy": [
      {
        "borough_id": 1158857305,
        "continent_id": 102191581,
        "country_id": 85633159,
        "county_id": 1880771825,
        "empire_id": 136253055,
        "locality_id": 101750367,
        "macrocounty_id": 1880762179,
        "macroregion_id": 404227469,
        "neighbourhood_id": 85791675,
        "region_id": 1880762729
      }
    ],
    "wof:id": 85791675,
    "wof:lang": [
      "eng"
    ],
    "wof:lastmodified": 1765391236,
    "wof:name": "Wimbledon",
    "wof:parent_id": 1158857305,
    "wof:placetype": "neighbourhood",
    "wof:population": 92765,
    "wof:population_rank": 8,
    "wof:repo": "whosonfirst-data-admin-gb",
    "wof:superseded_by": [],
    "wof:supersedes": [],
    "wof:tags": []
  },
  "bbox": [
    -0.230713,
    51.406059,
    -0.192261,
    51.435941
  ],
  "geometry": {"type":"Polygon","coordinates":[[[-0.211487,51.435941],[-0.21101,51.435176],[-0.209217,51.435176],[-0.20874,51.435176],[-0.20874,51.433464],[-0.203247,51.433464],[-0.203247,51.432608],[-0.2005,51.432608],[-0.197754,51.432608],[-0.197754,51.433464],[-0.1968,51.433464],[-0.192261,51.433464],[-0.192261,51.431752],[-0.192261,51.430039],[-0.192261,51.426614],[-0.192261,51.423189],[-0.195007,51.423189],[-0.195007,51.421477],[-0.195007,51.419764],[-0.195007,51.418051],[-0.197754,51.418051],[-0.197754,51.416338],[-0.197754,51.414625],[-0.197754,51.412912],[-0.197754,51.411383],[-0.197754,51.411015],[-0.197754,51.409486],[-0.200615,51.409486],[-0.201331,51.409104],[-0.202523,51.409486],[-0.203247,51.409486],[-0.203247,51.406059],[-0.204201,51.406059],[-0.204201,51.406059],[-0.207786,51.406059],[-0.207786,51.406059],[-0.20874,51.406059],[-0.20874,51.407773],[-0.211487,51.407773],[-0.211487,51.409486],[-0.214233,51.409486],[-0.219727,51.409486],[-0.219727,51.412056],[-0.219727,51.412912],[-0.219727,51.414625],[-0.219727,51.415482],[-0.221939,51.415482],[-0.222473,51.416338],[-0.223541,51.418051],[-0.225105,51.418051],[-0.22522,51.418235],[-0.227966,51.419703],[-0.227966,51.419764],[-0.227966,51.421477],[-0.230713,51.421477],[-0.230713,51.423189],[-0.227966,51.423189],[-0.227966,51.424902],[-0.227966,51.426614],[-0.227966,51.428327],[-0.22522,51.428327],[-0.22522,51.430039],[-0.222473,51.430039],[-0.222473,51.431752],[-0.221644,51.433082],[-0.220452,51.433464],[-0.219727,51.433697],[-0.219295,51.434112],[-0.218329,51.43369],[-0.218048,51.433464],[-0.21698,51.433464],[-0.21471,51.433464],[-0.214532,51.43432],[-0.214591,51.434603],[-0.214233,51.435176],[-0.213876,51.43575],[-0.21286,51.435207],[-0.211487,51.435941]]]}
}
