{
  "id": 1360807773,
  "type": "Feature",
  "properties": {
    "edtf:cessation": "",
    "edtf:inception": "",
    "geom:area": 0,
    "geom:area_square_m": 0,
    "geom:bbox": "0.611970,52.050350,0.611970,52.050350",
    "geom:latitude": 52.05035,
    "geom:longitude": 0.61197,
    "gn:admin1_code": "ENG",
    "gn:admin2_code": "E4",
    "gn:admin3_code": "22UC",
    "gn:admin4_code": "22UC005",
    "gn:asciiname": "Belchamp Saint Paul",
    "gn:country_code": "GB",
    "gn:dem": 76,
    "gn:feature_class": "P",
    "gn:feature_code": "PPL",
    "gn:geonameid": 2655990,
    "gn:latitude": 52.05035,
    "gn:longitude": 0.61197,
    "gn:modification_date": "2018-07-03",
    "gn:name": "Belchamp Saint Paul",
    "gn:population": 0,
    "gn:timezone": "Europe/London",
    "iso:country": "GB",
    "lbl:bbox": "0.60697,52.04535,0.61697,52.05535",
    "lbl:max_zoom": 18,
    "mz:hierarchy_label": 1,
    "mz:is_current": 1,
    "mz:min_zoom": 15,
    "src:geom": "geonames",
    "src:population": "wikidata",
    "wof:belongsto": [
      1880762723,
      102191581,
      1880762159,
      404434193,
      85633159,
      404227469,
      1360755407,
      136253055,
      1880771437
    ],
    "wof:breaches": [],
    "wof:concordances": {
      "gn:id": 2655990
    },
    "wof:country": "GB",
    "wof:created": 1765390538,
    "wof:geomhash": "7c93da1be8b1378b2a54c8eadfec8e32",
    "wof:hierarchy": [
      {
        "continent_id": 102191581,
        "country_id": 85633159,
        "county_id": 1880771437,
        "empire_id": 136253055,
        "localadmin_id": 404434193,
        "locality_id": 1360755407,
        "macrocounty_id": 1880762159,
        "macroregion_id": 404227469,
        "neighbourhood_id": 1360807773,
        "region_id": 1880762723
      }
    ],
    "wof:id": 1360807773,
    "wof:lastmodified": 1765390538,
    "wof:name": "Belchamp Saint Paul",
    "wof:parent_id": 1360755407,
    "wof:placetype": "neighbourhood",
    "wof:population": 371,
    "wof:population_rank": 2,
    "wof:repo": "whosonfirst-data-admin-gb",
    "wof:superseded_by": [],
    "wof:supersedes": [
      1276688291
    ],
    "wof:tags": []
  },
  "bbox": [
    0.61197,
    52.05035,
    0.61197,
    52.05035
  ],
  "geometry": {"type":"Point","coordinates":[0.61197,52.05035]}
}
