{
  "id": 101750627,
  "type": "Feature",
  "properties": {
    "edtf:cessation": "",
    "edtf:inception": "",
    "geom:area": 0.0016827820489999665,
    "geom:area_square_m": 11704121.301776,
    "geom:bbox": "-4.095241,55.750013,-4.017792,55.794637",
    "geom:latitude": 55.77256116467123,
    "geom:longitude": -4.058367741116827,
    "gn:admin1_code": "SCT",
    "gn:admin2_code": "W5",
    "gn:asciiname": "Hamilton",
    "gn:country_code": "GB",
    "gn:dem": 68,
    "gn:feature_class": "P",
    "gn:feature_code": "PPLA2",
    "gn:geonameid": 2647570,
    "gn:latitude": 55.76667,
    "gn:longitude": -4.03333,
    "gn:modification_date": "2017-06-15",
    "gn:name": "Hamilton",
    "gn:population": 53200,
    "gn:timezone": "Europe/London",
    "iso:country": "GB",
    "lbl:bbox": "-4.05333,55.74667,-4.01333,55.78667",
    "lbl:latitude": 55.778175,
    "lbl:longitude": -4.061008,
    "lbl:max_zoom": 18,
    "lbl:min_zoom": 13.5,
    "mps:latitude": 55.778175,
    "mps:longitude": -4.061008,
    "mz:hierarchy_label": 1,
    "mz:is_current": 1,
    "mz:max_zoom": 11,
    "mz:min_zoom": 10,
    "name:afr_x_preferred": [
      "Hamilton"
    ],
    "name:ara_x_preferred": [
      "هميلتون"
    ],
    "name:arz_x_preferred": [
      "هاميلتون"
    ],
    "name:ast_x_preferred": [
      "Hamilton"
    ],
    "name:azb_x_preferred": [
      "همیلتون"
    ],
    "name:aze_x_preferred": [
      "Həmilton"
    ],
    "name:aze_x_variant": [
      "Hamilton"
    ],
    "name:bel_x_preferred": [
      "Гамільтан"
    ],
    "name:ben_x_preferred": [
      "হ্যামিল্টন"
    ],
    "name:bre_x_preferred": [
      "Hamaltan"
    ],
    "name:bul_x_preferred": [
      "Хамилтън"
    ],
    "name:cat_x_preferred": [
      "Hamilton"
    ],
    "name:ceb_x_preferred": [
      "Hamilton"
    ],
    "name:ces_x_preferred": [
      "Hamilton"
    ],
    "name:cym_x_preferred": [
      "Hamaltan"
    ],
    "name:cym_x_variant": [
      "Hamilton"
    ],
    "name:dan_x_preferred": [
      "Hamilton"
    ],
    "name:deu_x_preferred": [
      "Hamilton"
    ],
    "name:ell_x_preferred": [
      "Χάμιλτον"
    ],
    "name:eng_x_preferred": [
      "Hamilton"
    ],
    "name:eus_x_preferred": [
      "Hamilton"
    ],
    "name:fas_x_preferred": [
      "همیلتون"
    ],
    "name:fin_x_preferred": [
      "Hamilton"
    ],
    "name:fra_x_preferred": [
      "Hamilton"
    ],
    "name:gla_x_preferred": [
      "Baile Hamaltan"
    ],
    "name:gla_x_variant": [
      "Hamaltan"
    ],
    "name:gle_x_preferred": [
      "Hamaltan"
    ],
    "name:gle_x_variant": [
      "Baile Hamaltan"
    ],
    "name:guj_x_preferred": [
      "હેમિલ્ટન"
    ],
    "name:hbs_x_preferred": [
      "Hamilton"
    ],
    "name:heb_x_preferred": [
      "המילטון"
    ],
    "name:hye_x_preferred": [
      "Համիլթոն"
    ],
    "name:isl_x_preferred": [
      "Hamilton"
    ],
    "name:ita_x_preferred": [
      "Hamilton"
    ],
    "name:jpn_x_preferred": [
      "ハミルトン"
    ],
    "name:kan_x_preferred": [
      "ಹ್ಯಾಮಿಲ್ಟನ್"
    ],
    "name:kor_x_preferred": [
      "해밀턴"
    ],
    "name:lit_x_preferred": [
      "Hamiltonas"
    ],
    "name:nep_x_preferred": [
      "ह्यामिल्टन"
    ],
    "name:nld_x_preferred": [
      "Hamilton"
    ],
    "name:nno_x_preferred": [
      "Hamilton i Skottland"
    ],
    "name:nob_x_preferred": [
      "Hamilton"
    ],
    "name:nor_x_preferred": [
      "Hamilton"
    ],
    "name:oci_x_preferred": [
      "Hamilton"
    ],
    "name:pnb_x_preferred": [
      "ہملٹن"
    ],
    "name:pol_x_preferred": [
      "Hamilton"
    ],
    "name:por_x_preferred": [
      "Hamilton"
    ],
    "name:rus_x_preferred": [
      "Гамильтон"
    ],
    "name:sco_x_preferred": [
      "Hamiltoun"
    ],
    "name:slv_x_preferred": [
      "Hamilton"
    ],
    "name:spa_x_preferred": [
      "Hamilton"
    ],
    "name:swe_x_preferred": [
      "Hamilton"
    ],
    "name:szl_x_preferred": [
      "Hamilton"
    ],
    "name:tam_x_preferred": [
      "ஹாமில்டன்"
    ],
    "name:tat_x_preferred": [
      "Һәмилтон"
    ],
    "name:tel_x_preferred": [
      "హామిల్టన్"
    ],
    "name:ukr_x_preferred": [
      "Гамільтон"
    ],
    "name:urd_x_preferred": [
      "ہیملٹن، جنوبی لینکاشائر"
    ],
    "name:urd_x_variant": [
      "ہیملٹن"
    ],
    "name:zho_x_preferred": [
      "漢密爾頓"
    ],
    "ne:abbrev": "",
    "ne:adm0_a3": "GBR",
    "ne:adm0_label": "7",
    "ne:adm0_sr": "1",
    "ne:adm1_cod_1": "GBR-2010",
    "ne:adm1_code": "GBR-2010",
    "ne:admin": "United Kingdom",
    "ne:area_sqkm": "0.00000000000",
    "ne:check_me": "20",
    "ne:code_hasc": "GB.SL",
    "ne:code_local": "",
    "ne:datarank": "5",
    "ne:diss_me": "2010",
    "ne:featurecla": "Admin-1 scale rank",
    "ne:fips": "UK87",
    "ne:fips_alt": "UKW5",
    "ne:gadm_level": "2",
    "ne:geonunit": "Scotland",
    "ne:gn_a1_code": "GB.W5",
    "ne:gn_id": "3333236",
    "ne:gn_level": "2",
    "ne:gn_name": "South Lanarkshire",
    "ne:gn_region": "",
    "ne:gns_adm1": "",
    "ne:gns_id": "6077678",
    "ne:gns_lang": "ind",
    "ne:gns_level": "1",
    "ne:gns_name": "South Lanarkshire",
    "ne:gns_region": "UK35",
    "ne:gu_a3": "SCT",
    "ne:hasc_maybe": "",
    "ne:iso_3166_2": "GB-",
    "ne:iso_a2": "GB",
    "ne:labelrank": "9",
    "ne:latitude": "55.59810000000",
    "ne:longitude": "-3.82617000000",
    "ne:mapcolor13": 3,
    "ne:mapcolor9": 6,
    "ne:name": "South Lanarkshire",
    "ne:name_alt": "",
    "ne:name_len": 17,
    "ne:name_local": "",
    "ne:note": "",
    "ne:postal": "SL",
    "ne:provnum_ne": "3",
    "ne:region": "South Western",
    "ne:region_cod": "",
    "ne:region_sub": "Glasgow City Region",
    "ne:sameascity": "-99",
    "ne:scalerank": "8",
    "ne:sov_a3": "GB1",
    "ne:sub_code": "",
    "ne:type": "Unitary District",
    "ne:type_en": "Unitary District",
    "ne:wikipedia": "",
    "ne:woe_id": 12696210,
    "ne:woe_label": "",
    "ne:woe_name": "South Lanarkshire",
    "qs:a0": "United Kingdom",
    "qs:a1": "*South Lanarkshire",
    "qs:a1_lc": "GB11RF0000",
    "qs:a1r": "0Scotland",
    "qs:a1r_lc": "GB11000000",
    "qs:adm0": "United Kingdom",
    "qs:id": 0,
    "qs:la_lc": "*",
    "qs:level": "locality",
    "qs:loc": "Hamilton",
    "qs:loc_alt": "Hamilton",
    "qs:pop": 0,
    "qs:source": "RCustom EuroGlobalMap + UMZ Urban Polygons + Geonames + GeoPlanet",
    "qs:type": "urban core",
    "src:geom": "quattroshapes",
    "src:geom_alt": [
      "quattroshapes_pg"
    ],
    "src:lbl_centroid": "mapshaper",
    "src:population": "wikidata",
    "wd:latitude": 55.78,
    "wd:longitude": -4.068056,
    "wd:wordcount": 1983,
    "wof:belongsto": [
      1880773061,
      102191581,
      85633159,
      1880762099,
      404227471,
      136253055,
      1360698969
    ],
    "wof:breaches": [],
    "wof:concordances": {
      "gn:id": 2642474,
      "gp:id": 22274,
      "qs_pg:id": 140829,
      "wd:id": "Q4131",
      "wk:page": "Hamilton, South Lanarkshire"
    },
    "wof:concordances_alt": {
      "gn:id": [
        2647570
      ],
      "qs_pg:id": [
        1082108
      ],
      "wk:page": [
        "Hamilton%2C_South_Lanarkshire"
      ]
    },
    "wof:country": "GB",
    "wof:created": 1765384718,
    "wof:geom_alt": [
      "quattroshapes_pg"
    ],
    "wof:geomhash": "243851f90aa8978a3cf52d12fc76779e",
    "wof:hierarchy": [
      {
        "continent_id": 102191581,
        "country_id": 85633159,
        "county_id": 1360698969,
        "empire_id": 136253055,
        "locality_id": 101750627,
        "macrocounty_id": 1880762099,
        "macroregion_id": 404227471,
        "region_id": 1880773061
      }
    ],
    "wof:id": 101750627,
    "wof:lastmodified": 1765384718,
    "wof:name": "Hamilton",
    "wof:parent_id": 1360698969,
    "wof:placetype": "locality",
    "wof:population": 54080,
    "wof:population_rank": 8,
    "wof:repo": "whosonfirst-data-admin-gb",
    "wof:superseded_by": [],
    "wof:supersedes": [
      1226277905
    ],
    "wof:tags": []
  },
  "bbox": [
    -4.095241,
    55.750013,
    -4.017792,
    55.794637
  ],
  "geometry": {"type":"Polygon","coordinates":[[[-4.017792,55.771227],[-4.022328,55.768176],[-4.024358,55.768139],[-4.027047,55.769321],[-4.032888,55.767229],[-4.03414,55.762001],[-4.039943,55.759953],[-4.040684,55.758222],[-4.039683,55.757614],[-4.035849,55.757573],[-4.035587,55.756094],[-4.039245,55.752517],[-4.038347,55.751761],[-4.044821,55.750013],[-4.049337,55.752195],[-4.048573,55.755132],[-4.053635,55.756781],[-4.057539,55.754474],[-4.068287,55.759653],[-4.064758,55.763598],[-4.07291,55.761496],[-4.073048,55.765826],[-4.089696,55.763168],[-4.095241,55.766485],[-4.088748,55.771068],[-4.094957,55.776261],[-4.090097,55.778949],[-4.083203,55.780177],[-4.077904,55.785292],[-4.070817,55.789608],[-4.064182,55.792406],[-4.054828,55.794637],[-4.049017,55.786953],[-4.044292,55.783229],[-4.036803,55.780876],[-4.025346,55.773309],[-4.017792,55.771227]]]}
}
