{
  "id": 1746419835,
  "type": "Feature",
  "properties": {
    "date:inception_lower": "1952-01-01",
    "date:inception_upper": "1952-12-31",
    "edtf:cessation": "",
    "edtf:inception": "1952",
    "geom:area": 0,
    "geom:bbox": "-5.143863,51.746798,-5.143863,51.746798",
    "geom:latitude": 51.746798,
    "geom:longitude": -5.143863,
    "iso:country": "GB",
    "lbl:latitude": 51.746798,
    "lbl:longitude": -5.143863,
    "mps:latitude": 51.746798,
    "mps:longitude": -5.143863,
    "mz:hierarchy_label": 1,
    "mz:is_current": 1,
    "mz:is_landuse_aoi": 1,
    "name:ceb_x_preferred": [
      "Pembrokeshire Coast National Park"
    ],
    "name:ces_x_preferred": [
      "Národní park Pembrokeshire Coast"
    ],
    "name:cor_x_preferred": [
      "Park Kenedhlek Kost Pennvro"
    ],
    "name:cym_x_preferred": [
      "Parc Cenedlaethol Arfordir Penfro"
    ],
    "name:dan_x_preferred": [
      "Pembrokeshire Coast National Park"
    ],
    "name:eng_x_preferred": [
      "Pembrokeshire Coast National Park"
    ],
    "name:eng_x_variant": [
      "Pembrokeshire Coast"
    ],
    "name:eus_x_preferred": [
      "Pembrokeshire Kostaldeko Parke Nazionala"
    ],
    "name:fin_x_preferred": [
      "Pembrokeshiren rannikko"
    ],
    "name:fra_x_preferred": [
      "parc national côtier du Pembrokeshire"
    ],
    "name:heb_x_preferred": [
      "הפארק הלאומי חופי פמברוקשייר"
    ],
    "name:isl_x_preferred": [
      "Pembrokeshire Coast-þjóðgarðurinn"
    ],
    "name:ita_x_preferred": [
      "Parco nazionale costiero del Pembrokeshire"
    ],
    "name:nld_x_preferred": [
      "Pembrokeshire Coast National Park"
    ],
    "name:nob_x_preferred": [
      "Pembrokeshire Coast nasjonalpark"
    ],
    "name:pnb_x_preferred": [
      "پیمبروکشائر کوسٹ"
    ],
    "name:pol_x_preferred": [
      "Park Narodowy Pembrokeshire Coast"
    ],
    "name:rus_x_preferred": [
      "Национальный парк Побережье Пембрукшира"
    ],
    "name:slk_x_preferred": [
      "Pembrokeshire Coast National Park"
    ],
    "name:swe_x_preferred": [
      "Pembrokeshire Coast National Park"
    ],
    "name:vie_x_preferred": [
      "Vườn quốc gia Bờ Biển Pembrokeshire"
    ],
    "src:geom": "whosonfirst",
    "src:lbl_centroid": "whosonfirst",
    "src:population": "wikidata",
    "wof:belongsto": [
      1880772913,
      102191581,
      1880762181,
      404438979,
      85633159,
      404227475,
      1125878705,
      136253055,
      1360698843
    ],
    "wof:breaches": [],
    "wof:concordances": {
      "wd:id": "Q1893297"
    },
    "wof:country": "GB",
    "wof:created": 1633031161,
    "wof:geomhash": "5b074e3b93afa6d5b2176676858c8d62",
    "wof:hierarchy": [
      {
        "campus_id": 1746419835,
        "continent_id": 102191581,
        "country_id": 85633159,
        "county_id": 1360698843,
        "empire_id": 136253055,
        "localadmin_id": 404438979,
        "locality_id": 1125878705,
        "macrocounty_id": 1880762181,
        "macroregion_id": 404227475,
        "neighbourhood_id": -1,
        "region_id": 1880772913
      }
    ],
    "wof:id": 1746419835,
    "wof:lastmodified": 1765390717,
    "wof:name": "Pembrokeshire Coast National Park",
    "wof:parent_id": 1125878705,
    "wof:placetype": "campus",
    "wof:placetype_local": "National Park",
    "wof:population": 20922,
    "wof:population_rank": 7,
    "wof:repo": "whosonfirst-data-admin-gb",
    "wof:superseded_by": [],
    "wof:supersedes": [],
    "wof:tags": []
  },
  "bbox": [
    -5.143863,
    51.746798,
    -5.143863,
    51.746798
  ],
  "geometry": {"type":"Point","coordinates":[-5.143863,51.746798]}
}
