{
  "id": 1343596667,
  "type": "Feature",
  "properties": {
    "edtf:cessation": "",
    "edtf:inception": "",
    "geom:area": 0,
    "geom:area_square_m": 0,
    "geom:bbox": "-6.683330,54.450000,-6.683330,54.450000",
    "geom:latitude": 54.45,
    "geom:longitude": -6.68333,
    "gn:admin1_code": "NIR",
    "gn:admin2_code": "N09000009",
    "gn:asciiname": "Charlemont",
    "gn:country_code": "GB",
    "gn:dem": 15,
    "gn:feature_class": "P",
    "gn:feature_code": "PPL",
    "gn:geonameid": 2653337,
    "gn:latitude": 54.45,
    "gn:longitude": -6.68333,
    "gn:modification_date": "2016-12-04",
    "gn:name": "Charlemont",
    "gn:population": 0,
    "gn:timezone": "Europe/London",
    "iso:country": "GB",
    "lbl:bbox": "-6.70333,54.43,-6.66333,54.47",
    "lbl:max_zoom": 18,
    "lbl:min_zoom": 13.5,
    "mz:hierarchy_label": 1,
    "mz:is_current": -1,
    "mz:min_zoom": 12,
    "name:deu_x_preferred": [
      "Charlemont"
    ],
    "name:fra_x_preferred": [
      "Charlemont"
    ],
    "name:ita_x_preferred": [
      "Charlemont"
    ],
    "name:rus_x_preferred": [
      "Шарлемон"
    ],
    "src:geom": "geonames",
    "src:population": "wikidata",
    "wof:belongsto": [
      1360699235,
      102191581,
      85633159,
      1880762223,
      404227473,
      136253055,
      1880762263
    ],
    "wof:breaches": [],
    "wof:concordances": {
      "gn:id": 2653337,
      "wk:page": "Charlemont"
    },
    "wof:country": "GB",
    "wof:created": 1765389011,
    "wof:geomhash": "74588227bfa3edfd439722a3db2d8e70",
    "wof:hierarchy": [
      {
        "continent_id": 102191581,
        "country_id": 85633159,
        "county_id": 1880762263,
        "empire_id": 136253055,
        "locality_id": 1343596667,
        "macrocounty_id": 1880762223,
        "macroregion_id": 404227473,
        "region_id": 1360699235
      }
    ],
    "wof:id": 1343596667,
    "wof:lastmodified": 1765389011,
    "wof:name": "Charlemont",
    "wof:parent_id": 1880762263,
    "wof:placetype": "locality",
    "wof:population": 109,
    "wof:population_rank": 1,
    "wof:repo": "whosonfirst-data-admin-gb",
    "wof:superseded_by": [],
    "wof:supersedes": [],
    "wof:tags": []
  },
  "bbox": [
    -6.68333,
    54.45,
    -6.68333,
    54.45
  ],
  "geometry": {"type":"Point","coordinates":[-6.68333,54.45]}
}
