{
  "id": 85789837,
  "type": "Feature",
  "properties": {
    "edtf:cessation": "",
    "edtf:inception": "",
    "geom:area": 0.00022444128200004747,
    "geom:area_square_m": 1724096.611677,
    "geom:bbox": "-0.385949,51.587310,-0.361489,51.600154",
    "geom:latitude": 51.593784545003984,
    "geom:longitude": -0.37398992561201283,
    "gn:latitude": 51.59384,
    "gn:longitude": -0.38216,
    "gn:population": 19158,
    "iso:country": "GB",
    "lbl:latitude": 51.593991,
    "lbl:longitude": -0.378524,
    "lbl:max_zoom": 18,
    "mps:latitude": 51.592429,
    "mps:longitude": -0.373,
    "mz:hierarchy_label": 1,
    "mz:is_current": 1,
    "mz:is_funky": 0,
    "mz:is_hard_boundary": 0,
    "mz:is_landuse_aoi": 0,
    "mz:is_official": 0,
    "mz:max_zoom": 18,
    "mz:min_zoom": 13,
    "mz:tier_locality": 7,
    "mz:tier_metro": 1,
    "name:ara_x_preferred": [
      "بينر"
    ],
    "name:arz_x_preferred": [
      "بينر"
    ],
    "name:azb_x_preferred": [
      "پینر"
    ],
    "name:bel_x_preferred": [
      "Пінер"
    ],
    "name:bul_x_preferred": [
      "Пинер"
    ],
    "name:bul_x_variant": [
      "Пинър"
    ],
    "name:cat_x_preferred": [
      "Pinner"
    ],
    "name:ceb_x_preferred": [
      "Pinner"
    ],
    "name:dan_x_preferred": [
      "Pinner"
    ],
    "name:deu_x_preferred": [
      "Pinner"
    ],
    "name:eng_x_preferred": [
      "Pinner"
    ],
    "name:eng_x_variant": [
      "Plasmarl"
    ],
    "name:fas_x_preferred": [
      "پینر"
    ],
    "name:fin_x_preferred": [
      "Pinner"
    ],
    "name:fra_x_preferred": [
      "Pinner"
    ],
    "name:gle_x_preferred": [
      "Pinner"
    ],
    "name:heb_x_preferred": [
      "פינר"
    ],
    "name:hin_x_preferred": [
      "पिनर"
    ],
    "name:hye_x_preferred": [
      "Փիններ"
    ],
    "name:ita_x_preferred": [
      "Pinner"
    ],
    "name:jpn_x_preferred": [
      "ピナー"
    ],
    "name:nld_x_preferred": [
      "Pinner"
    ],
    "name:nob_x_preferred": [
      "Pinner"
    ],
    "name:pol_x_preferred": [
      "Pinner"
    ],
    "name:rus_x_preferred": [
      "Пиннер"
    ],
    "name:slv_x_preferred": [
      "Pinner"
    ],
    "name:spa_x_preferred": [
      "Pinner"
    ],
    "name:swe_x_preferred": [
      "Pinner"
    ],
    "name:ukr_x_preferred": [
      "Піннер"
    ],
    "name:urd_x_preferred": [
      "پینر"
    ],
    "name:zho_x_preferred": [
      "平納"
    ],
    "qs:gn_adm0_cc": "GB",
    "qs:gn_fcode": "PPL",
    "qs:gn_local": 2643743,
    "qs:gn_namadm1": "ENG",
    "qs:gn_name": "Pinner",
    "qs:local_max": 40697,
    "qs:local_sum": 1675717,
    "qs:localhoods": 643,
    "qs:name": "Pinner",
    "qs:name_adm0": "United Kingdom",
    "qs:name_adm1": "England",
    "qs:name_adm2": "Greater London",
    "qs:name_lau": "London Borough of Harrow",
    "qs:name_local": "London",
    "qs:photo_max": 135,
    "qs:photo_sum": 546,
    "qs:placetype": "Suburb",
    "qs:quad_count": 23,
    "qs:woe_adm0": 23424975,
    "qs:woe_adm1": 24554868,
    "qs:woe_adm2": 23416974,
    "qs:woe_funk": "Grouping neighborhood",
    "qs:woe_lau": 12695829,
    "qs:woe_local": 44418,
    "qs:woe_ver": "7.10.0",
    "src:geom": "quattroshapes",
    "src:geom_alt": [
      "quattroshapes_pg"
    ],
    "src:lbl_centroid": "mz",
    "src:population": "wikidata",
    "wd:latitude": 51.5932,
    "wd:longitude": -0.3894,
    "wd:wordcount": 1810,
    "wof:belongsto": [
      1880762729,
      102191581,
      1880762179,
      85633159,
      404227469,
      101750367,
      136253055,
      1158857263,
      1880771825
    ],
    "wof:breaches": [],
    "wof:concordances": {
      "gn:id": 2640275,
      "gp:id": 32059,
      "qs_pg:id": 1354305,
      "wd:id": "Q2453742",
      "wk:page": "Pinner"
    },
    "wof:country": "GB",
    "wof:created": 1765391147,
    "wof:geom_alt": [
      "quattroshapes_pg"
    ],
    "wof:geomhash": "96ea2f077020196605956fadf6a37ccc",
    "wof:hierarchy": [
      {
        "borough_id": 1158857263,
        "continent_id": 102191581,
        "country_id": 85633159,
        "county_id": 1880771825,
        "empire_id": 136253055,
        "locality_id": 101750367,
        "macrocounty_id": 1880762179,
        "macroregion_id": 404227469,
        "neighbourhood_id": 85789837,
        "region_id": 1880762729
      }
    ],
    "wof:id": 85789837,
    "wof:lang": [
      "eng"
    ],
    "wof:lastmodified": 1765391147,
    "wof:name": "Pinner",
    "wof:parent_id": 1158857263,
    "wof:placetype": "neighbourhood",
    "wof:population": 38698,
    "wof:population_rank": 7,
    "wof:repo": "whosonfirst-data-admin-gb",
    "wof:superseded_by": [],
    "wof:supersedes": [],
    "wof:tags": []
  },
  "bbox": [
    -0.385949,
    51.58731,
    -0.361489,
    51.600154
  ],
  "geometry": {"type":"Polygon","coordinates":[[[-0.379028,51.600154],[-0.377723,51.599254],[-0.374595,51.599254],[-0.373535,51.597548],[-0.373535,51.597548],[-0.368042,51.597548],[-0.368042,51.597548],[-0.366982,51.599254],[-0.362549,51.599254],[-0.362549,51.597548],[-0.362549,51.594135],[-0.362549,51.594135],[-0.361489,51.592429],[-0.362549,51.590723],[-0.362549,51.590723],[-0.368042,51.590723],[-0.368042,51.58731],[-0.368042,51.58731],[-0.37329,51.58731],[-0.373535,51.58731],[-0.375221,51.58731],[-0.376282,51.588163],[-0.378498,51.588163],[-0.379028,51.589016],[-0.381775,51.589016],[-0.381775,51.590723],[-0.385473,51.590723],[-0.385373,51.591206],[-0.385631,51.593282],[-0.385949,51.594135],[-0.385235,51.595284],[-0.384767,51.597548],[-0.384766,51.597548],[-0.384521,51.597784],[-0.383559,51.598714],[-0.383397,51.599149],[-0.379028,51.600154]]]}
}
