{
  "id": 1360790899,
  "type": "Feature",
  "properties": {
    "edtf:cessation": "",
    "edtf:inception": "",
    "geom:area": 0,
    "geom:area_square_m": 0,
    "geom:bbox": "0.193767,51.904828,0.193767,51.904828",
    "geom:latitude": 51.904828,
    "geom:longitude": 0.193767,
    "iso:country": "GB",
    "lbl:bbox": "0.188767,51.899828,0.198767,51.909828",
    "lbl:latitude": 51.904829,
    "lbl:longitude": 0.193767,
    "lbl:max_zoom": 18,
    "mps:latitude": 51.904829,
    "mps:longitude": 0.193767,
    "mz:hierarchy_label": 1,
    "mz:is_current": 1,
    "mz:min_zoom": 15,
    "name:ben_x_preferred": [
      "স্ট্যানস্টেড মাউন্টফিচেট"
    ],
    "name:ceb_x_preferred": [
      "Stansted"
    ],
    "name:cym_x_preferred": [
      "Stansted Mountfitchet"
    ],
    "name:deu_x_preferred": [
      "Stansted Mountfitchet"
    ],
    "name:eng_x_preferred": [
      "Stansted Mountfitchet"
    ],
    "name:eng_x_variant": [
      "Stansted"
    ],
    "name:fas_x_preferred": [
      "استانستد مانتفیچت"
    ],
    "name:fra_x_preferred": [
      "Stansted Mountfitchet"
    ],
    "name:gle_x_preferred": [
      "Stansted Mountfitchet"
    ],
    "name:guj_x_preferred": [
      "સ્ટેનસ્ટેડ માઉન્ટફિટચેટ"
    ],
    "name:heb_x_preferred": [
      "סטנסטנד מאונטפיצ'ט"
    ],
    "name:ita_x_preferred": [
      "Stansted Mountfitchet"
    ],
    "name:jpn_x_preferred": [
      "スタンステッド・マウントフィーチェット"
    ],
    "name:kan_x_preferred": [
      "ಸ್ಟ್ಯಾನ್ಸ್ಟೆಡ್ ಮೌಂಟ್ಫಿಟ್ಚೆಟ್"
    ],
    "name:kor_x_preferred": [
      "스탠티드 마운트피쳇"
    ],
    "name:lat_x_preferred": [
      "Stanesteda De Monte Fixo"
    ],
    "name:lit_x_preferred": [
      "Staunsted Mauntfitčetas"
    ],
    "name:lld_x_preferred": [
      "Stansted Mountfitchet"
    ],
    "name:nan_x_preferred": [
      "Stansted Mountfitchet"
    ],
    "name:nld_x_preferred": [
      "Stansted Mountfitchet"
    ],
    "name:pol_x_preferred": [
      "Stansted Mountfitchet"
    ],
    "name:por_x_preferred": [
      "Stansted Mountfitchet"
    ],
    "name:rus_x_preferred": [
      "Станстед Маунтфитчет"
    ],
    "name:spa_x_preferred": [
      "Stansted Mountfitchet"
    ],
    "name:swe_x_preferred": [
      "Stansted Mountfitchet"
    ],
    "name:tam_x_preferred": [
      "ஸ்டான்ஸ்டெட் மவுண்ட்பிட்சேட்"
    ],
    "name:tel_x_preferred": [
      "స్టాన్స్టెడ్ మౌంట్ ఫిట్చెట్"
    ],
    "name:tur_x_preferred": [
      "Stansted Mountfitchet"
    ],
    "name:urd_x_preferred": [
      "اسٹانسٹڈ موونتفیتچیت"
    ],
    "qs:a0": "United Kingdom",
    "qs:a1": "*Essex",
    "qs:a1_lc": "GB12220000",
    "qs:a1r": "0England",
    "qs:a1r_lc": "GB12000000",
    "qs:adm0": "United Kingdom",
    "qs:la_lc": "*",
    "qs:level": "locality",
    "qs:loc": "Stansted Mountfitchet",
    "qs:loc_alt": "Stansted Mountfitchet",
    "qs:pop": 0,
    "qs:source": "RCustom EuroGlobalMap + UMZ Urban Polygons + Geonames + GeoPlanet",
    "qs:type": "buffered point",
    "src:geom": "whosonfirst",
    "src:geom_alt": [
      "quattroshapes_pg",
      "quattroshapes"
    ],
    "src:geom_via": "quattroshapes",
    "src:lbl_centroid": "mapshaper",
    "src:population": "wikidata",
    "wd:latitude": 51.898,
    "wd:longitude": 0.198,
    "wd:wordcount": 780,
    "wof:belongsto": [
      1880762723,
      102191581,
      1880762159,
      404452717,
      85633159,
      404227469,
      1225973629,
      136253055,
      1880771429
    ],
    "wof:breaches": [],
    "wof:concordances": {
      "fct:id": "0aa15cc8-8f76-11e1-848f-cfd5bf3ef515",
      "gn:id": 2637053,
      "gp:id": 35930,
      "qs_pg:id": 535785,
      "wd:id": "Q126579",
      "wk:page": "Stansted Mountfitchet"
    },
    "wof:concordances_alt": {
      "qs_pg:id": 1114038
    },
    "wof:country": "GB",
    "wof:created": 1765389438,
    "wof:geomhash": "5e05dbf9270af158727c83c796646120",
    "wof:hierarchy": [
      {
        "continent_id": 102191581,
        "country_id": 85633159,
        "county_id": 1880771429,
        "empire_id": 136253055,
        "localadmin_id": 404452717,
        "locality_id": 1225973629,
        "macrocounty_id": 1880762159,
        "macroregion_id": 404227469,
        "neighbourhood_id": 1360790899,
        "region_id": 1880762723
      }
    ],
    "wof:id": 1360790899,
    "wof:lang": [
      "eng"
    ],
    "wof:lastmodified": 1765389438,
    "wof:name": "Stansted Mountfitchet",
    "wof:parent_id": 1225973629,
    "wof:placetype": "neighbourhood",
    "wof:population": 8691,
    "wof:population_rank": 5,
    "wof:repo": "whosonfirst-data-admin-gb",
    "wof:superseded_by": [],
    "wof:supersedes": [
      101854751
    ],
    "wof:tags": []
  },
  "bbox": [
    0.193767,
    51.904828,
    0.193767,
    51.904828
  ],
  "geometry": {"type":"Point","coordinates":[0.193767,51.904828]}
}
