{
  "id": 1360807943,
  "type": "Feature",
  "properties": {
    "edtf:cessation": "",
    "edtf:inception": "",
    "geom:area": 0,
    "geom:area_square_m": 0,
    "geom:bbox": "-1.683330,54.216670,-1.683330,54.216670",
    "geom:latitude": 54.21666999999999,
    "geom:longitude": -1.68333,
    "gn:admin1_code": "ENG",
    "gn:admin2_code": "J7",
    "gn:admin3_code": "36UD",
    "gn:admin4_code": "36UD125",
    "gn:asciiname": "Swinton",
    "gn:country_code": "GB",
    "gn:dem": 117,
    "gn:feature_class": "P",
    "gn:feature_code": "PPL",
    "gn:geonameid": 2636372,
    "gn:latitude": 54.21667,
    "gn:longitude": -1.68333,
    "gn:modification_date": "2018-07-03",
    "gn:name": "Swinton",
    "gn:population": 0,
    "gn:timezone": "Europe/London",
    "iso:country": "GB",
    "lbl:bbox": "-1.68833,54.21167,-1.67833,54.22167",
    "lbl:max_zoom": 18,
    "mz:hierarchy_label": 1,
    "mz:is_current": 1,
    "mz:min_zoom": 15,
    "name:pol_x_preferred": [
      "Swinton"
    ],
    "src:geom": "geonames",
    "src:population": "wikidata",
    "wof:belongsto": [
      1880772891,
      102191581,
      1880762011,
      404430009,
      85633159,
      404227469,
      1360753747,
      136253055,
      1360698753
    ],
    "wof:breaches": [],
    "wof:concordances": {
      "gn:id": 2636372,
      "wk:page": "Swinton%2C_Harrogate"
    },
    "wof:country": "GB",
    "wof:created": 1765390556,
    "wof:geomhash": "473e69a7d437ed459fdf8cba65d76a72",
    "wof:hierarchy": [
      {
        "continent_id": 102191581,
        "country_id": 85633159,
        "county_id": 1360698753,
        "empire_id": 136253055,
        "localadmin_id": 404430009,
        "locality_id": 1360753747,
        "macrocounty_id": 1880762011,
        "macroregion_id": 404227469,
        "neighbourhood_id": 1360807943,
        "region_id": 1880772891
      }
    ],
    "wof:id": 1360807943,
    "wof:lastmodified": 1765390556,
    "wof:name": "Swinton",
    "wof:parent_id": 1360753747,
    "wof:placetype": "neighbourhood",
    "wof:population": 200,
    "wof:population_rank": 2,
    "wof:repo": "whosonfirst-data-admin-gb",
    "wof:superseded_by": [],
    "wof:supersedes": [
      1292932759
    ],
    "wof:tags": []
  },
  "bbox": [
    -1.68333,
    54.21666999999999,
    -1.68333,
    54.21666999999999
  ],
  "geometry": {"type":"Point","coordinates":[-1.68333,54.21666999999999]}
}
