{
  "id": 101873515,
  "type": "Feature",
  "properties": {
    "edtf:cessation": "",
    "edtf:inception": "",
    "geom:area": 0,
    "geom:area_square_m": 0,
    "geom:bbox": "-4.064677,55.678430,-4.064677,55.678430",
    "geom:latitude": 55.67843,
    "geom:longitude": -4.064677,
    "iso:country": "GB",
    "lbl:bbox": "-4.084677,55.65843,-4.044677,55.69843",
    "lbl:latitude": 55.67843,
    "lbl:longitude": -4.064677,
    "lbl:max_zoom": 18,
    "lbl:min_zoom": 13.5,
    "mps:latitude": 55.67843,
    "mps:longitude": -4.064677,
    "mz:hierarchy_label": 1,
    "mz:is_current": 1,
    "mz:min_zoom": 12,
    "name:ast_x_preferred": [
      "Strathaven"
    ],
    "name:bar_x_preferred": [
      "Strathaven"
    ],
    "name:bul_x_preferred": [
      "Стратхавен"
    ],
    "name:ceb_x_preferred": [
      "Strathaven"
    ],
    "name:cym_x_preferred": [
      "Strathaven"
    ],
    "name:eng_x_preferred": [
      "Strathaven"
    ],
    "name:eus_x_preferred": [
      "Strathaven"
    ],
    "name:fas_x_preferred": [
      "استراتی‌ون"
    ],
    "name:fra_x_preferred": [
      "Strathaven"
    ],
    "name:gla_x_preferred": [
      "Srath Abhainn"
    ],
    "name:gla_x_variant": [
      "Srath Athainn"
    ],
    "name:gle_x_preferred": [
      "Strath Aibhne"
    ],
    "name:ita_x_preferred": [
      "Strathaven"
    ],
    "name:jpn_x_preferred": [
      "ストレイバン"
    ],
    "name:nld_x_preferred": [
      "Strathaven"
    ],
    "name:pol_x_preferred": [
      "Strathaven"
    ],
    "name:rus_x_preferred": [
      "Стрейвен"
    ],
    "name:sco_x_preferred": [
      "Straiven"
    ],
    "name:spa_x_preferred": [
      "Strathaven"
    ],
    "name:swe_x_preferred": [
      "Strathaven"
    ],
    "name:zho_x_preferred": [
      "斯特雷文"
    ],
    "qs:a0": "United Kingdom",
    "qs:a1": "*South Lanarkshire",
    "qs:a1_lc": "GB11RF0000",
    "qs:a1r": "0Scotland",
    "qs:a1r_lc": "GB11000000",
    "qs:adm0": "United Kingdom",
    "qs:id": 0,
    "qs:la_lc": "*",
    "qs:level": "locality",
    "qs:loc": "Strathaven",
    "qs:loc_alt": "Strathaven",
    "qs:pop": 0,
    "qs:source": "RCustom EuroGlobalMap + UMZ Urban Polygons + Geonames + GeoPlanet",
    "qs:type": "buffered point",
    "src:geom": "whosonfirst",
    "src:geom_alt": [
      "quattroshapes_pg",
      "quattroshapes"
    ],
    "src:geom_via": "quattroshapes",
    "src:lbl_centroid": "mapshaper",
    "src:population": "wikidata",
    "wd:latitude": 55.68,
    "wd:longitude": -4.069,
    "wd:wordcount": 1659,
    "wof:belongsto": [
      1880773061,
      102191581,
      85633159,
      1880762099,
      404227471,
      136253055,
      1360698969
    ],
    "wof:breaches": [],
    "wof:concordances": {
      "gn:id": 2636710,
      "gp:id": 36429,
      "qs_pg:id": 238226,
      "wd:id": "Q1013550",
      "wk:page": "Strathaven"
    },
    "wof:country": "GB",
    "wof:created": 1765385071,
    "wof:geom_alt": [
      "quattroshapes_pg",
      "quattroshapes"
    ],
    "wof:geomhash": "26d7e1b39cbc40f6674eeb4a93816867",
    "wof:hierarchy": [
      {
        "continent_id": 102191581,
        "country_id": 85633159,
        "county_id": 1360698969,
        "empire_id": 136253055,
        "locality_id": 101873515,
        "macrocounty_id": 1880762099,
        "macroregion_id": 404227471,
        "region_id": 1880773061
      }
    ],
    "wof:id": 101873515,
    "wof:lastmodified": 1765385071,
    "wof:name": "Strathaven",
    "wof:parent_id": 1360698969,
    "wof:placetype": "locality",
    "wof:population": 7350,
    "wof:population_rank": 5,
    "wof:repo": "whosonfirst-data-admin-gb",
    "wof:superseded_by": [],
    "wof:supersedes": [],
    "wof:tags": []
  },
  "bbox": [
    -4.064677,
    55.67843,
    -4.064677,
    55.67843
  ],
  "geometry": {"type":"Point","coordinates":[-4.064677,55.67843]}
}
