{
  "id": 85791309,
  "type": "Feature",
  "properties": {
    "edtf:cessation": "",
    "edtf:inception": "",
    "geom:area": 0.0002658016020000073,
    "geom:area_square_m": 2042288.468779,
    "geom:bbox": "-0.044897,51.575363,-0.009559,51.591871",
    "geom:latitude": 51.58366048274481,
    "geom:longitude": -0.03011153139488045,
    "gn:latitude": 51.59067,
    "gn:longitude": -0.02077,
    "iso:country": "GB",
    "lbl:latitude": 51.588356,
    "lbl:longitude": -0.015924,
    "lbl:max_zoom": 18,
    "mps:latitude": 51.581337,
    "mps:longitude": -0.037744,
    "mz:hierarchy_label": 1,
    "mz:is_current": -1,
    "mz:is_funky": 0,
    "mz:is_hard_boundary": 0,
    "mz:is_landuse_aoi": 0,
    "mz:is_official": 0,
    "mz:max_zoom": 18,
    "mz:min_zoom": 14,
    "mz:tier_locality": 7,
    "mz:tier_metro": 1,
    "name:azb_x_preferred": [
      "والتامستو"
    ],
    "name:bel_x_preferred": [
      "Уолтэмстоу"
    ],
    "name:bul_x_preferred": [
      "Уолтъмстоу"
    ],
    "name:cat_x_preferred": [
      "Walthamstow"
    ],
    "name:ces_x_preferred": [
      "Walthamstow"
    ],
    "name:cym_x_preferred": [
      "Walthamstow"
    ],
    "name:dan_x_preferred": [
      "Walthamstow"
    ],
    "name:deu_x_preferred": [
      "Walthamstow"
    ],
    "name:eng_x_preferred": [
      "Walthamstow"
    ],
    "name:epo_x_preferred": [
      "Walthamstow"
    ],
    "name:fas_x_preferred": [
      "والتامستو"
    ],
    "name:fas_x_variant": [
      "والتامستون"
    ],
    "name:fra_x_preferred": [
      "Walthamstow"
    ],
    "name:gle_x_preferred": [
      "Walthamstow"
    ],
    "name:heb_x_preferred": [
      "וולת'אמסטו"
    ],
    "name:hye_x_preferred": [
      "Ուոլթեմսթոու"
    ],
    "name:ita_x_preferred": [
      "Walthamstow"
    ],
    "name:jpn_x_preferred": [
      "ウォルサムストー"
    ],
    "name:jpn_x_variant": [
      "ワルサムストウ"
    ],
    "name:kat_x_preferred": [
      "უოლტემსტოუ"
    ],
    "name:kor_x_preferred": [
      "월섬스토"
    ],
    "name:lat_x_preferred": [
      "Welcomstowa"
    ],
    "name:mkd_x_preferred": [
      "Волтамстоу"
    ],
    "name:nld_x_preferred": [
      "Walthamstow"
    ],
    "name:nno_x_preferred": [
      "Walthamstow"
    ],
    "name:nob_x_preferred": [
      "Walthamstow"
    ],
    "name:pol_x_preferred": [
      "Walthamstow"
    ],
    "name:ron_x_preferred": [
      "Walthamstow"
    ],
    "name:rus_x_preferred": [
      "Уолтемстоу"
    ],
    "name:slv_x_preferred": [
      "Walthamstow"
    ],
    "name:spa_x_preferred": [
      "Walthamstow"
    ],
    "name:swe_x_preferred": [
      "Walthamstow"
    ],
    "name:tat_x_preferred": [
      "Волтемстоу"
    ],
    "name:ukr_x_preferred": [
      "Волтемстоу"
    ],
    "name:urd_x_preferred": [
      "ویلتھیمسٹو"
    ],
    "name:zho_x_preferred": [
      "瓦森斯陶"
    ],
    "name:zho_x_variant": [
      "沃爾瑟姆斯托",
      "沃尔瑟姆斯托"
    ],
    "qs:gn_adm0_cc": "GB",
    "qs:gn_fcode": "PPLA3",
    "qs:gn_local": 2643743,
    "qs:gn_namadm1": "ENG",
    "qs:gn_name": "Walthamstow",
    "qs:local_max": 40697,
    "qs:local_sum": 1675717,
    "qs:localhoods": 643,
    "qs:name": "Walthamstow",
    "qs:name_adm0": "United Kingdom",
    "qs:name_adm1": "England",
    "qs:name_adm2": "Greater London",
    "qs:name_lau": "London Borough of Waltham Forest",
    "qs:name_local": "London",
    "qs:photo_max": 165,
    "qs:photo_sum": 1895,
    "qs:placetype": "Suburb",
    "qs:quad_count": 62,
    "qs:woe_adm0": 23424975,
    "qs:woe_adm1": 24554868,
    "qs:woe_adm2": 23416974,
    "qs:woe_funk": "Grouping neighborhood",
    "qs:woe_lau": 12695838,
    "qs:woe_local": 44418,
    "qs:woe_ver": "7.10.0",
    "src:geom": "quattroshapes",
    "src:geom_alt": [
      "quattroshapes_pg"
    ],
    "src:lbl_centroid": "mz",
    "src:population": "wikidata",
    "wof:belongsto": [
      1880762729,
      102191581,
      1880762179,
      85633159,
      404227469,
      101750367,
      136253055,
      1158857287,
      1880771825
    ],
    "wof:breaches": [],
    "wof:concordances": {
      "gn:id": 2634838,
      "gp:id": 39076,
      "qs_pg:id": 1074173,
      "wd:id": "Q2321784",
      "wk:page": "Walthamstow"
    },
    "wof:country": "GB",
    "wof:created": 1765391219,
    "wof:geom_alt": [
      "quattroshapes_pg"
    ],
    "wof:geomhash": "eb632ff58efcd9728e0f956b28bf400c",
    "wof:hierarchy": [
      {
        "borough_id": 1158857287,
        "continent_id": 102191581,
        "country_id": 85633159,
        "county_id": 1880771825,
        "empire_id": 136253055,
        "locality_id": 101750367,
        "macrocounty_id": 1880762179,
        "macroregion_id": 404227469,
        "neighbourhood_id": 85791309,
        "region_id": 1880762729
      }
    ],
    "wof:id": 85791309,
    "wof:lang": [
      "eng"
    ],
    "wof:lastmodified": 1765391219,
    "wof:name": "Walthamstow",
    "wof:parent_id": 1158857287,
    "wof:placetype": "neighbourhood",
    "wof:population": 109424,
    "wof:population_rank": 9,
    "wof:repo": "whosonfirst-data-admin-gb",
    "wof:superseded_by": [],
    "wof:supersedes": [],
    "wof:tags": []
  },
  "bbox": [
    -0.044897,
    51.575363,
    -0.009559,
    51.591871
  ],
  "geometry": {"type":"Polygon","coordinates":[[[-0.019226,51.589016],[-0.016479,51.589016],[-0.013733,51.589016],[-0.013203,51.588163],[-0.011516,51.588163],[-0.010986,51.58731],[-0.010548,51.586604],[-0.010066,51.586272],[-0.009877,51.58475],[-0.009559,51.583897],[-0.009559,51.583897],[-0.010273,51.582748],[-0.01236,51.583867],[-0.013733,51.583131],[-0.014209,51.583897],[-0.016479,51.583897],[-0.01875,51.583897],[-0.019226,51.583131],[-0.020325,51.58372],[-0.021286,51.583411],[-0.021973,51.582748],[-0.022686,51.583897],[-0.024719,51.583897],[-0.027466,51.583897],[-0.027466,51.58219],[-0.030212,51.58219],[-0.030212,51.580483],[-0.030212,51.578776],[-0.032959,51.578776],[-0.032959,51.57707],[-0.032959,51.575363],[-0.035706,51.575363],[-0.03905,51.575363],[-0.039166,51.575921],[-0.041199,51.577011],[-0.043945,51.575538],[-0.044897,51.577069],[-0.044544,51.578776],[-0.044897,51.580483],[-0.043945,51.582015],[-0.043837,51.58219],[-0.043945,51.582365],[-0.044897,51.583897],[-0.044897,51.583897],[-0.044544,51.585603],[-0.043945,51.585603],[-0.041675,51.585603],[-0.041624,51.585845],[-0.041199,51.586074],[-0.041199,51.586456],[-0.040512,51.586456],[-0.040512,51.586883],[-0.039825,51.586883],[-0.039825,51.58731],[-0.039588,51.58731],[-0.039551,51.587486],[-0.038452,51.588076],[-0.037976,51.58731],[-0.035706,51.58731],[-0.032959,51.58731],[-0.030212,51.58731],[-0.027466,51.58731],[-0.027466,51.589016],[-0.024719,51.589016],[-0.024719,51.590723],[-0.024719,51.590781],[-0.022686,51.591871],[-0.021973,51.590723],[-0.019226,51.590723],[-0.019226,51.589016]]]}
}
