{
  "id": 85787949,
  "type": "Feature",
  "properties": {
    "edtf:cessation": "",
    "edtf:inception": "",
    "geom:area": 0.00060248005899997,
    "geom:area_square_m": 4638715.380506,
    "geom:bbox": "-0.507501,51.471119,-0.464790,51.501904",
    "geom:latitude": 51.48841202930303,
    "geom:longitude": -0.4836899327443017,
    "gn:latitude": 51.48836,
    "gn:longitude": -0.47757,
    "gn:population": 879,
    "iso:country": "GB",
    "lbl:latitude": 51.485721,
    "lbl:longitude": -0.479403,
    "lbl:max_zoom": 18,
    "mps:latitude": 51.487958,
    "mps:longitude": -0.478351,
    "mz:hierarchy_label": 1,
    "mz:is_current": 1,
    "mz:is_funky": 0,
    "mz:is_hard_boundary": 0,
    "mz:is_landuse_aoi": 0,
    "mz:is_official": 0,
    "mz:max_zoom": 18,
    "mz:min_zoom": 14,
    "mz:tier_locality": 7,
    "mz:tier_metro": 1,
    "name:ceb_x_preferred": [
      "Harmondsworth"
    ],
    "name:ell_x_preferred": [
      "Χάρμοντσουορθ"
    ],
    "name:eng_x_preferred": [
      "Harmondsworth"
    ],
    "name:fin_x_preferred": [
      "Harmondsworth"
    ],
    "name:fra_x_preferred": [
      "Harmondsworth"
    ],
    "name:gle_x_preferred": [
      "Harmondsworth"
    ],
    "name:heb_x_preferred": [
      "הארמונדסוורת"
    ],
    "name:hin_x_preferred": [
      "हार्मंड्सवर्थ"
    ],
    "name:jpn_x_preferred": [
      "ハーモンドワース"
    ],
    "name:nld_x_preferred": [
      "Harmondsworth"
    ],
    "name:nob_x_preferred": [
      "Harmondsworth"
    ],
    "name:nor_x_preferred": [
      "Harmondsworth"
    ],
    "name:pol_x_preferred": [
      "Harmondsworth"
    ],
    "name:spa_x_preferred": [
      "Harmondsworth"
    ],
    "name:swe_x_preferred": [
      "Harmondsworth"
    ],
    "name:urd_x_preferred": [
      "ہارمنڈس ورتھ"
    ],
    "qs:gn_adm0_cc": "GB",
    "qs:gn_fcode": "PPL",
    "qs:gn_local": 2643743,
    "qs:gn_namadm1": "ENG",
    "qs:gn_name": "Harmondsworth",
    "qs:local_max": 40697,
    "qs:local_sum": 1675717,
    "qs:localhoods": 643,
    "qs:name": "Harmondsworth",
    "qs:name_adm0": "United Kingdom",
    "qs:name_adm1": "England",
    "qs:name_adm2": "Greater London",
    "qs:name_lau": "London Borough of Hillingdon",
    "qs:name_local": "London",
    "qs:photo_max": 1487,
    "qs:photo_sum": 2020,
    "qs:placetype": "Suburb",
    "qs:quad_count": 46,
    "qs:woe_adm0": 23424975,
    "qs:woe_adm1": 24554868,
    "qs:woe_adm2": 23416974,
    "qs:woe_funk": "Parented by a neighborhood",
    "qs:woe_lau": 12695831,
    "qs:woe_local": 44418,
    "qs:woe_ver": "7.10.0",
    "src:geom": "quattroshapes",
    "src:geom_alt": [
      "quattroshapes_pg"
    ],
    "src:lbl_centroid": "mz",
    "src:population": "wikidata",
    "wd:wordcount": 1701,
    "wof:belongsto": [
      1880762729,
      102191581,
      1880762179,
      85633159,
      404227469,
      101750367,
      136253055,
      1158857261,
      1880771825
    ],
    "wof:breaches": [],
    "wof:concordances": {
      "gn:id": 6951076,
      "gp:id": 22478,
      "qs_pg:id": 245579,
      "wd:id": "Q2230788",
      "wk:page": "Harmondsworth"
    },
    "wof:country": "GB",
    "wof:created": 1765391057,
    "wof:geom_alt": [
      "quattroshapes_pg"
    ],
    "wof:geomhash": "541f0b03d2ef009ca5be08d82d300942",
    "wof:hierarchy": [
      {
        "borough_id": 1158857261,
        "continent_id": 102191581,
        "country_id": 85633159,
        "county_id": 1880771825,
        "empire_id": 136253055,
        "locality_id": 101750367,
        "macrocounty_id": 1880762179,
        "macroregion_id": 404227469,
        "neighbourhood_id": 85787949,
        "region_id": 1880762729
      }
    ],
    "wof:id": 85787949,
    "wof:lang": [
      "eng"
    ],
    "wof:lastmodified": 1765391057,
    "wof:name": "Harmondsworth",
    "wof:parent_id": 1158857261,
    "wof:placetype": "neighbourhood",
    "wof:population": 1478,
    "wof:population_rank": 3,
    "wof:repo": "whosonfirst-data-admin-gb",
    "wof:superseded_by": [],
    "wof:supersedes": [],
    "wof:tags": []
  },
  "bbox": [
    -0.507501,
    51.471119,
    -0.46479,
    51.501904
  ],
  "geometry": {"type":"Polygon","coordinates":[[[-0.485527,51.501904],[-0.483398,51.498485],[-0.483398,51.498485],[-0.483398,51.498484],[-0.482334,51.496775],[-0.47897,51.496775],[-0.477905,51.495065],[-0.477905,51.495065],[-0.472412,51.495065],[-0.466919,51.495065],[-0.466919,51.495065],[-0.46479,51.495065],[-0.46479,51.495064],[-0.466919,51.491645],[-0.466919,51.491645],[-0.466919,51.488224],[-0.466919,51.488224],[-0.467984,51.486514],[-0.471347,51.486514],[-0.47223,51.485096],[-0.472169,51.484804],[-0.471697,51.482531],[-0.469666,51.481443],[-0.469666,51.481383],[-0.469666,51.479672],[-0.466919,51.479672],[-0.466321,51.479672],[-0.465966,51.477962],[-0.465966,51.477962],[-0.466919,51.476432],[-0.466919,51.476071],[-0.466919,51.47454],[-0.469666,51.47454],[-0.469666,51.47283],[-0.472412,51.47283],[-0.472412,51.471119],[-0.475159,51.471119],[-0.475159,51.47283],[-0.477429,51.47283],[-0.477905,51.47283],[-0.477905,51.473595],[-0.477905,51.47454],[-0.477905,51.476251],[-0.480652,51.476251],[-0.480652,51.477962],[-0.480652,51.479672],[-0.483398,51.479672],[-0.483398,51.481383],[-0.484113,51.482531],[-0.483996,51.483093],[-0.484351,51.484804],[-0.488892,51.484804],[-0.494385,51.484804],[-0.494385,51.484804],[-0.494385,51.488224],[-0.499878,51.488224],[-0.500943,51.486514],[-0.504306,51.486514],[-0.505371,51.488224],[-0.505371,51.488224],[-0.507501,51.491644],[-0.5075,51.491645],[-0.505371,51.495065],[-0.505371,51.495065],[-0.505371,51.495065],[-0.50283,51.499146],[-0.499878,51.496775],[-0.494385,51.496775],[-0.492256,51.498484],[-0.491021,51.498484],[-0.486763,51.501904],[-0.485527,51.501904]]]}
}
