{
  "id": 101873479,
  "type": "Feature",
  "properties": {
    "edtf:cessation": "",
    "edtf:inception": "",
    "geom:area": 0,
    "geom:area_square_m": 0,
    "geom:bbox": "-2.425600,55.599808,-2.425600,55.599808",
    "geom:latitude": 55.599808,
    "geom:longitude": -2.4256,
    "gn:population": 5154,
    "iso:country": "GB",
    "lbl:bbox": "-2.4456,55.579808,-2.4056,55.619808",
    "lbl:latitude": 55.599809,
    "lbl:longitude": -2.4256,
    "lbl:max_zoom": 15,
    "lbl:min_zoom": 11,
    "mps:latitude": 55.599809,
    "mps:longitude": -2.4256,
    "mz:hierarchy_label": 1,
    "mz:is_current": 1,
    "mz:min_zoom": 11,
    "name:ang_x_preferred": [
      "Cealchōh"
    ],
    "name:ast_x_preferred": [
      "Kelso"
    ],
    "name:ben_x_preferred": [
      "কেলসো"
    ],
    "name:cat_x_preferred": [
      "Kelso"
    ],
    "name:ceb_x_preferred": [
      "Kelso"
    ],
    "name:cym_x_preferred": [
      "Kelso"
    ],
    "name:dan_x_preferred": [
      "Kelso"
    ],
    "name:deu_x_preferred": [
      "Kelso"
    ],
    "name:eng_x_preferred": [
      "Kelso"
    ],
    "name:epo_x_preferred": [
      "Kelso"
    ],
    "name:eus_x_preferred": [
      "Kelso"
    ],
    "name:fas_x_preferred": [
      "کلسو"
    ],
    "name:fra_x_preferred": [
      "Kelso"
    ],
    "name:gla_x_preferred": [
      "Cealsach"
    ],
    "name:gle_x_preferred": [
      "Cealsaidh"
    ],
    "name:guj_x_preferred": [
      "કેલ્સો"
    ],
    "name:heb_x_preferred": [
      "קלסו"
    ],
    "name:hye_x_preferred": [
      "Քելսո"
    ],
    "name:ita_x_preferred": [
      "Kelso"
    ],
    "name:jpn_x_preferred": [
      "ケルソー"
    ],
    "name:kan_x_preferred": [
      "ಕೆಲ್ಸೊ"
    ],
    "name:kor_x_preferred": [
      "켈소"
    ],
    "name:lit_x_preferred": [
      "Kelsas"
    ],
    "name:nld_x_preferred": [
      "Kelso"
    ],
    "name:nno_x_preferred": [
      "Kelso"
    ],
    "name:nob_x_preferred": [
      "Kelso"
    ],
    "name:pol_x_preferred": [
      "Kelso"
    ],
    "name:por_x_preferred": [
      "Kelso"
    ],
    "name:rus_x_preferred": [
      "Келсо"
    ],
    "name:sco_x_preferred": [
      "Kelsae"
    ],
    "name:spa_x_preferred": [
      "Kelso"
    ],
    "name:swe_x_preferred": [
      "Kelso"
    ],
    "name:szl_x_preferred": [
      "Kelso"
    ],
    "name:tam_x_preferred": [
      "கெல்சோ"
    ],
    "name:tel_x_preferred": [
      "కెల్సో"
    ],
    "name:ukr_x_preferred": [
      "Келсо"
    ],
    "name:urd_x_preferred": [
      "کیلسو"
    ],
    "name:zho_x_preferred": [
      "凯尔索"
    ],
    "qs:a0": "United Kingdom",
    "qs:a1": "*Scottish Borders",
    "qs:a1_lc": "GB11QE0000",
    "qs:a1r": "0Scotland",
    "qs:a1r_lc": "GB11000000",
    "qs:adm0": "United Kingdom",
    "qs:id": 0,
    "qs:la_lc": "*",
    "qs:level": "locality",
    "qs:loc": "Kelso",
    "qs:loc_alt": "Kelso",
    "qs:pop": 0,
    "qs:source": "RCustom EuroGlobalMap + UMZ Urban Polygons + Geonames + GeoPlanet",
    "qs:type": "buffered point",
    "src:geom": "whosonfirst",
    "src:geom_alt": [
      "quattroshapes_pg",
      "quattroshapes"
    ],
    "src:geom_via": "quattroshapes",
    "src:lbl_centroid": "mapshaper",
    "src:population": "wikidata",
    "wd:latitude": 55.583333,
    "wd:longitude": -2.416667,
    "wd:wordcount": 1541,
    "wof:belongsto": [
      1880773105,
      102191581,
      85633159,
      1880761991,
      404227471,
      1360699015
    ],
    "wof:breaches": [],
    "wof:concordances": {
      "fct:id": "0aa5cd58-8f76-11e1-848f-cfd5bf3ef515",
      "gn:id": 2645849,
      "gp:id": 24735,
      "qs_pg:id": 966837,
      "wd:id": "Q654945",
      "wk:page": "Kelso, Scottish Borders"
    },
    "wof:country": "GB",
    "wof:created": 1765385068,
    "wof:geom_alt": [
      "quattroshapes",
      "quattroshapes_pg"
    ],
    "wof:geomhash": "8cf41c97393f4c01c5f9ccb579b0db76",
    "wof:hierarchy": [
      {
        "continent_id": 102191581,
        "country_id": 85633159,
        "county_id": 1360699015,
        "locality_id": 101873479,
        "macrocounty_id": 1880761991,
        "macroregion_id": 404227471,
        "region_id": 1880773105
      }
    ],
    "wof:id": 101873479,
    "wof:lang": [
      "eng"
    ],
    "wof:lastmodified": 1765385068,
    "wof:name": "Kelso",
    "wof:parent_id": 1360699015,
    "wof:placetype": "locality",
    "wof:population": 6910,
    "wof:population_rank": 5,
    "wof:repo": "whosonfirst-data-admin-gb",
    "wof:superseded_by": [],
    "wof:supersedes": [],
    "wof:tags": []
  },
  "bbox": [
    -2.4256,
    55.599808,
    -2.4256,
    55.599808
  ],
  "geometry": {"type":"Point","coordinates":[-2.4256,55.599808]}
}
