{
  "id": 1260008393,
  "type": "Feature",
  "properties": {
    "edtf:cessation": "",
    "edtf:deprecated": "2024-01-19",
    "edtf:inception": "",
    "edtf:superseded": "2024-01-19",
    "geom:area": 0,
    "geom:area_square_m": 0,
    "geom:bbox": "-6.521840,54.298070,-6.521840,54.298070",
    "geom:latitude": 54.29807,
    "geom:longitude": -6.52184,
    "gn:admin1_code": "NIR",
    "gn:admin2_code": "N09000002",
    "gn:asciiname": "Markethill",
    "gn:country_code": "GB",
    "gn:dem": 97,
    "gn:feature_class": "P",
    "gn:feature_code": "PPL",
    "gn:geonameid": 9319471,
    "gn:latitude": 54.29807,
    "gn:longitude": -6.52184,
    "gn:modification_date": "2016-12-04",
    "gn:name": "Markethill",
    "gn:population": 0,
    "gn:timezone": "Europe/London",
    "iso:country": "GB",
    "lbl:bbox": "-6.54184,54.27807,-6.50184,54.31807",
    "lbl:max_zoom": 18,
    "lbl:min_zoom": 13.5,
    "mz:hierarchy_label": 1,
    "mz:is_current": 0,
    "mz:min_zoom": 12,
    "name:eus_x_preferred": [
      "Markethill"
    ],
    "name:fas_x_preferred": [
      "مارکتهیل"
    ],
    "name:ita_x_preferred": [
      "Markethill"
    ],
    "name:msa_x_preferred": [
      "Markethill"
    ],
    "name:nld_x_preferred": [
      "Markethill"
    ],
    "name:pli_x_preferred": [
      "मर्केथिल्ल"
    ],
    "name:spa_x_preferred": [
      "Markethill"
    ],
    "src:geom": "geonames",
    "src:population": "wikidata",
    "wof:belongsto": [
      1360699225,
      102191581,
      85633159,
      1880762227,
      404227473,
      136253055,
      1880762249
    ],
    "wof:breaches": [],
    "wof:concordances": {
      "gn:id": 9319471
    },
    "wof:country": "GB",
    "wof:created": 1765388499,
    "wof:geomhash": "0d507f141841c895c07d59598b607645",
    "wof:hierarchy": [
      {
        "continent_id": 102191581,
        "country_id": 85633159,
        "county_id": 1880762249,
        "empire_id": 136253055,
        "locality_id": 1260008393,
        "macrocounty_id": 1880762227,
        "macroregion_id": 404227473,
        "region_id": 1360699225
      }
    ],
    "wof:id": 1260008393,
    "wof:lastmodified": 1765388499,
    "wof:name": "Markethill",
    "wof:parent_id": 1880762249,
    "wof:placetype": "locality",
    "wof:population": 1647,
    "wof:population_rank": 3,
    "wof:repo": "whosonfirst-data-admin-gb",
    "wof:superseded_by": [
      101873731
    ],
    "wof:supersedes": [],
    "wof:tags": []
  },
  "bbox": [
    -6.52184,
    54.29807,
    -6.52184,
    54.29807
  ],
  "geometry": {"type":"Point","coordinates":[-6.52184,54.29807]}
}
