{
  "id": 1360714935,
  "type": "Feature",
  "properties": {
    "edtf:cessation": "",
    "edtf:inception": "",
    "geom:area": 0,
    "geom:area_square_m": 0,
    "geom:bbox": "-4.877500,51.875000,-4.877500,51.875000",
    "geom:latitude": 51.875,
    "geom:longitude": -4.8775,
    "gn:admin1_code": "WLS",
    "gn:admin2_code": "Y7",
    "gn:admin3_code": "00NS078",
    "gn:asciiname": "Walton East",
    "gn:cc2": "GB",
    "gn:country_code": "GB",
    "gn:dem": 133,
    "gn:feature_class": "P",
    "gn:feature_code": "PPL",
    "gn:geonameid": 2634832,
    "gn:latitude": 51.875,
    "gn:longitude": -4.8775,
    "gn:modification_date": "2016-06-22",
    "gn:name": "Walton East",
    "gn:population": 0,
    "gn:timezone": "Europe/London",
    "iso:country": "GB",
    "lbl:bbox": "-4.8825,51.87,-4.8725,51.88",
    "lbl:max_zoom": 18,
    "mz:hierarchy_label": 1,
    "mz:is_current": -1,
    "mz:min_zoom": 15,
    "name:cym_x_preferred": [
      "Walton East"
    ],
    "name:eus_x_preferred": [
      "Walton East"
    ],
    "name:nld_x_preferred": [
      "Walton East"
    ],
    "name:und_x_variant": [
      "East Walton"
    ],
    "src:geom": "geonames",
    "src:population": "wikidata",
    "wof:belongsto": [
      1880772913,
      102191581,
      1880762181,
      404436849,
      85633159,
      404227475,
      1125930837,
      136253055,
      1360698843
    ],
    "wof:breaches": [],
    "wof:concordances": {
      "gn:id": 2634832,
      "wk:page": "Walton_East"
    },
    "wof:country": "GB",
    "wof:created": 1765389371,
    "wof:geomhash": "fadc9539ac4620ad213c8d936744f585",
    "wof:hierarchy": [
      {
        "continent_id": 102191581,
        "country_id": 85633159,
        "county_id": 1360698843,
        "empire_id": 136253055,
        "localadmin_id": 404436849,
        "locality_id": 1125930837,
        "macrocounty_id": 1880762181,
        "macroregion_id": 404227475,
        "neighbourhood_id": 1360714935,
        "region_id": 1880772913
      }
    ],
    "wof:id": 1360714935,
    "wof:lastmodified": 1765389371,
    "wof:name": "Walton East",
    "wof:parent_id": 1125930837,
    "wof:placetype": "neighbourhood",
    "wof:population": 250,
    "wof:population_rank": 2,
    "wof:repo": "whosonfirst-data-admin-gb",
    "wof:superseded_by": [],
    "wof:supersedes": [
      1259518757
    ],
    "wof:tags": []
  },
  "bbox": [
    -4.8775,
    51.875,
    -4.8775,
    51.875
  ],
  "geometry": {"type":"Point","coordinates":[-4.8775,51.875]}
}
