{
  "id": 420781647,
  "type": "Feature",
  "properties": {
    "edtf:cessation": "",
    "edtf:inception": "",
    "geom:area": 0,
    "geom:area_square_m": 0,
    "geom:bbox": "-0.361878,51.466478,-0.361878,51.466478",
    "geom:latitude": 51.466478,
    "geom:longitude": -0.361878,
    "iso:country": "GB",
    "lbl:bbox": "-0.366877908745,51.4614779753,-0.356877908745,51.4714779753",
    "lbl:latitude": 51.466478,
    "lbl:longitude": -0.361878,
    "lbl:max_zoom": 18,
    "mz:hierarchy_label": 1,
    "mz:is_current": 1,
    "mz:is_funky": 0,
    "mz:is_hard_boundary": 1,
    "mz:is_landuse_aoi": 0,
    "mz:is_official": 1,
    "mz:max_zoom": 18,
    "mz:min_zoom": 12,
    "mz:tier_locality": 0,
    "name:ara_x_preferred": [
      "هونسلو"
    ],
    "name:arz_x_preferred": [
      "هونسلو"
    ],
    "name:ast_x_preferred": [
      "Hounslow"
    ],
    "name:azb_x_preferred": [
      "هانزلو"
    ],
    "name:ben_x_preferred": [
      "হাউন্সলো"
    ],
    "name:ben_x_variant": [
      "হন্সলো"
    ],
    "name:ces_x_preferred": [
      "Hounslow"
    ],
    "name:cym_x_preferred": [
      "Hounslow"
    ],
    "name:deu_x_preferred": [
      "London Borough of Hounslow"
    ],
    "name:deu_x_variant": [
      "Hounslow"
    ],
    "name:ell_x_preferred": [
      "Χόουνσλοου"
    ],
    "name:eng_x_preferred": [
      "London Borough of Hounslow"
    ],
    "name:eng_x_variant": [
      "Hounslow"
    ],
    "name:fas_x_preferred": [
      "هانزلو"
    ],
    "name:fin_x_preferred": [
      "Hounslow"
    ],
    "name:fra_x_preferred": [
      "Hounslow"
    ],
    "name:gle_x_preferred": [
      "Hounslow"
    ],
    "name:guj_x_preferred": [
      "હ્યુન્સ્લો"
    ],
    "name:heb_x_preferred": [
      "האונסלו"
    ],
    "name:hin_x_preferred": [
      "हाउंस्लो"
    ],
    "name:hun_x_preferred": [
      "Hounslow kerület"
    ],
    "name:ind_x_preferred": [
      "Hounslow"
    ],
    "name:ita_x_preferred": [
      "Hounslow"
    ],
    "name:jpn_x_preferred": [
      "ハウンズロー"
    ],
    "name:kan_x_preferred": [
      "ಹೌನ್ಸ್ಲೊ"
    ],
    "name:kor_x_preferred": [
      "하운즐로"
    ],
    "name:lld_x_preferred": [
      "Hounslow"
    ],
    "name:nld_x_preferred": [
      "Hounslow"
    ],
    "name:nno_x_preferred": [
      "Hounslow"
    ],
    "name:nob_x_preferred": [
      "Hounslow"
    ],
    "name:nor_x_preferred": [
      "Hounslow"
    ],
    "name:pol_x_preferred": [
      "Hounslow"
    ],
    "name:por_x_preferred": [
      "Hounslow"
    ],
    "name:ron_x_preferred": [
      "Hounslow"
    ],
    "name:rus_x_preferred": [
      "Хоунслоу"
    ],
    "name:rus_x_variant": [
      "Хаунслоу"
    ],
    "name:spa_x_preferred": [
      "Hounslow"
    ],
    "name:swe_x_preferred": [
      "Hounslow"
    ],
    "name:tam_x_preferred": [
      "ஹௌன்ஸ்லோவ்"
    ],
    "name:tel_x_preferred": [
      "హౌంస్లౌ"
    ],
    "name:ukr_x_preferred": [
      "Гаунслоу"
    ],
    "name:urd_x_preferred": [
      "ہانزلو"
    ],
    "name:urd_x_variant": [
      "ہنزلو"
    ],
    "name:vie_x_preferred": [
      "Hounslow"
    ],
    "name:zho_x_preferred": [
      "豪恩斯洛"
    ],
    "src:geom": "unknown",
    "src:population": "wikidata",
    "wof:belongsto": [
      1880762729,
      102191581,
      1880762179,
      85633159,
      404227469,
      101750367,
      136253055,
      1158857259,
      1880771825
    ],
    "wof:breaches": [],
    "wof:concordances": {
      "gn:id": 2646517,
      "gp:id": 24020,
      "qs_pg:id": 208574,
      "wd:id": "Q2022317"
    },
    "wof:country": "GB",
    "wof:created": 1458871808,
    "wof:geomhash": "10abb8972981bfe2be3fd180639d70db",
    "wof:hierarchy": [
      {
        "borough_id": 1158857259,
        "continent_id": 102191581,
        "country_id": 85633159,
        "county_id": 1880771825,
        "empire_id": 136253055,
        "locality_id": 101750367,
        "macrocounty_id": 1880762179,
        "macroregion_id": 404227469,
        "neighbourhood_id": 420781647,
        "region_id": 1880762729
      }
    ],
    "wof:id": 420781647,
    "wof:lastmodified": 1765390904,
    "wof:name": "Hounslow",
    "wof:parent_id": 1158857259,
    "wof:placetype": "neighbourhood",
    "wof:population": 103337,
    "wof:population_rank": 9,
    "wof:repo": "whosonfirst-data-admin-gb",
    "wof:superseded_by": [],
    "wof:supersedes": [],
    "wof:tags": []
  },
  "bbox": [
    -0.361878,
    51.466478,
    -0.361878,
    51.466478
  ],
  "geometry": {"type":"Point","coordinates":[-0.361878,51.466478]}
}
