{
  "id": 101873681,
  "type": "Feature",
  "properties": {
    "edtf:cessation": "",
    "edtf:inception": "",
    "geom:area": 0,
    "geom:area_square_m": 0,
    "geom:bbox": "-6.812182,57.901114,-6.812182,57.901114",
    "geom:latitude": 57.901114,
    "geom:longitude": -6.812182,
    "iso:country": "GB",
    "lbl:bbox": "-6.832182,57.881114,-6.792182,57.921114",
    "lbl:latitude": 57.901114,
    "lbl:longitude": -6.812182,
    "lbl:max_zoom": 18,
    "lbl:min_zoom": 13.5,
    "mps:latitude": 57.901114,
    "mps:longitude": -6.812182,
    "mz:hierarchy_label": 1,
    "mz:is_current": 1,
    "mz:min_zoom": 12,
    "name:bre_x_preferred": [
      "An Tairbeart"
    ],
    "name:ceb_x_preferred": [
      "Tarbert"
    ],
    "name:cym_x_preferred": [
      "An Tairbeart"
    ],
    "name:deu_x_preferred": [
      "Tarbert"
    ],
    "name:eng_x_preferred": [
      "Tarbert"
    ],
    "name:eus_x_preferred": [
      "Tarbert"
    ],
    "name:fas_x_preferred": [
      "تاربرت"
    ],
    "name:fin_x_preferred": [
      "An Tairbeart"
    ],
    "name:fra_x_preferred": [
      "Tarbert"
    ],
    "name:gla_x_preferred": [
      "Tairbeart"
    ],
    "name:gle_x_preferred": [
      "An Tairbeart"
    ],
    "name:gle_x_variant": [
      "Tairbeart"
    ],
    "name:jpn_x_preferred": [
      "ターバート"
    ],
    "name:lit_x_preferred": [
      "Tarbertas"
    ],
    "name:nld_x_preferred": [
      "Tarbert"
    ],
    "name:spa_x_preferred": [
      "Tarbert"
    ],
    "name:swe_x_preferred": [
      "Tarbert"
    ],
    "qs:a0": "United Kingdom",
    "qs:a1": "*Na h-Eileanan an Iar",
    "qs:a1_lc": "GB11RJ0000",
    "qs:a1r": "0Scotland",
    "qs:a1r_lc": "GB11000000",
    "qs:adm0": "United Kingdom",
    "qs:id": 0,
    "qs:la_lc": "*",
    "qs:level": "locality",
    "qs:loc": "Tarbert",
    "qs:loc_alt": "Tarbert",
    "qs:pop": 0,
    "qs:source": "RCustom EuroGlobalMap + UMZ Urban Polygons + Geonames + GeoPlanet",
    "qs:type": "buffered point",
    "src:geom": "whosonfirst",
    "src:geom_alt": [
      "quattroshapes_pg",
      "quattroshapes"
    ],
    "src:geom_via": "quattroshapes",
    "src:lbl_centroid": "mapshaper",
    "src:population": "wikidata",
    "wof:belongsto": [
      1880773097,
      102191581,
      85633159,
      1880762027,
      404227471,
      136253055,
      1360699007
    ],
    "wof:breaches": [],
    "wof:concordances": {
      "fct:id": "0aa5be44-8f76-11e1-848f-cfd5bf3ef515",
      "gn:id": 2636239,
      "gp:id": 36967,
      "qs_pg:id": 245747,
      "wd:id": "Q2121588",
      "wk:page": "Tarbert, Harris"
    },
    "wof:country": "GB",
    "wof:created": 1765385082,
    "wof:geom_alt": [
      "quattroshapes",
      "quattroshapes_pg"
    ],
    "wof:geomhash": "523b9b64bf6d15c990847abe537afe93",
    "wof:hierarchy": [
      {
        "continent_id": 102191581,
        "country_id": 85633159,
        "county_id": 1360699007,
        "empire_id": 136253055,
        "locality_id": 101873681,
        "macrocounty_id": 1880762027,
        "macroregion_id": 404227471,
        "region_id": 1880773097
      }
    ],
    "wof:id": 101873681,
    "wof:lang": [
      "eng"
    ],
    "wof:lastmodified": 1765385082,
    "wof:name": "Tarbert",
    "wof:parent_id": 1360699007,
    "wof:placetype": "locality",
    "wof:population": 503,
    "wof:population_rank": 2,
    "wof:repo": "whosonfirst-data-admin-gb",
    "wof:superseded_by": [],
    "wof:supersedes": [],
    "wof:tags": []
  },
  "bbox": [
    -6.812182,
    57.901114,
    -6.812182,
    57.901114
  ],
  "geometry": {"type":"Point","coordinates":[-6.812182,57.901114]}
}
