{
  "id": 1343388003,
  "type": "Feature",
  "properties": {
    "edtf:cessation": "",
    "edtf:inception": "",
    "geom:area": 0,
    "geom:area_square_m": 0,
    "geom:bbox": "-4.433330,57.566700,-4.433330,57.566700",
    "geom:latitude": 57.5667,
    "geom:longitude": -4.43333,
    "gn:admin1_code": "SCT",
    "gn:admin2_code": "V3",
    "gn:asciiname": "Cononbridge",
    "gn:country_code": "GB",
    "gn:dem": 19,
    "gn:feature_class": "P",
    "gn:feature_code": "PPL",
    "gn:geonameid": 6950948,
    "gn:latitude": 57.5667,
    "gn:longitude": -4.43333,
    "gn:modification_date": "2010-05-25",
    "gn:name": "Cononbridge",
    "gn:population": 0,
    "gn:timezone": "Europe/London",
    "iso:country": "GB",
    "lbl:bbox": "-4.45333,57.5467,-4.41333,57.5867",
    "lbl:max_zoom": 18,
    "lbl:min_zoom": 13.5,
    "mz:hierarchy_label": 1,
    "mz:is_current": -1,
    "mz:min_zoom": 12,
    "src:geom": "geonames",
    "src:population": "wikidata",
    "wof:belongsto": [
      1880762005,
      1360699045
    ],
    "wof:breaches": [],
    "wof:concordances": {
      "gn:id": 6950948
    },
    "wof:country": "GB",
    "wof:created": 1765388987,
    "wof:geomhash": "328266c4c0a46c8acb5e701feff6eb1c",
    "wof:hierarchy": [
      {
        "continent_id": -1,
        "country_id": -1,
        "county_id": 1360699045,
        "locality_id": 1343388003,
        "macrocounty_id": 1880762005,
        "region_id": -1
      }
    ],
    "wof:id": 1343388003,
    "wof:lastmodified": 1765388987,
    "wof:name": "Cononbridge",
    "wof:parent_id": 1360699045,
    "wof:placetype": "locality",
    "wof:population": 1990,
    "wof:population_rank": 3,
    "wof:repo": "whosonfirst-data-admin-gb",
    "wof:superseded_by": [],
    "wof:supersedes": [],
    "wof:tags": []
  },
  "bbox": [
    -4.43333,
    57.5667,
    -4.43333,
    57.5667
  ],
  "geometry": {"type":"Point","coordinates":[-4.43333,57.5667]}
}
