{
  "id": 1360806569,
  "type": "Feature",
  "properties": {
    "edtf:cessation": "",
    "edtf:inception": "",
    "geom:area": 0,
    "geom:area_square_m": 0,
    "geom:bbox": "-1.866670,51.783330,-1.866670,51.783330",
    "geom:latitude": 51.78333,
    "geom:longitude": -1.86667,
    "gn:admin1_code": "ENG",
    "gn:admin2_code": "E6",
    "gn:admin3_code": "23UC",
    "gn:admin4_code": "23UC034",
    "gn:asciiname": "Coln Saint Denis",
    "gn:country_code": "GB",
    "gn:dem": 146,
    "gn:feature_class": "P",
    "gn:feature_code": "PPL",
    "gn:geonameid": 2652536,
    "gn:latitude": 51.78333,
    "gn:longitude": -1.86667,
    "gn:modification_date": "2018-07-03",
    "gn:name": "Coln Saint Denis",
    "gn:population": 0,
    "gn:timezone": "Europe/London",
    "iso:country": "GB",
    "lbl:bbox": "-1.87167,51.77833,-1.86167,51.78833",
    "lbl:max_zoom": 18,
    "mz:hierarchy_label": 1,
    "mz:is_current": 1,
    "mz:min_zoom": 15,
    "src:geom": "geonames",
    "src:population": "wikidata",
    "wof:belongsto": [
      1880762693,
      102191581,
      1880762161,
      404442853,
      85633159,
      404227469,
      1360758025,
      136253055,
      1880771449
    ],
    "wof:breaches": [],
    "wof:concordances": {
      "gn:id": 2652536
    },
    "wof:country": "GB",
    "wof:created": 1765390399,
    "wof:geomhash": "edced79142efe1c14d97362cdc82d527",
    "wof:hierarchy": [
      {
        "continent_id": 102191581,
        "country_id": 85633159,
        "county_id": 1880771449,
        "empire_id": 136253055,
        "localadmin_id": 404442853,
        "locality_id": 1360758025,
        "macrocounty_id": 1880762161,
        "macroregion_id": 404227469,
        "neighbourhood_id": 1360806569,
        "region_id": 1880762693
      }
    ],
    "wof:id": 1360806569,
    "wof:lastmodified": 1765390399,
    "wof:name": "Coln Saint Denis",
    "wof:parent_id": 1360758025,
    "wof:placetype": "neighbourhood",
    "wof:population": 183,
    "wof:population_rank": 1,
    "wof:repo": "whosonfirst-data-admin-gb",
    "wof:superseded_by": [],
    "wof:supersedes": [
      1226271865
    ],
    "wof:tags": []
  },
  "bbox": [
    -1.86667,
    51.78333,
    -1.86667,
    51.78333
  ],
  "geometry": {"type":"Point","coordinates":[-1.86667,51.78333]}
}
