{
  "id": 85792235,
  "type": "Feature",
  "properties": {
    "edtf:cessation": "",
    "edtf:inception": "",
    "geom:area": 0.0002968980409999917,
    "geom:area_square_m": 2280177.796012,
    "geom:bbox": "-0.143789,51.594988,-0.114643,51.614606",
    "geom:latitude": 51.60465230724951,
    "geom:longitude": -0.12919845130172547,
    "gn:id": "",
    "iso:country": "GB",
    "lbl:latitude": 51.60668,
    "lbl:longitude": -0.126793,
    "lbl:max_zoom": 18,
    "mps:latitude": 51.604212,
    "mps:longitude": -0.128976,
    "mz:hierarchy_label": 1,
    "mz:is_current": -1,
    "mz:is_funky": 0,
    "mz:is_hard_boundary": 0,
    "mz:is_landuse_aoi": 0,
    "mz:is_official": 0,
    "mz:max_zoom": 18,
    "mz:min_zoom": 14,
    "mz:tier_locality": 7,
    "mz:tier_metro": 1,
    "name:ara_x_preferred": [
      "باوندز غرين"
    ],
    "name:eng_x_preferred": [
      "Bounds Green"
    ],
    "name:fra_x_preferred": [
      "Bounds Green"
    ],
    "name:gle_x_preferred": [
      "Bounds Green"
    ],
    "name:ita_x_preferred": [
      "Bounds Green"
    ],
    "name:jpn_x_preferred": [
      "バウンズ・グリーン"
    ],
    "name:nld_x_preferred": [
      "Bounds Green"
    ],
    "name:nob_x_preferred": [
      "Bounds Green"
    ],
    "name:nor_x_preferred": [
      "Bounds Green"
    ],
    "name:por_x_preferred": [
      "Bounds Green"
    ],
    "name:urd_x_preferred": [
      "باونڈز گرین"
    ],
    "name:zho_x_preferred": [
      "磅林"
    ],
    "qs:gn_adm0_cc": "GB",
    "qs:gn_id": 0,
    "qs:gn_local": 2643743,
    "qs:gn_namadm1": "ENG",
    "qs:local_max": 40697,
    "qs:local_sum": 1675717,
    "qs:localhoods": 643,
    "qs:name": "Bounds Green",
    "qs:name_adm0": "United Kingdom",
    "qs:name_adm1": "England",
    "qs:name_adm2": "Greater London",
    "qs:name_lau": "London Borough of Haringey",
    "qs:name_local": "London",
    "qs:photo_max": 201,
    "qs:photo_sum": 1913,
    "qs:placetype": "Suburb",
    "qs:quad_count": 62,
    "qs:woe_adm0": 23424975,
    "qs:woe_adm1": 24554868,
    "qs:woe_adm2": 23416974,
    "qs:woe_lau": 12695810,
    "qs:woe_local": 44418,
    "qs:woe_ver": "7.10.0",
    "src:geom": "quattroshapes",
    "src:geom_alt": [
      "quattroshapes_pg"
    ],
    "src:lbl_centroid": "mz",
    "src:population": "wikidata",
    "wd:wordcount": 532,
    "wof:belongsto": [
      1880762729,
      102191581,
      1880762179,
      85633159,
      404227469,
      101750367,
      136253055,
      1158857279,
      1880771825
    ],
    "wof:breaches": [],
    "wof:concordances": {
      "gp:id": 43337,
      "qs_pg:id": 1079766,
      "wd:id": "Q3643178"
    },
    "wof:country": "GB",
    "wof:created": 1765391265,
    "wof:geom_alt": [
      "quattroshapes_pg"
    ],
    "wof:geomhash": "eb66b15985063ff27807c903c409a471",
    "wof:hierarchy": [
      {
        "borough_id": 1158857279,
        "continent_id": 102191581,
        "country_id": 85633159,
        "county_id": 1880771825,
        "empire_id": 136253055,
        "locality_id": 101750367,
        "macrocounty_id": 1880762179,
        "macroregion_id": 404227469,
        "neighbourhood_id": 85792235,
        "region_id": 1880762729
      }
    ],
    "wof:id": 85792235,
    "wof:lang": [
      "eng"
    ],
    "wof:lastmodified": 1765391265,
    "wof:name": "Bounds Green",
    "wof:parent_id": 1158857279,
    "wof:placetype": "neighbourhood",
    "wof:population": 14972,
    "wof:population_rank": 6,
    "wof:repo": "whosonfirst-data-admin-gb",
    "wof:superseded_by": [],
    "wof:supersedes": [],
    "wof:tags": []
  },
  "bbox": [
    -0.143789,
    51.594988,
    -0.114643,
    51.614606
  ],
  "geometry": {"type":"Polygon","coordinates":[[[-0.118103,51.6129],[-0.118103,51.611195],[-0.115356,51.611195],[-0.114643,51.610045],[-0.114758,51.609489],[-0.114643,51.608932],[-0.115356,51.607783],[-0.115356,51.606077],[-0.118103,51.606077],[-0.118633,51.605225],[-0.12032,51.605225],[-0.12085,51.604372],[-0.12085,51.602666],[-0.12085,51.60096],[-0.123596,51.60096],[-0.123596,51.599254],[-0.126343,51.599254],[-0.126343,51.598314],[-0.126343,51.597548],[-0.127716,51.597548],[-0.127716,51.596695],[-0.127716,51.596224],[-0.127716,51.595842],[-0.129089,51.595841],[-0.129089,51.594988],[-0.130463,51.594988],[-0.130463,51.595415],[-0.131149,51.595415],[-0.131836,51.595415],[-0.131986,51.595415],[-0.132014,51.595554],[-0.132193,51.595842],[-0.134583,51.595842],[-0.134583,51.596607],[-0.135513,51.597107],[-0.136259,51.596973],[-0.136378,51.597548],[-0.137329,51.597548],[-0.137329,51.599254],[-0.140076,51.599254],[-0.140076,51.60096],[-0.142822,51.60096],[-0.143536,51.602109],[-0.143421,51.602666],[-0.143774,51.604372],[-0.143789,51.604446],[-0.142822,51.605225],[-0.142822,51.607783],[-0.137329,51.607783],[-0.132787,51.607783],[-0.132434,51.609489],[-0.131836,51.609489],[-0.129089,51.609489],[-0.129089,51.611195],[-0.129089,51.611252],[-0.126849,51.612455],[-0.126343,51.612047],[-0.124126,51.612047],[-0.123596,51.6129],[-0.12085,51.6129],[-0.119791,51.614606],[-0.119162,51.614606],[-0.118103,51.6129]]]}
}
