{
  "id": 85787355,
  "type": "Feature",
  "properties": {
    "edtf:cessation": "",
    "edtf:inception": "",
    "geom:area": 0.0009058214479999744,
    "geom:area_square_m": 6994005.61399,
    "geom:bbox": "0.048845,51.337645,0.093384,51.376924",
    "geom:latitude": 51.360040876487,
    "geom:longitude": 0.06854325239558039,
    "iso:country": "GB",
    "lbl:latitude": 51.358393,
    "lbl:longitude": 0.074291,
    "lbl:max_zoom": 18,
    "mps:latitude": 51.358607,
    "mps:longitude": 0.0704,
    "mz:hierarchy_label": 1,
    "mz:is_current": -1,
    "mz:is_funky": 0,
    "mz:is_hard_boundary": 0,
    "mz:is_landuse_aoi": 0,
    "mz:is_official": 0,
    "mz:max_zoom": 18,
    "mz:min_zoom": 14,
    "mz:tier_locality": 7,
    "mz:tier_metro": 1,
    "name:ara_x_preferred": [
      "فارنبرة"
    ],
    "name:arz_x_preferred": [
      "فارنبره"
    ],
    "name:ast_x_preferred": [
      "Farnborough"
    ],
    "name:aze_x_preferred": [
      "Farnboro"
    ],
    "name:cat_x_preferred": [
      "Farnborough"
    ],
    "name:ceb_x_preferred": [
      "Farnborough"
    ],
    "name:ces_x_preferred": [
      "Farnborough"
    ],
    "name:cym_x_preferred": [
      "Farnborough"
    ],
    "name:deu_x_preferred": [
      "Farnborough"
    ],
    "name:ell_x_preferred": [
      "Φάρνμπορο"
    ],
    "name:eng_x_preferred": [
      "Farnborough"
    ],
    "name:epo_x_preferred": [
      "Farnborough"
    ],
    "name:eus_x_preferred": [
      "Farnborough"
    ],
    "name:fas_x_preferred": [
      "فارن‌بورو، همپشر"
    ],
    "name:fas_x_variant": [
      "فارن‌بورو"
    ],
    "name:fin_x_preferred": [
      "Farnborough"
    ],
    "name:fra_x_preferred": [
      "Farnborough"
    ],
    "name:gle_x_preferred": [
      "Farnborough"
    ],
    "name:heb_x_preferred": [
      "פארנבורו"
    ],
    "name:ind_x_preferred": [
      "Farnborough"
    ],
    "name:ita_x_preferred": [
      "Farnborough"
    ],
    "name:jpn_x_preferred": [
      "ファーンボロー"
    ],
    "name:lat_x_preferred": [
      "Farnborough"
    ],
    "name:lld_x_preferred": [
      "Farnborough"
    ],
    "name:nld_x_preferred": [
      "Farnborough"
    ],
    "name:nno_x_preferred": [
      "Farnborough i Hampshire"
    ],
    "name:nob_x_preferred": [
      "Farnborough"
    ],
    "name:pol_x_preferred": [
      "Farnborough"
    ],
    "name:por_x_preferred": [
      "Farnborough"
    ],
    "name:ron_x_preferred": [
      "Farnborough"
    ],
    "name:rus_x_preferred": [
      "Фарнборо"
    ],
    "name:slk_x_preferred": [
      "Farnborough"
    ],
    "name:slv_x_preferred": [
      "Farnborough"
    ],
    "name:spa_x_preferred": [
      "Farnborough"
    ],
    "name:srp_x_preferred": [
      "Фарнборо"
    ],
    "name:swe_x_preferred": [
      "Farnborough"
    ],
    "name:tat_x_preferred": [
      "Фарнборо"
    ],
    "name:tur_x_preferred": [
      "Farnborough"
    ],
    "name:ukr_x_preferred": [
      "Фарнборо"
    ],
    "name:urd_x_preferred": [
      "فارنبورو"
    ],
    "name:vol_x_preferred": [
      "Farnborough"
    ],
    "name:zho_x_preferred": [
      "法恩伯勒"
    ],
    "qs:gn_adm0_cc": "GB",
    "qs:gn_fcode": "PPL",
    "qs:gn_local": 2643743,
    "qs:gn_namadm1": "ENG",
    "qs:gn_name": "Farnborough",
    "qs:local_max": 40697,
    "qs:local_sum": 1675717,
    "qs:localhoods": 643,
    "qs:name": "Farnborough",
    "qs:name_adm0": "United Kingdom",
    "qs:name_adm1": "England",
    "qs:name_adm2": "Greater London",
    "qs:name_lau": "London Borough of Bromley",
    "qs:name_local": "London",
    "qs:photo_max": 74,
    "qs:photo_sum": 1374,
    "qs:placetype": "Suburb",
    "qs:quad_count": 114,
    "qs:woe_adm0": 23424975,
    "qs:woe_adm1": 24554868,
    "qs:woe_adm2": 23416974,
    "qs:woe_funk": "Parented by a neighborhood",
    "qs:woe_lau": 12695824,
    "qs:woe_local": 44418,
    "qs:woe_ver": "7.10.0",
    "src:geom": "quattroshapes",
    "src:geom_alt": [
      "quattroshapes_pg"
    ],
    "src:lbl_centroid": "mz",
    "src:population": "wikidata",
    "wof:belongsto": [
      1880762729,
      102191581,
      1880762179,
      85633159,
      404227469,
      101750367,
      136253055,
      1158857297,
      1880771825
    ],
    "wof:breaches": [],
    "wof:concordances": {
      "gn:id": 2649672,
      "gp:id": 19941,
      "qs_pg:id": 453704,
      "wd:id": "Q547071",
      "wk:page": "Farnborough, Hampshire"
    },
    "wof:country": "GB",
    "wof:created": 1765391032,
    "wof:geom_alt": [
      "quattroshapes_pg"
    ],
    "wof:geomhash": "765dfaf7eed56db19e6dd93b928df129",
    "wof:hierarchy": [
      {
        "borough_id": 1158857297,
        "continent_id": 102191581,
        "country_id": 85633159,
        "county_id": 1880771825,
        "empire_id": 136253055,
        "locality_id": 101750367,
        "macrocounty_id": 1880762179,
        "macroregion_id": 404227469,
        "neighbourhood_id": 85787355,
        "region_id": 1880762729
      }
    ],
    "wof:id": 85787355,
    "wof:lastmodified": 1765391032,
    "wof:name": "Farnborough",
    "wof:parent_id": 1158857297,
    "wof:placetype": "neighbourhood",
    "wof:population": 65034,
    "wof:population_rank": 8,
    "wof:repo": "whosonfirst-data-admin-gb",
    "wof:superseded_by": [],
    "wof:supersedes": [],
    "wof:tags": []
  },
  "bbox": [
    0.048845,
    51.337645,
    0.093384,
    51.376924
  ],
  "geometry": {"type":"Polygon","coordinates":[[[0.053862,51.376924],[0.054932,51.375209],[0.054932,51.375209],[0.054932,51.375209],[0.056002,51.373495],[0.059114,51.373495],[0.059535,51.373784],[0.060244,51.37492],[0.060425,51.374978],[0.060425,51.375209],[0.061147,51.375209],[0.063171,51.375858],[0.065196,51.375209],[0.065918,51.375209],[0.071411,51.375209],[0.071411,51.375209],[0.071411,51.37178],[0.071411,51.37178],[0.072482,51.370066],[0.075834,51.370066],[0.076904,51.368351],[0.076904,51.368351],[0.082397,51.368351],[0.082397,51.368351],[0.082397,51.364921],[0.087891,51.364921],[0.087891,51.364921],[0.087891,51.361492],[0.093384,51.361492],[0.093384,51.361492],[0.093384,51.358062],[0.093384,51.358062],[0.088845,51.358062],[0.088488,51.356346],[0.085144,51.356346],[0.084312,51.355013],[0.083119,51.354631],[0.082397,51.3544],[0.082397,51.351201],[0.082397,51.351201],[0.082397,51.34777],[0.082397,51.34777],[0.08174,51.346717],[0.081657,51.346054],[0.082708,51.337645],[0.079165,51.339191],[0.076904,51.34281],[0.07595,51.344339],[0.072366,51.344339],[0.072366,51.344339],[0.071411,51.344339],[0.071411,51.346054],[0.068665,51.346054],[0.067832,51.347388],[0.066638,51.34777],[0.065918,51.34777],[0.065678,51.34777],[0.065678,51.34777],[0.060425,51.34777],[0.060425,51.34777],[0.060425,51.351201],[0.054932,51.351201],[0.054932,51.351201],[0.052386,51.355276],[0.052721,51.356346],[0.051449,51.360418],[0.049438,51.361491],[0.049438,51.364921],[0.049438,51.368351],[0.049438,51.368351],[0.049439,51.368351],[0.050509,51.370066],[0.049438,51.37178],[0.049438,51.37178],[0.048845,51.372731],[0.049438,51.373681],[0.049438,51.375209],[0.050393,51.375209],[0.051463,51.376924],[0.053862,51.376924]]]}
}
