{
  "id": 1360793993,
  "type": "Feature",
  "properties": {
    "edtf:cessation": "",
    "edtf:inception": "",
    "geom:area": 0,
    "geom:area_square_m": 0,
    "geom:bbox": "-0.960490,52.058080,-0.960490,52.058080",
    "geom:latitude": 52.05808,
    "geom:longitude": -0.96049,
    "gn:country": "GB",
    "gn:fcode": "PPL",
    "gn:population": 0,
    "iso:country": "GB",
    "lbl:bbox": "-0.96549,52.05308,-0.95549,52.06308",
    "lbl:latitude": 52.05808,
    "lbl:longitude": -0.96049,
    "lbl:max_zoom": 18,
    "mz:hierarchy_label": 1,
    "mz:is_current": 1,
    "mz:min_zoom": 15,
    "mz:note": "Quattroshapes Point Gazetteer import 20170519",
    "name:ara_x_preferred": [
      "ليلينغستون ديرل"
    ],
    "name:arz_x_preferred": [
      "ليلينجستون ديرل"
    ],
    "name:ben_x_preferred": [
      "লিলিংস্টোন"
    ],
    "name:ceb_x_preferred": [
      "Lillingstone Dayrell"
    ],
    "name:cym_x_preferred": [
      "Lillingstone Dayrell"
    ],
    "name:deu_x_preferred": [
      "Lillingstone Dayrell"
    ],
    "name:eng_x_preferred": [
      "Lillingstone Dayrell"
    ],
    "name:fas_x_preferred": [
      "لیلینگستون دیرل"
    ],
    "name:fra_x_preferred": [
      "Lillingstone Dayrell"
    ],
    "name:gle_x_preferred": [
      "Lillingstone Dayrell"
    ],
    "name:guj_x_preferred": [
      "લિંગસ્ટોન ડેરેલ"
    ],
    "name:ita_x_preferred": [
      "Lillingstone Dayrell"
    ],
    "name:jpn_x_preferred": [
      "リリングストーン・デイレル・ウィズ・ラフィールド・アビー"
    ],
    "name:kan_x_preferred": [
      "ಲಿಲ್ಲಿಂಗ್ಟೋನ್ ಡೇರೆಲ್"
    ],
    "name:kor_x_preferred": [
      "릴링스톤톤 데이렐 위드 러필드 애비"
    ],
    "name:lit_x_preferred": [
      "Lilingstaun Dairelis"
    ],
    "name:lld_x_preferred": [
      "Lillingstone Dayrell"
    ],
    "name:nan_x_preferred": [
      "Lillingstone Dayrell"
    ],
    "name:nld_x_preferred": [
      "Lillingstone Dayrell"
    ],
    "name:nob_x_preferred": [
      "Lillingstone Dayrell"
    ],
    "name:pol_x_preferred": [
      "Lillingstone Dayrell"
    ],
    "name:por_x_preferred": [
      "Lillingstone Dayrell"
    ],
    "name:rus_x_preferred": [
      "Лилингстоун-Дейрел"
    ],
    "name:spa_x_preferred": [
      "Lillingstone Dayrell"
    ],
    "name:swe_x_preferred": [
      "Lillingstone Dayrell"
    ],
    "name:tam_x_preferred": [
      "லில்லிங்ஸ்டன் டயரல்"
    ],
    "name:tel_x_preferred": [
      "లింగ్ స్టోన్ డైరెల్"
    ],
    "name:tur_x_preferred": [
      "Lillingstone Dayrell"
    ],
    "name:urd_x_preferred": [
      "لیلینجسٹنی دایریل"
    ],
    "qs_pg:aaroncc": "GB",
    "qs_pg:gn_country": "GB",
    "qs_pg:gn_fcode": "PPL",
    "qs_pg:gn_id": 2644506,
    "qs_pg:gn_pop": 0,
    "qs_pg:name": "Lillingstone",
    "qs_pg:name_adm0": "United Kingdom",
    "qs_pg:name_adm1": "England",
    "qs_pg:photos": 332,
    "qs_pg:photos_1k": 67,
    "qs_pg:photos_9k": 1,
    "qs_pg:photos_9r": 5,
    "qs_pg:photos_all": 332,
    "qs_pg:photos_sr": 5,
    "qs_pg:pop_sr": 0,
    "qs_pg:qs_id": 202157,
    "qs_pg:qs_pg_placetype": "locality",
    "qs_pg:qs_pg_placetype_gp": "Town",
    "qs_pg:woe_adm0": 23424975,
    "qs_pg:woe_id": 20089309,
    "src:geom": "qs_pg",
    "src:lbl_centroid": "qs_pg",
    "src:population": "wikidata",
    "woe:adm0_id": 23424975,
    "woe:name_adm0": "United Kingdom",
    "woe:name_adm1": "England",
    "woe:placetype": "Town",
    "wof:belongsto": [
      1880773087,
      102191581,
      1880762141,
      404436311,
      85633159,
      404227469,
      1360758445,
      136253055,
      1360698997
    ],
    "wof:breaches": [],
    "wof:concordances": {
      "gn:id": 2644506,
      "gp:id": 20089309,
      "qs_pg:id": 202157,
      "wd:id": "Q1770554"
    },
    "wof:country": "GB",
    "wof:created": 1497292757,
    "wof:geomhash": "cb211aa2fecaaaffb870c446d2dcfdfe",
    "wof:hierarchy": [
      {
        "continent_id": 102191581,
        "country_id": 85633159,
        "county_id": 1360698997,
        "empire_id": 136253055,
        "localadmin_id": 404436311,
        "locality_id": 1360758445,
        "macrocounty_id": 1880762141,
        "macroregion_id": 404227469,
        "neighbourhood_id": 1360793993,
        "region_id": 1880773087
      }
    ],
    "wof:id": 1360793993,
    "wof:lastmodified": 1765389619,
    "wof:name": "Lillingstone",
    "wof:parent_id": 1360758445,
    "wof:placetype": "neighbourhood",
    "wof:population": 103,
    "wof:population_rank": 1,
    "wof:repo": "whosonfirst-data-admin-gb",
    "wof:superseded_by": [],
    "wof:supersedes": [
      1125836965
    ],
    "wof:tags": []
  },
  "bbox": [
    -0.96049,
    52.05808,
    -0.96049,
    52.05808
  ],
  "geometry": {"type":"Point","coordinates":[-0.96049,52.05808]}
}
