{
  "id": 101750633,
  "type": "Feature",
  "properties": {
    "edtf:cessation": "",
    "edtf:inception": "",
    "geom:area": 0.004484315950999947,
    "geom:area_square_m": 31046967.658582,
    "geom:bbox": "-4.072115,55.924307,-3.938537,55.980717",
    "geom:latitude": 55.95009203388492,
    "geom:longitude": -4.000163611223266,
    "iso:country": "GB",
    "lbl:latitude": 55.95129,
    "lbl:longitude": -3.998891,
    "lbl:max_zoom": 18,
    "lbl:min_zoom": 13.5,
    "mps:latitude": 55.95129,
    "mps:longitude": -3.998891,
    "mz:hierarchy_label": 1,
    "mz:is_current": 1,
    "mz:min_zoom": 12,
    "name:ast_x_preferred": [
      "Cumbernauld"
    ],
    "name:ben_x_preferred": [
      "কাম্বারনল্ড"
    ],
    "name:bul_x_preferred": [
      "Къмбърнолд"
    ],
    "name:cat_x_preferred": [
      "Cumbernauld"
    ],
    "name:ceb_x_preferred": [
      "Cumbernauld"
    ],
    "name:ces_x_preferred": [
      "Cumbernauld"
    ],
    "name:cym_x_preferred": [
      "Cumbernauld"
    ],
    "name:dan_x_preferred": [
      "Cumbernauld"
    ],
    "name:deu_x_preferred": [
      "Cumbernauld"
    ],
    "name:eng_x_preferred": [
      "Cumbernauld"
    ],
    "name:epo_x_preferred": [
      "Cumbernauld"
    ],
    "name:eus_x_preferred": [
      "Cumbernauld"
    ],
    "name:fas_x_preferred": [
      "کامبرنولد"
    ],
    "name:fra_x_preferred": [
      "Cumbernauld"
    ],
    "name:gla_x_preferred": [
      "Comar nan Allt"
    ],
    "name:gle_x_preferred": [
      "Comar nan Allt"
    ],
    "name:guj_x_preferred": [
      "કમ્બર્નાઉલ્ડ"
    ],
    "name:hbs_x_preferred": [
      "Cumbernauld"
    ],
    "name:isl_x_preferred": [
      "Cumbernauld"
    ],
    "name:ita_x_preferred": [
      "Cumbernauld"
    ],
    "name:jpn_x_preferred": [
      "カンバーノールド"
    ],
    "name:kan_x_preferred": [
      "ಕಂಬರ್ನಾಲ್ಡ್"
    ],
    "name:kor_x_preferred": [
      "컴버놀드"
    ],
    "name:lit_x_preferred": [
      "Kambernoldas"
    ],
    "name:nld_x_preferred": [
      "Cumbernauld"
    ],
    "name:nob_x_preferred": [
      "Cumbernauld"
    ],
    "name:pnb_x_preferred": [
      "کمبرنالڈ"
    ],
    "name:pol_x_preferred": [
      "Cumbernauld"
    ],
    "name:por_x_preferred": [
      "Cumbernauld"
    ],
    "name:rus_x_preferred": [
      "Камбернолд"
    ],
    "name:sco_x_preferred": [
      "Cummernaud"
    ],
    "name:spa_x_preferred": [
      "Cumbernauld"
    ],
    "name:swe_x_preferred": [
      "Cumbernauld"
    ],
    "name:tam_x_preferred": [
      "கம்பேர்ன்நஉள்ட"
    ],
    "name:tat_x_preferred": [
      "Камбернолд"
    ],
    "name:tel_x_preferred": [
      "కంబర్నాల్డ్"
    ],
    "name:tha_x_preferred": [
      "คัมเบอร์นอลด์"
    ],
    "name:ukr_x_preferred": [
      "Камбернолд"
    ],
    "name:urd_x_preferred": [
      "کومبیرناولد"
    ],
    "name:zho_x_preferred": [
      "坎伯諾爾德"
    ],
    "qs:a0": "United Kingdom",
    "qs:a1": "*North Lanarkshire",
    "qs:a1_lc": "GB11QZ0000",
    "qs:a1r": "0Scotland",
    "qs:a1r_lc": "GB11000000",
    "qs:adm0": "United Kingdom",
    "qs:id": 0,
    "qs:la_lc": "*",
    "qs:level": "locality",
    "qs:loc": "Cumbernauld",
    "qs:loc_alt": "Cumbernauld",
    "qs:pop": 0,
    "qs:source": "RCustom EuroGlobalMap + UMZ Urban Polygons + Geonames + GeoPlanet",
    "qs:type": "urban core",
    "src:geom": "quattroshapes",
    "src:geom_alt": [
      "quattroshapes_pg"
    ],
    "src:lbl_centroid": "mapshaper",
    "src:population": "wikidata",
    "wd:latitude": 55.94,
    "wd:longitude": -3.98,
    "wd:wordcount": 2673,
    "wof:belongsto": [
      1880773061,
      102191581,
      85633159,
      1880762099,
      404227471,
      136253055,
      1360698949
    ],
    "wof:breaches": [],
    "wof:concordances": {
      "gn:id": 2651715,
      "gp:id": 17646,
      "qs_pg:id": 453601,
      "wd:id": "Q996616",
      "wk:page": "Cumbernauld"
    },
    "wof:country": "GB",
    "wof:created": 1765384718,
    "wof:geom_alt": [
      "quattroshapes_pg"
    ],
    "wof:geomhash": "666539e4136b8ae02633a3ef8f25600c",
    "wof:hierarchy": [
      {
        "continent_id": 102191581,
        "country_id": 85633159,
        "county_id": 1360698949,
        "empire_id": 136253055,
        "locality_id": 101750633,
        "macrocounty_id": 1880762099,
        "macroregion_id": 404227471,
        "region_id": 1880773061
      }
    ],
    "wof:id": 101750633,
    "wof:lastmodified": 1765384718,
    "wof:name": "Cumbernauld",
    "wof:parent_id": 1360698949,
    "wof:placetype": "locality",
    "wof:population": 50920,
    "wof:population_rank": 8,
    "wof:repo": "whosonfirst-data-admin-gb",
    "wof:superseded_by": [],
    "wof:supersedes": [],
    "wof:tags": []
  },
  "bbox": [
    -4.072115,
    55.924307,
    -3.938537,
    55.980717
  ],
  "geometry": {"type":"Polygon","coordinates":[[[-3.942419,55.952427],[-3.954358,55.945295],[-3.962794,55.942891],[-3.963654,55.944046],[-3.962602,55.945411],[-3.963949,55.946547],[-3.969079,55.94369],[-3.962284,55.94055],[-3.955734,55.941645],[-3.958698,55.936184],[-3.96597,55.93262],[-3.977208,55.931764],[-3.978155,55.927916],[-3.982188,55.924307],[-3.995488,55.929887],[-4.001248,55.930604],[-4.004482,55.928602],[-4.019081,55.929231],[-4.02425,55.928352],[-4.031378,55.929087],[-4.042379,55.924388],[-4.058138,55.924328],[-4.05832,55.927101],[-4.06298,55.931395],[-4.072115,55.944576],[-4.068435,55.946302],[-4.038677,55.954655],[-4.020828,55.967158],[-4.013153,55.970301],[-3.977939,55.975159],[-3.973165,55.977275],[-3.958792,55.97903],[-3.951942,55.980717],[-3.943762,55.980504],[-3.948839,55.97305],[-3.942887,55.968839],[-3.938537,55.961738],[-3.940029,55.961585],[-3.947535,55.954726],[-3.942419,55.952427]]]}
}
