{
  "id": 1360808799,
  "type": "Feature",
  "properties": {
    "edtf:cessation": "",
    "edtf:inception": "",
    "geom:area": 0,
    "geom:area_square_m": 0,
    "geom:bbox": "-1.596770,54.921970,-1.596770,54.921970",
    "geom:latitude": 54.92197,
    "geom:longitude": -1.59677,
    "gn:admin1_code": "ENG",
    "gn:admin2_code": "E5",
    "gn:asciiname": "Low Fell \u0026 Chowdene",
    "gn:country_code": "GB",
    "gn:dem": 56,
    "gn:feature_class": "P",
    "gn:feature_code": "PPL",
    "gn:geonameid": 8063590,
    "gn:latitude": 54.92197,
    "gn:longitude": -1.59677,
    "gn:modification_date": "2011-12-01",
    "gn:name": "Low Fell \u0026 Chowdene",
    "gn:population": 0,
    "gn:timezone": "Europe/London",
    "iso:country": "GB",
    "lbl:bbox": "-1.60177,54.91697,-1.59177,54.92697",
    "lbl:max_zoom": 18,
    "mz:hierarchy_label": 1,
    "mz:is_current": 1,
    "mz:min_zoom": 15,
    "name:fra_x_preferred": [
      "Low Fell"
    ],
    "name:gle_x_preferred": [
      "Low Fell"
    ],
    "src:geom": "geonames",
    "src:population": "wikidata",
    "wof:belongsto": [
      1880773053,
      102191581,
      1880762063,
      1360817105,
      85633159,
      404227469,
      101750615,
      136253055,
      1360698881
    ],
    "wof:breaches": [],
    "wof:concordances": {
      "gn:id": 8063590,
      "wk:page": "Low_Fell"
    },
    "wof:country": "GB",
    "wof:created": 1765390645,
    "wof:geomhash": "d5f37cc711dcf14b9af8a78621f47423",
    "wof:hierarchy": [
      {
        "continent_id": 102191581,
        "country_id": 85633159,
        "county_id": 1360698881,
        "empire_id": 136253055,
        "localadmin_id": 1360817105,
        "locality_id": 101750615,
        "macrocounty_id": 1880762063,
        "macroregion_id": 404227469,
        "neighbourhood_id": 1360808799,
        "region_id": 1880773053
      }
    ],
    "wof:id": 1360808799,
    "wof:lastmodified": 1765390645,
    "wof:name": "Low Fell \u0026 Chowdene",
    "wof:parent_id": 101750615,
    "wof:placetype": "neighbourhood",
    "wof:population": 8636,
    "wof:population_rank": 5,
    "wof:repo": "whosonfirst-data-admin-gb",
    "wof:superseded_by": [],
    "wof:supersedes": [
      1326859055
    ],
    "wof:tags": []
  },
  "bbox": [
    -1.59677,
    54.92197,
    -1.59677,
    54.92197
  ],
  "geometry": {"type":"Point","coordinates":[-1.59677,54.92197]}
}
