{
  "id": 1360791039,
  "type": "Feature",
  "properties": {
    "edtf:cessation": "",
    "edtf:inception": "",
    "geom:area": 0,
    "geom:area_square_m": 0,
    "geom:bbox": "-1.349890,53.609344,-1.349890,53.609344",
    "geom:latitude": 53.609344,
    "geom:longitude": -1.34989,
    "iso:country": "GB",
    "lbl:bbox": "-1.35489,53.604344,-1.34489,53.614344",
    "lbl:latitude": 53.609344,
    "lbl:longitude": -1.34989,
    "lbl:max_zoom": 18,
    "mps:latitude": 53.609344,
    "mps:longitude": -1.34989,
    "mz:hierarchy_label": 1,
    "mz:is_current": 1,
    "mz:min_zoom": 15,
    "name:ara_x_preferred": [
      "همسوورث"
    ],
    "name:arz_x_preferred": [
      "همسوورث"
    ],
    "name:ast_x_preferred": [
      "Hemsworth"
    ],
    "name:azb_x_preferred": [
      "همسوورث"
    ],
    "name:ben_x_preferred": [
      "হেমসওর্থ"
    ],
    "name:ceb_x_preferred": [
      "Hemsworth"
    ],
    "name:cym_x_preferred": [
      "Hemsworth"
    ],
    "name:deu_x_preferred": [
      "Hemsworth"
    ],
    "name:eng_x_preferred": [
      "Hemsworth"
    ],
    "name:fas_x_preferred": [
      "همسوورث"
    ],
    "name:fra_x_preferred": [
      "Hemsworth"
    ],
    "name:gle_x_preferred": [
      "Hemsworth"
    ],
    "name:guj_x_preferred": [
      "હેમ્સવર્થ"
    ],
    "name:heb_x_preferred": [
      "המסוורת'"
    ],
    "name:ita_x_preferred": [
      "Hemsworth"
    ],
    "name:jpn_x_preferred": [
      "ヘムズワース"
    ],
    "name:kan_x_preferred": [
      "ಹೆಮ್ಸ್ವರ್ತ್"
    ],
    "name:kor_x_preferred": [
      "햄스워스"
    ],
    "name:lit_x_preferred": [
      "Hemsvortas"
    ],
    "name:nan_x_preferred": [
      "Hemsworth"
    ],
    "name:nld_x_preferred": [
      "Hemsworth"
    ],
    "name:nno_x_preferred": [
      "Hemsworth"
    ],
    "name:pol_x_preferred": [
      "Hemsworth"
    ],
    "name:por_x_preferred": [
      "Hemsworth"
    ],
    "name:ron_x_preferred": [
      "Hemsworth"
    ],
    "name:rus_x_preferred": [
      "Хемсворф"
    ],
    "name:spa_x_preferred": [
      "Hemsworth"
    ],
    "name:swe_x_preferred": [
      "Hemsworth"
    ],
    "name:tel_x_preferred": [
      "హెమ్స్వర్త్"
    ],
    "name:tur_x_preferred": [
      "Hemsworth"
    ],
    "name:ukr_x_preferred": [
      "Гемсворт"
    ],
    "name:urd_x_preferred": [
      "ہیمسوورتھ"
    ],
    "qs:a0": "United Kingdom",
    "qs:a1": "*Wakefield",
    "qs:a1_lc": "GB12DB0000",
    "qs:a1r": "0England",
    "qs:a1r_lc": "GB12000000",
    "qs:adm0": "United Kingdom",
    "qs:la_lc": "*",
    "qs:level": "locality",
    "qs:loc": "Hemsworth",
    "qs:loc_alt": "Hemsworth",
    "qs:pop": 0,
    "qs:source": "RCustom EuroGlobalMap + UMZ Urban Polygons + Geonames + GeoPlanet",
    "qs:type": "buffered point",
    "src:geom": "whosonfirst",
    "src:geom_alt": [
      "quattroshapes_pg",
      "quattroshapes"
    ],
    "src:geom_via": "quattroshapes",
    "src:lbl_centroid": "mapshaper",
    "src:population": "wikidata",
    "wd:latitude": 53.61,
    "wd:longitude": -1.35,
    "wd:wordcount": 653,
    "wof:belongsto": [
      1880773017,
      102191581,
      1880762059,
      404430573,
      85633159,
      404227469,
      1260315703,
      136253055,
      1360698945
    ],
    "wof:breaches": [],
    "wof:concordances": {
      "gn:id": 7287931,
      "gp:id": 22998,
      "qs_pg:id": 1036999,
      "wd:id": "Q2556975",
      "wk:page": "Hemsworth"
    },
    "wof:concordances_alt": {
      "qs_pg:id": 1194274
    },
    "wof:country": "GB",
    "wof:created": 1765389448,
    "wof:geomhash": "b9feca4f4a7fcc0df8074b43c100c16e",
    "wof:hierarchy": [
      {
        "continent_id": 102191581,
        "country_id": 85633159,
        "county_id": 1360698945,
        "empire_id": 136253055,
        "localadmin_id": 404430573,
        "locality_id": 1260315703,
        "macrocounty_id": 1880762059,
        "macroregion_id": 404227469,
        "neighbourhood_id": 1360791039,
        "region_id": 1880773017
      }
    ],
    "wof:id": 1360791039,
    "wof:lastmodified": 1765389448,
    "wof:name": "Hemsworth",
    "wof:parent_id": 1260315703,
    "wof:placetype": "neighbourhood",
    "wof:population": 14165,
    "wof:population_rank": 6,
    "wof:repo": "whosonfirst-data-admin-gb",
    "wof:superseded_by": [],
    "wof:supersedes": [
      101872195
    ],
    "wof:tags": []
  },
  "bbox": [
    -1.34989,
    53.609344,
    -1.34989,
    53.609344
  ],
  "geometry": {"type":"Point","coordinates":[-1.34989,53.609344]}
}
