{
  "id": 85788069,
  "type": "Feature",
  "properties": {
    "edtf:cessation": "",
    "edtf:inception": "",
    "geom:area": 0,
    "geom:area_square_m": 0,
    "geom:bbox": "-1.787797,53.815485,-1.787797,53.815485",
    "geom:latitude": 53.815485,
    "geom:longitude": -1.787797,
    "iso:country": "GB",
    "lbl:bbox": "-1.792797,53.810485,-1.782797,53.820485",
    "lbl:latitude": 53.815485,
    "lbl:longitude": -1.787797,
    "lbl:max_zoom": 18,
    "mps:latitude": 53.811919,
    "mps:longitude": -1.78058,
    "mz:hierarchy_label": 0,
    "mz:is_current": -1,
    "mz:is_funky": 0,
    "mz:is_hard_boundary": 0,
    "mz:is_landuse_aoi": 0,
    "mz:is_official": 0,
    "mz:max_zoom": 18,
    "mz:min_zoom": 14,
    "mz:tier_locality": 3,
    "mz:tier_metro": 30,
    "name:azb_x_preferred": [
      "هتون"
    ],
    "name:ben_x_preferred": [
      "হেট্টন"
    ],
    "name:bre_x_preferred": [
      "Hetton"
    ],
    "name:cat_x_preferred": [
      "Hetton"
    ],
    "name:ceb_x_preferred": [
      "Hetton"
    ],
    "name:ces_x_preferred": [
      "Hetton"
    ],
    "name:cos_x_preferred": [
      "Hetton"
    ],
    "name:cym_x_preferred": [
      "Hetton"
    ],
    "name:dan_x_preferred": [
      "Hetton"
    ],
    "name:deu_x_preferred": [
      "Hetton"
    ],
    "name:eng_x_preferred": [
      "Heaton"
    ],
    "name:eng_x_variant": [
      "Hetton"
    ],
    "name:est_x_preferred": [
      "Hetton"
    ],
    "name:fas_x_preferred": [
      "هتون"
    ],
    "name:fin_x_preferred": [
      "Hetton"
    ],
    "name:fra_x_preferred": [
      "Hetton"
    ],
    "name:gle_x_preferred": [
      "Hetton"
    ],
    "name:glg_x_preferred": [
      "Hetton"
    ],
    "name:guj_x_preferred": [
      "હેટન"
    ],
    "name:hrv_x_preferred": [
      "Hetton"
    ],
    "name:hun_x_preferred": [
      "Hetton"
    ],
    "name:ind_x_preferred": [
      "Hetton"
    ],
    "name:ita_x_preferred": [
      "Hetton"
    ],
    "name:jpn_x_preferred": [
      "ヘットン"
    ],
    "name:kan_x_preferred": [
      "ಹೆಟ್ಟನ್"
    ],
    "name:kor_x_preferred": [
      "헤턴"
    ],
    "name:lav_x_preferred": [
      "Hetton"
    ],
    "name:lit_x_preferred": [
      "Hetonas"
    ],
    "name:lld_x_preferred": [
      "Hetton"
    ],
    "name:ltz_x_preferred": [
      "Hetton"
    ],
    "name:nld_x_preferred": [
      "Hetton"
    ],
    "name:nrm_x_preferred": [
      "Hetton"
    ],
    "name:oci_x_preferred": [
      "Hetton"
    ],
    "name:pol_x_preferred": [
      "Hetton"
    ],
    "name:por_x_preferred": [
      "Hetton"
    ],
    "name:roh_x_preferred": [
      "Hetton"
    ],
    "name:ron_x_preferred": [
      "Hetton"
    ],
    "name:rus_x_preferred": [
      "Хеттон"
    ],
    "name:slk_x_preferred": [
      "Hetton"
    ],
    "name:slv_x_preferred": [
      "Hetton"
    ],
    "name:spa_x_preferred": [
      "Hetton"
    ],
    "name:swe_x_preferred": [
      "Hetton"
    ],
    "name:tah_x_preferred": [
      "Hetton"
    ],
    "name:tam_x_preferred": [
      "ஹார்ரோகடே"
    ],
    "name:tel_x_preferred": [
      "హేట్టన్"
    ],
    "name:tur_x_preferred": [
      "Hetton"
    ],
    "name:urd_x_preferred": [
      "ہیتٹن"
    ],
    "qs:gn_adm0_cc": "GB",
    "qs:gn_fcode": "PPL",
    "qs:gn_local": 2654993,
    "qs:gn_nam_loc": "Bradford",
    "qs:gn_namadm1": "ENG",
    "qs:gn_name": "Hetton",
    "qs:local_max": 4399,
    "qs:local_sum": 22210,
    "qs:localhoods": 31,
    "qs:name": "Heaton",
    "qs:name_adm0": "United Kingdom",
    "qs:name_adm1": "England",
    "qs:name_adm2": "West Yorkshire",
    "qs:name_lau": "Bradford City of",
    "qs:name_local": "Bradford",
    "qs:photo_max": 250,
    "qs:photo_sum": 910,
    "qs:placetype": "Suburb",
    "qs:quad_count": 22,
    "qs:woe_adm0": 23424975,
    "qs:woe_adm1": 24554868,
    "qs:woe_adm2": 12602197,
    "qs:woe_lau": 12695870,
    "qs:woe_local": 13527,
    "qs:woe_ver": "7.10.0",
    "src:geom": "mz",
    "src:geom_alt": [
      "quattroshapes"
    ],
    "src:lbl_centroid": "mz",
    "src:population": "wikidata",
    "wd:latitude": 54.022,
    "wd:longitude": -2.059,
    "wd:wordcount": 259,
    "wof:belongsto": [
      1880773017,
      102191581,
      85633159,
      1880762059,
      404227469,
      101750581,
      136253055,
      1360698963
    ],
    "wof:breaches": [],
    "wof:concordances": {
      "gn:id": 2647022,
      "gp:id": 22883,
      "qs_pg:id": 1004365,
      "wd:id": "Q1898958",
      "wk:page": "Hetton"
    },
    "wof:country": "GB",
    "wof:created": 1765391063,
    "wof:geom_alt": [
      "quattroshapes"
    ],
    "wof:geomhash": "5b05e0f1f6d6448c29096e0885fa3098",
    "wof:hierarchy": [
      {
        "continent_id": 102191581,
        "country_id": 85633159,
        "county_id": 1360698963,
        "empire_id": 136253055,
        "locality_id": 101750581,
        "macrocounty_id": 1880762059,
        "macroregion_id": 404227469,
        "neighbourhood_id": 85788069,
        "region_id": 1880773017
      }
    ],
    "wof:id": 85788069,
    "wof:lang": [
      "eng"
    ],
    "wof:lastmodified": 1765391063,
    "wof:name": "Heaton",
    "wof:parent_id": 101750581,
    "wof:placetype": "neighbourhood",
    "wof:population": 155,
    "wof:population_rank": 1,
    "wof:repo": "whosonfirst-data-admin-gb",
    "wof:superseded_by": [],
    "wof:supersedes": [],
    "wof:tags": []
  },
  "bbox": [
    -1.787797,
    53.815485,
    -1.787797,
    53.815485
  ],
  "geometry": {"type":"Point","coordinates":[-1.787797,53.815485]}
}
