{
  "id": 1126035069,
  "type": "Feature",
  "properties": {
    "edtf:cessation": "",
    "edtf:inception": "",
    "geom:area": 0,
    "geom:area_square_m": 0,
    "geom:bbox": "-3.916670,55.750000,-3.916670,55.750000",
    "geom:latitude": 55.75,
    "geom:longitude": -3.91667,
    "gn:country": "GB",
    "gn:fcode": "PPL",
    "gn:population": 2519,
    "iso:country": "GB",
    "lbl:bbox": "-3.93667,55.73,-3.89667,55.77",
    "lbl:latitude": 55.75,
    "lbl:longitude": -3.91667,
    "lbl:max_zoom": 15,
    "lbl:min_zoom": 11.5,
    "mz:hierarchy_label": 1,
    "mz:is_current": 1,
    "mz:min_zoom": 11,
    "mz:note": "Quattroshapes Point Gazetteer import 20170519",
    "name:ceb_x_preferred": [
      "Overtown"
    ],
    "name:cym_x_preferred": [
      "Overtown"
    ],
    "name:eng_x_preferred": [
      "Overtown"
    ],
    "name:eus_x_preferred": [
      "Overtown"
    ],
    "name:fra_x_preferred": [
      "Overtown"
    ],
    "name:nld_x_preferred": [
      "Overtown"
    ],
    "name:spa_x_preferred": [
      "Overtown"
    ],
    "name:swe_x_preferred": [
      "Overtown"
    ],
    "qs_pg:aaroncc": "GB",
    "qs_pg:gn_country": "GB",
    "qs_pg:gn_fcode": "PPL",
    "qs_pg:gn_id": 2640762,
    "qs_pg:gn_pop": 2519,
    "qs_pg:name": "Overtown",
    "qs_pg:name_adm0": "United Kingdom",
    "qs_pg:name_adm1": "Scotland",
    "qs_pg:photos": 23,
    "qs_pg:photos_1k": 5,
    "qs_pg:photos_9k": 1,
    "qs_pg:photos_9r": 1,
    "qs_pg:photos_all": 23,
    "qs_pg:photos_sr": 1,
    "qs_pg:pop_sr": 4,
    "qs_pg:qs_id": 1036887,
    "qs_pg:qs_pg_placetype": "locality",
    "qs_pg:qs_pg_placetype_gp": "Town",
    "qs_pg:woe_adm0": 23424975,
    "qs_pg:woe_id": 31238,
    "src:geom": "qs_pg",
    "src:lbl_centroid": "qs_pg",
    "src:population": "wikidata",
    "woe:adm0_id": 23424975,
    "woe:name_adm0": "United Kingdom",
    "woe:name_adm1": "Scotland",
    "woe:placetype": "Town",
    "wof:belongsto": [
      1880773061,
      102191581,
      85633159,
      1880762099,
      404227471,
      136253055,
      1360698949
    ],
    "wof:breaches": [],
    "wof:concordances": {
      "gn:id": 2640762,
      "gp:id": 31238,
      "qs_pg:id": 1036887,
      "wd:id": "Q7114042"
    },
    "wof:country": "GB",
    "wof:created": 1497301735,
    "wof:geomhash": "8e5d3948769bb91ac553f4d8d6aa5334",
    "wof:hierarchy": [
      {
        "continent_id": 102191581,
        "country_id": 85633159,
        "county_id": 1360698949,
        "empire_id": 136253055,
        "locality_id": 1126035069,
        "macrocounty_id": 1880762099,
        "macroregion_id": 404227471,
        "region_id": 1880773061
      }
    ],
    "wof:id": 1126035069,
    "wof:lastmodified": 1765387798,
    "wof:name": "Overtown",
    "wof:parent_id": 1360698949,
    "wof:placetype": "locality",
    "wof:population": 2010,
    "wof:population_rank": 4,
    "wof:repo": "whosonfirst-data-admin-gb",
    "wof:superseded_by": [],
    "wof:supersedes": [],
    "wof:tags": []
  },
  "bbox": [
    -3.91667,
    55.75,
    -3.91667,
    55.75
  ],
  "geometry": {"type":"Point","coordinates":[-3.91667,55.75]}
}
