{
  "id": 85787423,
  "type": "Feature",
  "properties": {
    "edtf:cessation": "",
    "edtf:inception": "",
    "geom:area": 0.0003251993214999623,
    "geom:area_square_m": 2497806.866113,
    "geom:bbox": "-0.214557,51.585778,-0.170288,51.612139",
    "geom:latitude": 51.59900519153435,
    "geom:longitude": -0.18723750638133446,
    "iso:country": "GB",
    "lbl:latitude": 51.602374,
    "lbl:longitude": -0.18158,
    "lbl:max_zoom": 18,
    "mps:latitude": 51.598499,
    "mps:longitude": -0.181232,
    "mz:hierarchy_label": 1,
    "mz:is_current": -1,
    "mz:is_funky": 0,
    "mz:is_hard_boundary": 0,
    "mz:is_landuse_aoi": 0,
    "mz:is_official": 0,
    "mz:max_zoom": 18,
    "mz:min_zoom": 13,
    "mz:tier_locality": 7,
    "mz:tier_metro": 1,
    "name:ara_x_preferred": [
      "فنشلي"
    ],
    "name:arz_x_preferred": [
      "فنشلى"
    ],
    "name:ast_x_preferred": [
      "Finchley"
    ],
    "name:azb_x_preferred": [
      "فینچلی"
    ],
    "name:bul_x_preferred": [
      "Финчли"
    ],
    "name:cat_x_preferred": [
      "Finchley"
    ],
    "name:ces_x_preferred": [
      "Finchley"
    ],
    "name:cym_x_preferred": [
      "Finchley"
    ],
    "name:deu_x_preferred": [
      "Finchley"
    ],
    "name:ell_x_preferred": [
      "Φίντσλεϊ"
    ],
    "name:eng_x_preferred": [
      "Finchley"
    ],
    "name:eus_x_preferred": [
      "Finchley"
    ],
    "name:fas_x_preferred": [
      "فینچلی"
    ],
    "name:fra_x_preferred": [
      "Finchley"
    ],
    "name:gle_x_preferred": [
      "Finchley"
    ],
    "name:heb_x_preferred": [
      "פינצ'לי"
    ],
    "name:heb_x_variant": [
      "פינצלי"
    ],
    "name:hin_x_preferred": [
      "फ़िंचली"
    ],
    "name:ita_x_preferred": [
      "Finchley"
    ],
    "name:jpn_x_preferred": [
      "フィンチリー"
    ],
    "name:lat_x_preferred": [
      "Fincheleya"
    ],
    "name:lld_x_preferred": [
      "Finchley"
    ],
    "name:nld_x_preferred": [
      "Finchley"
    ],
    "name:nob_x_preferred": [
      "Finchley"
    ],
    "name:nor_x_preferred": [
      "Finchley"
    ],
    "name:pol_x_preferred": [
      "Finchley"
    ],
    "name:por_x_preferred": [
      "Finchley"
    ],
    "name:rus_x_preferred": [
      "Финчли"
    ],
    "name:spa_x_preferred": [
      "Finchley"
    ],
    "name:swe_x_preferred": [
      "Finchley"
    ],
    "name:ukr_x_preferred": [
      "Фінчлі"
    ],
    "name:urd_x_preferred": [
      "فنچلے، لندن"
    ],
    "name:urd_x_variant": [
      "فنچلے"
    ],
    "name:vie_x_preferred": [
      "Finchley"
    ],
    "name:zho_x_preferred": [
      "芬奇利"
    ],
    "qs:gn_adm0_cc": "GB",
    "qs:gn_fcode": "PPL",
    "qs:gn_local": 2643743,
    "qs:gn_namadm1": "ENG",
    "qs:gn_name": "Finchley",
    "qs:local_max": 40697,
    "qs:local_sum": 1675717,
    "qs:localhoods": 643,
    "qs:name": "Finchley",
    "qs:name_adm0": "United Kingdom",
    "qs:name_adm1": "England",
    "qs:name_adm2": "Greater London",
    "qs:name_lau": "London Borough of Barnet",
    "qs:name_local": "London",
    "qs:photo_max": 153,
    "qs:photo_sum": 986,
    "qs:placetype": "Suburb",
    "qs:quad_count": 40,
    "qs:woe_adm0": 23424975,
    "qs:woe_adm1": 24554868,
    "qs:woe_adm2": 23416974,
    "qs:woe_lau": 12695821,
    "qs:woe_local": 44418,
    "qs:woe_ver": "7.10.0",
    "src:geom": "quattroshapes",
    "src:geom_alt": [
      "quattroshapes_pg"
    ],
    "src:lbl_centroid": "mz",
    "src:population": "wikidata",
    "wd:latitude": 51.599,
    "wd:longitude": -0.187,
    "wd:wordcount": 3138,
    "wof:belongsto": [
      1880762729,
      102191581,
      1880762179,
      85633159,
      404227469,
      101750367,
      136253055,
      1158857285,
      1880771825
    ],
    "wof:breaches": [
      85792227
    ],
    "wof:concordances": {
      "gn:id": 2649441,
      "gp:id": 20183,
      "qs_pg:id": 1276432,
      "wd:id": "Q150217",
      "wk:page": "Finchley"
    },
    "wof:country": "GB",
    "wof:created": 1765391036,
    "wof:geom_alt": [
      "quattroshapes_pg"
    ],
    "wof:geomhash": "1459691b1def87fd306b4d0c718e27fc",
    "wof:hierarchy": [
      {
        "borough_id": 1158857285,
        "continent_id": 102191581,
        "country_id": 85633159,
        "county_id": 1880771825,
        "empire_id": 136253055,
        "locality_id": 101750367,
        "macrocounty_id": 1880762179,
        "macroregion_id": 404227469,
        "neighbourhood_id": 85787423,
        "region_id": 1880762729
      }
    ],
    "wof:id": 85787423,
    "wof:lang": [
      "eng"
    ],
    "wof:lastmodified": 1765391036,
    "wof:name": "Finchley",
    "wof:parent_id": 1158857285,
    "wof:placetype": "neighbourhood",
    "wof:population": 65812,
    "wof:population_rank": 8,
    "wof:repo": "whosonfirst-data-admin-gb",
    "wof:superseded_by": [],
    "wof:supersedes": [],
    "wof:tags": []
  },
  "bbox": [
    -0.214557,
    51.585778,
    -0.170288,
    51.612139
  ],
  "geometry": {"type":"MultiPolygon","coordinates":[[[[-0.175781,51.607783],[-0.175781,51.604372],[-0.175781,51.602666],[-0.173035,51.602666],[-0.173035,51.60096],[-0.170288,51.60096],[-0.170288,51.599254],[-0.170288,51.597548],[-0.173035,51.597548],[-0.173035,51.595841],[-0.175781,51.595841],[-0.175781,51.594135],[-0.178528,51.594135],[-0.178528,51.592429],[-0.178528,51.590723],[-0.178528,51.590664],[-0.181274,51.589191],[-0.181274,51.58731],[-0.181274,51.58731],[-0.185816,51.58731],[-0.186768,51.585778],[-0.189623,51.58731],[-0.190337,51.587693],[-0.191255,51.587397],[-0.192261,51.589016],[-0.192261,51.590723],[-0.192261,51.592429],[-0.192791,51.593282],[-0.192261,51.594135],[-0.191547,51.595284],[-0.189514,51.594193],[-0.186768,51.595667],[-0.186768,51.596016],[-0.186768,51.597548],[-0.186768,51.60096],[-0.185816,51.60096],[-0.185762,51.601047],[-0.186768,51.602666],[-0.186768,51.604372],[-0.186768,51.606077],[-0.184021,51.606077],[-0.181274,51.606077],[-0.181274,51.607783],[-0.176733,51.607783],[-0.175781,51.607783]]],[[[-0.206178,51.610377],[-0.203492,51.607783],[-0.203247,51.607783],[-0.203247,51.607546],[-0.203247,51.604372],[-0.203247,51.604372],[-0.204372,51.602561],[-0.207046,51.603176],[-0.207789,51.604372],[-0.20874,51.604372],[-0.214233,51.604372],[-0.214233,51.605904],[-0.214557,51.606077],[-0.214233,51.606251],[-0.214233,51.607783],[-0.211487,51.607783],[-0.211487,51.609489],[-0.210665,51.610812],[-0.209476,51.611195],[-0.20874,51.611432],[-0.206542,51.612139],[-0.206178,51.610377]]]]}
}
