{
  "id": 1360791125,
  "type": "Feature",
  "properties": {
    "edtf:cessation": "",
    "edtf:inception": "",
    "geom:area": 0,
    "geom:area_square_m": 0,
    "geom:bbox": "-1.690045,54.710924,-1.690045,54.710924",
    "geom:latitude": 54.710924,
    "geom:longitude": -1.690045,
    "iso:country": "GB",
    "lbl:bbox": "-1.695045,54.705924,-1.685045,54.715924",
    "lbl:latitude": 54.710925,
    "lbl:longitude": -1.690045,
    "lbl:max_zoom": 18,
    "mps:latitude": 54.710925,
    "mps:longitude": -1.690045,
    "mz:hierarchy_label": 1,
    "mz:is_current": 1,
    "mz:min_zoom": 15,
    "name:ara_x_preferred": [
      "ويلينجتون"
    ],
    "name:arz_x_preferred": [
      "ويلينجتون"
    ],
    "name:ast_x_preferred": [
      "Willington"
    ],
    "name:azb_x_preferred": [
      "ویلینقتون"
    ],
    "name:ceb_x_preferred": [
      "Willington"
    ],
    "name:cym_x_preferred": [
      "Willington"
    ],
    "name:ell_x_preferred": [
      "Γουίλινγκτον"
    ],
    "name:eng_x_preferred": [
      "Willington"
    ],
    "name:fas_x_preferred": [
      "ویلینگتون، کانتی دورهام"
    ],
    "name:fas_x_variant": [
      "ویلینگتون"
    ],
    "name:fra_x_preferred": [
      "Willington"
    ],
    "name:ita_x_preferred": [
      "Willington"
    ],
    "name:nld_x_preferred": [
      "Willington"
    ],
    "name:pol_x_preferred": [
      "Willington"
    ],
    "name:swe_x_preferred": [
      "Willington"
    ],
    "name:vol_x_preferred": [
      "Willington"
    ],
    "qs:a0": "United Kingdom",
    "qs:a1": "*County Durham",
    "qs:a1_lc": "GB12EJ0000",
    "qs:a1r": "0England",
    "qs:a1r_lc": "GB12000000",
    "qs:adm0": "United Kingdom",
    "qs:la_lc": "*",
    "qs:level": "locality",
    "qs:loc": "Willington",
    "qs:loc_alt": "Willington",
    "qs:pop": 0,
    "qs:source": "RCustom EuroGlobalMap + UMZ Urban Polygons + Geonames + GeoPlanet",
    "qs:type": "buffered point",
    "src:geom": "whosonfirst",
    "src:geom_alt": [
      "quattroshapes_pg",
      "quattroshapes"
    ],
    "src:geom_via": "quattroshapes",
    "src:lbl_centroid": "mapshaper",
    "src:population": "wikidata",
    "wd:latitude": 54.71,
    "wd:longitude": -1.69,
    "wd:wordcount": 322,
    "wof:belongsto": [
      1880773141,
      102191581,
      1880762117,
      404433579,
      85633159,
      404227469,
      1360754493,
      136253055,
      1360699055
    ],
    "wof:breaches": [],
    "wof:concordances": {
      "gn:id": 6692336,
      "gp:id": 40535,
      "qs_pg:id": 1082497,
      "wd:id": "Q1613441",
      "wk:page": "Willington, County Durham"
    },
    "wof:concordances_alt": {
      "qs_pg:id": 1195456
    },
    "wof:country": "GB",
    "wof:created": 1765389457,
    "wof:geomhash": "e71eb7bf4905de970dfcfdee5e680a92",
    "wof:hierarchy": [
      {
        "continent_id": 102191581,
        "country_id": 85633159,
        "county_id": 1360699055,
        "empire_id": 136253055,
        "localadmin_id": 404433579,
        "locality_id": 1360754493,
        "macrocounty_id": 1880762117,
        "macroregion_id": 404227469,
        "neighbourhood_id": 1360791125,
        "region_id": 1880773141
      }
    ],
    "wof:id": 1360791125,
    "wof:lastmodified": 1765389457,
    "wof:name": "Willington",
    "wof:parent_id": 1360754493,
    "wof:placetype": "neighbourhood",
    "wof:population": 5749,
    "wof:population_rank": 5,
    "wof:repo": "whosonfirst-data-admin-gb",
    "wof:superseded_by": [],
    "wof:supersedes": [
      101873335
    ],
    "wof:tags": []
  },
  "bbox": [
    -1.690045,
    54.710924,
    -1.690045,
    54.710924
  ],
  "geometry": {"type":"Point","coordinates":[-1.690045,54.710924]}
}
