{
  "id": 1360712171,
  "type": "Feature",
  "properties": {
    "edtf:cessation": "",
    "edtf:inception": "",
    "geom:area": 0,
    "geom:area_square_m": 0,
    "geom:bbox": "-5.180060,51.947730,-5.180060,51.947730",
    "geom:latitude": 51.94773,
    "geom:longitude": -5.18006,
    "gn:country": "GB",
    "gn:fcode": "PPL",
    "gn:population": 0,
    "iso:country": "GB",
    "lbl:bbox": "-5.18506,51.94273,-5.17506,51.95273",
    "lbl:latitude": 51.94773,
    "lbl:longitude": -5.18006,
    "lbl:max_zoom": 18,
    "mz:hierarchy_label": 1,
    "mz:is_current": 1,
    "mz:min_zoom": 15,
    "mz:note": "Quattroshapes Point Gazetteer import 20170519",
    "name:bre_x_preferred": [
      "Porth-gain"
    ],
    "name:bul_x_preferred": [
      "Портхгаин"
    ],
    "name:ceb_x_preferred": [
      "Porthgain"
    ],
    "name:cym_x_preferred": [
      "Porth-gain"
    ],
    "name:eng_x_preferred": [
      "Porthgain"
    ],
    "name:eus_x_preferred": [
      "Porthgain"
    ],
    "name:fas_x_preferred": [
      "پورتگین"
    ],
    "name:fra_x_preferred": [
      "Porthgain"
    ],
    "name:gle_x_preferred": [
      "Porth-gain"
    ],
    "name:ita_x_preferred": [
      "Porthgain"
    ],
    "name:nld_x_preferred": [
      "Porthgain"
    ],
    "name:swe_x_preferred": [
      "Porthgain"
    ],
    "name:tur_x_preferred": [
      "Porthgain"
    ],
    "name:zho_x_preferred": [
      "波斯盖恩"
    ],
    "qs_pg:aaroncc": "GB",
    "qs_pg:gn_country": "GB",
    "qs_pg:gn_fcode": "PPL",
    "qs_pg:gn_id": 2640048,
    "qs_pg:gn_pop": 0,
    "qs_pg:name": "Porthgain",
    "qs_pg:name_adm0": "United Kingdom",
    "qs_pg:name_adm1": "Wales",
    "qs_pg:photos": 636,
    "qs_pg:photos_1k": 129,
    "qs_pg:photos_9k": 3,
    "qs_pg:photos_9r": 5,
    "qs_pg:photos_all": 636,
    "qs_pg:photos_sr": 8,
    "qs_pg:pop_sr": 0,
    "qs_pg:qs_id": 1091172,
    "qs_pg:qs_pg_placetype": "locality",
    "qs_pg:qs_pg_placetype_gp": "Town",
    "qs_pg:woe_adm0": 23424975,
    "qs_pg:woe_id": 32409,
    "src:geom": "qs_pg",
    "src:lbl_centroid": "qs_pg",
    "src:population": "wikidata",
    "woe:adm0_id": 23424975,
    "woe:name_adm0": "United Kingdom",
    "woe:name_adm1": "Wales",
    "woe:placetype": "Town",
    "wof:belongsto": [
      1880772913,
      102191581,
      1880762181,
      404437677,
      85633159,
      404227475,
      1360711471,
      136253055,
      1360698843
    ],
    "wof:breaches": [],
    "wof:concordances": {
      "gn:id": 2640048,
      "gp:id": 32409,
      "qs_pg:id": 1091172,
      "wd:id": "Q3404798"
    },
    "wof:country": "GB",
    "wof:created": 1497292521,
    "wof:geomhash": "c3e879342287379311046126a1e8b252",
    "wof:hierarchy": [
      {
        "continent_id": 102191581,
        "country_id": 85633159,
        "county_id": 1360698843,
        "empire_id": 136253055,
        "localadmin_id": 404437677,
        "locality_id": 1360711471,
        "macrocounty_id": 1880762181,
        "macroregion_id": 404227475,
        "neighbourhood_id": 1360712171,
        "region_id": 1880772913
      }
    ],
    "wof:id": 1360712171,
    "wof:lastmodified": 1765389193,
    "wof:name": "Porthgain",
    "wof:parent_id": 1360711471,
    "wof:placetype": "neighbourhood",
    "wof:population": 897,
    "wof:population_rank": 2,
    "wof:repo": "whosonfirst-data-admin-gb",
    "wof:superseded_by": [],
    "wof:supersedes": [
      1125831545
    ],
    "wof:tags": []
  },
  "bbox": [
    -5.18006,
    51.94773,
    -5.18006,
    51.94773
  ],
  "geometry": {"type":"Point","coordinates":[-5.18006,51.94773]}
}
