{
  "id": 420782295,
  "type": "Feature",
  "properties": {
    "edtf:cessation": "",
    "edtf:inception": "",
    "geom:area": 0,
    "geom:area_square_m": 0,
    "geom:bbox": "-1.971188,52.492879,-1.971188,52.492879",
    "geom:latitude": 52.492879,
    "geom:longitude": -1.971188,
    "iso:country": "GB",
    "lbl:bbox": "-1.97618831083,52.4878791953,-1.96618831083,52.4978791953",
    "lbl:latitude": 52.492879,
    "lbl:longitude": -1.971188,
    "lbl:max_zoom": 18,
    "mz:hierarchy_label": 1,
    "mz:is_current": -1,
    "mz:is_funky": 0,
    "mz:is_hard_boundary": 0,
    "mz:is_landuse_aoi": 0,
    "mz:is_official": 0,
    "mz:max_zoom": 18,
    "mz:min_zoom": 13,
    "mz:tier_locality": 0,
    "name:ast_x_preferred": [
      "Smethwick"
    ],
    "name:cat_x_preferred": [
      "Smethwick"
    ],
    "name:ceb_x_preferred": [
      "Smethwick"
    ],
    "name:cym_x_preferred": [
      "Smethwick"
    ],
    "name:deu_x_preferred": [
      "Smethwick"
    ],
    "name:eng_x_preferred": [
      "Smethwick"
    ],
    "name:epo_x_preferred": [
      "Smethwick"
    ],
    "name:fas_x_preferred": [
      "اسمت‌ویک"
    ],
    "name:fin_x_preferred": [
      "Smethwick"
    ],
    "name:fra_x_preferred": [
      "Smethwick"
    ],
    "name:gle_x_preferred": [
      "Smethwick"
    ],
    "name:heb_x_preferred": [
      "סמטוויק"
    ],
    "name:hye_x_preferred": [
      "Սմեթուիք"
    ],
    "name:ita_x_preferred": [
      "Smethwick"
    ],
    "name:jpn_x_preferred": [
      "スメジック"
    ],
    "name:lit_x_preferred": [
      "Smedikas"
    ],
    "name:lld_x_preferred": [
      "Smethwick"
    ],
    "name:nld_x_preferred": [
      "Smethwick"
    ],
    "name:nno_x_preferred": [
      "Smethwick"
    ],
    "name:pol_x_preferred": [
      "Smethwick"
    ],
    "name:ron_x_preferred": [
      "Smethwick"
    ],
    "name:rus_x_preferred": [
      "Сметвик"
    ],
    "name:rus_x_variant": [
      "Сметик"
    ],
    "name:sco_x_preferred": [
      "Smethwick"
    ],
    "name:slv_x_preferred": [
      "Smethwick"
    ],
    "name:spa_x_preferred": [
      "Smethwick"
    ],
    "name:swe_x_preferred": [
      "Smethwick"
    ],
    "name:urd_x_preferred": [
      "سمتھ وک"
    ],
    "name:zho_x_preferred": [
      "斯梅西克"
    ],
    "src:geom": "unknown",
    "src:population": "wikidata",
    "wd:latitude": 52.492853,
    "wd:longitude": -1.968228,
    "wd:wordcount": 5274,
    "wof:belongsto": [
      1360817335,
      1880762069,
      1125938951,
      1360699035
    ],
    "wof:breaches": [],
    "wof:concordances": {
      "wd:id": "Q1018565"
    },
    "wof:country": "GB",
    "wof:created": 1458871837,
    "wof:geomhash": "aad4fe352a0aedcd1464fa4c86ee900f",
    "wof:hierarchy": [
      {
        "continent_id": -1,
        "country_id": -1,
        "county_id": 1360699035,
        "localadmin_id": 1360817335,
        "locality_id": 1125938951,
        "macrocounty_id": 1880762069,
        "neighbourhood_id": 420782295,
        "region_id": -1
      }
    ],
    "wof:id": 420782295,
    "wof:lastmodified": 1765390908,
    "wof:name": "Smethwick",
    "wof:parent_id": 1125938951,
    "wof:placetype": "neighbourhood",
    "wof:population": 48180,
    "wof:population_rank": 7,
    "wof:repo": "whosonfirst-data-admin-gb",
    "wof:superseded_by": [],
    "wof:supersedes": [],
    "wof:tags": []
  },
  "bbox": [
    -1.971188,
    52.492879,
    -1.971188,
    52.492879
  ],
  "geometry": {"type":"Point","coordinates":[-1.971188,52.492879]}
}
