{
  "id": 85684387,
  "type": "Feature",
  "properties": {
    "edtf:cessation": "",
    "edtf:deprecated": "2017-12-20",
    "edtf:inception": "",
    "geom:area": 0.004806683354999933,
    "geom:area_square_m": 37090460.206525,
    "geom:bbox": "-0.330622,51.326458,-0.238796,51.437237",
    "geom:latitude": 51.38784865448364,
    "geom:longitude": -0.28690152204049363,
    "iso:country": "GB",
    "lbl:latitude": 51.391982,
    "lbl:longitude": -0.286901,
    "mps:latitude": 51.391982,
    "mps:longitude": -0.286901,
    "mz:hierarchy_label": 1,
    "mz:is_current": 0,
    "mz:is_funky": 1,
    "mz:max_zoom": 11,
    "mz:min_zoom": 11,
    "name:bel_x_preferred": [
      "Кінгстан-на-Тэмзе"
    ],
    "name:cat_x_preferred": [
      "Kingston upon Thames"
    ],
    "name:ces_x_preferred": [
      "Kingston"
    ],
    "name:cym_x_preferred": [
      "Kingston upon Thames"
    ],
    "name:dan_x_preferred": [
      "Kingston upon Thames"
    ],
    "name:deu_x_preferred": [
      "Royal Borough of Kingston upon Thames"
    ],
    "name:eng_x_preferred": [
      "Kingston upon Thames"
    ],
    "name:epo_x_preferred": [
      "Royal Borough of Kingston upon Thames"
    ],
    "name:eus_x_preferred": [
      "Kingston upon Thames"
    ],
    "name:fas_x_preferred": [
      "منطقه سلطنتی کینگستون آپون تیمز"
    ],
    "name:fin_x_preferred": [
      "Kingston upon Thames"
    ],
    "name:fra_x_preferred": [
      "district royal de Kingston-upon-Thames"
    ],
    "name:gla_x_preferred": [
      "Sgìre Rìoghail Kingston upon Thames"
    ],
    "name:gle_x_preferred": [
      "Ríoga Buirg an Kingston ar Tamais"
    ],
    "name:heb_x_preferred": [
      "הרובע המלכותי קינגסטון שעל התמזה"
    ],
    "name:hin_x_preferred": [
      "किंग्स्टन अपॉन टेम्स बरो"
    ],
    "name:hun_x_preferred": [
      "Kingston upon Thames kerület"
    ],
    "name:hye_x_preferred": [
      "Քինգսթոն ափոն Թեմզ"
    ],
    "name:isl_x_preferred": [
      "Kingston upon Thames"
    ],
    "name:ita_x_preferred": [
      "R.B. of Kingston upon Thames"
    ],
    "name:jpn_x_preferred": [
      "キングストン・アポン・テムズ王室特別区"
    ],
    "name:kor_x_preferred": [
      "킹스턴어폰템스 구"
    ],
    "name:lat_x_preferred": [
      "Kingstonium"
    ],
    "name:mkd_x_preferred": [
      "Кралски реон Кингстон на Темза"
    ],
    "name:nld_x_preferred": [
      "Kingston upon Thames"
    ],
    "name:nno_x_preferred": [
      "Royal Borough of Kingston upon Thames"
    ],
    "name:nob_x_preferred": [
      "Kingston upon Thames"
    ],
    "name:pol_x_preferred": [
      "Royal Borough of Kingston upon Thames"
    ],
    "name:por_x_preferred": [
      "Kingston upon Thames"
    ],
    "name:ron_x_preferred": [
      "Kingston upon Thames"
    ],
    "name:rus_x_preferred": [
      "Кингстон-апон-Темс"
    ],
    "name:spa_x_preferred": [
      "Kingston upon Thames"
    ],
    "name:srp_x_preferred": [
      "Лондонска општина Кингстон на Темзи"
    ],
    "name:swe_x_preferred": [
      "Royal Borough of Kingston upon Thames"
    ],
    "name:ukr_x_preferred": [
      "Кінгстон-на-Темзі"
    ],
    "name:urd_x_preferred": [
      "کنگسٹن اپون تھیمز بورو"
    ],
    "name:yid_x_preferred": [
      "קעניגלעכע בארא פון קינגסטאן אויפן טעמז"
    ],
    "name:zho_x_preferred": [
      "泰晤士河畔京士頓區"
    ],
    "ne:abbrev": "King u T",
    "ne:adm0_a3": "GBR",
    "ne:adm0_label": "7",
    "ne:adm0_sr": "1",
    "ne:adm1_cod_1": "GBR-2754",
    "ne:adm1_code": "GBR-2754",
    "ne:admin": "United Kingdom",
    "ne:area_sqkm": "0.00000000000",
    "ne:check_me": "20",
    "ne:code_hasc": "GB.KT",
    "ne:code_local": "",
    "ne:datarank": "5",
    "ne:diss_me": "2754",
    "ne:featurecla": "Admin-1 scale rank",
    "ne:fips": "UK40",
    "ne:fips_alt": "UKG7",
    "ne:gadm_level": "2",
    "ne:geonunit": "England",
    "ne:gn_a1_code": "GB.",
    "ne:gn_id": "-2648110",
    "ne:gn_level": "-2",
    "ne:gn_name": "Greater London",
    "ne:gn_region": "",
    "ne:gns_adm1": "",
    "ne:gns_id": "6077602",
    "ne:gns_lang": "ind",
    "ne:gns_level": "1",
    "ne:gns_name": "Kingston upon Thames, Royal London Borough of",
    "ne:gns_region": "UK35",
    "ne:gu_a3": "ENG",
    "ne:hasc_maybe": "",
    "ne:iso_3166_2": "GB-",
    "ne:iso_a2": "GB",
    "ne:labelrank": "9",
    "ne:latitude": "51.39250000000",
    "ne:longitude": "-0.26990000000",
    "ne:mapcolor13": 3,
    "ne:mapcolor9": 6,
    "ne:name": "Kingston upon Thames",
    "ne:name_alt": "",
    "ne:name_len": 20,
    "ne:name_local": "",
    "ne:note": "",
    "ne:postal": "KT",
    "ne:provnum_ne": "20039",
    "ne:region": "Greater London",
    "ne:region_cod": "",
    "ne:region_sub": "Greater London",
    "ne:sameascity": "-99",
    "ne:scalerank": "8",
    "ne:sov_a3": "GB1",
    "ne:sub_code": "",
    "ne:type": "London Borough (royal)",
    "ne:type_en": "London Borough (royal)",
    "ne:wikipedia": "",
    "ne:woe_id": 12695833,
    "ne:woe_label": "",
    "ne:woe_name": "Royal Borough of Kingston upon Thames",
    "qs:a0": "United Kingdom",
    "qs:a0_lc": "GB00000000",
    "qs:a1": "Kingston upon Thames",
    "qs:a1_alt": "Kingston upon Thames",
    "qs:a1_lc": "GB12AX0000",
    "qs:a1r": "England",
    "qs:a1r_alt": "England",
    "qs:a1r_lc": "GB12000000",
    "qs:adm0": "United Kingdom",
    "qs:adm0_a3": "GBR",
    "qs:level": "adm1",
    "qs:source": "EuroGlobalMap",
    "qs:type": "London Borough",
    "src:geom": "quattroshapes",
    "src:geom_alt": [],
    "src:lbl:centroid": "mapshaper",
    "src:population": "wikidata",
    "unlc:subdivision": "GB-KTT",
    "wof:belongsto": [
      102191581,
      85633159,
      404227469
    ],
    "wof:breaches": [],
    "wof:concordances": {
      "fips:code": "UK40",
      "gn:id": -2648110,
      "gp:id": 12695833,
      "hasc:id": "GB.KT",
      "unlc:id": "GB-KTT",
      "wd:id": "Q32508"
    },
    "wof:country": "GB",
    "wof:created": 1765390946,
    "wof:geomhash": "3aaecda2f02b3d59251dbe28bb7e56bd",
    "wof:hierarchy": [
      {
        "continent_id": 102191581,
        "country_id": 85633159,
        "macroregion_id": 404227469,
        "region_id": 85684387
      }
    ],
    "wof:id": 85684387,
    "wof:lastmodified": 1765390946,
    "wof:name": "Kingston upon Thames",
    "wof:parent_id": 404227469,
    "wof:placetype": "region",
    "wof:population": 168302,
    "wof:population_rank": 9,
    "wof:repo": "whosonfirst-data-admin-gb",
    "wof:shortcode": "KT",
    "wof:subdivision": "GB-KTT",
    "wof:superseded_by": [
      1158857309
    ],
    "wof:supersedes": [],
    "wof:tags": []
  },
  "bbox": [
    -0.330622,
    51.326458,
    -0.238796,
    51.437237
  ],
  "geometry": {"type":"Polygon","coordinates":[[[-0.251025,51.432564],[-0.253299,51.430919],[-0.2542,51.429504],[-0.252355,51.426327],[-0.252899,51.423332],[-0.251174,51.42247],[-0.249548,51.418468],[-0.2494,51.414787],[-0.247078,51.40958],[-0.247489,51.408561],[-0.246992,51.407879],[-0.245442,51.407352],[-0.244595,51.403854],[-0.245148,51.401874],[-0.246791,51.400543],[-0.24743,51.397644],[-0.244632,51.394706],[-0.241727,51.393936],[-0.239632,51.389293],[-0.238796,51.386024],[-0.241006,51.384872],[-0.242901,51.382942],[-0.244116,51.383487],[-0.244995,51.380031],[-0.247858,51.380165],[-0.253912,51.378769],[-0.258386,51.378967],[-0.261114,51.379596],[-0.262434,51.37725],[-0.264644,51.375618],[-0.272511,51.372261],[-0.273988,51.370651],[-0.275798,51.37001],[-0.276525,51.368805],[-0.279785,51.36782],[-0.284037,51.365146],[-0.288244,51.362079],[-0.285043,51.361206],[-0.286939,51.359371],[-0.288938,51.358707],[-0.291051,51.356556],[-0.291166,51.355198],[-0.292627,51.353611],[-0.292873,51.352371],[-0.299891,51.347667],[-0.30128,51.345291],[-0.303991,51.343044],[-0.305381,51.339473],[-0.304893,51.336746],[-0.306158,51.335079],[-0.310896,51.332386],[-0.313659,51.331413],[-0.318922,51.327953],[-0.323971,51.32669],[-0.328258,51.326458],[-0.330082,51.327514],[-0.330622,51.329006],[-0.329059,51.330257],[-0.329572,51.333847],[-0.328852,51.340774],[-0.32785,51.343738],[-0.330477,51.348415],[-0.32789,51.35218],[-0.323478,51.354667],[-0.320202,51.359096],[-0.318248,51.363682],[-0.317858,51.369842],[-0.316637,51.373165],[-0.314284,51.374634],[-0.308637,51.375446],[-0.307834,51.37836],[-0.307331,51.37838],[-0.30846,51.380497],[-0.309219,51.380443],[-0.310522,51.384655],[-0.31173,51.385784],[-0.310811,51.386184],[-0.313101,51.388798],[-0.315923,51.38763],[-0.316702,51.388771],[-0.314076,51.390213],[-0.317662,51.393665],[-0.309596,51.400013],[-0.308838,51.401649],[-0.309038,51.409298],[-0.308441,51.413509],[-0.305972,51.42123],[-0.306479,51.422703],[-0.309203,51.425701],[-0.314411,51.428257],[-0.310604,51.432224],[-0.309702,51.432152],[-0.308042,51.431091],[-0.308491,51.430813],[-0.306783,51.430164],[-0.305777,51.431358],[-0.301685,51.430385],[-0.30156,51.431427],[-0.295407,51.427643],[-0.294829,51.426391],[-0.293385,51.426464],[-0.292914,51.428951],[-0.290643,51.428989],[-0.28656,51.42017],[-0.2804,51.421852],[-0.26992,51.430046],[-0.253976,51.437237],[-0.253017,51.435295],[-0.251195,51.434166],[-0.251025,51.432564]]]}
}
