{
  "id": 85684299,
  "type": "Feature",
  "properties": {
    "edtf:cessation": "",
    "edtf:deprecated": "2017-12-20",
    "edtf:inception": "",
    "geom:area": 0.002215031956499982,
    "geom:area_square_m": 17052041.235402,
    "geom:bbox": "-0.254565,51.463894,-0.177755,51.532799",
    "geom:latitude": 51.49505855655416,
    "geom:longitude": -0.22077582919640654,
    "iso:country": "GB",
    "lbl:latitude": 51.502788,
    "lbl:longitude": -0.231007,
    "mps:latitude": 51.502788,
    "mps:longitude": -0.231007,
    "mz:hierarchy_label": 1,
    "mz:is_current": 0,
    "mz:is_funky": 1,
    "mz:max_zoom": 11,
    "mz:min_zoom": 11,
    "name:bel_x_preferred": [
      "Хамерсміт і Фулем"
    ],
    "name:cat_x_preferred": [
      "Hammersmith i Fulham"
    ],
    "name:ces_x_preferred": [
      "Hammersmith a Fulham"
    ],
    "name:cym_x_preferred": [
      "Hammersmith a Fulham"
    ],
    "name:dan_x_preferred": [
      "Hammersmith and Fulham"
    ],
    "name:deu_x_preferred": [
      "London Borough of Hammersmith and Fulham"
    ],
    "name:eng_x_preferred": [
      "Hammersmith and Fulham"
    ],
    "name:eus_x_preferred": [
      "Hammersmith eta Fulham"
    ],
    "name:fas_x_preferred": [
      "منطقه همرسمیت و فولام لندن"
    ],
    "name:fin_x_preferred": [
      "Hammersmith and Fulham"
    ],
    "name:fra_x_preferred": [
      "borough londonien de Hammersmith et Fulham"
    ],
    "name:gle_x_preferred": [
      "Buirg Londan Hammersmith agus Fulham"
    ],
    "name:glg_x_preferred": [
      "Hammersmith e Fulham"
    ],
    "name:heb_x_preferred": [
      "האמרסמית' ופולהאם"
    ],
    "name:hin_x_preferred": [
      "हैमरस्मिथ ऐंड फ़ुलहम बरो"
    ],
    "name:hun_x_preferred": [
      "London Borough of Hammersmith and Fulham"
    ],
    "name:hye_x_preferred": [
      "Համերսմիթ և Ֆուլեմ"
    ],
    "name:ind_x_preferred": [
      "Hammersmith dan Fulham"
    ],
    "name:isl_x_preferred": [
      "Hammersmith og Fulham"
    ],
    "name:ita_x_preferred": [
      "Hammersmith e Fulham"
    ],
    "name:jpn_x_preferred": [
      "ハマースミス・アンド・フラム・ロンドン特別区"
    ],
    "name:kor_x_preferred": [
      "해머스미스 풀럼 구"
    ],
    "name:lat_x_preferred": [
      "Hammersmith et Fulham"
    ],
    "name:mar_x_preferred": [
      "हॅमरस्मिथ व फुलहॅम"
    ],
    "name:mkd_x_preferred": [
      "Хамерсмит и Фулам"
    ],
    "name:nld_x_preferred": [
      "Hammersmith en Fulham"
    ],
    "name:nno_x_preferred": [
      "London Borough of Hammersmith and Fulham"
    ],
    "name:nob_x_preferred": [
      "Hammersmith and Fulham"
    ],
    "name:pnb_x_preferred": [
      "ہیمرسمتھ تے فلہیم"
    ],
    "name:pol_x_preferred": [
      "London Borough of Hammersmith and Fulham"
    ],
    "name:por_x_preferred": [
      "Hammersmith e Fulham"
    ],
    "name:ron_x_preferred": [
      "Hammersmith and Fulham"
    ],
    "name:rus_x_preferred": [
      "Хаммерсмит и Фулем"
    ],
    "name:sco_x_preferred": [
      "London Borough of Hammersmith and Fulham"
    ],
    "name:slv_x_preferred": [
      "Hammersmith and Fulham"
    ],
    "name:spa_x_preferred": [
      "Hammersmith y Fulham"
    ],
    "name:srp_x_preferred": [
      "Лондонска општина Хамерсмит и Фулам"
    ],
    "name:swe_x_preferred": [
      "London Borough of Hammersmith and Fulham"
    ],
    "name:ukr_x_preferred": [
      "Гаммерсміт і Фулем"
    ],
    "name:urd_x_preferred": [
      "ہیمرسمت اور فلہم بورو"
    ],
    "name:vie_x_preferred": [
      "Khu Hammersmith và Fulham của Luân Đôn"
    ],
    "name:yid_x_preferred": [
      "לאנדאנער בארא פון האמערסמיט און פולהאם"
    ],
    "name:zho_x_preferred": [
      "哈默史密斯-富勒姆區"
    ],
    "ne:abbrev": "Ham\u0026Fulh",
    "ne:adm0_a3": "GBR",
    "ne:adm0_label": "7",
    "ne:adm0_sr": "1",
    "ne:adm1_cod_1": "GBR-2069",
    "ne:adm1_code": "GBR-2069",
    "ne:admin": "United Kingdom",
    "ne:area_sqkm": "0.00000000000",
    "ne:check_me": "20",
    "ne:code_hasc": "GB.HF",
    "ne:code_local": "",
    "ne:datarank": "5",
    "ne:diss_me": "2069",
    "ne:featurecla": "Admin-1 scale rank",
    "ne:fips": "UK17",
    "ne:fips_alt": "UKF1",
    "ne:gadm_level": "2",
    "ne:geonunit": "England",
    "ne:gn_a1_code": "GB.",
    "ne:gn_id": "-2648110",
    "ne:gn_level": "-2",
    "ne:gn_name": "Greater London",
    "ne:gn_region": "",
    "ne:gns_adm1": "",
    "ne:gns_id": "6077591",
    "ne:gns_lang": "ind",
    "ne:gns_level": "1",
    "ne:gns_name": "Hammersmith and Fulham, London Borough of",
    "ne:gns_region": "UK35",
    "ne:gu_a3": "ENG",
    "ne:hasc_maybe": "",
    "ne:iso_3166_2": "GB-",
    "ne:iso_a2": "GB",
    "ne:labelrank": "9",
    "ne:latitude": "51.48940000000",
    "ne:longitude": "-0.20785000000",
    "ne:mapcolor13": 3,
    "ne:mapcolor9": 6,
    "ne:name": "Hammersmith and Fulham",
    "ne:name_alt": "",
    "ne:name_len": 22,
    "ne:name_local": "",
    "ne:note": "",
    "ne:postal": "HF",
    "ne:provnum_ne": "3",
    "ne:region": "Greater London",
    "ne:region_cod": "",
    "ne:region_sub": "Greater London",
    "ne:sameascity": "-99",
    "ne:scalerank": "8",
    "ne:sov_a3": "GB1",
    "ne:sub_code": "",
    "ne:type": "London Borough",
    "ne:type_en": "London Borough",
    "ne:wikipedia": "",
    "ne:woe_id": 12695809,
    "ne:woe_label": "",
    "ne:woe_name": "London Borough of Hammersmith and Fulham",
    "qs:a0": "United Kingdom",
    "qs:a0_lc": "GB00000000",
    "qs:a1": "Hammersmith and Fulham",
    "qs:a1_alt": "Hammersmith and Fulham",
    "qs:a1_lc": "GB12AN0000",
    "qs:a1r": "England",
    "qs:a1r_alt": "England",
    "qs:a1r_lc": "GB12000000",
    "qs:adm0": "United Kingdom",
    "qs:adm0_a3": "GBR",
    "qs:level": "adm1",
    "qs:source": "EuroGlobalMap",
    "qs:type": "London Borough",
    "src:geom": "quattroshapes",
    "src:geom_alt": [],
    "src:lbl:centroid": "mapshaper",
    "src:population": "wikidata",
    "unlc:subdivision": "GB-HMF",
    "wof:belongsto": [
      102191581,
      85633159,
      404227469
    ],
    "wof:breaches": [],
    "wof:concordances": {
      "fips:code": "UK17",
      "gn:id": -2648110,
      "gp:id": 12695809,
      "hasc:id": "GB.HF",
      "unlc:id": "GB-HMF",
      "wd:id": "Q40478"
    },
    "wof:country": "GB",
    "wof:created": 1765390944,
    "wof:geomhash": "e117887b36f55901700c4f377e28e95f",
    "wof:hierarchy": [
      {
        "continent_id": 102191581,
        "country_id": 85633159,
        "macroregion_id": 404227469,
        "region_id": 85684299
      }
    ],
    "wof:id": 85684299,
    "wof:lastmodified": 1765390944,
    "wof:name": "Hammersmith and Fulham",
    "wof:parent_id": 404227469,
    "wof:placetype": "region",
    "wof:population": 185238,
    "wof:population_rank": 9,
    "wof:repo": "whosonfirst-data-admin-gb",
    "wof:shortcode": "HF",
    "wof:subdivision": "GB-HMF",
    "wof:superseded_by": [
      1158857315
    ],
    "wof:supersedes": [],
    "wof:tags": []
  },
  "bbox": [
    -0.254565,
    51.463894,
    -0.177755,
    51.532799
  ],
  "geometry": {"type":"Polygon","coordinates":[[[-0.228443,51.530353],[-0.227352,51.527889],[-0.227134,51.524791],[-0.22656,51.524795],[-0.226669,51.521976],[-0.228241,51.521095],[-0.222867,51.515915],[-0.219226,51.509575],[-0.217828,51.509758],[-0.217993,51.510227],[-0.217149,51.510391],[-0.216819,51.509464],[-0.215743,51.509117],[-0.215142,51.507644],[-0.216095,51.507465],[-0.215874,51.506366],[-0.217856,51.506099],[-0.214094,51.500732],[-0.20794,51.496021],[-0.207328,51.496147],[-0.204603,51.494652],[-0.201819,51.491874],[-0.202346,51.491684],[-0.198238,51.488121],[-0.196387,51.487205],[-0.195927,51.487369],[-0.18336,51.477279],[-0.179312,51.477802],[-0.177755,51.47755],[-0.178817,51.473709],[-0.181641,51.468952],[-0.184175,51.466556],[-0.190346,51.464275],[-0.195128,51.463894],[-0.204133,51.464561],[-0.212627,51.466789],[-0.217014,51.468765],[-0.221673,51.472355],[-0.225332,51.476459],[-0.225668,51.482128],[-0.226909,51.485168],[-0.228653,51.486965],[-0.231214,51.488674],[-0.23451,51.489601],[-0.239777,51.489406],[-0.243383,51.487915],[-0.244502,51.488701],[-0.245549,51.490211],[-0.244497,51.496082],[-0.244808,51.497951],[-0.245327,51.498371],[-0.249268,51.496944],[-0.253024,51.5014],[-0.253174,51.502636],[-0.254565,51.504181],[-0.252537,51.504719],[-0.247981,51.504337],[-0.245652,51.504657],[-0.246454,51.506729],[-0.245027,51.50674],[-0.246591,51.511245],[-0.248936,51.513878],[-0.250545,51.518539],[-0.250245,51.520157],[-0.251864,51.522236],[-0.252646,51.524769],[-0.25019,51.527221],[-0.250529,51.527874],[-0.2496,51.529129],[-0.245236,51.531292],[-0.246884,51.531841],[-0.246335,51.532799],[-0.24317,51.531776],[-0.23729,51.532017],[-0.234398,51.532692],[-0.231334,51.53109],[-0.228443,51.530353]]]}
}
