{
  "id": 1360796443,
  "type": "Feature",
  "properties": {
    "edtf:cessation": "",
    "edtf:inception": "",
    "geom:area": 0,
    "geom:area_square_m": 0,
    "geom:bbox": "-5.466280,50.195950,-5.466280,50.195950",
    "geom:latitude": 50.19595,
    "geom:longitude": -5.46628,
    "gn:country": "GB",
    "gn:fcode": "PPL",
    "gn:population": 0,
    "iso:country": "GB",
    "lbl:bbox": "-5.47128,50.19095,-5.46128,50.20095",
    "lbl:latitude": 50.19595,
    "lbl:longitude": -5.46628,
    "lbl:max_zoom": 18,
    "mz:hierarchy_label": 1,
    "mz:is_current": 1,
    "mz:min_zoom": 15,
    "mz:note": "Quattroshapes Point Gazetteer import 20170519",
    "name:bre_x_preferred": [
      "Porth reb Tor"
    ],
    "name:ceb_x_preferred": [
      "Carbis Bay"
    ],
    "name:cor_x_preferred": [
      "Porthreptor"
    ],
    "name:cym_x_preferred": [
      "Carbis Bay"
    ],
    "name:eng_x_preferred": [
      "Carbis Bay"
    ],
    "name:eus_x_preferred": [
      "Carbis Bay"
    ],
    "name:fra_x_preferred": [
      "Carbis Bay"
    ],
    "name:gle_x_preferred": [
      "Carbis Bay"
    ],
    "name:ita_x_preferred": [
      "Carbis Bay"
    ],
    "name:jpn_x_preferred": [
      "カービス湾"
    ],
    "name:nld_x_preferred": [
      "Carbis Bay"
    ],
    "name:nno_x_preferred": [
      "Carbis Bay"
    ],
    "name:pol_x_preferred": [
      "Carbis Bay"
    ],
    "name:spa_x_preferred": [
      "Bahía de Carbis"
    ],
    "name:swe_x_preferred": [
      "Carbis Bay"
    ],
    "name:zho_x_preferred": [
      "卡比斯湾"
    ],
    "qs_pg:aaroncc": "GB",
    "qs_pg:gn_country": "GB",
    "qs_pg:gn_fcode": "PPL",
    "qs_pg:gn_id": 2653833,
    "qs_pg:gn_pop": 0,
    "qs_pg:name": "Carbis Bay",
    "qs_pg:name_adm0": "United Kingdom",
    "qs_pg:name_adm1": "England",
    "qs_pg:photos": 439,
    "qs_pg:photos_1k": 89,
    "qs_pg:photos_9k": 2,
    "qs_pg:photos_9r": 5,
    "qs_pg:photos_all": 439,
    "qs_pg:photos_sr": 6,
    "qs_pg:pop_sr": 0,
    "qs_pg:qs_id": 1209351,
    "qs_pg:qs_pg_placetype": "locality",
    "qs_pg:qs_pg_placetype_gp": "Town",
    "qs_pg:woe_adm0": 23424975,
    "qs_pg:woe_id": 15112,
    "src:geom": "qs_pg",
    "src:lbl_centroid": "qs_pg",
    "src:population": "wikidata",
    "woe:adm0_id": 23424975,
    "woe:name_adm0": "United Kingdom",
    "woe:name_adm1": "England",
    "woe:placetype": "Town",
    "wof:belongsto": [
      1880773165,
      102191581,
      1880762119,
      404436217,
      85633159,
      404227469,
      1209250139,
      136253055,
      1360699085
    ],
    "wof:breaches": [],
    "wof:concordances": {
      "gn:id": 2653833,
      "gp:id": 15112,
      "qs_pg:id": 1209351,
      "wd:id": "Q5037874"
    },
    "wof:country": "GB",
    "wof:created": 1497294821,
    "wof:geomhash": "ab503f98c9798c59275bf74c4bf94764",
    "wof:hierarchy": [
      {
        "continent_id": 102191581,
        "country_id": 85633159,
        "county_id": 1360699085,
        "empire_id": 136253055,
        "localadmin_id": 404436217,
        "locality_id": 1209250139,
        "macrocounty_id": 1880762119,
        "macroregion_id": 404227469,
        "neighbourhood_id": 1360796443,
        "region_id": 1880773165
      }
    ],
    "wof:id": 1360796443,
    "wof:lastmodified": 1765389777,
    "wof:name": "Carbis Bay",
    "wof:parent_id": 1209250139,
    "wof:placetype": "neighbourhood",
    "wof:population": 3970,
    "wof:population_rank": 4,
    "wof:repo": "whosonfirst-data-admin-gb",
    "wof:superseded_by": [],
    "wof:supersedes": [
      1125881309
    ],
    "wof:tags": []
  },
  "bbox": [
    -5.46628,
    50.19595,
    -5.46628,
    50.19595
  ],
  "geometry": {"type":"Point","coordinates":[-5.46628,50.19595]}
}
