{
  "id": 420782329,
  "type": "Feature",
  "properties": {
    "edtf:cessation": "",
    "edtf:inception": "",
    "geom:area": 0,
    "geom:area_square_m": 0,
    "geom:bbox": "-2.025491,52.553545,-2.025491,52.553545",
    "geom:latitude": 52.553545,
    "geom:longitude": -2.025491,
    "iso:country": "GB",
    "lbl:bbox": "-2.03049055373,52.5485447292,-2.02049055373,52.5585447292",
    "lbl:latitude": 52.553545,
    "lbl:longitude": -2.025491,
    "lbl:max_zoom": 18,
    "mz:hierarchy_label": 1,
    "mz:is_current": -1,
    "mz:is_funky": 0,
    "mz:is_hard_boundary": 0,
    "mz:is_landuse_aoi": 0,
    "mz:is_official": 0,
    "mz:max_zoom": 18,
    "mz:min_zoom": 12,
    "mz:tier_locality": 0,
    "name:ara_x_preferred": [
      "ونزبري"
    ],
    "name:arz_x_preferred": [
      "ونزبرى"
    ],
    "name:ast_x_preferred": [
      "Wednesbury"
    ],
    "name:cat_x_preferred": [
      "Wednesbury"
    ],
    "name:ceb_x_preferred": [
      "Wednesbury"
    ],
    "name:cym_x_preferred": [
      "Wednesbury"
    ],
    "name:deu_x_preferred": [
      "Wednesbury"
    ],
    "name:eng_x_preferred": [
      "Wednesbury"
    ],
    "name:fas_x_preferred": [
      "ویدنزبری"
    ],
    "name:fra_x_preferred": [
      "Wednesbury"
    ],
    "name:gle_x_preferred": [
      "Wednesbury"
    ],
    "name:heb_x_preferred": [
      "ונדסבורי"
    ],
    "name:ita_x_preferred": [
      "Wednesbury"
    ],
    "name:jpn_x_preferred": [
      "ウェンズベリー"
    ],
    "name:nld_x_preferred": [
      "Wednesbury"
    ],
    "name:nno_x_preferred": [
      "Wednesbury"
    ],
    "name:pol_x_preferred": [
      "Wednesbury"
    ],
    "name:ron_x_preferred": [
      "Wednesbury"
    ],
    "name:spa_x_preferred": [
      "Wednesbury"
    ],
    "name:swe_x_preferred": [
      "Wednesbury"
    ],
    "name:urd_x_preferred": [
      "چرچ ہل، ویسٹ مڈلینڈز"
    ],
    "name:urd_x_variant": [
      "چرچ ہل"
    ],
    "src:geom": "unknown",
    "src:population": "wikidata",
    "wd:latitude": 52.553,
    "wd:longitude": -2.02,
    "wd:wordcount": 3289,
    "wof:belongsto": [
      1880773161,
      102191581,
      1880762069,
      1360817335,
      85633159,
      404227469,
      1125939577,
      136253055,
      1360699035
    ],
    "wof:breaches": [],
    "wof:concordances": {
      "wd:id": "Q501023"
    },
    "wof:country": "GB",
    "wof:created": 1458871838,
    "wof:geomhash": "9f62b9a8773fafb80ac432010a72171c",
    "wof:hierarchy": [
      {
        "continent_id": 102191581,
        "country_id": 85633159,
        "county_id": 1360699035,
        "empire_id": 136253055,
        "localadmin_id": 1360817335,
        "locality_id": 1125939577,
        "macrocounty_id": 1880762069,
        "macroregion_id": 404227469,
        "neighbourhood_id": 420782329,
        "region_id": 1880773161
      }
    ],
    "wof:id": 420782329,
    "wof:lastmodified": 1765390909,
    "wof:name": "Wednesbury",
    "wof:parent_id": 1125939577,
    "wof:placetype": "neighbourhood",
    "wof:population": 20313,
    "wof:population_rank": 7,
    "wof:repo": "whosonfirst-data-admin-gb",
    "wof:superseded_by": [],
    "wof:supersedes": [],
    "wof:tags": []
  },
  "bbox": [
    -2.025491,
    52.553545,
    -2.025491,
    52.553545
  ],
  "geometry": {"type":"Point","coordinates":[-2.025491,52.553545]}
}
