{
  "id": 85790821,
  "type": "Feature",
  "properties": {
    "edtf:cessation": "",
    "edtf:inception": "",
    "geom:area": 0.0002693069425000427,
    "geom:area_square_m": 2070550.689228,
    "geom:bbox": "-0.324097,51.546335,-0.302124,51.561529",
    "geom:latitude": 51.55331412027838,
    "geom:longitude": -0.31318915118177504,
    "iso:country": "GB",
    "lbl:latitude": 51.555222,
    "lbl:longitude": -0.320814,
    "lbl:max_zoom": 18,
    "mps:latitude": 51.553227,
    "mps:longitude": -0.313398,
    "mz:hierarchy_label": 1,
    "mz:is_current": 1,
    "mz:is_funky": 0,
    "mz:is_hard_boundary": 0,
    "mz:is_landuse_aoi": 0,
    "mz:is_official": 0,
    "mz:max_zoom": 18,
    "mz:min_zoom": 14,
    "mz:tier_locality": 7,
    "mz:tier_metro": 1,
    "name:eng_x_preferred": [
      "Sudbury"
    ],
    "name:fas_x_preferred": [
      "سادبری"
    ],
    "name:fra_x_preferred": [
      "Sudbury"
    ],
    "name:gle_x_preferred": [
      "Sudbury"
    ],
    "name:jpn_x_preferred": [
      "サドベリー"
    ],
    "name:nob_x_preferred": [
      "Sudbury"
    ],
    "name:pol_x_preferred": [
      "Sudbury"
    ],
    "name:swe_x_preferred": [
      "Sudbury"
    ],
    "name:ukr_x_preferred": [
      "Садбері"
    ],
    "name:urd_x_preferred": [
      "سڈبری، لندن"
    ],
    "name:urd_x_variant": [
      "سڈبری"
    ],
    "name:zho_x_preferred": [
      "薩德伯里"
    ],
    "src:geom": "quattroshapes",
    "src:geom_alt": [
      "quattroshapes_pg"
    ],
    "src:lbl_centroid": "mz",
    "src:population": "wikidata",
    "wof:belongsto": [
      1880762729,
      102191581,
      1880762179,
      85633159,
      404227469,
      101750367,
      136253055,
      1158857267,
      1880771825
    ],
    "wof:breaches": [],
    "wof:concordances": {
      "gn:id": 2636564,
      "gp:id": 36582,
      "qs_pg:id": 218193,
      "wd:id": "Q146346",
      "wk:page": "Sudbury, Suffolk"
    },
    "wof:country": "GB",
    "wof:created": 1765391197,
    "wof:geom_alt": [
      "quattroshapes_pg"
    ],
    "wof:geomhash": "a0dbcb631709d1752c630e784c1437cb",
    "wof:hierarchy": [
      {
        "borough_id": 1158857267,
        "continent_id": 102191581,
        "country_id": 85633159,
        "county_id": 1880771825,
        "empire_id": 136253055,
        "locality_id": 101750367,
        "macrocounty_id": 1880762179,
        "macroregion_id": 404227469,
        "neighbourhood_id": 85790821,
        "region_id": 1880762729
      }
    ],
    "wof:id": 85790821,
    "wof:lang": [
      "eng"
    ],
    "wof:lastmodified": 1765391197,
    "wof:name": "Sudbury",
    "wof:parent_id": 1158857267,
    "wof:placetype": "neighbourhood",
    "wof:population": 14950,
    "wof:population_rank": 6,
    "wof:repo": "whosonfirst-data-admin-gb",
    "wof:superseded_by": [],
    "wof:supersedes": [],
    "wof:tags": []
  },
  "bbox": [
    -0.324097,
    51.546335,
    -0.302124,
    51.561529
  ],
  "geometry": {"type":"Polygon","coordinates":[[[-0.318604,51.561529],[-0.315857,51.560056],[-0.31311,51.561529],[-0.312158,51.559997],[-0.307862,51.559997],[-0.307617,51.559997],[-0.307617,51.559762],[-0.307617,51.556582],[-0.303076,51.556582],[-0.302124,51.556582],[-0.302124,51.553167],[-0.302124,51.549751],[-0.302124,51.54822],[-0.302124,51.547866],[-0.302124,51.546335],[-0.303076,51.546335],[-0.303076,51.546335],[-0.307617,51.546335],[-0.31311,51.546335],[-0.317651,51.546335],[-0.317651,51.546335],[-0.318604,51.546335],[-0.318604,51.548897],[-0.319571,51.549675],[-0.320526,51.549368],[-0.32124,51.549751],[-0.324097,51.549751],[-0.324097,51.551282],[-0.324097,51.553167],[-0.324097,51.553167],[-0.324097,51.556582],[-0.324097,51.556582],[-0.324097,51.559997],[-0.324097,51.559997],[-0.319556,51.559997],[-0.318604,51.561529]]]}
}
