{
  "id": 101873639,
  "type": "Feature",
  "properties": {
    "edtf:cessation": "",
    "edtf:inception": "",
    "geom:area": 0,
    "geom:area_square_m": 0,
    "geom:bbox": "-3.129403,57.444506,-3.129403,57.444506",
    "geom:latitude": 57.444506,
    "geom:longitude": -3.129403,
    "iso:country": "GB",
    "lbl:bbox": "-3.149403,57.424506,-3.109403,57.464506",
    "lbl:latitude": 57.444505,
    "lbl:longitude": -3.129403,
    "lbl:max_zoom": 18,
    "lbl:min_zoom": 13.5,
    "mps:latitude": 57.444505,
    "mps:longitude": -3.129403,
    "mz:hierarchy_label": 1,
    "mz:is_current": 1,
    "mz:min_zoom": 12,
    "name:ast_x_preferred": [
      "Dufftown"
    ],
    "name:ceb_x_preferred": [
      "Dufftown"
    ],
    "name:ces_x_preferred": [
      "Dufftown"
    ],
    "name:cym_x_preferred": [
      "Dufftown"
    ],
    "name:deu_x_preferred": [
      "Dufftown"
    ],
    "name:eng_x_preferred": [
      "Dufftown"
    ],
    "name:eus_x_preferred": [
      "Dufftown"
    ],
    "name:fas_x_preferred": [
      "دافتاون"
    ],
    "name:fra_x_preferred": [
      "Dufftown"
    ],
    "name:gla_x_preferred": [
      "Baile Bhainidh"
    ],
    "name:gle_x_preferred": [
      "Baile Bháinidh"
    ],
    "name:heb_x_preferred": [
      "דאפטאון"
    ],
    "name:hin_x_preferred": [
      "डफटाउन"
    ],
    "name:ita_x_preferred": [
      "Dufftown"
    ],
    "name:jpn_x_preferred": [
      "ダフタウン"
    ],
    "name:nld_x_preferred": [
      "Dufftown"
    ],
    "name:nno_x_preferred": [
      "Dufftown"
    ],
    "name:nob_x_preferred": [
      "Dufftown"
    ],
    "name:nor_x_preferred": [
      "Dufftown"
    ],
    "name:pol_x_preferred": [
      "Dufftown"
    ],
    "name:rus_x_preferred": [
      "Дафтаун"
    ],
    "name:sco_x_preferred": [
      "Dufftoun"
    ],
    "name:spa_x_preferred": [
      "Dufftown"
    ],
    "name:swe_x_preferred": [
      "Dufftown"
    ],
    "name:zho_x_preferred": [
      "杜夫敦"
    ],
    "qs:a0": "United Kingdom",
    "qs:a1": "*Moray",
    "qs:a1_lc": "GB11QX0000",
    "qs:a1r": "0Scotland",
    "qs:a1r_lc": "GB11000000",
    "qs:adm0": "United Kingdom",
    "qs:id": 0,
    "qs:la_lc": "*",
    "qs:level": "locality",
    "qs:loc": "Dufftown",
    "qs:loc_alt": "Dufftown",
    "qs:pop": 0,
    "qs:source": "RCustom EuroGlobalMap + UMZ Urban Polygons + Geonames + GeoPlanet",
    "qs:type": "buffered point",
    "src:geom": "whosonfirst",
    "src:geom_alt": [
      "quattroshapes_pg",
      "quattroshapes"
    ],
    "src:geom_via": "quattroshapes",
    "src:lbl_centroid": "mapshaper",
    "src:population": "wikidata",
    "wd:latitude": 57.4408,
    "wd:longitude": -3.12613,
    "wd:wordcount": 664,
    "wof:belongsto": [
      1880772981,
      102191581,
      85633159,
      1880762111,
      404227471,
      136253055,
      1360698869
    ],
    "wof:breaches": [],
    "wof:concordances": {
      "gn:id": 2650833,
      "gp:id": 18588,
      "qs_pg:id": 897550,
      "wd:id": "Q1012028",
      "wk:page": "Dufftown"
    },
    "wof:country": "GB",
    "wof:created": 1765385079,
    "wof:geom_alt": [
      "quattroshapes",
      "quattroshapes_pg"
    ],
    "wof:geomhash": "ce9d25f653792c81978fedad24aadd7f",
    "wof:hierarchy": [
      {
        "continent_id": 102191581,
        "country_id": 85633159,
        "county_id": 1360698869,
        "empire_id": 136253055,
        "locality_id": 101873639,
        "macrocounty_id": 1880762111,
        "macroregion_id": 404227471,
        "region_id": 1880772981
      }
    ],
    "wof:id": 101873639,
    "wof:lastmodified": 1765385079,
    "wof:name": "Dufftown",
    "wof:parent_id": 1360698869,
    "wof:placetype": "locality",
    "wof:population": 1610,
    "wof:population_rank": 3,
    "wof:repo": "whosonfirst-data-admin-gb",
    "wof:superseded_by": [],
    "wof:supersedes": [],
    "wof:tags": []
  },
  "bbox": [
    -3.129403,
    57.444506,
    -3.129403,
    57.444506
  ],
  "geometry": {"type":"Point","coordinates":[-3.129403,57.444506]}
}
