{
  "id": 1309841341,
  "type": "Feature",
  "properties": {
    "edtf:cessation": "",
    "edtf:inception": "",
    "geom:area": 0,
    "geom:area_square_m": 0,
    "geom:bbox": "-6.516670,54.450000,-6.516670,54.450000",
    "geom:latitude": 54.45,
    "geom:longitude": -6.51667,
    "gn:admin1_code": "NIR",
    "gn:admin2_code": "N09000002",
    "gn:asciiname": "Scotch Street",
    "gn:country_code": "GB",
    "gn:dem": 33,
    "gn:feature_class": "P",
    "gn:feature_code": "PPL",
    "gn:geonameid": 2638364,
    "gn:latitude": 54.45,
    "gn:longitude": -6.51667,
    "gn:modification_date": "2016-12-04",
    "gn:name": "Scotch Street",
    "gn:population": 0,
    "gn:timezone": "Europe/London",
    "iso:country": "GB",
    "lbl:bbox": "-6.53667,54.43,-6.49667,54.47",
    "lbl:max_zoom": 18,
    "lbl:min_zoom": 13.5,
    "mz:hierarchy_label": 1,
    "mz:is_current": -1,
    "mz:min_zoom": 12,
    "name:ceb_x_preferred": [
      "Scotch Street"
    ],
    "name:eus_x_preferred": [
      "Scotch Street"
    ],
    "name:fas_x_preferred": [
      "اسکاچ استریت"
    ],
    "name:gla_x_preferred": [
      "Sráid na nAlbanach"
    ],
    "name:gle_x_preferred": [
      "Sráid na nAlbanach"
    ],
    "name:ita_x_preferred": [
      "Scotch Street"
    ],
    "name:msa_x_preferred": [
      "Scotch Street"
    ],
    "name:pli_x_preferred": [
      "स्कोत्च स्ट्रीट"
    ],
    "name:spa_x_preferred": [
      "Scotch Street"
    ],
    "name:swe_x_preferred": [
      "Scotch Street"
    ],
    "src:geom": "geonames",
    "src:population": "wikidata",
    "wof:belongsto": [
      1360699225,
      102191581,
      85633159,
      1880762227,
      404227473,
      136253055,
      1880762249
    ],
    "wof:breaches": [],
    "wof:concordances": {
      "gn:id": 2638364,
      "wk:page": "Scotch_Street"
    },
    "wof:country": "GB",
    "wof:created": 1765388745,
    "wof:geomhash": "048d56234b6fa75c6e14a2ca545850c1",
    "wof:hierarchy": [
      {
        "continent_id": 102191581,
        "country_id": 85633159,
        "county_id": 1880762249,
        "empire_id": 136253055,
        "locality_id": 1309841341,
        "macrocounty_id": 1880762227,
        "macroregion_id": 404227473,
        "region_id": 1360699225
      }
    ],
    "wof:id": 1309841341,
    "wof:lastmodified": 1765388745,
    "wof:name": "Scotch Street",
    "wof:parent_id": 1880762249,
    "wof:placetype": "locality",
    "wof:population": 1000,
    "wof:population_rank": 3,
    "wof:repo": "whosonfirst-data-admin-gb",
    "wof:superseded_by": [],
    "wof:supersedes": [],
    "wof:tags": []
  },
  "bbox": [
    -6.51667,
    54.45,
    -6.51667,
    54.45
  ],
  "geometry": {"type":"Point","coordinates":[-6.51667,54.45]}
}
