{
  "id": 420782317,
  "type": "Feature",
  "properties": {
    "edtf:cessation": "",
    "edtf:inception": "",
    "geom:area": 0,
    "geom:area_square_m": 0,
    "geom:bbox": "-2.051469,52.489778,-2.051469,52.489778",
    "geom:latitude": 52.489778,
    "geom:longitude": -2.051469,
    "iso:country": "GB",
    "lbl:bbox": "-2.05646865518,52.4847783959,-2.04646865518,52.4947783959",
    "lbl:latitude": 52.489778,
    "lbl:longitude": -2.051469,
    "lbl:max_zoom": 18,
    "mz:hierarchy_label": 1,
    "mz:is_current": -1,
    "mz:is_funky": 0,
    "mz:is_hard_boundary": 0,
    "mz:is_landuse_aoi": 0,
    "mz:is_official": 0,
    "mz:max_zoom": 15,
    "mz:min_zoom": 13,
    "mz:tier_locality": 0,
    "name:ast_x_preferred": [
      "Rowley Regis"
    ],
    "name:azb_x_preferred": [
      "راولی رجیس"
    ],
    "name:ceb_x_preferred": [
      "Rowley Regis"
    ],
    "name:cym_x_preferred": [
      "Rowley Regis"
    ],
    "name:deu_x_preferred": [
      "Rowley Regis"
    ],
    "name:eng_x_preferred": [
      "Rowley Regis"
    ],
    "name:fas_x_preferred": [
      "راولی رجیس"
    ],
    "name:fra_x_preferred": [
      "Rowley Regis"
    ],
    "name:gle_x_preferred": [
      "Rowley Regis"
    ],
    "name:ita_x_preferred": [
      "Rowley Regis"
    ],
    "name:jpn_x_preferred": [
      "ローリー・リージス"
    ],
    "name:lat_x_preferred": [
      "Rowley Regis"
    ],
    "name:lld_x_preferred": [
      "Rowley Regis"
    ],
    "name:nld_x_preferred": [
      "Rowley Regis"
    ],
    "name:nno_x_preferred": [
      "Rowley Regis"
    ],
    "name:pol_x_preferred": [
      "Rowley Regis"
    ],
    "name:ron_x_preferred": [
      "Rowley Regis"
    ],
    "name:spa_x_preferred": [
      "Rowley Regis"
    ],
    "name:swe_x_preferred": [
      "Rowley Regis"
    ],
    "src:geom": "unknown",
    "src:population": "wikidata",
    "wd:latitude": 52.48,
    "wd:longitude": -2.06,
    "wd:wordcount": 1278,
    "wof:belongsto": [
      1360817335,
      1880762069,
      1125901577,
      1360699035
    ],
    "wof:breaches": [],
    "wof:concordances": {
      "wd:id": "Q2571152"
    },
    "wof:country": "GB",
    "wof:created": 1458871837,
    "wof:geomhash": "077c383641738dc7c3b1a4ae6bf89eae",
    "wof:hierarchy": [
      {
        "continent_id": -1,
        "country_id": -1,
        "county_id": 1360699035,
        "localadmin_id": 1360817335,
        "locality_id": 1125901577,
        "macrocounty_id": 1880762069,
        "neighbourhood_id": 420782317,
        "region_id": -1
      }
    ],
    "wof:id": 420782317,
    "wof:lastmodified": 1765390909,
    "wof:name": "Rowley Regis",
    "wof:parent_id": 1125901577,
    "wof:placetype": "neighbourhood",
    "wof:population": 50257,
    "wof:population_rank": 8,
    "wof:repo": "whosonfirst-data-admin-gb",
    "wof:superseded_by": [],
    "wof:supersedes": [],
    "wof:tags": []
  },
  "bbox": [
    -2.051469,
    52.489778,
    -2.051469,
    52.489778
  ],
  "geometry": {"type":"Point","coordinates":[-2.051469,52.489778]}
}
