{
  "id": 1360790699,
  "type": "Feature",
  "properties": {
    "edtf:cessation": "",
    "edtf:inception": "",
    "geom:area": 0,
    "geom:area_square_m": 0,
    "geom:bbox": "-0.901244,51.304920,-0.901244,51.304920",
    "geom:latitude": 51.30492,
    "geom:longitude": -0.901244,
    "iso:country": "GB",
    "lbl:bbox": "-0.906244,51.29992,-0.896244,51.30992",
    "lbl:latitude": 51.304921,
    "lbl:longitude": -0.901244,
    "lbl:max_zoom": 18,
    "mps:latitude": 51.304921,
    "mps:longitude": -0.901244,
    "mz:hierarchy_label": 1,
    "mz:is_current": 1,
    "mz:min_zoom": 15,
    "name:ben_x_preferred": [
      "হার্টলে উইন্টনে"
    ],
    "name:ceb_x_preferred": [
      "Hartley Wintney"
    ],
    "name:cym_x_preferred": [
      "Hartley Wintney"
    ],
    "name:deu_x_preferred": [
      "Hartley Wintney"
    ],
    "name:eng_x_preferred": [
      "Hartley Wintney"
    ],
    "name:fas_x_preferred": [
      "هارتلی وینتنی"
    ],
    "name:fra_x_preferred": [
      "Hartley Wintney"
    ],
    "name:gle_x_preferred": [
      "Hartley Wintney"
    ],
    "name:guj_x_preferred": [
      "હાર્ટલી વિંટની"
    ],
    "name:heb_x_preferred": [
      "הארטלי וינטני"
    ],
    "name:ita_x_preferred": [
      "Hartley Wintney"
    ],
    "name:jpn_x_preferred": [
      "ハートリー・ウィントニー"
    ],
    "name:kan_x_preferred": [
      "ಹಾರ್ಟ್ಲೆ ವಿಂಟ್ನಿ"
    ],
    "name:kor_x_preferred": [
      "하틀리 윈티"
    ],
    "name:lit_x_preferred": [
      "Hartli Vintnis"
    ],
    "name:nld_x_preferred": [
      "Hartley Wintney"
    ],
    "name:nob_x_preferred": [
      "Hartley Wintney"
    ],
    "name:pol_x_preferred": [
      "Hartley Wintney"
    ],
    "name:por_x_preferred": [
      "Hartley Wintney"
    ],
    "name:rus_x_preferred": [
      "Хартли-Уитни"
    ],
    "name:slv_x_preferred": [
      "Hartley Wintney"
    ],
    "name:spa_x_preferred": [
      "Hartley Wintney"
    ],
    "name:swe_x_preferred": [
      "Hartley Wintney"
    ],
    "name:tam_x_preferred": [
      "லான்ஹஇல்லேத்"
    ],
    "name:tel_x_preferred": [
      "హార్ట్ విన్స్నీ"
    ],
    "name:tur_x_preferred": [
      "Hartley Wintney"
    ],
    "name:urd_x_preferred": [
      "ہارٹلے وینتنے"
    ],
    "name:zho_x_preferred": [
      "哈特利温特尼"
    ],
    "qs:a0": "United Kingdom",
    "qs:a1": "*Hampshire",
    "qs:a1_lc": "GB12240000",
    "qs:a1r": "0England",
    "qs:a1r_lc": "GB12000000",
    "qs:adm0": "United Kingdom",
    "qs:la_lc": "*",
    "qs:level": "locality",
    "qs:loc": "Hartley Wintney",
    "qs:loc_alt": "Hartley Wintney",
    "qs:pop": 0,
    "qs:source": "RCustom EuroGlobalMap + UMZ Urban Polygons + Geonames + GeoPlanet",
    "qs:type": "buffered point",
    "src:geom": "whosonfirst",
    "src:geom_alt": [
      "quattroshapes_pg",
      "quattroshapes"
    ],
    "src:geom_via": "quattroshapes",
    "src:lbl_centroid": "mapshaper",
    "src:population": "wikidata",
    "wd:latitude": 51.3043,
    "wd:longitude": -0.9054,
    "wd:wordcount": 1284,
    "wof:belongsto": [
      1880762717,
      102191581,
      1880762155,
      404444909,
      85633159,
      404227469,
      1343993285,
      136253055,
      1880771471
    ],
    "wof:breaches": [],
    "wof:concordances": {
      "fct:id": "0aa1dc98-8f76-11e1-848f-cfd5bf3ef515",
      "gn:id": 2647398,
      "gp:id": 22552,
      "qs_pg:id": 345754,
      "wd:id": "Q2174493",
      "wk:page": "Hartley Wintney"
    },
    "wof:concordances_alt": {
      "qs_pg:id": 385047
    },
    "wof:country": "GB",
    "wof:created": 1765389421,
    "wof:geomhash": "1429f8a53694659039f95dfe99f707b1",
    "wof:hierarchy": [
      {
        "continent_id": 102191581,
        "country_id": 85633159,
        "county_id": 1880771471,
        "empire_id": 136253055,
        "localadmin_id": 404444909,
        "locality_id": 1343993285,
        "macrocounty_id": 1880762155,
        "macroregion_id": 404227469,
        "neighbourhood_id": 1360790699,
        "region_id": 1880762717
      }
    ],
    "wof:id": 1360790699,
    "wof:lang": [
      "eng"
    ],
    "wof:lastmodified": 1765389421,
    "wof:name": "Hartley Wintney",
    "wof:parent_id": 1343993285,
    "wof:placetype": "neighbourhood",
    "wof:population": 5925,
    "wof:population_rank": 5,
    "wof:repo": "whosonfirst-data-admin-gb",
    "wof:superseded_by": [],
    "wof:supersedes": [
      101852457
    ],
    "wof:tags": []
  },
  "bbox": [
    -0.901244,
    51.30492,
    -0.901244,
    51.30492
  ],
  "geometry": {"type":"Point","coordinates":[-0.901244,51.30492]}
}
