{
  "id": 1125880203,
  "type": "Feature",
  "properties": {
    "edtf:cessation": "",
    "edtf:inception": "",
    "geom:area": 0,
    "geom:area_square_m": 0,
    "geom:bbox": "-6.113160,56.697880,-6.113160,56.697880",
    "geom:latitude": 56.69788,
    "geom:longitude": -6.11316,
    "gn:country": "GB",
    "gn:fcode": "PPL",
    "gn:population": 0,
    "iso:country": "GB",
    "lbl:bbox": "-6.13316,56.67788,-6.09316,56.71788",
    "lbl:latitude": 56.69788,
    "lbl:longitude": -6.11316,
    "lbl:max_zoom": 18,
    "lbl:min_zoom": 13.5,
    "mz:hierarchy_label": 1,
    "mz:is_current": 1,
    "mz:min_zoom": 12,
    "mz:note": "Quattroshapes Point Gazetteer import 20170519",
    "name:cym_x_preferred": [
      "Kilchoan"
    ],
    "name:eng_x_preferred": [
      "Kilchoan"
    ],
    "name:eus_x_preferred": [
      "Kilchoan"
    ],
    "name:gla_x_preferred": [
      "Cille Chòmhain"
    ],
    "name:gle_x_preferred": [
      "Cille Chómhghain"
    ],
    "name:nld_x_preferred": [
      "Kilchoan"
    ],
    "name:swe_x_preferred": [
      "Kilchoan"
    ],
    "qs_pg:aaroncc": "GB",
    "qs_pg:gn_country": "GB",
    "qs_pg:gn_fcode": "PPL",
    "qs_pg:gn_id": 2645692,
    "qs_pg:gn_pop": 0,
    "qs_pg:name": "Kilchoan",
    "qs_pg:name_adm0": "United Kingdom",
    "qs_pg:name_adm1": "Scotland",
    "qs_pg:photos": 700,
    "qs_pg:photos_1k": 142,
    "qs_pg:photos_9k": 3,
    "qs_pg:photos_9r": 5,
    "qs_pg:photos_all": 700,
    "qs_pg:photos_sr": 8,
    "qs_pg:pop_sr": 0,
    "qs_pg:qs_id": 1113738,
    "qs_pg:qs_pg_placetype": "locality",
    "qs_pg:qs_pg_placetype_gp": "Town",
    "qs_pg:woe_adm0": 23424975,
    "qs_pg:woe_id": 24937,
    "src:geom": "qs_pg",
    "src:lbl_centroid": "qs_pg",
    "src:population": "wikidata",
    "woe:adm0_id": 23424975,
    "woe:name_adm0": "United Kingdom",
    "woe:name_adm1": "Scotland",
    "woe:placetype": "Town",
    "wof:belongsto": [
      1880762005,
      1360699045
    ],
    "wof:breaches": [],
    "wof:concordances": {
      "gn:id": 2645692,
      "gp:id": 24937,
      "qs_pg:id": 1113738,
      "wd:id": "Q2544189"
    },
    "wof:country": "GB",
    "wof:created": 1497294765,
    "wof:geomhash": "640961e96f9132612ca6d5c8834fd65b",
    "wof:hierarchy": [
      {
        "continent_id": -1,
        "country_id": -1,
        "county_id": 1360699045,
        "locality_id": 1125880203,
        "macrocounty_id": 1880762005,
        "region_id": -1
      }
    ],
    "wof:id": 1125880203,
    "wof:lastmodified": 1765386157,
    "wof:name": "Kilchoan",
    "wof:parent_id": 1360699045,
    "wof:placetype": "locality",
    "wof:population": 150,
    "wof:population_rank": 1,
    "wof:repo": "whosonfirst-data-admin-gb",
    "wof:superseded_by": [],
    "wof:supersedes": [],
    "wof:tags": []
  },
  "bbox": [
    -6.11316,
    56.69788,
    -6.11316,
    56.69788
  ],
  "geometry": {"type":"Point","coordinates":[-6.11316,56.69788]}
}
