{
  "id": 85793059,
  "type": "Feature",
  "properties": {
    "edtf:cessation": "",
    "edtf:inception": "",
    "geom:area": 0.00033624522699992373,
    "geom:area_square_m": 2473009.284756,
    "geom:bbox": "-2.252197,53.491314,-2.224505,53.512711",
    "geom:latitude": 53.50292608299793,
    "geom:longitude": -2.238987669605239,
    "gn:latitude": 53.49862,
    "gn:longitude": -2.23846,
    "gn:population": 12846,
    "iso:country": "GB",
    "lbl:latitude": 53.503409,
    "lbl:longitude": -2.235128,
    "lbl:max_zoom": 18,
    "mps:latitude": 53.502375,
    "mps:longitude": -2.238987,
    "mz:hierarchy_label": 1,
    "mz:is_current": 1,
    "mz:is_funky": 0,
    "mz:is_hard_boundary": 0,
    "mz:is_landuse_aoi": 0,
    "mz:is_official": 0,
    "mz:max_zoom": 18,
    "mz:min_zoom": 14,
    "mz:tier_locality": 4,
    "mz:tier_metro": 1,
    "name:bel_x_preferred": [
      "Чытэм Хіл"
    ],
    "name:ceb_x_preferred": [
      "Cheetham Hill"
    ],
    "name:cym_x_preferred": [
      "Cheetham Hill"
    ],
    "name:deu_x_preferred": [
      "Cheetham Hill"
    ],
    "name:eng_x_preferred": [
      "Cheetham Hill"
    ],
    "name:fra_x_preferred": [
      "Cheetham Hill"
    ],
    "name:gle_x_preferred": [
      "Cheetham Hill"
    ],
    "name:ita_x_preferred": [
      "Cheetham Hill"
    ],
    "name:kat_x_preferred": [
      "ჩითემ-ჰილი"
    ],
    "name:nld_x_preferred": [
      "Cheetham Hill"
    ],
    "name:rus_x_preferred": [
      "Читем-Хилл"
    ],
    "name:swe_x_preferred": [
      "Cheetham Hill"
    ],
    "name:urd_x_preferred": [
      "چیتھم ہل"
    ],
    "name:zho_x_preferred": [
      "圣约翰伍德"
    ],
    "src:geom": "quattroshapes",
    "src:geom_alt": [
      "quattroshapes_pg"
    ],
    "src:lbl_centroid": "mz",
    "src:population": "wikidata",
    "wd:wordcount": 1535,
    "wof:belongsto": [
      1880773095,
      102191581,
      85633159,
      1880762163,
      404227469,
      101750525,
      136253055,
      1360698893
    ],
    "wof:breaches": [],
    "wof:concordances": {
      "gn:id": 6691216,
      "gp:id": 43901,
      "qs_pg:id": 891313,
      "wd:id": "Q2015708",
      "wk:page": "Cheetham Hill"
    },
    "wof:country": "GB",
    "wof:created": 1765391290,
    "wof:geom_alt": [
      "quattroshapes_pg"
    ],
    "wof:geomhash": "3ec4a52316bb28aa814b640a100d2a60",
    "wof:hierarchy": [
      {
        "continent_id": 102191581,
        "country_id": 85633159,
        "county_id": 1360698893,
        "empire_id": 136253055,
        "locality_id": 101750525,
        "macrocounty_id": 1880762163,
        "macroregion_id": 404227469,
        "neighbourhood_id": 85793059,
        "region_id": 1880773095
      }
    ],
    "wof:id": 85793059,
    "wof:lang": [
      "eng"
    ],
    "wof:lastmodified": 1765391290,
    "wof:name": "Cheetham Hill",
    "wof:parent_id": 101750525,
    "wof:placetype": "neighbourhood",
    "wof:population": 22562,
    "wof:population_rank": 7,
    "wof:repo": "whosonfirst-data-admin-gb",
    "wof:superseded_by": [],
    "wof:supersedes": [],
    "wof:tags": []
  },
  "bbox": [
    -2.252197,
    53.491314,
    -2.224505,
    53.512711
  ],
  "geometry": {"type":"Polygon","coordinates":[[[-2.248295,53.51203],[-2.247634,53.510918],[-2.246704,53.510918],[-2.243958,53.510918],[-2.241211,53.510918],[-2.240281,53.510918],[-2.235718,53.510918],[-2.235718,53.509285],[-2.232971,53.509285],[-2.232486,53.510101],[-2.23071,53.510101],[-2.230225,53.509285],[-2.22996,53.50884],[-2.228508,53.508946],[-2.225209,53.50967],[-2.224731,53.509584],[-2.224505,53.509285],[-2.225201,53.506737],[-2.226431,53.506082],[-2.22845,53.504384],[-2.229253,53.504384],[-2.230225,53.502751],[-2.230225,53.501117],[-2.230225,53.499483],[-2.231175,53.497885],[-2.231154,53.49785],[-2.230225,53.49785],[-2.230225,53.494582],[-2.231154,53.494582],[-2.231154,53.494582],[-2.234788,53.494582],[-2.235718,53.493019],[-2.235718,53.492876],[-2.235718,53.491314],[-2.241211,53.491314],[-2.241211,53.494582],[-2.246704,53.494582],[-2.246704,53.49785],[-2.246704,53.499412],[-2.246704,53.501117],[-2.246704,53.501117],[-2.246704,53.502821],[-2.249451,53.504361],[-2.249451,53.504384],[-2.249451,53.506018],[-2.249451,53.507651],[-2.252197,53.507651],[-2.252197,53.509214],[-2.252197,53.510918],[-2.252197,53.510918],[-2.252197,53.510918],[-2.251131,53.512711],[-2.248295,53.51203]]]}
}
