{
  "id": 1360790913,
  "type": "Feature",
  "properties": {
    "edtf:cessation": "",
    "edtf:inception": "",
    "geom:area": 0,
    "geom:area_square_m": 0,
    "geom:bbox": "-0.671603,51.917055,-0.671603,51.917055",
    "geom:latitude": 51.917055,
    "geom:longitude": -0.671603,
    "gn:population": 33467,
    "iso:country": "GB",
    "lbl:bbox": "-0.676603,51.912055,-0.666603,51.922055",
    "lbl:latitude": 51.917056,
    "lbl:longitude": -0.671602,
    "lbl:max_zoom": 18,
    "mps:latitude": 51.917056,
    "mps:longitude": -0.671602,
    "mz:hierarchy_label": 1,
    "mz:is_current": 1,
    "mz:min_zoom": 15,
    "name:ast_x_preferred": [
      "Leighton Buzzard"
    ],
    "name:ceb_x_preferred": [
      "Leighton Buzzard"
    ],
    "name:cym_x_preferred": [
      "Leighton Buzzard"
    ],
    "name:deu_x_preferred": [
      "Leighton Buzzard"
    ],
    "name:eng_x_preferred": [
      "Leighton Buzzard"
    ],
    "name:epo_x_preferred": [
      "Leighton Buzzard"
    ],
    "name:fas_x_preferred": [
      "لیتون بوزارد"
    ],
    "name:fra_x_preferred": [
      "Leighton Buzzard"
    ],
    "name:gle_x_preferred": [
      "Leighton Buzzard"
    ],
    "name:heb_x_preferred": [
      "לייטון באזרד"
    ],
    "name:ita_x_preferred": [
      "Leighton Buzzard"
    ],
    "name:jpn_x_preferred": [
      "レイトン・バザード"
    ],
    "name:kor_x_preferred": [
      "레이턴 버저드"
    ],
    "name:lld_x_preferred": [
      "Leighton Buzzard"
    ],
    "name:nld_x_preferred": [
      "Leighton Buzzard"
    ],
    "name:nno_x_preferred": [
      "Leighton Buzzard"
    ],
    "name:nob_x_preferred": [
      "Leighton Buzzard"
    ],
    "name:nor_x_preferred": [
      "Leighton Buzzard"
    ],
    "name:pol_x_preferred": [
      "Leighton Buzzard"
    ],
    "name:ron_x_preferred": [
      "Leighton Buzzard"
    ],
    "name:rus_x_preferred": [
      "Лей­тон-Баз­зар­д"
    ],
    "name:spa_x_preferred": [
      "Leighton Buzzard"
    ],
    "name:swe_x_preferred": [
      "Leighton Buzzard"
    ],
    "name:vol_x_preferred": [
      "Leighton Buzzard"
    ],
    "name:zho_x_preferred": [
      "莱顿巴扎德"
    ],
    "qs:a0": "United Kingdom",
    "qs:a1": "*Central Bedfordshire",
    "qs:a1_lc": "GB12KC0000",
    "qs:a1r": "0England",
    "qs:a1r_lc": "GB12000000",
    "qs:adm0": "United Kingdom",
    "qs:la_lc": "*",
    "qs:level": "locality",
    "qs:loc": "Leighton Buzzard",
    "qs:loc_alt": "Leighton Buzzard",
    "qs:pop": 0,
    "qs:source": "RCustom EuroGlobalMap + UMZ Urban Polygons + Geonames + GeoPlanet",
    "qs:type": "buffered point",
    "src:geom": "whosonfirst",
    "src:geom_alt": [
      "quattroshapes_pg",
      "quattroshapes"
    ],
    "src:geom_via": "quattroshapes",
    "src:lbl_centroid": "mapshaper",
    "src:population": "wikidata",
    "wd:latitude": 51.9165,
    "wd:longitude": -0.6617,
    "wd:wordcount": 1828,
    "wof:belongsto": [
      1880773157,
      102191581,
      1880762167,
      404430503,
      85633159,
      404227469,
      1360754517,
      136253055,
      1360698767
    ],
    "wof:breaches": [],
    "wof:concordances": {
      "gn:id": 2644652,
      "gp:id": 26088,
      "qs_pg:id": 772310,
      "wd:id": "Q2462645",
      "wk:page": "Leighton Buzzard"
    },
    "wof:country": "GB",
    "wof:created": 1765389439,
    "wof:geomhash": "0682410585069d2788701f1b092d9a88",
    "wof:hierarchy": [
      {
        "continent_id": 102191581,
        "country_id": 85633159,
        "county_id": 1360698767,
        "empire_id": 136253055,
        "localadmin_id": 404430503,
        "locality_id": 1360754517,
        "macrocounty_id": 1880762167,
        "macroregion_id": 404227469,
        "neighbourhood_id": 1360790913,
        "region_id": 1880773157
      }
    ],
    "wof:id": 1360790913,
    "wof:lastmodified": 1765389439,
    "wof:name": "Leighton Buzzard",
    "wof:parent_id": 1360754517,
    "wof:placetype": "neighbourhood",
    "wof:population": 37469,
    "wof:population_rank": 7,
    "wof:repo": "whosonfirst-data-admin-gb",
    "wof:superseded_by": [],
    "wof:supersedes": [
      101854807
    ],
    "wof:tags": []
  },
  "bbox": [
    -0.671603,
    51.917055,
    -0.671603,
    51.917055
  ],
  "geometry": {"type":"Point","coordinates":[-0.671603,51.917055]}
}
