{
  "id": 1126013683,
  "type": "Feature",
  "properties": {
    "edtf:cessation": "",
    "edtf:inception": "",
    "geom:area": 0,
    "geom:area_square_m": 0,
    "geom:bbox": "-3.910920,56.089780,-3.910920,56.089780",
    "geom:latitude": 56.08978,
    "geom:longitude": -3.91092,
    "gn:country": "GB",
    "gn:fcode": "PPL",
    "gn:population": 8033,
    "iso:country": "GB",
    "lbl:bbox": "-3.93092,56.06978,-3.89092,56.10978",
    "lbl:latitude": 56.08978,
    "lbl:longitude": -3.91092,
    "lbl:max_zoom": 15,
    "lbl:min_zoom": 11,
    "mz:hierarchy_label": 1,
    "mz:is_current": 1,
    "mz:min_zoom": 11,
    "mz:note": "Quattroshapes Point Gazetteer import 20170519",
    "name:ast_x_preferred": [
      "Bannockburn"
    ],
    "name:bar_x_preferred": [
      "Bannockburn"
    ],
    "name:ben_x_preferred": [
      "বেনকবার্ন"
    ],
    "name:bul_x_preferred": [
      "Банъкбърн"
    ],
    "name:ceb_x_preferred": [
      "Bannockburn"
    ],
    "name:deu_x_preferred": [
      "Bannockburn"
    ],
    "name:eng_x_preferred": [
      "Bannockburn"
    ],
    "name:epo_x_preferred": [
      "Bannockburn"
    ],
    "name:eus_x_preferred": [
      "Bannockburn"
    ],
    "name:fas_x_preferred": [
      "بانوکبرن"
    ],
    "name:fra_x_preferred": [
      "Bannockburn"
    ],
    "name:gla_x_preferred": [
      "Allt a Bhonnaich"
    ],
    "name:gle_x_preferred": [
      "Allt a Bhonnaich"
    ],
    "name:guj_x_preferred": [
      "બેનોકબર્ન"
    ],
    "name:heb_x_preferred": [
      "בנוקבורן"
    ],
    "name:ita_x_preferred": [
      "Bannockburn"
    ],
    "name:jpn_x_preferred": [
      "バンノックバーン"
    ],
    "name:kan_x_preferred": [
      "ಬನ್ನಾಕ್ಬರ್ನ್"
    ],
    "name:kor_x_preferred": [
      "배녹번"
    ],
    "name:lit_x_preferred": [
      "Banokbernas"
    ],
    "name:nld_x_preferred": [
      "Bannockburn"
    ],
    "name:nno_x_preferred": [
      "Bannockburn"
    ],
    "name:nob_x_preferred": [
      "Bannockburn"
    ],
    "name:pol_x_preferred": [
      "Bannockburn"
    ],
    "name:por_x_preferred": [
      "Bannockburn"
    ],
    "name:rus_x_preferred": [
      "Бэннокберн"
    ],
    "name:slv_x_preferred": [
      "Bannockburn"
    ],
    "name:spa_x_preferred": [
      "Bannockburn"
    ],
    "name:swe_x_preferred": [
      "Bannockburn"
    ],
    "name:tam_x_preferred": [
      "பன்நோக்கபுரன்"
    ],
    "name:tel_x_preferred": [
      "బన్నోక్బర్న్"
    ],
    "name:urd_x_preferred": [
      "باننوکبورن"
    ],
    "name:zho_x_preferred": [
      "班诺克本"
    ],
    "qs_pg:aaroncc": "GB",
    "qs_pg:gn_country": "GB",
    "qs_pg:gn_fcode": "PPL",
    "qs_pg:gn_id": 2656382,
    "qs_pg:gn_pop": 8033,
    "qs_pg:name": "Bannockburn",
    "qs_pg:name_adm0": "United Kingdom",
    "qs_pg:name_adm1": "Scotland",
    "qs_pg:photos": 301,
    "qs_pg:photos_1k": 61,
    "qs_pg:photos_9k": 1,
    "qs_pg:photos_9r": 5,
    "qs_pg:photos_all": 301,
    "qs_pg:photos_sr": 5,
    "qs_pg:pop_sr": 5,
    "qs_pg:qs_id": 247013,
    "qs_pg:qs_pg_placetype": "locality",
    "qs_pg:qs_pg_placetype_gp": "Town",
    "qs_pg:woe_adm0": 23424975,
    "qs_pg:woe_id": 11790,
    "src:geom": "qs_pg",
    "src:lbl_centroid": "qs_pg",
    "src:population": "wikidata",
    "woe:adm0_id": 23424975,
    "woe:name_adm0": "United Kingdom",
    "woe:name_adm1": "Scotland",
    "woe:placetype": "Town",
    "wof:belongsto": [
      1880762131,
      1360699003
    ],
    "wof:breaches": [],
    "wof:concordances": {
      "gn:id": 2656382,
      "gp:id": 11790,
      "qs_pg:id": 247013,
      "wd:id": "Q806906"
    },
    "wof:country": "GB",
    "wof:created": 1497300425,
    "wof:geomhash": "2990324f14e366a2a6d489d125e5e7be",
    "wof:hierarchy": [
      {
        "continent_id": -1,
        "country_id": -1,
        "county_id": 1360699003,
        "locality_id": 1126013683,
        "macrocounty_id": 1880762131,
        "region_id": -1
      }
    ],
    "wof:id": 1126013683,
    "wof:lastmodified": 1765387562,
    "wof:name": "Bannockburn",
    "wof:parent_id": 1360699003,
    "wof:placetype": "locality",
    "wof:population": 6840,
    "wof:population_rank": 5,
    "wof:repo": "whosonfirst-data-admin-gb",
    "wof:superseded_by": [],
    "wof:supersedes": [],
    "wof:tags": []
  },
  "bbox": [
    -3.91092,
    56.08978,
    -3.91092,
    56.08978
  ],
  "geometry": {"type":"Point","coordinates":[-3.91092,56.08978]}
}
