{
  "id": 85684381,
  "type": "Feature",
  "properties": {
    "edtf:cessation": "",
    "edtf:deprecated": "2017-12-20",
    "edtf:inception": "",
    "geom:area": 0.010670491684500053,
    "geom:area_square_m": 81863918.429131,
    "geom:bbox": "-0.185828,51.605636,-0.008901,51.691875",
    "geom:latitude": 51.65099399505161,
    "geom:longitude": -0.08718046876860877,
    "iso:country": "GB",
    "lbl:latitude": 51.649362,
    "lbl:longitude": -0.088863,
    "mps:latitude": 51.649362,
    "mps:longitude": -0.088863,
    "mz:hierarchy_label": 1,
    "mz:is_current": 0,
    "mz:is_funky": 1,
    "mz:max_zoom": 11,
    "mz:min_zoom": 11,
    "name:ara_x_preferred": [
      "إنفيلد"
    ],
    "name:bel_x_preferred": [
      "Энфілд"
    ],
    "name:ben_x_preferred": [
      "এনফিল্ড"
    ],
    "name:cat_x_preferred": [
      "Enfield"
    ],
    "name:ceb_x_preferred": [
      "Enfield"
    ],
    "name:ces_x_preferred": [
      "Enfield"
    ],
    "name:cym_x_preferred": [
      "Enfield"
    ],
    "name:dan_x_preferred": [
      "Enfield"
    ],
    "name:deu_x_preferred": [
      "Enfield"
    ],
    "name:deu_x_variant": [
      "London Borough of Enfield"
    ],
    "name:eng_x_preferred": [
      "Enfield"
    ],
    "name:est_x_preferred": [
      "Enfieldi linnaosa"
    ],
    "name:eus_x_preferred": [
      "Enfield"
    ],
    "name:fas_x_preferred": [
      "منطقه انفیلد لندن"
    ],
    "name:fin_x_preferred": [
      "Enfield"
    ],
    "name:fra_x_preferred": [
      "Enfield"
    ],
    "name:fra_x_variant": [
      "district londonien d'Enfield"
    ],
    "name:fry_x_preferred": [
      "Enfield"
    ],
    "name:gle_x_preferred": [
      "London Borough of Enfield"
    ],
    "name:guj_x_preferred": [
      "લંડન બોરો ઓફ એનફિલ્ડ"
    ],
    "name:hbs_x_preferred": [
      "Enfild"
    ],
    "name:heb_x_preferred": [
      "אנפילד"
    ],
    "name:hin_x_preferred": [
      "एन्फ़ील्ड"
    ],
    "name:hun_x_preferred": [
      "Enfield kerület"
    ],
    "name:hye_x_preferred": [
      "Էնֆիլդ"
    ],
    "name:isl_x_preferred": [
      "Enfield"
    ],
    "name:ita_x_preferred": [
      "Enfield"
    ],
    "name:jpn_x_preferred": [
      "インフィールド・ロンドン特別区"
    ],
    "name:kan_x_preferred": [
      "ಲಂಡನ್ ಬರೋ ಆಫ್ ಎನ್ಫೀಲ್ಡ್"
    ],
    "name:kat_x_preferred": [
      "ენფილდი"
    ],
    "name:kor_x_preferred": [
      "엔필드"
    ],
    "name:lat_x_preferred": [
      "Enfield"
    ],
    "name:nld_x_preferred": [
      "Enfield"
    ],
    "name:nno_x_preferred": [
      "London Borough of Enfield"
    ],
    "name:nob_x_preferred": [
      "Enfield"
    ],
    "name:nor_x_preferred": [
      "Enfield"
    ],
    "name:pnb_x_preferred": [
      "اینفیلڈ"
    ],
    "name:pol_x_preferred": [
      "Enfield"
    ],
    "name:por_x_preferred": [
      "Enfield"
    ],
    "name:ron_x_preferred": [
      "Enfield"
    ],
    "name:rus_x_preferred": [
      "Энфилд"
    ],
    "name:slk_x_preferred": [
      "Enfield"
    ],
    "name:slv_x_preferred": [
      "London Borough of Enfield"
    ],
    "name:spa_x_preferred": [
      "Enfield"
    ],
    "name:srp_x_preferred": [
      "Енфилд"
    ],
    "name:swe_x_preferred": [
      "Enfield"
    ],
    "name:tam_x_preferred": [
      "லண்டன்  பாரூக்ஹ்   என்பீல்ட்"
    ],
    "name:tel_x_preferred": [
      "లండన్ బోరో ఆఫ్ ఎన్ఫీల్డ్"
    ],
    "name:ukr_x_preferred": [
      "Енфілд"
    ],
    "name:urd_x_preferred": [
      "اینفیلڈ بورو"
    ],
    "name:vie_x_preferred": [
      "Khu Enfield của Luân Đôn"
    ],
    "name:vol_x_preferred": [
      "Enfield"
    ],
    "name:yid_x_preferred": [
      "לאנדאנער בארא פון ענפילד"
    ],
    "name:zho_x_preferred": [
      "恩菲爾德區"
    ],
    "ne:abbrev": "Enfield",
    "ne:adm0_a3": "GBR",
    "ne:adm0_label": "7",
    "ne:adm0_sr": "1",
    "ne:adm1_cod_1": "GBR-2067",
    "ne:adm1_code": "GBR-2067",
    "ne:admin": "United Kingdom",
    "ne:area_sqkm": "0.00000000000",
    "ne:check_me": "20",
    "ne:code_hasc": "GB.EF",
    "ne:code_local": "",
    "ne:datarank": "5",
    "ne:diss_me": "2067",
    "ne:featurecla": "Admin-1 scale rank",
    "ne:fips": "UK17",
    "ne:fips_alt": "UKE3",
    "ne:gadm_level": "2",
    "ne:geonunit": "England",
    "ne:gn_a1_code": "GB.",
    "ne:gn_id": "-2648110",
    "ne:gn_level": "-2",
    "ne:gn_name": "Greater London",
    "ne:gn_region": "",
    "ne:gns_adm1": "",
    "ne:gns_id": "6077588",
    "ne:gns_lang": "ind",
    "ne:gns_level": "1",
    "ne:gns_name": "Enfield, London Borough of",
    "ne:gns_region": "UK35",
    "ne:gu_a3": "ENG",
    "ne:hasc_maybe": "",
    "ne:iso_3166_2": "GB-",
    "ne:iso_a2": "GB",
    "ne:labelrank": "9",
    "ne:latitude": "51.64400000000",
    "ne:longitude": "-0.09114530000",
    "ne:mapcolor13": 3,
    "ne:mapcolor9": 6,
    "ne:name": "Enfield",
    "ne:name_alt": "",
    "ne:name_len": 7,
    "ne:name_local": "",
    "ne:note": "",
    "ne:postal": "EF",
    "ne:provnum_ne": "20088",
    "ne:region": "Greater London",
    "ne:region_cod": "",
    "ne:region_sub": "Greater London",
    "ne:sameascity": "-99",
    "ne:scalerank": "8",
    "ne:sov_a3": "GB1",
    "ne:sub_code": "",
    "ne:type": "London Borough",
    "ne:type_en": "London Borough",
    "ne:wikipedia": "",
    "ne:woe_id": 12695827,
    "ne:woe_label": "",
    "ne:woe_name": "London Borough of Enfield",
    "qs:a0": "United Kingdom",
    "qs:a0_lc": "GB00000000",
    "qs:a1": "Enfield",
    "qs:a1_alt": "Enfield",
    "qs:a1_lc": "GB12AK0000",
    "qs:a1r": "England",
    "qs:a1r_alt": "England",
    "qs:a1r_lc": "GB12000000",
    "qs:adm0": "United Kingdom",
    "qs:adm0_a3": "GBR",
    "qs:level": "adm1",
    "qs:source": "EuroGlobalMap",
    "qs:type": "London Borough",
    "src:geom": "quattroshapes",
    "src:geom_alt": [],
    "src:lbl:centroid": "mapshaper",
    "src:population": "wikidata",
    "unlc:subdivision": "GB-ENF",
    "wd:wordcount": 319,
    "wof:belongsto": [
      102191581,
      85633159,
      404227469
    ],
    "wof:breaches": [],
    "wof:concordances": {
      "fips:code": "UK17",
      "gn:id": -2648110,
      "gp:id": 12695827,
      "hasc:id": "GB.EF",
      "unlc:id": "GB-ENF",
      "wd:id": "Q210531"
    },
    "wof:country": "GB",
    "wof:created": 1765390945,
    "wof:geomhash": "8d1411b661578f2f3f6db3bb3b3e8bca",
    "wof:hierarchy": [
      {
        "continent_id": 102191581,
        "country_id": 85633159,
        "macroregion_id": 404227469,
        "region_id": 85684381
      }
    ],
    "wof:id": 85684381,
    "wof:lastmodified": 1765390945,
    "wof:name": "Enfield",
    "wof:parent_id": 404227469,
    "wof:placetype": "region",
    "wof:population": 327224,
    "wof:population_rank": 10,
    "wof:repo": "whosonfirst-data-admin-gb",
    "wof:shortcode": "EF",
    "wof:subdivision": "GB-ENF",
    "wof:superseded_by": [
      1158857281
    ],
    "wof:supersedes": [],
    "wof:tags": []
  },
  "bbox": [
    -0.185828,
    51.605636,
    -0.008901,
    51.691875
  ],
  "geometry": {"type":"Polygon","coordinates":[[[-0.011879,51.680877],[-0.011026,51.68087],[-0.010289,51.676662],[-0.011372,51.671245],[-0.010519,51.66917],[-0.011452,51.663841],[-0.008901,51.660217],[-0.01174,51.653034],[-0.01222,51.646229],[-0.013212,51.639847],[-0.016842,51.633541],[-0.025935,51.621761],[-0.032355,51.616623],[-0.035322,51.612987],[-0.035509,51.611999],[-0.033955,51.609489],[-0.035212,51.60823],[-0.041383,51.605636],[-0.050166,51.607357],[-0.054314,51.608864],[-0.085794,51.608406],[-0.09354,51.608963],[-0.095117,51.608642],[-0.095766,51.609276],[-0.097612,51.608955],[-0.097387,51.608501],[-0.101738,51.608467],[-0.102422,51.608017],[-0.103917,51.608478],[-0.110348,51.608307],[-0.110742,51.608619],[-0.117454,51.6082],[-0.118643,51.608589],[-0.123414,51.608703],[-0.124834,51.609943],[-0.126343,51.609302],[-0.127681,51.609375],[-0.13522,51.611213],[-0.138723,51.610191],[-0.144474,51.615486],[-0.141917,51.616199],[-0.141317,51.617454],[-0.135335,51.621788],[-0.133474,51.626362],[-0.131242,51.628513],[-0.131084,51.629661],[-0.129084,51.632267],[-0.133163,51.633182],[-0.133926,51.634048],[-0.134412,51.633713],[-0.134332,51.63454],[-0.138375,51.636516],[-0.142256,51.639312],[-0.145039,51.642647],[-0.147857,51.642082],[-0.149112,51.645263],[-0.151267,51.645282],[-0.152105,51.645824],[-0.151006,51.647205],[-0.152321,51.64764],[-0.152211,51.647987],[-0.149857,51.648792],[-0.150957,51.650078],[-0.152207,51.649845],[-0.152502,51.65147],[-0.154168,51.652977],[-0.153427,51.653305],[-0.153719,51.654667],[-0.154725,51.655533],[-0.160452,51.656753],[-0.163442,51.658169],[-0.185828,51.662834],[-0.182048,51.668602],[-0.176674,51.6721],[-0.176969,51.67268],[-0.175403,51.672592],[-0.175292,51.673446],[-0.172435,51.673088],[-0.163569,51.682399],[-0.163455,51.688114],[-0.157954,51.68724],[-0.15322,51.685856],[-0.149332,51.685516],[-0.135341,51.688724],[-0.121694,51.688572],[-0.11795,51.68911],[-0.109711,51.691673],[-0.10574,51.691875],[-0.094738,51.690113],[-0.084782,51.690086],[-0.077805,51.688427],[-0.067146,51.684128],[-0.061978,51.683006],[-0.056562,51.682987],[-0.04889,51.684047],[-0.047121,51.683452],[-0.044203,51.683433],[-0.042425,51.682949],[-0.028337,51.682331],[-0.019732,51.681152],[-0.011879,51.680877]]]}
}
