{
  "id": 1360714033,
  "type": "Feature",
  "properties": {
    "edtf:cessation": "",
    "edtf:inception": "",
    "geom:area": 0,
    "geom:area_square_m": 0,
    "geom:bbox": "-4.000000,51.575000,-4.000000,51.575000",
    "geom:latitude": 51.575,
    "geom:longitude": -4,
    "gn:admin1_code": "WLS",
    "gn:admin2_code": "Z1",
    "gn:admin3_code": "00NX023",
    "gn:asciiname": "The Mumbles",
    "gn:country_code": "GB",
    "gn:dem": 15,
    "gn:feature_class": "P",
    "gn:feature_code": "PPL",
    "gn:geonameid": 2641971,
    "gn:latitude": 51.575,
    "gn:longitude": -4,
    "gn:modification_date": "2016-06-22",
    "gn:name": "The Mumbles",
    "gn:population": 0,
    "gn:timezone": "Europe/London",
    "iso:country": "GB",
    "lbl:bbox": "-4.005,51.57,-3.995,51.58",
    "lbl:max_zoom": 18,
    "mz:hierarchy_label": 1,
    "mz:is_current": -1,
    "mz:min_zoom": 15,
    "src:geom": "geonames",
    "src:population": "wikidata",
    "wof:belongsto": [
      1880773177,
      102191581,
      1880762113,
      404439035,
      85633159,
      404227475,
      1360711631,
      136253055,
      1360699095
    ],
    "wof:breaches": [],
    "wof:concordances": {
      "gn:id": 2641971
    },
    "wof:country": "GB",
    "wof:created": 1765389311,
    "wof:geomhash": "d2beeb1857fc39992a057bb2f33175b4",
    "wof:hierarchy": [
      {
        "continent_id": 102191581,
        "country_id": 85633159,
        "county_id": 1360699095,
        "empire_id": 136253055,
        "localadmin_id": 404439035,
        "locality_id": 1360711631,
        "macrocounty_id": 1880762113,
        "macroregion_id": 404227475,
        "neighbourhood_id": 1360714033,
        "region_id": 1880773177
      }
    ],
    "wof:id": 1360714033,
    "wof:lastmodified": 1765389311,
    "wof:name": "The Mumbles",
    "wof:parent_id": 1360711631,
    "wof:placetype": "neighbourhood",
    "wof:population": 16600,
    "wof:population_rank": 6,
    "wof:repo": "whosonfirst-data-admin-gb",
    "wof:superseded_by": [],
    "wof:supersedes": [
      1210045859
    ],
    "wof:tags": []
  },
  "bbox": [
    -4,
    51.575,
    -4,
    51.575
  ],
  "geometry": {"type":"Point","coordinates":[-4,51.575]}
}
