{
  "id": 85793307,
  "type": "Feature",
  "properties": {
    "edtf:cessation": "",
    "edtf:inception": "",
    "geom:area": 0.00025533782999998813,
    "geom:area_square_m": 1962751.205698,
    "geom:bbox": "-0.000000,51.551635,0.021973,51.571949",
    "geom:latitude": 51.562237236845704,
    "geom:longitude": 0.00942965949090339,
    "gn:latitude": 51.56856,
    "gn:longitude": 0.00768,
    "iso:country": "GB",
    "lbl:latitude": 51.565015,
    "lbl:longitude": 0.011194,
    "lbl:max_zoom": 18,
    "mps:latitude": 51.562413,
    "mps:longitude": 0.010512,
    "mz:hierarchy_label": 1,
    "mz:is_current": -1,
    "mz:is_funky": 0,
    "mz:is_hard_boundary": 0,
    "mz:is_landuse_aoi": 0,
    "mz:is_official": 0,
    "mz:max_zoom": 18,
    "mz:min_zoom": 14,
    "mz:tier_locality": 7,
    "mz:tier_metro": 1,
    "name:azb_x_preferred": [
      "لیتنستون"
    ],
    "name:cat_x_preferred": [
      "Leytonstone"
    ],
    "name:ces_x_preferred": [
      "Leytonstone"
    ],
    "name:cym_x_preferred": [
      "Leytonstone"
    ],
    "name:dan_x_preferred": [
      "Leytonstone"
    ],
    "name:deu_x_preferred": [
      "Leytonstone"
    ],
    "name:ell_x_preferred": [
      "Λέιτονστοουν"
    ],
    "name:eng_x_preferred": [
      "Leytonstone"
    ],
    "name:fas_x_preferred": [
      "لیتنستون"
    ],
    "name:fin_x_preferred": [
      "Leytonstone"
    ],
    "name:fra_x_preferred": [
      "Leytonstone"
    ],
    "name:gle_x_preferred": [
      "Leytonstone"
    ],
    "name:heb_x_preferred": [
      "לייטונסטון"
    ],
    "name:hun_x_preferred": [
      "Leytonstone"
    ],
    "name:ita_x_preferred": [
      "Leytonstone"
    ],
    "name:jpn_x_preferred": [
      "レイトンストーン"
    ],
    "name:kor_x_preferred": [
      "레이턴스톤"
    ],
    "name:nld_x_preferred": [
      "Leytonstone"
    ],
    "name:nob_x_preferred": [
      "Leytonstone"
    ],
    "name:pnb_x_preferred": [
      "لیٹن اسٹون"
    ],
    "name:pol_x_preferred": [
      "Leytonstone"
    ],
    "name:por_x_preferred": [
      "Leytonstone"
    ],
    "name:rus_x_preferred": [
      "Лейтонстоун"
    ],
    "name:slv_x_preferred": [
      "Leytonstone"
    ],
    "name:spa_x_preferred": [
      "Leytonstone"
    ],
    "name:swe_x_preferred": [
      "Leytonstone"
    ],
    "name:ukr_x_preferred": [
      "Лейтонстоун"
    ],
    "name:urd_x_preferred": [
      "لیٹن اسٹون"
    ],
    "name:vie_x_preferred": [
      "Leytonstone"
    ],
    "name:zho_x_preferred": [
      "萊頓斯通"
    ],
    "name:zho_x_variant": [
      "雷頓斯通"
    ],
    "qs:gn_adm0_cc": "GB",
    "qs:gn_fcode": "PPLX",
    "qs:gn_local": 2643743,
    "qs:gn_namadm1": "ENG",
    "qs:gn_name": "Leytonstone",
    "qs:local_max": 40697,
    "qs:local_sum": 1675717,
    "qs:localhoods": 643,
    "qs:name": "Leytonstone",
    "qs:name_adm0": "United Kingdom",
    "qs:name_adm1": "England",
    "qs:name_adm2": "Greater London",
    "qs:name_lau": "London Borough of Waltham Forest",
    "qs:name_local": "London",
    "qs:photo_max": 232,
    "qs:photo_sum": 2510,
    "qs:placetype": "Suburb",
    "qs:quad_count": 86,
    "qs:woe_adm0": 23424975,
    "qs:woe_adm1": 24554868,
    "qs:woe_adm2": 23416974,
    "qs:woe_lau": 12695838,
    "qs:woe_local": 44418,
    "qs:woe_ver": "7.10.0",
    "src:geom": "quattroshapes",
    "src:geom_alt": [
      "quattroshapes_pg"
    ],
    "src:lbl_centroid": "mz",
    "src:population": "wikidata",
    "wd:latitude": 51.569,
    "wd:longitude": 0.01,
    "wd:wordcount": 1218,
    "wof:belongsto": [
      1880762729,
      102191581,
      1880762179,
      85633159,
      404227469,
      101750367,
      136253055,
      1158857287,
      1880771825
    ],
    "wof:breaches": [],
    "wof:concordances": {
      "gn:id": 6692921,
      "gp:id": 44371,
      "qs_pg:id": 1074181,
      "wd:id": "Q1368969",
      "wk:page": "Leytonstone"
    },
    "wof:country": "GB",
    "wof:created": 1765391299,
    "wof:geom_alt": [
      "quattroshapes_pg"
    ],
    "wof:geomhash": "08d5a702423404e40800e4025c6a49a7",
    "wof:hierarchy": [
      {
        "borough_id": 1158857287,
        "continent_id": 102191581,
        "country_id": 85633159,
        "county_id": 1880771825,
        "empire_id": 136253055,
        "locality_id": 101750367,
        "macrocounty_id": 1880762179,
        "macroregion_id": 404227469,
        "neighbourhood_id": 85793307,
        "region_id": 1880762729
      }
    ],
    "wof:id": 85793307,
    "wof:lang": [
      "eng"
    ],
    "wof:lastmodified": 1765391299,
    "wof:name": "Leytonstone",
    "wof:parent_id": 1158857287,
    "wof:placetype": "neighbourhood",
    "wof:population": 54696,
    "wof:population_rank": 8,
    "wof:repo": "whosonfirst-data-admin-gb",
    "wof:superseded_by": [],
    "wof:supersedes": [],
    "wof:tags": []
  },
  "bbox": [
    -0,
    51.551635,
    0.021973,
    51.571949
  ],
  "geometry": {"type":"Polygon","coordinates":[[[0.013733,51.568534],[0.013733,51.566827],[0.016479,51.566827],[0.016479,51.56512],[0.019226,51.56512],[0.019226,51.563412],[0.021973,51.563412],[0.021973,51.561881],[0.021973,51.561529],[0.021973,51.559997],[0.016479,51.559997],[0.016479,51.556582],[0.015527,51.556582],[0.015527,51.556582],[0.011938,51.556582],[0.011584,51.554874],[0.00824,51.554874],[0.00824,51.553167],[0.00824,51.553108],[0.005493,51.551635],[0.004541,51.553167],[0.000952,51.553167],[0.000952,51.553167],[0,51.553167],[0,51.554874],[0,51.556582],[0,51.559997],[0.002747,51.559997],[0.002747,51.561705],[0.005493,51.561705],[0.005493,51.563412],[0.005493,51.564354],[0.005493,51.56512],[0.005493,51.5664],[0.005009,51.566789],[0.004532,51.566636],[0.004174,51.566827],[0.002747,51.566827],[0.002747,51.567593],[0.002747,51.568534],[0,51.568534],[-0,51.570241],[0.002747,51.570241],[0.003277,51.571095],[0.004963,51.571095],[0.005493,51.571949],[0.00824,51.571949],[0.010986,51.571949],[0.013733,51.571949],[0.013733,51.570241],[0.013733,51.568534]]]}
}
