{
  "id": 420782293,
  "type": "Feature",
  "properties": {
    "edtf:cessation": "",
    "edtf:inception": "",
    "geom:area": 0,
    "geom:area_square_m": 0,
    "geom:bbox": "-1.994191,52.520655,-1.994191,52.520655",
    "geom:latitude": 52.520655,
    "geom:longitude": -1.994191,
    "iso:country": "GB",
    "lbl:bbox": "-1.99919094692,52.5156547412,-1.98919094692,52.5256547412",
    "lbl:latitude": 52.520655,
    "lbl:longitude": -1.994191,
    "lbl:max_zoom": 18,
    "mz:hierarchy_label": 1,
    "mz:is_current": -1,
    "mz:is_funky": 0,
    "mz:is_hard_boundary": 0,
    "mz:is_landuse_aoi": 0,
    "mz:is_official": 0,
    "mz:max_zoom": 18,
    "mz:min_zoom": 13,
    "mz:tier_locality": 0,
    "name:ara_x_preferred": [
      "ويست بروميتش"
    ],
    "name:arz_x_preferred": [
      "وست بروميتش"
    ],
    "name:ast_x_preferred": [
      "West Bromwich"
    ],
    "name:aze_x_preferred": [
      "Uest-Bromiç"
    ],
    "name:bel_x_preferred": [
      "Уэст-Бромідж"
    ],
    "name:ben_x_preferred": [
      "ওয়েস্ট ব্রোমিচ"
    ],
    "name:bos_x_preferred": [
      "West Bromwich"
    ],
    "name:bul_x_preferred": [
      "Уест Бромич"
    ],
    "name:cat_x_preferred": [
      "West Bromwich"
    ],
    "name:ceb_x_preferred": [
      "West Bromwich"
    ],
    "name:ces_x_preferred": [
      "West Bromwich"
    ],
    "name:cym_x_preferred": [
      "West Bromwich"
    ],
    "name:dan_x_preferred": [
      "West Bromwich"
    ],
    "name:deu_x_preferred": [
      "West Bromwich"
    ],
    "name:ell_x_preferred": [
      "Γουέστ Μπρόμιτς"
    ],
    "name:eng_x_preferred": [
      "West Bromwich"
    ],
    "name:epo_x_preferred": [
      "West Bromwich"
    ],
    "name:est_x_preferred": [
      "West Bromwich"
    ],
    "name:eus_x_preferred": [
      "West Bromwich"
    ],
    "name:fas_x_preferred": [
      "وست برومویچ"
    ],
    "name:fin_x_preferred": [
      "West Bromwich"
    ],
    "name:fra_x_preferred": [
      "West Bromwich"
    ],
    "name:gle_x_preferred": [
      "Bromwich Thiar"
    ],
    "name:guj_x_preferred": [
      "પશ્ચિમ બ્રોમવિચ"
    ],
    "name:hbs_x_preferred": [
      "West Bromwich"
    ],
    "name:heb_x_preferred": [
      "ווסט ברומיץ'"
    ],
    "name:heb_x_variant": [
      "וסט ברומיץ'"
    ],
    "name:hun_x_preferred": [
      "West Bromwich"
    ],
    "name:hye_x_preferred": [
      "Վեստ Բրոմվիչ"
    ],
    "name:hye_x_variant": [
      "Ուեստ Բրոմիջ"
    ],
    "name:ind_x_preferred": [
      "West Bromwich"
    ],
    "name:isl_x_preferred": [
      "West Bromwich"
    ],
    "name:ita_x_preferred": [
      "West Bromwich"
    ],
    "name:jpn_x_preferred": [
      "ウェスト・ブロムウィッチ"
    ],
    "name:kan_x_preferred": [
      "ವೆಸ್ಟ್ ಬ್ರಾಮ್ವಿಚ್"
    ],
    "name:kat_x_preferred": [
      "უესტ-ბრომვიჩი"
    ],
    "name:kor_x_preferred": [
      "웨스트브로미치"
    ],
    "name:lav_x_preferred": [
      "Vestbromviča"
    ],
    "name:lit_x_preferred": [
      "Vest Bromičas"
    ],
    "name:lld_x_preferred": [
      "West Bromwich"
    ],
    "name:nld_x_preferred": [
      "West Bromwich"
    ],
    "name:nno_x_preferred": [
      "West Bromwich"
    ],
    "name:nob_x_preferred": [
      "West Bromwich"
    ],
    "name:nor_x_preferred": [
      "West Bromwich"
    ],
    "name:pol_x_preferred": [
      "West Bromwich"
    ],
    "name:por_x_preferred": [
      "West Bromwich"
    ],
    "name:ron_x_preferred": [
      "West Bromwich"
    ],
    "name:rus_x_preferred": [
      "Уэст-Бромидж"
    ],
    "name:sco_x_preferred": [
      "West Bromwich"
    ],
    "name:slk_x_preferred": [
      "West Bromwich"
    ],
    "name:slv_x_preferred": [
      "West Bromwich"
    ],
    "name:spa_x_preferred": [
      "West Bromwich"
    ],
    "name:srp_x_preferred": [
      "Вест Бромвич"
    ],
    "name:swa_x_preferred": [
      "West Bromwich"
    ],
    "name:swe_x_preferred": [
      "West Bromwich"
    ],
    "name:szl_x_preferred": [
      "West Bromwich"
    ],
    "name:tam_x_preferred": [
      "வெஸ்ட் ப்ரோம்விச்"
    ],
    "name:tat_x_preferred": [
      "Вест-Бромвич"
    ],
    "name:tel_x_preferred": [
      "వెస్ట్ బ్రోమ్విచ్"
    ],
    "name:tha_x_preferred": [
      "เวสต์บรอมมิช"
    ],
    "name:tur_x_preferred": [
      "West Bromwich"
    ],
    "name:ukr_x_preferred": [
      "Вест-Бромвіч"
    ],
    "name:urd_x_preferred": [
      "ویسٹ برامچ"
    ],
    "name:vec_x_preferred": [
      "West Bromwich"
    ],
    "name:war_x_preferred": [
      "West Bromwich"
    ],
    "name:yue_x_preferred": [
      "西布朗"
    ],
    "name:zho_x_preferred": [
      "西布羅米奇"
    ],
    "name:zho_yue_x_preferred": [
      "西布朗"
    ],
    "src:geom": "unknown",
    "src:population": "wikidata",
    "wd:latitude": 52.516667,
    "wd:longitude": -1.983333,
    "wd:wordcount": 4758,
    "wof:belongsto": [
      1360817335,
      1880762069,
      1126041385,
      1360699035
    ],
    "wof:breaches": [],
    "wof:concordances": {
      "wd:id": "Q212826"
    },
    "wof:country": "GB",
    "wof:created": 1458871837,
    "wof:geomhash": "cbaa3392dbd3ceb4edec576c7f6b99e3",
    "wof:hierarchy": [
      {
        "continent_id": -1,
        "country_id": -1,
        "county_id": 1360699035,
        "localadmin_id": 1360817335,
        "locality_id": 1126041385,
        "macrocounty_id": 1880762069,
        "neighbourhood_id": 420782293,
        "region_id": -1
      }
    ],
    "wof:id": 420782293,
    "wof:lastmodified": 1765390908,
    "wof:name": "West Bromwich",
    "wof:parent_id": 1126041385,
    "wof:placetype": "neighbourhood",
    "wof:population": 146386,
    "wof:population_rank": 9,
    "wof:repo": "whosonfirst-data-admin-gb",
    "wof:superseded_by": [],
    "wof:supersedes": [],
    "wof:tags": []
  },
  "bbox": [
    -1.994191,
    52.520655,
    -1.994191,
    52.520655
  ],
  "geometry": {"type":"Point","coordinates":[-1.994191,52.520655]}
}
