{
  "id": 101873739,
  "type": "Feature",
  "properties": {
    "edtf:cessation": "",
    "edtf:inception": "",
    "geom:area": 0,
    "geom:area_square_m": 0,
    "geom:bbox": "-5.526007,54.607387,-5.526007,54.607387",
    "geom:latitude": 54.607387,
    "geom:longitude": -5.526007,
    "gn:population": 1914,
    "iso:country": "GB",
    "lbl:bbox": "-5.546007,54.587387,-5.506007,54.627387",
    "lbl:latitude": 54.607387,
    "lbl:longitude": -5.526007,
    "lbl:max_zoom": 16,
    "lbl:min_zoom": 12,
    "mps:latitude": 54.607387,
    "mps:longitude": -5.526007,
    "mz:hierarchy_label": 1,
    "mz:is_current": 1,
    "mz:min_zoom": 11,
    "name:bul_x_preferred": [
      "Милисле"
    ],
    "name:ceb_x_preferred": [
      "Millisle"
    ],
    "name:eng_x_preferred": [
      "Millisle"
    ],
    "name:eus_x_preferred": [
      "Millisle"
    ],
    "name:fas_x_preferred": [
      "میل آیل"
    ],
    "name:fra_x_preferred": [
      "Millisle"
    ],
    "name:gle_x_preferred": [
      "Oileán an Mhuilinn"
    ],
    "name:gle_x_variant": [
      "Baile Labhráis"
    ],
    "name:ita_x_preferred": [
      "Millisle"
    ],
    "name:msa_x_preferred": [
      "Millisle"
    ],
    "name:nld_x_preferred": [
      "Millisle"
    ],
    "name:pli_x_preferred": [
      "मिल्लिसले"
    ],
    "name:spa_x_preferred": [
      "Millisle"
    ],
    "name:swe_x_preferred": [
      "Millisle"
    ],
    "qs:a0": "United Kingdom",
    "qs:a1": "*Ards",
    "qs:a1_lc": "N_A",
    "qs:a1r": "0Northern Ireland",
    "qs:a1r_lc": "N_A",
    "qs:adm0": "United Kingdom",
    "qs:id": 0,
    "qs:la_lc": "*",
    "qs:level": "locality",
    "qs:loc": "Millisle",
    "qs:loc_alt": "Millisle",
    "qs:pop": 0,
    "qs:source": "RCustom EuroGlobalMap + UMZ Urban Polygons + Geonames + GeoPlanet",
    "qs:type": "buffered point",
    "src:geom": "whosonfirst",
    "src:geom_alt": [
      "quattroshapes_pg",
      "quattroshapes"
    ],
    "src:geom_via": "quattroshapes",
    "src:lbl_centroid": "mapshaper",
    "src:population": "wikidata",
    "wd:latitude": 54.608,
    "wd:longitude": -5.529,
    "wd:wordcount": 1343,
    "wof:belongsto": [
      1360699243,
      102191581,
      85633159,
      1880762239,
      404227473,
      136253055,
      1880762269
    ],
    "wof:breaches": [],
    "wof:concordances": {
      "gn:id": 2642511,
      "gp:id": 45008,
      "qs_pg:id": 1064447,
      "wd:id": "Q135444",
      "wk:page": "Millisle"
    },
    "wof:country": "GB",
    "wof:created": 1765385087,
    "wof:geom_alt": [
      "quattroshapes",
      "quattroshapes_pg"
    ],
    "wof:geomhash": "6b27f3d19a30033a8266b34dd30006ca",
    "wof:hierarchy": [
      {
        "continent_id": 102191581,
        "country_id": 85633159,
        "county_id": 1880762269,
        "empire_id": 136253055,
        "locality_id": 101873739,
        "macrocounty_id": 1880762239,
        "macroregion_id": 404227473,
        "region_id": 1360699243
      }
    ],
    "wof:id": 101873739,
    "wof:lastmodified": 1765385087,
    "wof:name": "Millisle",
    "wof:parent_id": 1880762269,
    "wof:placetype": "locality",
    "wof:population": 2318,
    "wof:population_rank": 4,
    "wof:repo": "whosonfirst-data-admin-gb",
    "wof:superseded_by": [],
    "wof:supersedes": [],
    "wof:tags": []
  },
  "bbox": [
    -5.526007,
    54.607387,
    -5.526007,
    54.607387
  ],
  "geometry": {"type":"Point","coordinates":[-5.526007,54.607387]}
}
