{
  "id": 1343791207,
  "type": "Feature",
  "properties": {
    "edtf:cessation": "",
    "edtf:inception": "",
    "geom:area": 0,
    "geom:area_square_m": 0,
    "geom:bbox": "-4.979040,54.835800,-4.979040,54.835800",
    "geom:latitude": 54.8358,
    "geom:longitude": -4.97904,
    "gn:admin1_code": "SCT",
    "gn:admin2_code": "U2",
    "gn:asciiname": "Stoneykirk",
    "gn:country_code": "GB",
    "gn:dem": 27,
    "gn:feature_class": "P",
    "gn:feature_code": "PPL",
    "gn:geonameid": 2636803,
    "gn:latitude": 54.8358,
    "gn:longitude": -4.97904,
    "gn:modification_date": "2009-08-28",
    "gn:name": "Stoneykirk",
    "gn:population": 0,
    "gn:timezone": "Europe/London",
    "iso:country": "GB",
    "lbl:bbox": "-4.99904,54.8158,-4.95904,54.8558",
    "lbl:max_zoom": 18,
    "lbl:min_zoom": 13.5,
    "mz:hierarchy_label": 1,
    "mz:is_current": -1,
    "mz:min_zoom": 12,
    "name:eus_x_preferred": [
      "Stoneykirk"
    ],
    "name:gla_x_preferred": [
      "Eaglais Steafain"
    ],
    "src:geom": "geonames",
    "src:population": "wikidata",
    "wof:belongsto": [
      1880762171,
      1360699039
    ],
    "wof:breaches": [],
    "wof:concordances": {
      "gn:id": 2636803,
      "wk:page": "Stoneykirk"
    },
    "wof:country": "GB",
    "wof:created": 1765389030,
    "wof:geomhash": "2428a074743d3d7cad8de9a4295affe2",
    "wof:hierarchy": [
      {
        "continent_id": -1,
        "country_id": -1,
        "county_id": 1360699039,
        "locality_id": 1343791207,
        "macrocounty_id": 1880762171,
        "region_id": -1
      }
    ],
    "wof:id": 1343791207,
    "wof:lastmodified": 1765389030,
    "wof:name": "Stoneykirk",
    "wof:parent_id": 1360699039,
    "wof:placetype": "locality",
    "wof:population": 1235,
    "wof:population_rank": 3,
    "wof:repo": "whosonfirst-data-admin-gb",
    "wof:superseded_by": [],
    "wof:supersedes": [],
    "wof:tags": []
  },
  "bbox": [
    -4.97904,
    54.8358,
    -4.97904,
    54.8358
  ],
  "geometry": {"type":"Point","coordinates":[-4.97904,54.8358]}
}
