{
  "id": 1360712193,
  "type": "Feature",
  "properties": {
    "edtf:cessation": "",
    "edtf:inception": "",
    "geom:area": 0,
    "geom:area_square_m": 0,
    "geom:bbox": "-4.995660,52.001174,-4.995660,52.001174",
    "geom:latitude": 52.001174,
    "geom:longitude": -4.99566,
    "iso:country": "GB",
    "lbl:bbox": "-5.00066,51.996174,-4.99066,52.006174",
    "lbl:latitude": 52.001175,
    "lbl:longitude": -4.995659,
    "lbl:max_zoom": 18,
    "mps:latitude": 52.001175,
    "mps:longitude": -4.995659,
    "mz:hierarchy_label": 1,
    "mz:is_current": 1,
    "mz:min_zoom": 15,
    "name:ast_x_preferred": [
      "Abergwaun"
    ],
    "name:ben_x_preferred": [
      "ফিসগার্ড"
    ],
    "name:bre_x_preferred": [
      "Abergwaun"
    ],
    "name:bul_x_preferred": [
      "Фишгард"
    ],
    "name:cat_x_preferred": [
      "Fishguard"
    ],
    "name:ceb_x_preferred": [
      "Fishguard"
    ],
    "name:cym_x_preferred": [
      "Abergwaun"
    ],
    "name:deu_x_preferred": [
      "Fishguard"
    ],
    "name:eng_x_preferred": [
      "Fishguard"
    ],
    "name:eng_x_variant": [
      "Abergwaun"
    ],
    "name:epo_x_preferred": [
      "Fishguard"
    ],
    "name:eus_x_preferred": [
      "Fishguard"
    ],
    "name:fra_x_preferred": [
      "Fishguard"
    ],
    "name:gla_x_preferred": [
      "Abergwaun"
    ],
    "name:gla_x_variant": [
      "Fishguard"
    ],
    "name:gle_x_preferred": [
      "Abergwaun"
    ],
    "name:guj_x_preferred": [
      "ફિશગાર્ડ"
    ],
    "name:hye_x_preferred": [
      "Ֆիշգարդ"
    ],
    "name:isl_x_preferred": [
      "Fishguard"
    ],
    "name:ita_x_preferred": [
      "Fishguard"
    ],
    "name:jpn_x_preferred": [
      "フィッシュガード"
    ],
    "name:kan_x_preferred": [
      "ಫಿಶ್ಗಾರ್ಡ್"
    ],
    "name:kor_x_preferred": [
      "피시가드"
    ],
    "name:lit_x_preferred": [
      "Fišgardas"
    ],
    "name:nld_x_preferred": [
      "Fishguard"
    ],
    "name:nob_x_preferred": [
      "Fishguard"
    ],
    "name:nor_x_preferred": [
      "Fishguard"
    ],
    "name:olo_x_preferred": [
      "Abergwaun"
    ],
    "name:pol_x_preferred": [
      "Fishguard"
    ],
    "name:por_x_preferred": [
      "Fishguard"
    ],
    "name:rus_x_preferred": [
      "Фишгард"
    ],
    "name:spa_x_preferred": [
      "Fishguard"
    ],
    "name:swe_x_preferred": [
      "Fishguard"
    ],
    "name:tam_x_preferred": [
      "பிஷ்கோடு"
    ],
    "name:tel_x_preferred": [
      "ఫిష్ గార్డ్"
    ],
    "name:und_x_variant": [
      "Fishgard",
      "Φισγκαρντ"
    ],
    "name:urd_x_preferred": [
      "فیشجوارد"
    ],
    "name:zho_x_preferred": [
      "菲什加德"
    ],
    "qs:a0": "United Kingdom",
    "qs:a1": "*Sir Benfro#Pembrokeshire",
    "qs:a1_lc": "GB13NS0000",
    "qs:a1r": "0Wales",
    "qs:a1r_lc": "GB13000000",
    "qs:adm0": "United Kingdom",
    "qs:id": 0,
    "qs:la_lc": "*",
    "qs:level": "locality",
    "qs:loc": "Fishguard",
    "qs:loc_alt": "Fishguard",
    "qs:pop": 0,
    "qs:source": "RCustom EuroGlobalMap + UMZ Urban Polygons + Geonames + GeoPlanet",
    "qs:type": "buffered point",
    "src:geom": "whosonfirst",
    "src:geom_alt": [
      "quattroshapes_pg",
      "quattroshapes"
    ],
    "src:geom_via": "quattroshapes",
    "src:lbl_centroid": "mapshaper",
    "src:population": "wikidata",
    "wd:wordcount": 1434,
    "wof:belongsto": [
      1880772913,
      102191581,
      1880762181,
      404454859,
      85633159,
      404227475,
      1125882841,
      136253055,
      1360698843
    ],
    "wof:breaches": [],
    "wof:concordances": {
      "fct:id": "0aa69418-8f76-11e1-848f-cfd5bf3ef515",
      "gn:id": 2649372,
      "gp:id": 20239,
      "qs_pg:id": 1276439,
      "wd:id": "Q1018730",
      "wk:page": "Fishguard"
    },
    "wof:country": "GB",
    "wof:created": 1765389195,
    "wof:geomhash": "7e0297f14a9785777413a943b908958d",
    "wof:hierarchy": [
      {
        "continent_id": 102191581,
        "country_id": 85633159,
        "county_id": 1360698843,
        "empire_id": 136253055,
        "localadmin_id": 404454859,
        "locality_id": 1125882841,
        "macrocounty_id": 1880762181,
        "macroregion_id": 404227475,
        "neighbourhood_id": 1360712193,
        "region_id": 1880772913
      }
    ],
    "wof:id": 1360712193,
    "wof:lang": [
      "eng"
    ],
    "wof:lastmodified": 1765389195,
    "wof:name": "Fishguard",
    "wof:parent_id": 1125882841,
    "wof:placetype": "neighbourhood",
    "wof:population": 3400,
    "wof:population_rank": 4,
    "wof:repo": "whosonfirst-data-admin-gb",
    "wof:superseded_by": [],
    "wof:supersedes": [
      101852999
    ],
    "wof:tags": []
  },
  "bbox": [
    -4.99566,
    52.001174,
    -4.99566,
    52.001174
  ],
  "geometry": {"type":"Point","coordinates":[-4.99566,52.001174]}
}
