{
  "id": 85792249,
  "type": "Feature",
  "properties": {
    "edtf:cessation": "",
    "edtf:inception": "",
    "geom:area": 0.00026385077049996504,
    "geom:area_square_m": 2024392.977235,
    "geom:bbox": "-0.098877,51.638016,-0.064860,51.650407",
    "geom:latitude": 51.64503985547369,
    "geom:longitude": -0.08030204632481439,
    "gn:id": "",
    "iso:country": "GB",
    "lbl:latitude": 51.653432,
    "lbl:longitude": -0.082206,
    "lbl:max_zoom": 18,
    "mps:latitude": 51.645294,
    "mps:longitude": -0.080302,
    "mz:hierarchy_label": 1,
    "mz:is_current": -1,
    "mz:is_funky": 0,
    "mz:is_hard_boundary": 0,
    "mz:is_landuse_aoi": 0,
    "mz:is_official": 0,
    "mz:max_zoom": 18,
    "mz:min_zoom": 14,
    "mz:tier_locality": 7,
    "mz:tier_metro": 1,
    "name:ast_x_preferred": [
      "Enfield"
    ],
    "name:ceb_x_preferred": [
      "Enfield Town"
    ],
    "name:cym_x_preferred": [
      "Enfield Town"
    ],
    "name:eng_x_preferred": [
      "Enfield Town"
    ],
    "name:eng_x_variant": [
      "Enfield"
    ],
    "name:fas_x_preferred": [
      "انفیلد تاون"
    ],
    "name:fin_x_preferred": [
      "Enfield"
    ],
    "name:fra_x_preferred": [
      "Enfield Town"
    ],
    "name:gle_x_preferred": [
      "Enfield Town"
    ],
    "name:heb_x_preferred": [
      "אנפילד טאון"
    ],
    "name:jpn_x_preferred": [
      "インフィールド・タウン"
    ],
    "name:lld_x_preferred": [
      "Enfield"
    ],
    "name:mal_x_preferred": [
      "എൻഫീൽഡ്"
    ],
    "name:nld_x_preferred": [
      "Enfield Town"
    ],
    "name:nob_x_preferred": [
      "Enfield Town"
    ],
    "name:nor_x_preferred": [
      "Enfield Town"
    ],
    "name:pol_x_preferred": [
      "Enfield Town"
    ],
    "name:rus_x_preferred": [
      "Энфилд"
    ],
    "name:swe_x_preferred": [
      "Enfield Town"
    ],
    "name:ukr_x_preferred": [
      "Енфілд"
    ],
    "name:urd_x_preferred": [
      "اینفیلڈ ٹاؤن"
    ],
    "name:vie_x_preferred": [
      "Enfield Town"
    ],
    "name:zho_x_preferred": [
      "恩菲爾德鎮"
    ],
    "qs:gn_adm0_cc": "GB",
    "qs:gn_id": 0,
    "qs:gn_local": 2643743,
    "qs:local_max": 40697,
    "qs:local_sum": 1675717,
    "qs:localhoods": 643,
    "qs:name": "Enfield Town",
    "qs:name_adm0": "United Kingdom",
    "qs:name_adm1": "England",
    "qs:name_adm2": "Greater London",
    "qs:name_lau": "London Borough of Enfield",
    "qs:name_local": "London",
    "qs:photo_max": 117,
    "qs:photo_sum": 463,
    "qs:placetype": "Suburb",
    "qs:quad_count": 23,
    "qs:woe_adm0": 23424975,
    "qs:woe_adm1": 24554868,
    "qs:woe_adm2": 23416974,
    "qs:woe_funk": "Parented by a neighborhood",
    "qs:woe_lau": 12695827,
    "qs:woe_local": 44418,
    "qs:woe_ver": "7.10.0",
    "src:geom": "quattroshapes",
    "src:geom_alt": [
      "quattroshapes_pg"
    ],
    "src:lbl_centroid": "mz",
    "src:population": "wikidata",
    "wd:latitude": 51.6516,
    "wd:longitude": -0.0837,
    "wd:wordcount": 1596,
    "wof:belongsto": [
      1880762729,
      102191581,
      1880762179,
      85633159,
      404227469,
      101750367,
      136253055,
      1158857281,
      1880771825
    ],
    "wof:breaches": [],
    "wof:concordances": {
      "gp:id": 43345,
      "qs_pg:id": 1153578,
      "wd:id": "Q544939"
    },
    "wof:country": "GB",
    "wof:created": 1765391265,
    "wof:geom_alt": [
      "quattroshapes_pg"
    ],
    "wof:geomhash": "3419296063702afea80316660c8b527d",
    "wof:hierarchy": [
      {
        "borough_id": 1158857281,
        "continent_id": 102191581,
        "country_id": 85633159,
        "county_id": 1880771825,
        "empire_id": 136253055,
        "locality_id": 101750367,
        "macrocounty_id": 1880762179,
        "macroregion_id": 404227469,
        "neighbourhood_id": 85792249,
        "region_id": 1880762729
      }
    ],
    "wof:id": 85792249,
    "wof:lang": [
      "eng"
    ],
    "wof:lastmodified": 1765391265,
    "wof:name": "Enfield Town",
    "wof:parent_id": 1158857281,
    "wof:placetype": "neighbourhood",
    "wof:population": 156858,
    "wof:population_rank": 9,
    "wof:repo": "whosonfirst-data-admin-gb",
    "wof:superseded_by": [],
    "wof:supersedes": [],
    "wof:tags": []
  },
  "bbox": [
    -0.098877,
    51.638016,
    -0.06486,
    51.650407
  ],
  "geometry": {"type":"Polygon","coordinates":[[[-0.082397,51.64964],[-0.082397,51.648703],[-0.079544,51.648703],[-0.078831,51.649086],[-0.077643,51.648703],[-0.076904,51.648703],[-0.076658,51.648703],[-0.071411,51.648703],[-0.066869,51.648703],[-0.065918,51.648703],[-0.065918,51.64717],[-0.065918,51.645294],[-0.065918,51.645294],[-0.065918,51.641885],[-0.065918,51.641885],[-0.06486,51.640181],[-0.065918,51.638476],[-0.065918,51.638476],[-0.071411,51.638476],[-0.072576,51.638476],[-0.073242,51.638016],[-0.074921,51.638262],[-0.075107,51.638476],[-0.075941,51.640716],[-0.076904,51.641647],[-0.07715,51.641885],[-0.082397,51.641885],[-0.087645,51.641885],[-0.087891,51.641647],[-0.088629,51.641885],[-0.090637,51.642533],[-0.092646,51.641885],[-0.093384,51.641647],[-0.09363,51.641885],[-0.094335,51.645294],[-0.098877,51.645294],[-0.098877,51.645294],[-0.098877,51.648703],[-0.098877,51.648703],[-0.094335,51.648703],[-0.093982,51.650407],[-0.093384,51.650407],[-0.090637,51.650407],[-0.087891,51.650407],[-0.085144,51.650407],[-0.082873,51.650407],[-0.082397,51.650407],[-0.082397,51.64964]]]}
}
