{
  "id": 1125893347,
  "type": "Feature",
  "properties": {
    "edtf:cessation": "",
    "edtf:inception": "",
    "geom:area": 0,
    "geom:area_square_m": 0,
    "geom:bbox": "-2.702290,56.223150,-2.702290,56.223150",
    "geom:latitude": 56.22315,
    "geom:longitude": -2.70229,
    "gn:country": "GB",
    "gn:fcode": "PPL",
    "gn:population": 3527,
    "iso:country": "GB",
    "lbl:bbox": "-2.72229,56.20315,-2.68229,56.24315",
    "lbl:latitude": 56.22315,
    "lbl:longitude": -2.70229,
    "lbl:max_zoom": 15,
    "lbl:min_zoom": 11.5,
    "mz:hierarchy_label": 1,
    "mz:is_current": 1,
    "mz:min_zoom": 11,
    "mz:note": "Quattroshapes Point Gazetteer import 20170519",
    "name:ast_x_preferred": [
      "Anstruther"
    ],
    "name:bul_x_preferred": [
      "Анструтхер"
    ],
    "name:cat_x_preferred": [
      "Anstruther"
    ],
    "name:ceb_x_preferred": [
      "Anstruther"
    ],
    "name:cym_x_preferred": [
      "Anstruther"
    ],
    "name:deu_x_preferred": [
      "Anstruther"
    ],
    "name:eng_x_preferred": [
      "Anstruther"
    ],
    "name:eus_x_preferred": [
      "Anstruther"
    ],
    "name:fas_x_preferred": [
      "انستروتر"
    ],
    "name:fra_x_preferred": [
      "Anstruther"
    ],
    "name:gla_x_preferred": [
      "Ànsruthair"
    ],
    "name:gle_x_preferred": [
      "Ánstruthair"
    ],
    "name:gle_x_variant": [
      "Eanstair"
    ],
    "name:glg_x_preferred": [
      "Anstruther"
    ],
    "name:heb_x_preferred": [
      "אנסטרותר"
    ],
    "name:ita_x_preferred": [
      "Anstruther"
    ],
    "name:jpn_x_preferred": [
      "アンストライザー"
    ],
    "name:nld_x_preferred": [
      "Anstruther"
    ],
    "name:nno_x_preferred": [
      "Anstruther"
    ],
    "name:nob_x_preferred": [
      "Anstruther"
    ],
    "name:pol_x_preferred": [
      "Anstruther"
    ],
    "name:rus_x_preferred": [
      "Энструтер"
    ],
    "name:sco_x_preferred": [
      "Ainster"
    ],
    "name:spa_x_preferred": [
      "Anstruther"
    ],
    "name:swe_x_preferred": [
      "Anstruther"
    ],
    "name:ukr_x_preferred": [
      "Анструтер"
    ],
    "name:und_x_variant": [
      "West Anstruther"
    ],
    "name:zho_x_preferred": [
      "安斯特鲁瑟"
    ],
    "qs_pg:aaroncc": "GB",
    "qs_pg:gn_country": "GB",
    "qs_pg:gn_fcode": "PPL",
    "qs_pg:gn_id": 2657267,
    "qs_pg:gn_pop": 3527,
    "qs_pg:name": "Anstruther",
    "qs_pg:name_adm0": "United Kingdom",
    "qs_pg:name_adm1": "Scotland",
    "qs_pg:photos": 4931,
    "qs_pg:photos_1k": 999,
    "qs_pg:photos_9k": 22,
    "qs_pg:photos_9r": 14,
    "qs_pg:photos_all": 4931,
    "qs_pg:photos_sr": 24,
    "qs_pg:pop_sr": 4,
    "qs_pg:qs_id": 210749,
    "qs_pg:qs_pg_placetype": "locality",
    "qs_pg:qs_pg_placetype_gp": "Town",
    "qs_pg:woe_adm0": 23424975,
    "qs_pg:woe_id": 10852,
    "src:geom": "qs_pg",
    "src:lbl_centroid": "qs_pg",
    "src:population": "wikidata",
    "woe:adm0_id": 23424975,
    "woe:name_adm0": "United Kingdom",
    "woe:name_adm1": "Scotland",
    "woe:placetype": "Town",
    "wof:belongsto": [
      1880762125,
      1360699123
    ],
    "wof:breaches": [],
    "wof:concordances": {
      "gn:id": 2657267,
      "gp:id": 10852,
      "qs_pg:id": 210749,
      "wd:id": "Q570401"
    },
    "wof:country": "GB",
    "wof:created": 1497295423,
    "wof:geomhash": "370814fd3a61077bd8f5661cc669af21",
    "wof:hierarchy": [
      {
        "continent_id": -1,
        "country_id": -1,
        "county_id": 1360699123,
        "locality_id": 1125893347,
        "macrocounty_id": 1880762125,
        "region_id": -1
      }
    ],
    "wof:id": 1125893347,
    "wof:lastmodified": 1765386320,
    "wof:name": "Anstruther",
    "wof:parent_id": 1360699123,
    "wof:placetype": "locality",
    "wof:population": 3810,
    "wof:population_rank": 4,
    "wof:repo": "whosonfirst-data-admin-gb",
    "wof:superseded_by": [],
    "wof:supersedes": [],
    "wof:tags": []
  },
  "bbox": [
    -2.70229,
    56.22315,
    -2.70229,
    56.22315
  ],
  "geometry": {"type":"Point","coordinates":[-2.70229,56.22315]}
}
