{
  "id": 101872411,
  "type": "Feature",
  "properties": {
    "edtf:cessation": "",
    "edtf:inception": "",
    "geom:area": 0,
    "geom:area_square_m": 0,
    "geom:bbox": "-4.281662,55.608722,-4.281662,55.608722",
    "geom:latitude": 55.608722,
    "geom:longitude": -4.281662,
    "iso:country": "GB",
    "lbl:bbox": "-4.301662,55.588722,-4.261662,55.628722",
    "lbl:latitude": 55.608722,
    "lbl:longitude": -4.281661,
    "lbl:max_zoom": 18,
    "lbl:min_zoom": 13.5,
    "mps:latitude": 55.608722,
    "mps:longitude": -4.281661,
    "mz:hierarchy_label": 1,
    "mz:is_current": 1,
    "mz:min_zoom": 12,
    "name:ast_x_preferred": [
      "Darvel"
    ],
    "name:bel_x_preferred": [
      "Дарвел"
    ],
    "name:bul_x_preferred": [
      "Дарвел"
    ],
    "name:cat_x_preferred": [
      "Darvel"
    ],
    "name:ceb_x_preferred": [
      "Darvel"
    ],
    "name:ces_x_preferred": [
      "Darvel"
    ],
    "name:cym_x_preferred": [
      "Darvel"
    ],
    "name:deu_x_preferred": [
      "Darvel"
    ],
    "name:ell_x_preferred": [
      "Ντάρβελ"
    ],
    "name:eng_x_preferred": [
      "Darvel"
    ],
    "name:eus_x_preferred": [
      "Darvel"
    ],
    "name:fas_x_preferred": [
      "دارول"
    ],
    "name:fra_x_preferred": [
      "Darvel"
    ],
    "name:fry_x_preferred": [
      "Darvel"
    ],
    "name:gla_x_preferred": [
      "Darbhail"
    ],
    "name:gle_x_preferred": [
      "Darbhail"
    ],
    "name:heb_x_preferred": [
      "דארבל"
    ],
    "name:hrv_x_preferred": [
      "Darvel"
    ],
    "name:ita_x_preferred": [
      "Darvel"
    ],
    "name:jpn_x_preferred": [
      "ダーベル"
    ],
    "name:kat_x_preferred": [
      "დარველი"
    ],
    "name:mkd_x_preferred": [
      "Дарвел"
    ],
    "name:nld_x_preferred": [
      "Darvel"
    ],
    "name:nno_x_preferred": [
      "Darvel"
    ],
    "name:nob_x_preferred": [
      "Darvel"
    ],
    "name:nor_x_preferred": [
      "Darvel"
    ],
    "name:pol_x_preferred": [
      "Darvel"
    ],
    "name:ron_x_preferred": [
      "Darvel"
    ],
    "name:rue_x_preferred": [
      "Дарвел"
    ],
    "name:rus_x_preferred": [
      "Дарвел"
    ],
    "name:sco_x_preferred": [
      "Dairvel"
    ],
    "name:slv_x_preferred": [
      "Darvel"
    ],
    "name:spa_x_preferred": [
      "Darvel"
    ],
    "name:swe_x_preferred": [
      "Darvel"
    ],
    "name:zho_x_preferred": [
      "達維爾"
    ],
    "qs:a0": "United Kingdom",
    "qs:a1": "*East Ayrshire",
    "qs:a1_lc": "GB11QK0000",
    "qs:a1r": "0Scotland",
    "qs:a1r_lc": "GB11000000",
    "qs:adm0": "United Kingdom",
    "qs:id": 0,
    "qs:la_lc": "*",
    "qs:level": "locality",
    "qs:loc": "Darvel",
    "qs:loc_alt": "Darvel",
    "qs:pop": 0,
    "qs:source": "RCustom EuroGlobalMap + UMZ Urban Polygons + Geonames + GeoPlanet",
    "qs:type": "buffered point",
    "src:geom": "whosonfirst",
    "src:geom_alt": [
      "quattroshapes_pg",
      "quattroshapes"
    ],
    "src:geom_via": "quattroshapes",
    "src:lbl_centroid": "mapshaper",
    "src:population": "wikidata",
    "wd:latitude": 55.61,
    "wd:longitude": -4.28088,
    "wd:wordcount": 1812,
    "wof:belongsto": [
      1880772907,
      102191581,
      85633159,
      1880762041,
      404227471,
      136253055,
      1360698779
    ],
    "wof:breaches": [],
    "wof:concordances": {
      "gn:id": 2651496,
      "gp:id": 17958,
      "qs_pg:id": 770586,
      "wd:id": "Q1016753",
      "wk:page": "Darvel"
    },
    "wof:country": "GB",
    "wof:created": 1765384886,
    "wof:geom_alt": [
      "quattroshapes_pg",
      "quattroshapes"
    ],
    "wof:geomhash": "5da3a1617c6b601b3a2d79e29440c543",
    "wof:hierarchy": [
      {
        "continent_id": 102191581,
        "country_id": 85633159,
        "county_id": 1360698779,
        "empire_id": 136253055,
        "locality_id": 101872411,
        "macrocounty_id": 1880762041,
        "macroregion_id": 404227471,
        "region_id": 1880772907
      }
    ],
    "wof:id": 101872411,
    "wof:lastmodified": 1765384886,
    "wof:name": "Darvel",
    "wof:parent_id": 1360698779,
    "wof:placetype": "locality",
    "wof:population": 3940,
    "wof:population_rank": 4,
    "wof:repo": "whosonfirst-data-admin-gb",
    "wof:superseded_by": [],
    "wof:supersedes": [],
    "wof:tags": []
  },
  "bbox": [
    -4.281662,
    55.608722,
    -4.281662,
    55.608722
  ],
  "geometry": {"type":"Point","coordinates":[-4.281662,55.608722]}
}
