{
  "id": 1360790713,
  "type": "Feature",
  "properties": {
    "edtf:cessation": "",
    "edtf:inception": "",
    "geom:area": 0,
    "geom:area_square_m": 0,
    "geom:bbox": "-2.742576,51.128242,-2.742576,51.128242",
    "geom:latitude": 51.128242,
    "geom:longitude": -2.742576,
    "iso:country": "GB",
    "lbl:bbox": "-2.747576,51.123242,-2.737576,51.133242",
    "lbl:latitude": 51.128243,
    "lbl:longitude": -2.742575,
    "lbl:max_zoom": 18,
    "mps:latitude": 51.128243,
    "mps:longitude": -2.742575,
    "mz:hierarchy_label": 1,
    "mz:is_current": 1,
    "mz:min_zoom": 15,
    "name:azb_x_preferred": [
      "استریت"
    ],
    "name:ben_x_preferred": [
      "স্ট্রীট"
    ],
    "name:ceb_x_preferred": [
      "Street"
    ],
    "name:cym_x_preferred": [
      "Street"
    ],
    "name:deu_x_preferred": [
      "Street"
    ],
    "name:eng_x_preferred": [
      "Street"
    ],
    "name:fas_x_preferred": [
      "استریت"
    ],
    "name:fra_x_preferred": [
      "Street"
    ],
    "name:gle_x_preferred": [
      "Street"
    ],
    "name:guj_x_preferred": [
      "સ્ટ્રીટ"
    ],
    "name:ita_x_preferred": [
      "Street"
    ],
    "name:jpn_x_preferred": [
      "ストリート"
    ],
    "name:kan_x_preferred": [
      "ಸ್ಟ್ರೀಟ್"
    ],
    "name:kor_x_preferred": [
      "스트릿"
    ],
    "name:lat_x_preferred": [
      "Street"
    ],
    "name:lit_x_preferred": [
      "Stritas"
    ],
    "name:nan_x_preferred": [
      "Street"
    ],
    "name:nld_x_preferred": [
      "Street"
    ],
    "name:nno_x_preferred": [
      "Street"
    ],
    "name:nob_x_preferred": [
      "Street"
    ],
    "name:pol_x_preferred": [
      "Street"
    ],
    "name:por_x_preferred": [
      "Street"
    ],
    "name:rus_x_preferred": [
      "Стрит"
    ],
    "name:spa_x_preferred": [
      "Street"
    ],
    "name:swe_x_preferred": [
      "Street"
    ],
    "name:tam_x_preferred": [
      "ஸ்ட்ரீட்"
    ],
    "name:tel_x_preferred": [
      "స్ట్రీట్"
    ],
    "name:tur_x_preferred": [
      "Street"
    ],
    "name:und_x_variant": [
      "Streetly"
    ],
    "name:urd_x_preferred": [
      "اسٹریٹ"
    ],
    "name:vol_x_preferred": [
      "Street"
    ],
    "name:zho_x_preferred": [
      "斯特里特"
    ],
    "qs:a0": "United Kingdom",
    "qs:a1": "*Somerset",
    "qs:a1_lc": "GB12400000",
    "qs:a1r": "0England",
    "qs:a1r_lc": "GB12000000",
    "qs:adm0": "United Kingdom",
    "qs:la_lc": "*",
    "qs:level": "locality",
    "qs:loc": "Street",
    "qs:loc_alt": "Street",
    "qs:pop": 0,
    "qs:source": "RCustom EuroGlobalMap + UMZ Urban Polygons + Geonames + GeoPlanet",
    "qs:type": "buffered point",
    "src:geom": "whosonfirst",
    "src:geom_alt": [
      "quattroshapes_pg",
      "quattroshapes"
    ],
    "src:geom_via": "quattroshapes",
    "src:lbl_centroid": "mapshaper",
    "src:population": "wikidata",
    "wd:latitude": 51.1235,
    "wd:longitude": -2.7381,
    "wd:wordcount": 3954,
    "wof:belongsto": [
      1880773145,
      102191581,
      1880762071,
      404439545,
      85633159,
      404227469,
      1326865381,
      136253055,
      1360699059
    ],
    "wof:breaches": [],
    "wof:concordances": {
      "fct:id": "0aa39c4a-8f76-11e1-848f-cfd5bf3ef515",
      "gn:id": 2636670,
      "gp:id": 36471,
      "qs_pg:id": 23722,
      "wd:id": "Q1249656",
      "wk:page": "Street, Somerset"
    },
    "wof:concordances_alt": {
      "qs_pg:id": 454247
    },
    "wof:country": "GB",
    "wof:created": 1765389422,
    "wof:geomhash": "36a976985a4693fd1ecfc7326d8642c2",
    "wof:hierarchy": [
      {
        "continent_id": 102191581,
        "country_id": 85633159,
        "county_id": 1360699059,
        "empire_id": 136253055,
        "localadmin_id": 404439545,
        "locality_id": 1326865381,
        "macrocounty_id": 1880762071,
        "macroregion_id": 404227469,
        "neighbourhood_id": 1360790713,
        "region_id": 1880773145
      }
    ],
    "wof:id": 1360790713,
    "wof:lang": [
      "eng"
    ],
    "wof:lastmodified": 1765389422,
    "wof:name": "Street",
    "wof:parent_id": 1326865381,
    "wof:placetype": "neighbourhood",
    "wof:population": 12712,
    "wof:population_rank": 6,
    "wof:repo": "whosonfirst-data-admin-gb",
    "wof:superseded_by": [],
    "wof:supersedes": [
      101852537
    ],
    "wof:tags": []
  },
  "bbox": [
    -2.742576,
    51.128242,
    -2.742576,
    51.128242
  ],
  "geometry": {"type":"Point","coordinates":[-2.742576,51.128242]}
}
