{
  "id": 1360790683,
  "type": "Feature",
  "properties": {
    "edtf:cessation": "",
    "edtf:inception": "",
    "geom:area": 0,
    "geom:area_square_m": 0,
    "geom:bbox": "-4.758635,50.333055,-4.758635,50.333055",
    "geom:latitude": 50.333055,
    "geom:longitude": -4.758635,
    "gn:admin1_code": "ENG",
    "gn:admin2_code": "C6",
    "gn:admin3_code": "00HE132",
    "gn:asciiname": "Charlestown",
    "gn:country_code": "GB",
    "gn:dem": 16,
    "gn:feature_class": "P",
    "gn:feature_code": "PPL",
    "gn:geonameid": 2653335,
    "gn:latitude": 50.33286,
    "gn:longitude": -4.75811,
    "gn:modification_date": "2016-05-16",
    "gn:name": "Charlestown",
    "gn:population": 0,
    "gn:timezone": "Europe/London",
    "iso:country": "GB",
    "lbl:bbox": "-4.763635,50.328055,-4.753635,50.338055",
    "lbl:latitude": 50.333056,
    "lbl:longitude": -4.758635,
    "lbl:max_zoom": 18,
    "mps:latitude": 50.333056,
    "mps:longitude": -4.758635,
    "mz:hierarchy_label": 1,
    "mz:is_current": 1,
    "mz:min_zoom": 15,
    "name:cor_x_preferred": [
      "Porthmeur West"
    ],
    "name:cym_x_preferred": [
      "Porthmeur West"
    ],
    "name:eng_x_preferred": [
      "Charlestown"
    ],
    "name:eus_x_preferred": [
      "Charlestown"
    ],
    "name:fas_x_preferred": [
      "چارلزتاون"
    ],
    "name:fra_x_preferred": [
      "Charlestown"
    ],
    "name:gle_x_preferred": [
      "Charlestown"
    ],
    "name:heb_x_preferred": [
      "צ'ארלסטאון"
    ],
    "name:ita_x_preferred": [
      "Charlestown"
    ],
    "name:jpn_x_preferred": [
      "チャールズタウン"
    ],
    "name:nld_x_preferred": [
      "Charlestown"
    ],
    "name:nob_x_preferred": [
      "Charlestown"
    ],
    "name:pol_x_preferred": [
      "Charlestown"
    ],
    "name:und_x_variant": [
      "Earlestown"
    ],
    "name:urd_x_preferred": [
      "چارلس ٹاؤن، کورنوال"
    ],
    "name:urd_x_variant": [
      "چارلس ٹاؤن"
    ],
    "qs:a0": "United Kingdom",
    "qs:a1": "*Cornwall",
    "qs:a1_lc": "GB12HE0000",
    "qs:a1r": "0England",
    "qs:a1r_lc": "GB12000000",
    "qs:adm0": "United Kingdom",
    "qs:la_lc": "*",
    "qs:level": "locality",
    "qs:loc": "Charlestown",
    "qs:loc_alt": "Charlestown",
    "qs:pop": 0,
    "qs:source": "RCustom EuroGlobalMap + UMZ Urban Polygons + Geonames + GeoPlanet",
    "qs:type": "buffered point",
    "src:geom": "whosonfirst",
    "src:geom_alt": [
      "quattroshapes_pg",
      "quattroshapes"
    ],
    "src:geom_via": "quattroshapes",
    "src:lbl_centroid": "mapshaper",
    "src:population": "wikidata",
    "wd:latitude": 50.3314,
    "wd:longitude": -4.7578,
    "wd:wordcount": 1774,
    "wof:belongsto": [
      102191581,
      1880762119,
      404444015,
      85633159,
      404227469,
      1360758635,
      136253055,
      1360699085,
      1880773165
    ],
    "wof:breaches": [],
    "wof:concordances": {
      "gn:id": 2650556,
      "gp:id": 15669,
      "qs_pg:id": 977470,
      "wd:id": "Q937918",
      "wk:page": "Charlestown, Cornwall"
    },
    "wof:concordances_alt": {
      "gn:id": [
        2653335
      ],
      "qs_pg:id": [
        1113446
      ],
      "wk:page": [
        "Charlestown%2C_Cornwall"
      ]
    },
    "wof:country": "GB",
    "wof:created": 1765389420,
    "wof:geomhash": "aa3f661146dc103e67cf18cf74e4038d",
    "wof:hierarchy": [
      {
        "continent_id": 102191581,
        "country_id": 85633159,
        "county_id": 1360699085,
        "empire_id": 136253055,
        "localadmin_id": 404444015,
        "locality_id": 1360758635,
        "macrocounty_id": 1880762119,
        "macroregion_id": 404227469,
        "neighbourhood_id": 1360790683,
        "region_id": 1880773165
      }
    ],
    "wof:id": 1360790683,
    "wof:lastmodified": 1765389420,
    "wof:name": "Charlestown",
    "wof:parent_id": 1360758635,
    "wof:placetype": "neighbourhood",
    "wof:population": 10830,
    "wof:population_rank": 6,
    "wof:repo": "whosonfirst-data-admin-gb",
    "wof:superseded_by": [],
    "wof:supersedes": [
      101852425,
      1360809285
    ],
    "wof:tags": []
  },
  "bbox": [
    -4.758635,
    50.333055,
    -4.758635,
    50.333055
  ],
  "geometry": {"type":"Point","coordinates":[-4.758635,50.333055]}
}
