{
  "id": 1125801793,
  "type": "Feature",
  "properties": {
    "edtf:cessation": "",
    "edtf:inception": "",
    "geom:area": 0,
    "geom:area_square_m": 0,
    "geom:bbox": "-2.678950,57.085900,-2.678950,57.085900",
    "geom:latitude": 57.0859,
    "geom:longitude": -2.67895,
    "gn:country": "GB",
    "gn:fcode": "PPL",
    "gn:population": 0,
    "iso:country": "GB",
    "lbl:bbox": "-2.69895,57.0659,-2.65895,57.1059",
    "lbl:latitude": 57.0859,
    "lbl:longitude": -2.67895,
    "lbl:max_zoom": 18,
    "lbl:min_zoom": 13.5,
    "mz:hierarchy_label": 1,
    "mz:is_current": 1,
    "mz:min_zoom": 12,
    "mz:note": "Quattroshapes Point Gazetteer import 20170519",
    "name:deu_x_preferred": [
      "Kincardine O’Neil"
    ],
    "name:eng_x_preferred": [
      "Kincardine O'Neil"
    ],
    "name:eus_x_preferred": [
      "Kincardine O'Neil"
    ],
    "name:fra_x_preferred": [
      "Kincardine O’Neil"
    ],
    "name:gla_x_preferred": [
      "Eaglais Iarach"
    ],
    "name:gle_x_preferred": [
      "Eaglais Iarach"
    ],
    "name:heb_x_preferred": [
      "קינקארדין"
    ],
    "name:jpn_x_preferred": [
      "キンカーディン・オニール"
    ],
    "name:nld_x_preferred": [
      "Kincardine O'Neil"
    ],
    "name:sco_x_preferred": [
      "Kincairdine O'Neil"
    ],
    "qs_pg:aaroncc": "GB",
    "qs_pg:gn_country": "GB",
    "qs_pg:gn_fcode": "PPL",
    "qs_pg:gn_id": 2645522,
    "qs_pg:gn_pop": 0,
    "qs_pg:name": "Kincardine O'Neil",
    "qs_pg:name_adm0": "United Kingdom",
    "qs_pg:name_adm1": "Scotland",
    "qs_pg:photos": 69,
    "qs_pg:photos_1k": 14,
    "qs_pg:photos_9k": 1,
    "qs_pg:photos_9r": 2,
    "qs_pg:photos_all": 69,
    "qs_pg:photos_sr": 2,
    "qs_pg:pop_sr": 0,
    "qs_pg:qs_id": 1082267,
    "qs_pg:qs_pg_placetype": "locality",
    "qs_pg:qs_pg_placetype_gp": "Town",
    "qs_pg:woe_adm0": 23424975,
    "qs_pg:woe_id": 25077,
    "src:geom": "qs_pg",
    "src:lbl_centroid": "qs_pg",
    "src:population": "wikidata",
    "woe:adm0_id": 23424975,
    "woe:name_adm0": "United Kingdom",
    "woe:name_adm1": "Scotland",
    "woe:placetype": "Town",
    "wof:belongsto": [
      1880773121,
      102191581,
      85633159,
      1880762109,
      404227471,
      136253055,
      1360699031
    ],
    "wof:breaches": [],
    "wof:concordances": {
      "gn:id": 2645522,
      "gp:id": 25077,
      "qs_pg:id": 1082267,
      "wd:id": "Q1741697"
    },
    "wof:country": "GB",
    "wof:created": 1497291292,
    "wof:geomhash": "2a3b6fce4c6da2789c425e733162e930",
    "wof:hierarchy": [
      {
        "continent_id": 102191581,
        "country_id": 85633159,
        "county_id": 1360699031,
        "empire_id": 136253055,
        "locality_id": 1125801793,
        "macrocounty_id": 1880762109,
        "macroregion_id": 404227471,
        "region_id": 1880773121
      }
    ],
    "wof:id": 1125801793,
    "wof:lastmodified": 1765385562,
    "wof:name": "Kincardine O'Neil",
    "wof:parent_id": 1360699031,
    "wof:placetype": "locality",
    "wof:population": 338,
    "wof:population_rank": 2,
    "wof:repo": "whosonfirst-data-admin-gb",
    "wof:superseded_by": [],
    "wof:supersedes": [],
    "wof:tags": []
  },
  "bbox": [
    -2.67895,
    57.0859,
    -2.67895,
    57.0859
  ],
  "geometry": {"type":"Point","coordinates":[-2.67895,57.0859]}
}
