{
  "id": 1343297443,
  "type": "Feature",
  "properties": {
    "edtf:cessation": "",
    "edtf:inception": "",
    "geom:area": 0,
    "geom:area_square_m": 0,
    "geom:bbox": "-7.118370,54.556540,-7.118370,54.556540",
    "geom:latitude": 54.55654000000001,
    "geom:longitude": -7.11837,
    "gn:admin1_code": "NIR",
    "gn:admin2_code": "N09000006",
    "gn:asciiname": "Sixmilecross",
    "gn:country_code": "GB",
    "gn:dem": 117,
    "gn:feature_class": "P",
    "gn:feature_code": "PPL",
    "gn:geonameid": 2637799,
    "gn:latitude": 54.55654,
    "gn:longitude": -7.11837,
    "gn:modification_date": "2016-12-04",
    "gn:name": "Sixmilecross",
    "gn:population": 0,
    "gn:timezone": "Europe/London",
    "iso:country": "GB",
    "lbl:bbox": "-7.13837,54.53654,-7.09837,54.57654",
    "lbl:max_zoom": 18,
    "lbl:min_zoom": 13.5,
    "mz:hierarchy_label": 1,
    "mz:is_current": -1,
    "mz:min_zoom": 12,
    "name:ceb_x_preferred": [
      "Sixmilecross"
    ],
    "name:eus_x_preferred": [
      "Sixmilecross"
    ],
    "name:fas_x_preferred": [
      "سیکسمایلکراس"
    ],
    "name:gle_x_preferred": [
      "Na Coracha Móra"
    ],
    "name:msa_x_preferred": [
      "Sixmilecross"
    ],
    "name:pli_x_preferred": [
      "सिक्स्मिलेक्रोस"
    ],
    "name:spa_x_preferred": [
      "Sixmilecross"
    ],
    "name:swe_x_preferred": [
      "Sixmilecross"
    ],
    "src:geom": "geonames",
    "src:population": "wikidata",
    "wof:belongsto": [
      1360699235,
      102191581,
      85633159,
      1880762231,
      404227473,
      136253055,
      1880762257
    ],
    "wof:breaches": [],
    "wof:concordances": {
      "gn:id": 2637799,
      "wk:page": "Sixmilecross"
    },
    "wof:country": "GB",
    "wof:created": 1765388986,
    "wof:geomhash": "49163329bb358f9aced834f9f7ed48f0",
    "wof:hierarchy": [
      {
        "continent_id": 102191581,
        "country_id": 85633159,
        "county_id": 1880762257,
        "empire_id": 136253055,
        "locality_id": 1343297443,
        "macrocounty_id": 1880762231,
        "macroregion_id": 404227473,
        "region_id": 1360699235
      }
    ],
    "wof:id": 1343297443,
    "wof:lastmodified": 1765388986,
    "wof:name": "Sixmilecross",
    "wof:parent_id": 1880762257,
    "wof:placetype": "locality",
    "wof:population": 282,
    "wof:population_rank": 2,
    "wof:repo": "whosonfirst-data-admin-gb",
    "wof:superseded_by": [],
    "wof:supersedes": [],
    "wof:tags": []
  },
  "bbox": [
    -7.11837,
    54.55654000000001,
    -7.11837,
    54.55654000000001
  ],
  "geometry": {"type":"Point","coordinates":[-7.11837,54.55654000000001]}
}
