{
  "id": 85860281,
  "type": "Feature",
  "properties": {
    "edtf:cessation": "",
    "edtf:inception": "",
    "geom:area": 0.00030479387149996424,
    "geom:area_square_m": 2342610.535151,
    "geom:bbox": "0.043945,51.559997,0.072472,51.577070",
    "geom:latitude": 51.56769434816751,
    "geom:longitude": 0.0583415744006839,
    "gn:id": "",
    "iso:country": "GB",
    "lbl:latitude": 51.565127,
    "lbl:longitude": 0.062137,
    "lbl:max_zoom": 18,
    "mps:latitude": 51.567718,
    "mps:longitude": 0.058613,
    "mz:hierarchy_label": 1,
    "mz:is_current": 1,
    "mz:is_funky": 0,
    "mz:is_hard_boundary": 0,
    "mz:is_landuse_aoi": 0,
    "mz:is_official": 0,
    "mz:max_zoom": 18,
    "mz:min_zoom": 14,
    "mz:tier_locality": 7,
    "mz:tier_metro": 1,
    "name:eng_x_preferred": [
      "Cranbrook"
    ],
    "name:fas_x_preferred": [
      "کرانبروک، کنت"
    ],
    "name:fra_x_preferred": [
      "Cranbrook"
    ],
    "name:gle_x_preferred": [
      "Cranbrook"
    ],
    "name:hin_x_preferred": [
      "क्रैनब्रुक"
    ],
    "name:ita_x_preferred": [
      "Cranbrook"
    ],
    "name:nno_x_preferred": [
      "Cranbrook i Kent"
    ],
    "name:pol_x_preferred": [
      "Loxford"
    ],
    "name:pol_x_variant": [
      "Cranbrook"
    ],
    "qs:gn_adm0_cc": "GB",
    "qs:gn_fcode": "PPL",
    "qs:gn_local": 2643743,
    "qs:gn_namadm1": "ENG",
    "qs:gn_name": "Cranbrook",
    "qs:local_max": 40697,
    "qs:local_sum": 1675717,
    "qs:localhoods": 643,
    "qs:name": "Cranbrook",
    "qs:name_adm0": "United Kingdom",
    "qs:name_adm1": "England",
    "qs:name_adm2": "Greater London",
    "qs:name_lau": "London Borough of Redbridge",
    "qs:name_local": "London",
    "qs:photo_max": 219,
    "qs:photo_sum": 1134,
    "qs:placetype": "Suburb",
    "qs:quad_count": 54,
    "qs:woe_adm0": 23424975,
    "qs:woe_adm1": 24554868,
    "qs:woe_adm2": 23416974,
    "qs:woe_funk": "Parented by a neighborhood",
    "qs:woe_lau": 12695835,
    "qs:woe_local": 44418,
    "qs:woe_ver": "7.10.0",
    "src:geom": "quattroshapes",
    "src:geom_alt": [
      "quattroshapes_pg"
    ],
    "src:lbl_centroid": "mz",
    "src:population": "wikidata",
    "wof:belongsto": [
      1880762729,
      102191581,
      1880762179,
      85633159,
      404227469,
      101750367,
      136253055,
      1158857291,
      1880771825
    ],
    "wof:breaches": [],
    "wof:concordances": {
      "fct:id": "0ab45bac-8f76-11e1-848f-cfd5bf3ef515",
      "gn:id": 2652088,
      "gp:id": 20089403,
      "qs_pg:id": 140881,
      "wd:id": "Q5181944",
      "wk:page": "Cranbrook, Kent"
    },
    "wof:concordances_alt": {
      "qs_pg:id": 364709
    },
    "wof:country": "GB",
    "wof:created": 1765391321,
    "wof:geom_alt": [
      "quattroshapes_pg"
    ],
    "wof:geomhash": "34e3a1112e0d264dd41f980d4f70637d",
    "wof:hierarchy": [
      {
        "borough_id": 1158857291,
        "continent_id": 102191581,
        "country_id": 85633159,
        "county_id": 1880771825,
        "empire_id": 136253055,
        "locality_id": 101750367,
        "macrocounty_id": 1880762179,
        "macroregion_id": 404227469,
        "neighbourhood_id": 85860281,
        "region_id": 1880762729
      }
    ],
    "wof:id": 85860281,
    "wof:lang": [
      "eng"
    ],
    "wof:lastmodified": 1765391321,
    "wof:name": "Cranbrook",
    "wof:parent_id": 1158857291,
    "wof:placetype": "neighbourhood",
    "wof:population": 12780,
    "wof:population_rank": 6,
    "wof:repo": "whosonfirst-data-admin-gb",
    "wof:superseded_by": [],
    "wof:supersedes": [],
    "wof:tags": []
  },
  "bbox": [
    0.043945,
    51.559997,
    0.072472,
    51.57707
  ],
  "geometry": {"type":"Polygon","coordinates":[[[0.060425,51.57707],[0.060425,51.574509],[0.063171,51.574509],[0.065388,51.574509],[0.065918,51.573656],[0.065918,51.571949],[0.065918,51.570241],[0.068665,51.570241],[0.068665,51.568534],[0.071411,51.568534],[0.071411,51.566827],[0.072472,51.56512],[0.072472,51.56512],[0.071411,51.563412],[0.070697,51.562264],[0.068665,51.563354],[0.065918,51.561881],[0.065918,51.561529],[0.065918,51.559997],[0.064966,51.559997],[0.064966,51.559997],[0.060425,51.559997],[0.055176,51.559997],[0.055176,51.559997],[0.054932,51.559997],[0.054932,51.560233],[0.05397,51.561161],[0.053806,51.561601],[0.051135,51.562215],[0.05039,51.563412],[0.049438,51.563412],[0.049438,51.564266],[0.047223,51.564266],[0.046692,51.56512],[0.046692,51.566827],[0.043945,51.566827],[0.043945,51.568534],[0.043945,51.570241],[0.044659,51.57139],[0.046692,51.5703],[0.049438,51.571773],[0.049438,51.573419],[0.049438,51.573656],[0.054932,51.573656],[0.054932,51.576833],[0.054932,51.57707],[0.059473,51.57707],[0.060425,51.57707]]]}
}
