{
  "id": 1360796127,
  "type": "Feature",
  "properties": {
    "edtf:cessation": "",
    "edtf:inception": "",
    "geom:area": 0,
    "geom:area_square_m": 0,
    "geom:bbox": "-0.213550,52.288850,-0.213550,52.288850",
    "geom:latitude": 52.28885,
    "geom:longitude": -0.21355,
    "gn:country": "GB",
    "gn:fcode": "PPL",
    "gn:population": 0,
    "iso:country": "GB",
    "lbl:bbox": "-0.21855,52.28385,-0.20855,52.29385",
    "lbl:latitude": 52.28885,
    "lbl:longitude": -0.21355,
    "lbl:max_zoom": 18,
    "mz:hierarchy_label": 1,
    "mz:is_current": 1,
    "mz:min_zoom": 15,
    "mz:note": "Quattroshapes Point Gazetteer import 20170519",
    "name:ara_x_preferred": [
      "اففرد كلوني"
    ],
    "name:arz_x_preferred": [
      "اففرد كلونى"
    ],
    "name:cym_x_preferred": [
      "Offord Cluny"
    ],
    "name:eng_x_preferred": [
      "Offord Cluny"
    ],
    "name:fas_x_preferred": [
      "آفورد کلانی"
    ],
    "name:fra_x_preferred": [
      "Offord Cluny"
    ],
    "name:gle_x_preferred": [
      "Offord Cluny"
    ],
    "name:ita_x_preferred": [
      "Offord Cluny"
    ],
    "name:lld_x_preferred": [
      "Offord Cluny"
    ],
    "name:nan_x_preferred": [
      "Offord Cluny"
    ],
    "name:nld_x_preferred": [
      "Offord Cluny"
    ],
    "name:pol_x_preferred": [
      "Offord Cluny"
    ],
    "name:swe_x_preferred": [
      "Offord Cluny"
    ],
    "name:und_x_variant": [
      "Offord"
    ],
    "qs_pg:aaroncc": "GB",
    "qs_pg:gn_country": "GB",
    "qs_pg:gn_fcode": "PPL",
    "qs_pg:gn_id": 2641068,
    "qs_pg:gn_pop": 0,
    "qs_pg:name": "Offord Cluny",
    "qs_pg:name_adm0": "United Kingdom",
    "qs_pg:name_adm1": "England",
    "qs_pg:photos": 179,
    "qs_pg:photos_1k": 36,
    "qs_pg:photos_9k": 1,
    "qs_pg:photos_9r": 4,
    "qs_pg:photos_all": 179,
    "qs_pg:photos_sr": 4,
    "qs_pg:pop_sr": 0,
    "qs_pg:qs_id": 899600,
    "qs_pg:qs_pg_placetype": "locality",
    "qs_pg:qs_pg_placetype_gp": "Town",
    "qs_pg:woe_adm0": 23424975,
    "qs_pg:woe_id": 30862,
    "src:geom": "qs_pg",
    "src:lbl_centroid": "qs_pg",
    "src:population": "wikidata",
    "woe:adm0_id": 23424975,
    "woe:name_adm0": "United Kingdom",
    "woe:name_adm1": "England",
    "woe:placetype": "Town",
    "wof:belongsto": [
      1880762687,
      102191581,
      1880762143,
      404433525,
      85633159,
      404227469,
      1360754393,
      136253055,
      1880771371
    ],
    "wof:breaches": [],
    "wof:concordances": {
      "gn:id": 2641068,
      "gp:id": 30862,
      "qs_pg:id": 899600,
      "wd:id": "Q3296512"
    },
    "wof:country": "GB",
    "wof:created": 1497294611,
    "wof:geomhash": "accb98c2d8354c2c2c7caa2926947e58",
    "wof:hierarchy": [
      {
        "continent_id": 102191581,
        "country_id": 85633159,
        "county_id": 1880771371,
        "empire_id": 136253055,
        "localadmin_id": 404433525,
        "locality_id": 1360754393,
        "macrocounty_id": 1880762143,
        "macroregion_id": 404227469,
        "neighbourhood_id": 1360796127,
        "region_id": 1880762687
      }
    ],
    "wof:id": 1360796127,
    "wof:lastmodified": 1765389747,
    "wof:name": "Offord Cluny",
    "wof:parent_id": 1360754393,
    "wof:placetype": "neighbourhood",
    "wof:population": 502,
    "wof:population_rank": 2,
    "wof:repo": "whosonfirst-data-admin-gb",
    "wof:superseded_by": [],
    "wof:supersedes": [
      1125877409
    ],
    "wof:tags": []
  },
  "bbox": [
    -0.21355,
    52.28885,
    -0.21355,
    52.28885
  ],
  "geometry": {"type":"Point","coordinates":[-0.21355,52.28885]}
}
