{
  "id": 1360713995,
  "type": "Feature",
  "properties": {
    "edtf:cessation": "",
    "edtf:inception": "",
    "geom:area": 0,
    "geom:area_square_m": 0,
    "geom:bbox": "-4.141760,52.940540,-4.141760,52.940540",
    "geom:latitude": 52.94054000000001,
    "geom:longitude": -4.14176,
    "gn:admin1_code": "WLS",
    "gn:admin2_code": "Y2",
    "gn:admin3_code": "00NC057",
    "gn:asciiname": "Tremadog",
    "gn:country_code": "GB",
    "gn:dem": 64,
    "gn:feature_class": "P",
    "gn:feature_code": "PPL",
    "gn:geonameid": 8199186,
    "gn:latitude": 52.94054,
    "gn:longitude": -4.14176,
    "gn:modification_date": "2012-02-16",
    "gn:name": "Tremadog",
    "gn:population": 0,
    "gn:timezone": "Europe/London",
    "iso:country": "GB",
    "lbl:bbox": "-4.14676,52.93554,-4.13676,52.94554",
    "lbl:max_zoom": 18,
    "mz:hierarchy_label": 1,
    "mz:is_current": -1,
    "mz:min_zoom": 15,
    "name:ara_x_preferred": [
      "ترمدوق"
    ],
    "name:bre_x_preferred": [
      "Tremadog"
    ],
    "name:bul_x_preferred": [
      "Тремадог"
    ],
    "name:cym_x_preferred": [
      "Tremadog"
    ],
    "name:deu_x_preferred": [
      "Tremadog"
    ],
    "name:est_x_preferred": [
      "Tremadog"
    ],
    "name:eus_x_preferred": [
      "Tremadog"
    ],
    "name:fas_x_preferred": [
      "ترمادوگ"
    ],
    "name:fin_x_preferred": [
      "Tremadog"
    ],
    "name:ita_x_preferred": [
      "Tremadog"
    ],
    "name:rus_x_preferred": [
      "Тремадог"
    ],
    "src:geom": "geonames",
    "src:population": "wikidata",
    "wof:belongsto": [
      1880773051,
      102191581,
      1880762187,
      404445877,
      85633159,
      404227475,
      101872023,
      136253055,
      1360698959
    ],
    "wof:breaches": [],
    "wof:concordances": {
      "gn:id": 8199186,
      "wk:page": "Tremadog"
    },
    "wof:country": "GB",
    "wof:created": 1765389309,
    "wof:geomhash": "5189904f9deac1dfb15e9e511974ee48",
    "wof:hierarchy": [
      {
        "continent_id": 102191581,
        "country_id": 85633159,
        "county_id": 1360698959,
        "empire_id": 136253055,
        "localadmin_id": 404445877,
        "locality_id": 101872023,
        "macrocounty_id": 1880762187,
        "macroregion_id": 404227475,
        "neighbourhood_id": 1360713995,
        "region_id": 1880773051
      }
    ],
    "wof:id": 1360713995,
    "wof:lastmodified": 1765389309,
    "wof:name": "Tremadog",
    "wof:parent_id": 101872023,
    "wof:placetype": "neighbourhood",
    "wof:population": 1257,
    "wof:population_rank": 3,
    "wof:repo": "whosonfirst-data-admin-gb",
    "wof:superseded_by": [],
    "wof:supersedes": [
      1343893475
    ],
    "wof:tags": []
  },
  "bbox": [
    -4.14176,
    52.94054000000001,
    -4.14176,
    52.94054000000001
  ],
  "geometry": {"type":"Point","coordinates":[-4.14176,52.94054000000001]}
}
