{
  "id": 85790047,
  "type": "Feature",
  "properties": {
    "edtf:cessation": "",
    "edtf:inception": "",
    "geom:area": 0.00032925796600005177,
    "geom:area_square_m": 2536769.382158,
    "geom:bbox": "-0.308539,51.449819,-0.277405,51.469227",
    "geom:latitude": 51.458654421580015,
    "geom:longitude": -0.2945426956871936,
    "gn:latitude": 51.46171,
    "gn:longitude": -0.30633,
    "gn:population": 8360,
    "iso:country": "GB",
    "lbl:latitude": 51.455921,
    "lbl:longitude": -0.298944,
    "lbl:max_zoom": 18,
    "mps:latitude": 51.457737,
    "mps:longitude": -0.297367,
    "mz:hierarchy_label": 1,
    "mz:is_current": 1,
    "mz:is_funky": 0,
    "mz:is_hard_boundary": 0,
    "mz:is_landuse_aoi": 0,
    "mz:is_official": 0,
    "mz:max_zoom": 18,
    "mz:min_zoom": 12,
    "mz:note": "dup of Richmond upon thames",
    "mz:tier_locality": 7,
    "mz:tier_metro": 1,
    "name:ara_x_preferred": [
      "ريتشموند"
    ],
    "name:arz_x_preferred": [
      "ريتشموند"
    ],
    "name:ast_x_preferred": [
      "Richmond"
    ],
    "name:azb_x_preferred": [
      "ریچموند"
    ],
    "name:aze_x_preferred": [
      "Riçmond"
    ],
    "name:cat_x_preferred": [
      "Richmond"
    ],
    "name:ceb_x_preferred": [
      "Richmond"
    ],
    "name:ces_x_preferred": [
      "Richmond"
    ],
    "name:cym_x_preferred": [
      "Richmond upon Thames"
    ],
    "name:deu_x_preferred": [
      "Richmond"
    ],
    "name:ell_x_preferred": [
      "Ρίτσμοντ"
    ],
    "name:eng_x_preferred": [
      "Richmond"
    ],
    "name:epo_x_preferred": [
      "Richmond"
    ],
    "name:eus_x_preferred": [
      "Richmond"
    ],
    "name:fas_x_preferred": [
      "ریچموند، لندن"
    ],
    "name:fas_x_variant": [
      "ریچموند"
    ],
    "name:fra_x_preferred": [
      "Richmond"
    ],
    "name:gle_x_preferred": [
      "Richmond"
    ],
    "name:heb_x_preferred": [
      "ריצ'מונד"
    ],
    "name:hin_x_preferred": [
      "रिचमंड"
    ],
    "name:hye_x_preferred": [
      "Ռիչմոնդ"
    ],
    "name:ita_x_preferred": [
      "Richmond"
    ],
    "name:jpn_x_preferred": [
      "リッチモンド"
    ],
    "name:kor_x_preferred": [
      "리치몬드"
    ],
    "name:lat_x_preferred": [
      "Richmondia ad Tamesim"
    ],
    "name:lld_x_preferred": [
      "Richmond"
    ],
    "name:ltz_x_preferred": [
      "Richmond"
    ],
    "name:nds_x_preferred": [
      "Richmond"
    ],
    "name:nld_x_preferred": [
      "Richmond"
    ],
    "name:nno_x_preferred": [
      "Richmond upon Thames"
    ],
    "name:nob_x_preferred": [
      "Richmond upon Thames"
    ],
    "name:pol_x_preferred": [
      "Richmond"
    ],
    "name:rus_x_preferred": [
      "Ричмонд"
    ],
    "name:slv_x_preferred": [
      "Richmond"
    ],
    "name:spa_x_preferred": [
      "Richmond"
    ],
    "name:swe_x_preferred": [
      "Richmond"
    ],
    "name:tur_x_preferred": [
      "Richmond"
    ],
    "name:ukr_x_preferred": [
      "Ричмонд"
    ],
    "name:urd_x_preferred": [
      "رچمنڈ، لندن"
    ],
    "name:urd_x_variant": [
      "رچمنڈ"
    ],
    "name:vie_x_preferred": [
      "Richmond"
    ],
    "name:zho_x_preferred": [
      "里齐蒙得"
    ],
    "name:zho_x_variant": [
      "里奇蒙"
    ],
    "qs:gn_adm0_cc": "GB",
    "qs:gn_fcode": "PPL",
    "qs:gn_local": 2643743,
    "qs:gn_namadm1": "ENG",
    "qs:gn_name": "Richmond",
    "qs:local_max": 40697,
    "qs:local_sum": 1675717,
    "qs:localhoods": 643,
    "qs:name": "Richmond",
    "qs:name_adm0": "United Kingdom",
    "qs:name_adm1": "England",
    "qs:name_adm2": "Greater London",
    "qs:name_lau": "London Borough of Richmond upon Thames",
    "qs:name_local": "London",
    "qs:photo_max": 829,
    "qs:photo_sum": 3636,
    "qs:placetype": "Suburb",
    "qs:quad_count": 84,
    "qs:woe_adm0": 23424975,
    "qs:woe_adm1": 24554868,
    "qs:woe_adm2": 23416974,
    "qs:woe_funk": "Grouping neighborhood",
    "qs:woe_lau": 12695836,
    "qs:woe_local": 44418,
    "qs:woe_ver": "7.10.0",
    "reversegeo:latitude": 51.457737,
    "reversegeo:longitude": -0.297367,
    "src:geom": "mz",
    "src:geom_alt": [
      "quattroshapes_pg",
      "quattroshapes"
    ],
    "src:lbl_centroid": "mz",
    "src:population": "wikidata",
    "wof:belongsto": [
      1880762729,
      102191581,
      1880762179,
      85633159,
      404227469,
      101750367,
      136253055,
      1158857311,
      1880771825
    ],
    "wof:breaches": [],
    "wof:concordances": {
      "gn:id": 2639389,
      "gp:id": 33284,
      "qs_pg:id": 773474,
      "wd:id": "Q2500974",
      "wk:page": "Richmond, London"
    },
    "wof:country": "GB",
    "wof:created": 1765391159,
    "wof:geom_alt": [
      "quattroshapes",
      "quattroshapes_pg"
    ],
    "wof:geomhash": "dc7922bf211b8ee364263a604075d234",
    "wof:hierarchy": [
      {
        "borough_id": 1158857311,
        "continent_id": 102191581,
        "country_id": 85633159,
        "county_id": 1880771825,
        "empire_id": 136253055,
        "locality_id": 101750367,
        "macrocounty_id": 1880762179,
        "macroregion_id": 404227469,
        "neighbourhood_id": 85790047,
        "region_id": 1880762729
      }
    ],
    "wof:id": 85790047,
    "wof:lang": [
      "eng"
    ],
    "wof:lastmodified": 1765391159,
    "wof:name": "Richmond",
    "wof:parent_id": 1158857311,
    "wof:placetype": "neighbourhood",
    "wof:population": 21469,
    "wof:population_rank": 7,
    "wof:repo": "whosonfirst-data-admin-gb",
    "wof:superseded_by": [],
    "wof:supersedes": [],
    "wof:tags": []
  },
  "bbox": [
    -0.308539,
    51.449819,
    -0.277405,
    51.469227
  ],
  "geometry": {"type":"MultiPolygon","coordinates":[[[[-0.307617,51.469227],[-0.304871,51.467757],[-0.302124,51.469227],[-0.299377,51.467757],[-0.29773,51.468639],[-0.29764,51.468552],[-0.297107,51.467697],[-0.296631,51.467697],[-0.296631,51.466932],[-0.296631,51.465986],[-0.295621,51.464365],[-0.294712,51.464657],[-0.293997,51.464275],[-0.291138,51.464275],[-0.291138,51.462745],[-0.291138,51.460852],[-0.285645,51.460852],[-0.280151,51.460852],[-0.280151,51.459141],[-0.280151,51.45743],[-0.277405,51.45743],[-0.277405,51.455718],[-0.277405,51.454007],[-0.280151,51.454007],[-0.280151,51.452295],[-0.282898,51.452295],[-0.285645,51.452295],[-0.288391,51.452295],[-0.291138,51.452295],[-0.293884,51.452295],[-0.293884,51.451349],[-0.293884,51.450584],[-0.296631,51.450584],[-0.296988,51.45001],[-0.298004,51.450553],[-0.299377,51.449819],[-0.299854,51.450584],[-0.302124,51.450584],[-0.302124,51.45153],[-0.302585,51.45227],[-0.302571,51.452345],[-0.30258,51.452545],[-0.302661,51.452742],[-0.30275,51.452874],[-0.30277,51.453057],[-0.302819,51.453251],[-0.302769,51.453367],[-0.302854,51.453443],[-0.302886,51.453493],[-0.303049,51.453796],[-0.303131,51.45393],[-0.303218,51.454069],[-0.303597,51.454627],[-0.303772,51.454923],[-0.303984,51.455249],[-0.304178,51.45558],[-0.304478,51.455949],[-0.304575,51.456055],[-0.305045,51.456463],[-0.305084,51.456497],[-0.306057,51.457316],[-0.306693,51.457825],[-0.306931,51.457988],[-0.306931,51.458285],[-0.306811,51.458285],[-0.306244,51.458285],[-0.306244,51.459141],[-0.306244,51.459494],[-0.306244,51.459997],[-0.304871,51.459997],[-0.304871,51.46047],[-0.304871,51.460852],[-0.304632,51.460852],[-0.303497,51.460852],[-0.303497,51.461326],[-0.303497,51.461708],[-0.303497,51.462564],[-0.304871,51.462564],[-0.304871,51.462946],[-0.305228,51.463137],[-0.30517,51.463419],[-0.305347,51.464275],[-0.307617,51.464275],[-0.307946,51.464803],[-0.307987,51.46513],[-0.307881,51.465986],[-0.30852,51.467697],[-0.308539,51.467747],[-0.307617,51.469227]]],[[[-0.3078,51.456842],[-0.307767,51.457002],[-0.307822,51.45727],[-0.307638,51.457205],[-0.307379,51.457093],[-0.307365,51.457083],[-0.3078,51.456842]]]]}
}
