{
  "id": 1360808967,
  "type": "Feature",
  "properties": {
    "edtf:cessation": "",
    "edtf:inception": "",
    "geom:area": 0,
    "geom:area_square_m": 0,
    "geom:bbox": "-0.194610,53.525230,-0.194610,53.525230",
    "geom:latitude": 53.52523000000001,
    "geom:longitude": -0.19461,
    "gn:admin1_code": "ENG",
    "gn:admin2_code": "J2",
    "gn:admin3_code": "00FC014",
    "gn:asciiname": "Irby upon Humber",
    "gn:country_code": "GB",
    "gn:dem": 57,
    "gn:feature_class": "P",
    "gn:feature_code": "PPL",
    "gn:geonameid": 2646056,
    "gn:latitude": 53.52523,
    "gn:longitude": -0.19461,
    "gn:modification_date": "2011-03-03",
    "gn:name": "Irby upon Humber",
    "gn:population": 0,
    "gn:timezone": "Europe/London",
    "iso:country": "GB",
    "lbl:bbox": "-0.19961,53.52023,-0.18961,53.53023",
    "lbl:max_zoom": 18,
    "mz:hierarchy_label": 1,
    "mz:is_current": 1,
    "mz:min_zoom": 15,
    "name:ceb_x_preferred": [
      "Irby upon Humber"
    ],
    "name:cym_x_preferred": [
      "Irby upon Humber"
    ],
    "name:fas_x_preferred": [
      "اربی اپان هامبر"
    ],
    "name:fra_x_preferred": [
      "Irby upon Humber"
    ],
    "name:pol_x_preferred": [
      "Irby upon Humber"
    ],
    "name:swe_x_preferred": [
      "Irby upon Humber"
    ],
    "name:und_x_variant": [
      "Irby"
    ],
    "src:geom": "geonames",
    "src:population": "wikidata",
    "wof:belongsto": [
      1880762701,
      102191581,
      1880762033,
      404437613,
      85633159,
      404227469,
      1360759807,
      136253055,
      1360698837
    ],
    "wof:breaches": [],
    "wof:concordances": {
      "gn:id": 2646056,
      "wk:page": "Irby_upon_Humber"
    },
    "wof:country": "GB",
    "wof:created": 1765390662,
    "wof:geomhash": "e29d2e376c64e08c32c0478121455713",
    "wof:hierarchy": [
      {
        "continent_id": 102191581,
        "country_id": 85633159,
        "county_id": 1360698837,
        "empire_id": 136253055,
        "localadmin_id": 404437613,
        "locality_id": 1360759807,
        "macrocounty_id": 1880762033,
        "macroregion_id": 404227469,
        "neighbourhood_id": 1360808967,
        "region_id": 1880762701
      }
    ],
    "wof:id": 1360808967,
    "wof:lastmodified": 1765390662,
    "wof:name": "Irby upon Humber",
    "wof:parent_id": 1360759807,
    "wof:placetype": "neighbourhood",
    "wof:population": 128,
    "wof:population_rank": 1,
    "wof:repo": "whosonfirst-data-admin-gb",
    "wof:superseded_by": [],
    "wof:supersedes": [
      1327460711
    ],
    "wof:tags": []
  },
  "bbox": [
    -0.19461,
    53.52523000000001,
    -0.19461,
    53.52523000000001
  ],
  "geometry": {"type":"Point","coordinates":[-0.19461,53.52523000000001]}
}
