{
  "id": 85787923,
  "type": "Feature",
  "properties": {
    "edtf:cessation": "",
    "edtf:inception": "",
    "geom:area": 0.0013785100170000124,
    "geom:area_square_m": 10585245.268846,
    "geom:bbox": "-0.508505,51.590722,-0.455499,51.633132",
    "geom:latitude": 51.61116069445683,
    "geom:longitude": -0.4847890135112573,
    "iso:country": "GB",
    "lbl:latitude": 51.604745,
    "lbl:longitude": -0.484276,
    "lbl:max_zoom": 18,
    "mps:latitude": 51.611416,
    "mps:longitude": -0.487943,
    "mz:hierarchy_label": 1,
    "mz:is_current": -1,
    "mz:is_funky": 0,
    "mz:is_hard_boundary": 0,
    "mz:is_landuse_aoi": 0,
    "mz:is_official": 0,
    "mz:max_zoom": 18,
    "mz:min_zoom": 15,
    "mz:tier_locality": 7,
    "mz:tier_metro": 1,
    "name:bul_x_preferred": [
      "Харефиелд"
    ],
    "name:ceb_x_preferred": [
      "Harefield"
    ],
    "name:cym_x_preferred": [
      "Harefield"
    ],
    "name:eng_x_preferred": [
      "Harefield"
    ],
    "name:fas_x_preferred": [
      "هیرفیلد"
    ],
    "name:fra_x_preferred": [
      "Harefield"
    ],
    "name:gle_x_preferred": [
      "Harefield"
    ],
    "name:heb_x_preferred": [
      "הרפילד"
    ],
    "name:hin_x_preferred": [
      "हेरफ़ील्ड"
    ],
    "name:jpn_x_preferred": [
      "ヘアフィールド"
    ],
    "name:nld_x_preferred": [
      "Harefield"
    ],
    "name:pol_x_preferred": [
      "Harefield"
    ],
    "name:swe_x_preferred": [
      "Harefield"
    ],
    "name:urd_x_preferred": [
      "ہیر فیلڈ"
    ],
    "src:geom": "quattroshapes",
    "src:geom_alt": [
      "quattroshapes_pg"
    ],
    "src:lbl_centroid": "mz",
    "src:population": "wikidata",
    "wof:belongsto": [
      1880762729,
      102191581,
      1880762179,
      85633159,
      404227469,
      101750367,
      136253055,
      1158857261,
      1880771825
    ],
    "wof:breaches": [],
    "wof:concordances": {
      "gn:id": 2647487,
      "gp:id": 22431,
      "qs_pg:id": 424492,
      "wd:id": "Q2243312",
      "wk:page": "Harefield"
    },
    "wof:country": "GB",
    "wof:created": 1765391056,
    "wof:geom_alt": [
      "quattroshapes_pg"
    ],
    "wof:geomhash": "0b9b093b1b592a097bef1abcfaf0e91d",
    "wof:hierarchy": [
      {
        "borough_id": 1158857261,
        "continent_id": 102191581,
        "country_id": 85633159,
        "county_id": 1880771825,
        "empire_id": 136253055,
        "locality_id": 101750367,
        "macrocounty_id": 1880762179,
        "macroregion_id": 404227469,
        "neighbourhood_id": 85787923,
        "region_id": 1880762729
      }
    ],
    "wof:id": 85787923,
    "wof:lang": [
      "eng"
    ],
    "wof:lastmodified": 1765391056,
    "wof:name": "Harefield",
    "wof:parent_id": 1158857261,
    "wof:placetype": "neighbourhood",
    "wof:population": 7399,
    "wof:population_rank": 5,
    "wof:repo": "whosonfirst-data-admin-gb",
    "wof:superseded_by": [],
    "wof:supersedes": [],
    "wof:tags": []
  },
  "bbox": [
    -0.508505,
    51.590722,
    -0.455499,
    51.633132
  ],
  "geometry": {"type":"Polygon","coordinates":[[[-0.49518,51.63294],[-0.494385,51.632699],[-0.493589,51.63294],[-0.493072,51.632991],[-0.493096,51.633011],[-0.484687,51.630302],[-0.484567,51.630203],[-0.483735,51.62919],[-0.483733,51.629187],[-0.482883,51.629445],[-0.477905,51.621427],[-0.477905,51.621427],[-0.477905,51.621427],[-0.475788,51.618016],[-0.475787,51.618016],[-0.47453,51.618016],[-0.472412,51.616311],[-0.467978,51.616311],[-0.466919,51.614606],[-0.466919,51.614606],[-0.461426,51.614606],[-0.461426,51.614606],[-0.459308,51.611195],[-0.45847,51.61052],[-0.45709,51.606077],[-0.461858,51.600959],[-0.455499,51.590723],[-0.461426,51.590723],[-0.466919,51.590723],[-0.469039,51.590723],[-0.469039,51.590722],[-0.472412,51.590722],[-0.472412,51.594135],[-0.472412,51.597548],[-0.472412,51.599617],[-0.476731,51.598623],[-0.477743,51.599167],[-0.477905,51.59908],[-0.477905,51.597548],[-0.483398,51.597548],[-0.48435,51.597548],[-0.48435,51.597548],[-0.48794,51.597548],[-0.488892,51.596016],[-0.491638,51.59749],[-0.494385,51.596016],[-0.497059,51.594581],[-0.497153,51.594622],[-0.497867,51.597304],[-0.502067,51.602134],[-0.504808,51.603605],[-0.505371,51.603786],[-0.508104,51.60584],[-0.508055,51.605835],[-0.508312,51.606685],[-0.508505,51.608636],[-0.508421,51.609489],[-0.508505,51.610342],[-0.508312,51.612293],[-0.507743,51.614169],[-0.507057,51.615452],[-0.507048,51.615469],[-0.507131,51.616311],[-0.506939,51.618262],[-0.506496,51.619722],[-0.506939,51.621181],[-0.507131,51.623132],[-0.506939,51.625083],[-0.50637,51.626959],[-0.505446,51.628688],[-0.504202,51.630203],[-0.502687,51.631447],[-0.500958,51.632371],[-0.499082,51.63294],[-0.497131,51.633132],[-0.49518,51.63294]]]}
}
