{
  "id": 1108937027,
  "type": "Feature",
  "properties": {
    "edtf:cessation": "",
    "edtf:inception": "",
    "geom:area": 0,
    "geom:area_square_m": 0,
    "geom:bbox": "-1.483412,54.981041,-1.483412,54.981041",
    "geom:latitude": 54.981041,
    "geom:longitude": -1.483412,
    "gn:country": "GB",
    "gn:fcode": "PPL",
    "gn:population": 27264,
    "iso:country": "GB",
    "lbl:bbox": "-1.48841160262,54.9760407212,-1.47841160262,54.9860407212",
    "lbl:latitude": 54.981041,
    "lbl:longitude": -1.483412,
    "lbl:max_zoom": 18,
    "mz:hierarchy_label": 1,
    "mz:is_current": -1,
    "mz:is_funky": 0,
    "mz:is_hard_boundary": 0,
    "mz:is_landuse_aoi": 0,
    "mz:is_official": 0,
    "mz:max_zoom": 18,
    "mz:min_zoom": 13,
    "mz:note": "Quattroshapes Point Gazetteer import 20170519",
    "mz:tier_metro": 15,
    "name:ara_x_preferred": [
      "جارو"
    ],
    "name:ast_x_preferred": [
      "Jarrow"
    ],
    "name:azb_x_preferred": [
      "جارو"
    ],
    "name:bel_x_preferred": [
      "Джараў"
    ],
    "name:ben_x_preferred": [
      "জ্যারো"
    ],
    "name:ceb_x_preferred": [
      "Jarrow"
    ],
    "name:cym_x_preferred": [
      "Jarrow"
    ],
    "name:deu_x_preferred": [
      "Jarrow"
    ],
    "name:ell_x_preferred": [
      "Τζάροου"
    ],
    "name:eng_x_preferred": [
      "Jarrow"
    ],
    "name:epo_x_preferred": [
      "Jarrow"
    ],
    "name:fas_x_preferred": [
      "جارو"
    ],
    "name:fas_x_variant": [
      "جارو"
    ],
    "name:fra_x_preferred": [
      "Jarrow"
    ],
    "name:fry_x_preferred": [
      "Jarrow"
    ],
    "name:gle_x_preferred": [
      "Jarrow"
    ],
    "name:glg_x_preferred": [
      "Jarrow"
    ],
    "name:guj_x_preferred": [
      "ઝેરો"
    ],
    "name:heb_x_preferred": [
      "ג'ארוו"
    ],
    "name:hrv_x_preferred": [
      "Jarrow"
    ],
    "name:hye_x_preferred": [
      "Ջարոու"
    ],
    "name:ita_x_preferred": [
      "Jarrow"
    ],
    "name:jpn_x_preferred": [
      "ジャロー"
    ],
    "name:kan_x_preferred": [
      "ಜಾರ್ವೊ"
    ],
    "name:kor_x_preferred": [
      "재로우"
    ],
    "name:lat_x_preferred": [
      "Gyruum"
    ],
    "name:lit_x_preferred": [
      "Džarou"
    ],
    "name:lld_x_preferred": [
      "Jarrow"
    ],
    "name:ltz_x_preferred": [
      "Jarrow"
    ],
    "name:nld_x_preferred": [
      "Jarrow"
    ],
    "name:nno_x_preferred": [
      "Jarrow"
    ],
    "name:nob_x_preferred": [
      "Jarrow"
    ],
    "name:nor_x_preferred": [
      "Jarrow"
    ],
    "name:pol_x_preferred": [
      "Jarrow"
    ],
    "name:por_x_preferred": [
      "Jarrow"
    ],
    "name:ron_x_preferred": [
      "Jarrow"
    ],
    "name:rus_x_preferred": [
      "Джарроу"
    ],
    "name:slv_x_preferred": [
      "Jarrow"
    ],
    "name:spa_x_preferred": [
      "Jarrow"
    ],
    "name:swe_x_preferred": [
      "Jarrow"
    ],
    "name:tam_x_preferred": [
      "ஜார்ரோ"
    ],
    "name:tel_x_preferred": [
      "జారో"
    ],
    "name:tur_x_preferred": [
      "Jarrow"
    ],
    "name:ukr_x_preferred": [
      "Джарроу"
    ],
    "name:und_x_variant": [
      "Jarrow-on-Tyne"
    ],
    "name:urd_x_preferred": [
      "جاروو"
    ],
    "name:zho_x_preferred": [
      "雅羅"
    ],
    "qs_pg:aaroncc": "GB",
    "qs_pg:gn_country": "GB",
    "qs_pg:gn_fcode": "PPL",
    "qs_pg:gn_id": 2645972,
    "qs_pg:gn_pop": 27264,
    "qs_pg:name": "Jarrow",
    "qs_pg:name_adm0": "United Kingdom",
    "qs_pg:name_adm1": "England",
    "qs_pg:photos": 982,
    "qs_pg:photos_1k": 199,
    "qs_pg:photos_9k": 4,
    "qs_pg:photos_9r": 6,
    "qs_pg:photos_all": 982,
    "qs_pg:photos_sr": 10,
    "qs_pg:pop_sr": 7,
    "qs_pg:qs_id": 453807,
    "qs_pg:qs_pg_placetype": "locality",
    "qs_pg:qs_pg_placetype_gp": "Town",
    "qs_pg:woe_adm0": 23424975,
    "qs_pg:woe_id": 24626,
    "src:geom": "unknown",
    "src:lbl_centroid": "mz",
    "src:population": "wikidata",
    "woe:adm0_id": 23424975,
    "woe:name_adm0": "United Kingdom",
    "woe:name_adm1": "England",
    "woe:placetype": "Town",
    "wof:belongsto": [
      102191581,
      85633159,
      1880762063,
      404227469,
      101750613,
      136253055,
      1360698861,
      1880773053
    ],
    "wof:breaches": [],
    "wof:concordances": {
      "gn:id": 2645972,
      "gp:id": 24626,
      "qs_pg:id": 453807,
      "wd:id": "Q782155"
    },
    "wof:country": "GB",
    "wof:created": 1491359394,
    "wof:geomhash": "9cdb1df33684a99df6b9a9312c78e356",
    "wof:hierarchy": [
      {
        "continent_id": 102191581,
        "country_id": 85633159,
        "county_id": 1360698861,
        "empire_id": 136253055,
        "locality_id": 101750613,
        "macrocounty_id": 1880762063,
        "macroregion_id": 404227469,
        "neighbourhood_id": 1108937027,
        "region_id": 1880773053
      }
    ],
    "wof:id": 1108937027,
    "wof:lastmodified": 1765385138,
    "wof:name": "Jarrow",
    "wof:parent_id": 101750613,
    "wof:placetype": "neighbourhood",
    "wof:population": 27526,
    "wof:population_rank": 7,
    "wof:repo": "whosonfirst-data-admin-gb",
    "wof:superseded_by": [],
    "wof:supersedes": [
      1360791511
    ],
    "wof:tags": []
  },
  "bbox": [
    -1.483412,
    54.981041,
    -1.483412,
    54.981041
  ],
  "geometry": {"type":"Point","coordinates":[-1.483412,54.981041]}
}
