{
  "id": 85787165,
  "type": "Feature",
  "properties": {
    "edtf:cessation": "",
    "edtf:inception": "",
    "geom:area": 0.0002688123890000628,
    "geom:area_square_m": 2065178.068455,
    "geom:bbox": "-0.178528,51.578952,-0.153809,51.600020",
    "geom:latitude": 51.5893335869475,
    "geom:longitude": -0.16525609160343688,
    "gn:id": "",
    "iso:country": "GB",
    "lbl:latitude": 51.587469,
    "lbl:longitude": -0.171565,
    "lbl:max_zoom": 18,
    "mps:latitude": 51.589323,
    "mps:longitude": -0.166096,
    "mz:hierarchy_label": 1,
    "mz:is_current": -1,
    "mz:is_funky": 0,
    "mz:is_hard_boundary": 0,
    "mz:is_landuse_aoi": 0,
    "mz:is_official": 0,
    "mz:max_zoom": 18,
    "mz:min_zoom": 14,
    "mz:tier_locality": 7,
    "mz:tier_metro": 1,
    "name:ast_x_preferred": [
      "East Finchley"
    ],
    "name:azb_x_preferred": [
      "فینچلی شرقی"
    ],
    "name:bel_x_preferred": [
      "Іст-Фінчлі"
    ],
    "name:bul_x_preferred": [
      "Ийст Финчли"
    ],
    "name:cat_x_preferred": [
      "East Finchley"
    ],
    "name:eng_x_preferred": [
      "East Finchley"
    ],
    "name:eng_x_variant": [
      "E Finchley"
    ],
    "name:fas_x_preferred": [
      "فینچلی شرقی"
    ],
    "name:fra_x_preferred": [
      "East Finchley"
    ],
    "name:gle_x_preferred": [
      "Finchley Thoir"
    ],
    "name:heb_x_preferred": [
      "מזרח פינצ'לי"
    ],
    "name:hin_x_preferred": [
      "ईस्ट फ़िंचली"
    ],
    "name:hye_x_preferred": [
      "Արևելյան Ֆինչլի"
    ],
    "name:ita_x_preferred": [
      "East Finchley"
    ],
    "name:jpn_x_preferred": [
      "イースト・フィンチリー"
    ],
    "name:lld_x_preferred": [
      "East Finchley"
    ],
    "name:nld_x_preferred": [
      "East Finchley"
    ],
    "name:pol_x_preferred": [
      "East Finchley"
    ],
    "name:rus_x_preferred": [
      "Ист-Финчли"
    ],
    "name:sco_x_preferred": [
      "Dysart"
    ],
    "name:slv_x_preferred": [
      "East Finchley"
    ],
    "name:spa_x_preferred": [
      "East Finchley"
    ],
    "name:swe_x_preferred": [
      "East Finchley"
    ],
    "name:ukr_x_preferred": [
      "Іст-Фінчлі"
    ],
    "name:urd_x_preferred": [
      "ایسٹ فنچلے"
    ],
    "name:zho_x_preferred": [
      "東芬奇利"
    ],
    "src:geom": "quattroshapes",
    "src:geom_alt": [
      "quattroshapes_pg"
    ],
    "src:lbl_centroid": "mz",
    "src:population": "wikidata",
    "wof:belongsto": [
      1880762729,
      102191581,
      1880762179,
      85633159,
      404227469,
      101750367,
      136253055,
      1158857285,
      1880771825
    ],
    "wof:breaches": [],
    "wof:concordances": {
      "fct:id": "0ab4efcc-8f76-11e1-848f-cfd5bf3ef515",
      "gn:id": 2650444,
      "gp:id": 18964,
      "qs_pg:id": 281105,
      "wd:id": "Q149654",
      "wk:page": "East Finchley"
    },
    "wof:country": "GB",
    "wof:created": 1765391022,
    "wof:geom_alt": [
      "quattroshapes_pg"
    ],
    "wof:geomhash": "c1c50338b3e4e929c25792bfee149eed",
    "wof:hierarchy": [
      {
        "borough_id": 1158857285,
        "continent_id": 102191581,
        "country_id": 85633159,
        "county_id": 1880771825,
        "empire_id": 136253055,
        "locality_id": 101750367,
        "macrocounty_id": 1880762179,
        "macroregion_id": 404227469,
        "neighbourhood_id": 85787165,
        "region_id": 1880762729
      }
    ],
    "wof:id": 85787165,
    "wof:lang": [
      "eng"
    ],
    "wof:lastmodified": 1765391022,
    "wof:name": "East Finchley",
    "wof:parent_id": 1158857285,
    "wof:placetype": "neighbourhood",
    "wof:population": 15989,
    "wof:population_rank": 6,
    "wof:repo": "whosonfirst-data-admin-gb",
    "wof:superseded_by": [],
    "wof:supersedes": [],
    "wof:tags": []
  },
  "bbox": [
    -0.178528,
    51.578952,
    -0.153809,
    51.60002
  ],
  "geometry": {"type":"Polygon","coordinates":[[[-0.166114,51.599254],[-0.165757,51.599062],[-0.165162,51.599254],[-0.164128,51.599587],[-0.163368,51.597548],[-0.163273,51.597294],[-0.164795,51.596244],[-0.164795,51.594135],[-0.162048,51.594135],[-0.162048,51.592429],[-0.159302,51.592429],[-0.158703,51.592429],[-0.158588,51.591871],[-0.156555,51.590781],[-0.156555,51.590723],[-0.156555,51.589016],[-0.156555,51.58731],[-0.153809,51.58731],[-0.153809,51.583897],[-0.153809,51.58219],[-0.153809,51.580483],[-0.153809,51.578952],[-0.156555,51.580425],[-0.159302,51.578952],[-0.162048,51.580425],[-0.162048,51.580483],[-0.162048,51.58219],[-0.165393,51.58219],[-0.165747,51.583897],[-0.170288,51.583897],[-0.170288,51.583897],[-0.170288,51.585778],[-0.173035,51.587251],[-0.173035,51.58731],[-0.173035,51.589016],[-0.173035,51.590723],[-0.175781,51.590723],[-0.176495,51.589574],[-0.178528,51.590664],[-0.178528,51.590723],[-0.178528,51.592429],[-0.178528,51.594135],[-0.178528,51.594193],[-0.176495,51.595284],[-0.17638,51.595841],[-0.175781,51.595841],[-0.173035,51.595841],[-0.173035,51.597548],[-0.170288,51.597548],[-0.170288,51.599254],[-0.168017,51.599254],[-0.167542,51.60002],[-0.166114,51.599254]]]}
}
