{
  "id": 101872621,
  "type": "Feature",
  "properties": {
    "edtf:cessation": "",
    "edtf:inception": "",
    "geom:area": 0,
    "geom:area_square_m": 0,
    "geom:bbox": "-5.416034,55.863214,-5.416034,55.863214",
    "geom:latitude": 55.863214,
    "geom:longitude": -5.416034,
    "iso:country": "GB",
    "lbl:bbox": "-5.436034,55.843214,-5.396034,55.883214",
    "lbl:latitude": 55.863214,
    "lbl:longitude": -5.416034,
    "lbl:max_zoom": 18,
    "lbl:min_zoom": 13.5,
    "mps:latitude": 55.863214,
    "mps:longitude": -5.416034,
    "mz:hierarchy_label": 1,
    "mz:is_current": 1,
    "mz:min_zoom": 12,
    "name:ceb_x_preferred": [
      "Tarbert"
    ],
    "name:cym_x_preferred": [
      "Tarbert"
    ],
    "name:deu_x_preferred": [
      "Tarbert"
    ],
    "name:eng_x_preferred": [
      "Tarbert"
    ],
    "name:eus_x_preferred": [
      "Tarbert"
    ],
    "name:fas_x_preferred": [
      "تاربرت"
    ],
    "name:fra_x_preferred": [
      "Tarbert"
    ],
    "name:gla_x_preferred": [
      "Tairbeart Loch Fìne"
    ],
    "name:gle_x_preferred": [
      "An Tairbeart"
    ],
    "name:glg_x_preferred": [
      "Tarbert"
    ],
    "name:jpn_x_preferred": [
      "ターバート"
    ],
    "name:nld_x_preferred": [
      "Tarbert"
    ],
    "name:nno_x_preferred": [
      "Tarbert"
    ],
    "name:nob_x_preferred": [
      "Tarbert"
    ],
    "name:nor_x_preferred": [
      "Tarbert"
    ],
    "name:pol_x_preferred": [
      "Tarbert"
    ],
    "name:spa_x_preferred": [
      "Tarbert"
    ],
    "name:swe_x_preferred": [
      "Tarbert"
    ],
    "name:zho_x_preferred": [
      "塔伯特"
    ],
    "qs:a0": "United Kingdom",
    "qs:a1": "*Argyll and Bute",
    "qs:a1_lc": "GB11QD0000",
    "qs:a1r": "0Scotland",
    "qs:a1r_lc": "GB11000000",
    "qs:adm0": "United Kingdom",
    "qs:id": 0,
    "qs:la_lc": "*",
    "qs:level": "locality",
    "qs:loc": "Tarbert",
    "qs:loc_alt": "Tarbert",
    "qs:pop": 0,
    "qs:source": "RCustom EuroGlobalMap + UMZ Urban Polygons + Geonames + GeoPlanet",
    "qs:type": "buffered point",
    "src:geom": "whosonfirst",
    "src:geom_alt": [
      "quattroshapes_pg",
      "quattroshapes"
    ],
    "src:geom_via": "quattroshapes",
    "src:lbl_centroid": "mapshaper",
    "src:population": "wikidata",
    "wd:latitude": 55.8628,
    "wd:longitude": -5.41143,
    "wd:wordcount": 1237,
    "wof:belongsto": [
      1880772977,
      102191581,
      85633159,
      1880762047,
      404227471,
      136253055,
      1360698863
    ],
    "wof:breaches": [],
    "wof:concordances": {
      "gn:id": 2636241,
      "gp:id": 36968,
      "qs_pg:id": 319894,
      "wd:id": "Q3130032",
      "wk:page": "Tarbert, Argyll and Bute"
    },
    "wof:concordances_alt": {
      "qs_pg:id": 1073853
    },
    "wof:country": "GB",
    "wof:created": 1765384903,
    "wof:geom_alt": [
      "quattroshapes_pg",
      "quattroshapes"
    ],
    "wof:geomhash": "38996f90ab8caf4c0e9776a6b0c77abf",
    "wof:hierarchy": [
      {
        "continent_id": 102191581,
        "country_id": 85633159,
        "county_id": 1360698863,
        "empire_id": 136253055,
        "locality_id": 101872621,
        "macrocounty_id": 1880762047,
        "macroregion_id": 404227471,
        "region_id": 1880772977
      }
    ],
    "wof:id": 101872621,
    "wof:lastmodified": 1765384903,
    "wof:name": "Tarbert",
    "wof:parent_id": 1360698863,
    "wof:placetype": "locality",
    "wof:population": 1130,
    "wof:population_rank": 3,
    "wof:repo": "whosonfirst-data-admin-gb",
    "wof:superseded_by": [],
    "wof:supersedes": [],
    "wof:tags": []
  },
  "bbox": [
    -5.416034,
    55.863214,
    -5.416034,
    55.863214
  ],
  "geometry": {"type":"Point","coordinates":[-5.416034,55.863214]}
}
