{
  "id": 85789513,
  "type": "Feature",
  "properties": {
    "edtf:cessation": "",
    "edtf:inception": "",
    "geom:area": 0.0005648574670000424,
    "geom:area_square_m": 4337502.236075,
    "geom:bbox": "-0.453617,51.595546,-0.409989,51.621427",
    "geom:latitude": 51.61037332996311,
    "geom:longitude": -0.43074268214894323,
    "gn:latitude": 51.61162,
    "gn:longitude": -0.42454,
    "iso:country": "GB",
    "lbl:latitude": 51.613382,
    "lbl:longitude": -0.427101,
    "lbl:max_zoom": 18,
    "mps:latitude": 51.612899,
    "mps:longitude": -0.425289,
    "mz:hierarchy_label": 1,
    "mz:is_current": -1,
    "mz:is_funky": 0,
    "mz:is_hard_boundary": 0,
    "mz:is_landuse_aoi": 0,
    "mz:is_official": 0,
    "mz:max_zoom": 18,
    "mz:min_zoom": 13,
    "mz:tier_locality": 7,
    "mz:tier_metro": 1,
    "name:ara_x_preferred": [
      "نورثوود"
    ],
    "name:ast_x_preferred": [
      "Northwood"
    ],
    "name:azb_x_preferred": [
      "نورث‌وود"
    ],
    "name:aze_x_preferred": [
      "Nortvud"
    ],
    "name:cat_x_preferred": [
      "Northwood"
    ],
    "name:ces_x_preferred": [
      "Northwood"
    ],
    "name:deu_x_preferred": [
      "Northwood"
    ],
    "name:eng_x_preferred": [
      "Northwood"
    ],
    "name:est_x_preferred": [
      "Northwood"
    ],
    "name:fas_x_preferred": [
      "نورث‌وود، لندن"
    ],
    "name:fas_x_variant": [
      "نورث‌وود"
    ],
    "name:fra_x_preferred": [
      "Northwood"
    ],
    "name:gle_x_preferred": [
      "Northwood"
    ],
    "name:heb_x_preferred": [
      "נורת'ווד"
    ],
    "name:hin_x_preferred": [
      "नॉर्थवुड"
    ],
    "name:ita_x_preferred": [
      "Northwood"
    ],
    "name:jpn_x_preferred": [
      "ノースウッド"
    ],
    "name:lld_x_preferred": [
      "Northwood"
    ],
    "name:ltz_x_preferred": [
      "Northwood"
    ],
    "name:nld_x_preferred": [
      "Northwood"
    ],
    "name:nob_x_preferred": [
      "Northwood"
    ],
    "name:pol_x_preferred": [
      "Northwood"
    ],
    "name:por_x_preferred": [
      "Northwood"
    ],
    "name:rus_x_preferred": [
      "Нортвуд"
    ],
    "name:spa_x_preferred": [
      "Northwood"
    ],
    "name:swe_x_preferred": [
      "Northwood"
    ],
    "name:urd_x_preferred": [
      "نارتھووڈ"
    ],
    "name:zho_x_preferred": [
      "北林"
    ],
    "src:geom": "quattroshapes",
    "src:geom_alt": [
      "quattroshapes_pg"
    ],
    "src:lbl_centroid": "mz",
    "src:population": "wikidata",
    "wof:belongsto": [
      1880762729,
      102191581,
      1880762179,
      85633159,
      404227469,
      101750367,
      136253055,
      1158857261,
      1880771825
    ],
    "wof:breaches": [],
    "wof:concordances": {
      "gn:id": 2641216,
      "gp:id": 30650,
      "qs_pg:id": 1165348,
      "wd:id": "Q2090609",
      "wk:page": "Northwood, London"
    },
    "wof:country": "GB",
    "wof:created": 1765391133,
    "wof:geom_alt": [
      "quattroshapes_pg"
    ],
    "wof:geomhash": "1a5fc788b0aa1ce032a0cc5208aa4911",
    "wof:hierarchy": [
      {
        "borough_id": 1158857261,
        "continent_id": 102191581,
        "country_id": 85633159,
        "county_id": 1880771825,
        "empire_id": 136253055,
        "locality_id": 101750367,
        "macrocounty_id": 1880762179,
        "macroregion_id": 404227469,
        "neighbourhood_id": 85789513,
        "region_id": 1880762729
      }
    ],
    "wof:id": 85789513,
    "wof:lang": [
      "eng"
    ],
    "wof:lastmodified": 1765391133,
    "wof:name": "Northwood",
    "wof:parent_id": 1158857261,
    "wof:placetype": "neighbourhood",
    "wof:population": 22047,
    "wof:population_rank": 7,
    "wof:repo": "whosonfirst-data-admin-gb",
    "wof:superseded_by": [],
    "wof:supersedes": [],
    "wof:tags": []
  },
  "bbox": [
    -0.453617,
    51.595546,
    -0.409989,
    51.621427
  ],
  "geometry": {"type":"Polygon","coordinates":[[[-0.417212,51.616224],[-0.415071,51.615075],[-0.413276,51.615297],[-0.411021,51.614087],[-0.410495,51.6129],[-0.409989,51.611001],[-0.411987,51.607783],[-0.411987,51.607783],[-0.412571,51.606843],[-0.415524,51.606164],[-0.415577,51.606077],[-0.416003,51.604708],[-0.41748,51.603519],[-0.417987,51.603111],[-0.420335,51.604372],[-0.421049,51.604755],[-0.422238,51.604372],[-0.422974,51.604135],[-0.423219,51.604372],[-0.428467,51.604372],[-0.428467,51.604372],[-0.429526,51.606077],[-0.432901,51.606077],[-0.43396,51.604372],[-0.43396,51.604372],[-0.434544,51.603432],[-0.43396,51.602492],[-0.433008,51.60096],[-0.433362,51.599254],[-0.433008,51.597548],[-0.432655,51.595841],[-0.433084,51.595546],[-0.43396,51.596016],[-0.436707,51.59749],[-0.439453,51.596016],[-0.440405,51.597548],[-0.442625,51.601122],[-0.441781,51.603024],[-0.44199,51.603698],[-0.444946,51.606077],[-0.453617,51.606077],[-0.450439,51.611195],[-0.450439,51.611195],[-0.450439,51.611195],[-0.44938,51.6129],[-0.446005,51.6129],[-0.444946,51.614606],[-0.444946,51.614606],[-0.440404,51.614606],[-0.439453,51.616138],[-0.439453,51.618016],[-0.439453,51.618017],[-0.43396,51.618017],[-0.43396,51.621427],[-0.43396,51.621427],[-0.428467,51.621427],[-0.422974,51.621427],[-0.422974,51.621427],[-0.422391,51.620488],[-0.419437,51.619808],[-0.417212,51.616224]]]}
}
