{
  "id": 1360801195,
  "type": "Feature",
  "properties": {
    "edtf:cessation": "",
    "edtf:inception": "",
    "geom:area": 0,
    "geom:area_square_m": 0,
    "geom:bbox": "-1.035120,54.039990,-1.035120,54.039990",
    "geom:latitude": 54.03999,
    "geom:longitude": -1.03512,
    "gn:country": "GB",
    "gn:fcode": "PPL",
    "gn:population": 5601,
    "iso:country": "GB",
    "lbl:bbox": "-1.04012,54.03499,-1.03012,54.04499",
    "lbl:latitude": 54.03999,
    "lbl:longitude": -1.03512,
    "lbl:max_zoom": 18,
    "mz:hierarchy_label": 1,
    "mz:is_current": 1,
    "mz:min_zoom": 15,
    "mz:note": "Quattroshapes Point Gazetteer import 20170519",
    "name:ben_x_preferred": [
      "স্ট্রেনস্যাল ও টোথ্রপ"
    ],
    "name:bul_x_preferred": [
      "Стренсал"
    ],
    "name:ceb_x_preferred": [
      "Strensall"
    ],
    "name:deu_x_preferred": [
      "Strensall"
    ],
    "name:eng_x_preferred": [
      "Strensall"
    ],
    "name:fra_x_preferred": [
      "Strensall with Towthorpe"
    ],
    "name:gle_x_preferred": [
      "Strensall"
    ],
    "name:guj_x_preferred": [
      "સ્ટ્રેનસોલ"
    ],
    "name:jpn_x_preferred": [
      "ストレンサル・ウィズ・タウンソープ"
    ],
    "name:kan_x_preferred": [
      "ಸ್ಟ್ರೆನ್ಸಲ್"
    ],
    "name:kor_x_preferred": [
      "스트렌셀 위드 토우토프"
    ],
    "name:lit_x_preferred": [
      "Strensalas"
    ],
    "name:lld_x_preferred": [
      "Strensall"
    ],
    "name:nld_x_preferred": [
      "Strensall"
    ],
    "name:pol_x_preferred": [
      "Strensall"
    ],
    "name:por_x_preferred": [
      "Strensall"
    ],
    "name:rus_x_preferred": [
      "Стренсол"
    ],
    "name:spa_x_preferred": [
      "Strensall"
    ],
    "name:swe_x_preferred": [
      "Strensall"
    ],
    "name:tam_x_preferred": [
      "ஸ்ட்ரென்சல்"
    ],
    "name:tel_x_preferred": [
      "స్త్రెంసాల్"
    ],
    "name:tur_x_preferred": [
      "Strensall"
    ],
    "name:urd_x_preferred": [
      "اسٹرینسال"
    ],
    "qs_pg:aaroncc": "GB",
    "qs_pg:gn_country": "GB",
    "qs_pg:gn_fcode": "PPL",
    "qs_pg:gn_id": 2636667,
    "qs_pg:gn_pop": 5601,
    "qs_pg:name": "Strensall",
    "qs_pg:name_adm0": "United Kingdom",
    "qs_pg:name_adm1": "England",
    "qs_pg:photos": 326,
    "qs_pg:photos_1k": 66,
    "qs_pg:photos_9k": 1,
    "qs_pg:photos_9r": 5,
    "qs_pg:photos_all": 326,
    "qs_pg:photos_sr": 5,
    "qs_pg:pop_sr": 5,
    "qs_pg:qs_id": 1198346,
    "qs_pg:qs_pg_placetype": "locality",
    "qs_pg:qs_pg_placetype_gp": "Town",
    "qs_pg:woe_adm0": 23424975,
    "qs_pg:woe_id": 36474,
    "src:geom": "qs_pg",
    "src:lbl_centroid": "qs_pg",
    "src:population": "wikidata",
    "woe:adm0_id": 23424975,
    "woe:name_adm0": "United Kingdom",
    "woe:name_adm1": "England",
    "woe:placetype": "Town",
    "wof:belongsto": [
      1880772891,
      102191581,
      1880762011,
      404436345,
      85633159,
      404227469,
      1360758475,
      136253055,
      1360698977
    ],
    "wof:breaches": [],
    "wof:concordances": {
      "gn:id": 2636667,
      "gp:id": 36474,
      "qs_pg:id": 1198346,
      "wd:id": "Q2378275"
    },
    "wof:country": "GB",
    "wof:created": 1497298487,
    "wof:geomhash": "2de31e2cf665fb61aaf7c434b91c40a8",
    "wof:hierarchy": [
      {
        "continent_id": 102191581,
        "country_id": 85633159,
        "county_id": 1360698977,
        "empire_id": 136253055,
        "localadmin_id": 404436345,
        "locality_id": 1360758475,
        "macrocounty_id": 1880762011,
        "macroregion_id": 404227469,
        "neighbourhood_id": 1360801195,
        "region_id": 1880772891
      }
    ],
    "wof:id": 1360801195,
    "wof:lastmodified": 1765390096,
    "wof:name": "Strensall",
    "wof:parent_id": 1360758475,
    "wof:placetype": "neighbourhood",
    "wof:population": 3815,
    "wof:population_rank": 4,
    "wof:repo": "whosonfirst-data-admin-gb",
    "wof:superseded_by": [],
    "wof:supersedes": [
      1125979383
    ],
    "wof:tags": []
  },
  "bbox": [
    -1.03512,
    54.03999,
    -1.03512,
    54.03999
  ],
  "geometry": {"type":"Point","coordinates":[-1.03512,54.03999]}
}
