{
  "id": 85860247,
  "type": "Feature",
  "properties": {
    "edtf:cessation": "",
    "edtf:inception": "",
    "geom:area": 0.000916265727500041,
    "geom:area_square_m": 7045569.70562,
    "geom:bbox": "-0.362549,51.529251,-0.320526,51.563412",
    "geom:latitude": 51.548279414414075,
    "geom:longitude": -0.34264336019768876,
    "gn:id": "",
    "iso:country": "GB",
    "lbl:latitude": 51.534554,
    "lbl:longitude": -0.348682,
    "lbl:max_zoom": 18,
    "mps:latitude": 51.549241,
    "mps:longitude": -0.343044,
    "mz:hierarchy_label": 1,
    "mz:is_current": 1,
    "mz:is_funky": 0,
    "mz:is_hard_boundary": 0,
    "mz:is_landuse_aoi": 0,
    "mz:is_official": 0,
    "mz:max_zoom": 18,
    "mz:min_zoom": 13,
    "mz:tier_locality": 7,
    "mz:tier_metro": 1,
    "name:azb_x_preferred": [
      "قرینفورد"
    ],
    "name:bul_x_preferred": [
      "Гренфорд"
    ],
    "name:ceb_x_preferred": [
      "Greenford"
    ],
    "name:ces_x_preferred": [
      "Greenford"
    ],
    "name:cym_x_preferred": [
      "Greenford"
    ],
    "name:deu_x_preferred": [
      "Greenford"
    ],
    "name:eng_x_preferred": [
      "Greenford Green"
    ],
    "name:eng_x_variant": [
      "Greenford"
    ],
    "name:eus_x_preferred": [
      "Greenford"
    ],
    "name:fas_x_preferred": [
      "گرینفورد"
    ],
    "name:fra_x_preferred": [
      "Greenford"
    ],
    "name:gle_x_preferred": [
      "Greenford"
    ],
    "name:heb_x_preferred": [
      "גרינפורד"
    ],
    "name:hin_x_preferred": [
      "ग्रीनफ़र्ड"
    ],
    "name:ita_x_preferred": [
      "Greenford"
    ],
    "name:jpn_x_preferred": [
      "グリーンフォード"
    ],
    "name:lat_x_preferred": [
      "Greneford Magna"
    ],
    "name:nld_x_preferred": [
      "Greenford"
    ],
    "name:nob_x_preferred": [
      "Greenford"
    ],
    "name:nor_x_preferred": [
      "Greenford"
    ],
    "name:pol_x_preferred": [
      "Greenford"
    ],
    "name:ron_x_preferred": [
      "Greenford"
    ],
    "name:rus_x_preferred": [
      "Гринфорд"
    ],
    "name:spa_x_preferred": [
      "Greenford"
    ],
    "name:swe_x_preferred": [
      "Greenford"
    ],
    "name:urd_x_preferred": [
      "گرینفورڈ"
    ],
    "name:zho_x_preferred": [
      "格林福德"
    ],
    "qs:gn_adm0_cc": "GB",
    "qs:gn_id": 0,
    "qs:gn_local": 2643743,
    "qs:local_max": 40697,
    "qs:local_sum": 1675717,
    "qs:localhoods": 643,
    "qs:name": "Greenford Green",
    "qs:name_adm0": "United Kingdom",
    "qs:name_adm1": "England",
    "qs:name_adm2": "Greater London",
    "qs:name_lau": "London Borough of Ealing",
    "qs:name_local": "London",
    "qs:photo_max": 130,
    "qs:photo_sum": 1188,
    "qs:placetype": "Suburb",
    "qs:quad_count": 82,
    "qs:woe_adm0": 23424975,
    "qs:woe_adm1": 24554868,
    "qs:woe_adm2": 23416974,
    "qs:woe_funk": "Parented by a neighborhood",
    "qs:woe_lau": 12695826,
    "qs:woe_local": 44418,
    "qs:woe_ver": "7.10.0",
    "src:geom": "quattroshapes",
    "src:geom_alt": [
      "quattroshapes_pg"
    ],
    "src:lbl_centroid": "mz",
    "src:population": "wikidata",
    "wd:wordcount": 795,
    "wof:belongsto": [
      1880762729,
      102191581,
      1880762179,
      85633159,
      404227469,
      101750367,
      136253055,
      1158857265,
      1880771825
    ],
    "wof:breaches": [],
    "wof:concordances": {
      "gn:id": 2647972,
      "gp:id": 21794,
      "qs_pg:id": 335815,
      "wd:id": "Q83475"
    },
    "wof:concordances_alt": {
      "qs_pg:id": 1127628
    },
    "wof:country": "GB",
    "wof:created": 1765391320,
    "wof:geom_alt": [
      "quattroshapes_pg"
    ],
    "wof:geomhash": "c7f7001cba7b25dfc93c9c9efd79ff8a",
    "wof:hierarchy": [
      {
        "borough_id": 1158857265,
        "continent_id": 102191581,
        "country_id": 85633159,
        "county_id": 1880771825,
        "empire_id": 136253055,
        "locality_id": 101750367,
        "macrocounty_id": 1880762179,
        "macroregion_id": 404227469,
        "neighbourhood_id": 85860247,
        "region_id": 1880762729
      }
    ],
    "wof:id": 85860247,
    "wof:lang": [
      "eng"
    ],
    "wof:lastmodified": 1765391320,
    "wof:name": "Greenford",
    "wof:parent_id": 1158857265,
    "wof:placetype": "neighbourhood",
    "wof:population": 46787,
    "wof:population_rank": 7,
    "wof:repo": "whosonfirst-data-admin-gb",
    "wof:superseded_by": [],
    "wof:supersedes": [],
    "wof:tags": []
  },
  "bbox": [
    -0.362549,
    51.529251,
    -0.320526,
    51.563412
  ],
  "geometry": {"type":"Polygon","coordinates":[[[-0.324097,51.548043],[-0.324097,51.546335],[-0.326843,51.546335],[-0.326843,51.544627],[-0.32959,51.544627],[-0.32959,51.542919],[-0.332336,51.542919],[-0.332336,51.541211],[-0.333161,51.539885],[-0.334351,51.539502],[-0.335083,51.539267],[-0.335083,51.537617],[-0.335083,51.536086],[-0.33783,51.536086],[-0.33783,51.534377],[-0.340576,51.534377],[-0.340576,51.532669],[-0.341529,51.532669],[-0.341529,51.532669],[-0.346069,51.532669],[-0.346069,51.529251],[-0.346069,51.529251],[-0.35061,51.529251],[-0.35061,51.529251],[-0.351562,51.529251],[-0.351562,51.53096],[-0.354309,51.53096],[-0.357654,51.53096],[-0.358008,51.532669],[-0.358008,51.532669],[-0.357056,51.5342],[-0.357056,51.536086],[-0.357056,51.536086],[-0.357056,51.539502],[-0.357056,51.539502],[-0.357056,51.541388],[-0.359802,51.54286],[-0.359802,51.542919],[-0.359802,51.544627],[-0.360626,51.545952],[-0.361817,51.546335],[-0.362549,51.546335],[-0.362549,51.54657],[-0.362549,51.549751],[-0.362549,51.549751],[-0.362549,51.553167],[-0.362549,51.553167],[-0.357056,51.553167],[-0.357056,51.553167],[-0.356396,51.554227],[-0.356342,51.554668],[-0.356213,51.554874],[-0.355935,51.555769],[-0.354419,51.556582],[-0.351563,51.558113],[-0.351563,51.558466],[-0.351562,51.559997],[-0.348816,51.559997],[-0.348816,51.561705],[-0.346069,51.561705],[-0.346069,51.563412],[-0.345117,51.563412],[-0.340576,51.563412],[-0.335083,51.563412],[-0.32959,51.563412],[-0.324097,51.563412],[-0.324097,51.563412],[-0.324097,51.559997],[-0.324097,51.559997],[-0.324097,51.556582],[-0.324097,51.556582],[-0.324097,51.553167],[-0.324097,51.553167],[-0.324097,51.551282],[-0.32124,51.549751],[-0.320526,51.549368],[-0.32135,51.548043],[-0.324097,51.548043]]]}
}
