{
  "id": 1125812149,
  "type": "Feature",
  "properties": {
    "edtf:cessation": "",
    "edtf:inception": "",
    "geom:area": 0,
    "geom:area_square_m": 0,
    "geom:bbox": "-3.914200,55.802430,-3.914200,55.802430",
    "geom:latitude": 55.80243,
    "geom:longitude": -3.9142,
    "gn:country": "GB",
    "gn:fcode": "PPL",
    "gn:population": 2733,
    "iso:country": "GB",
    "lbl:bbox": "-3.9342,55.78243,-3.8942,55.82243",
    "lbl:latitude": 55.80243,
    "lbl:longitude": -3.9142,
    "lbl:max_zoom": 15,
    "lbl:min_zoom": 11.5,
    "mz:hierarchy_label": 1,
    "mz:is_current": 1,
    "mz:min_zoom": 11,
    "mz:note": "Quattroshapes Point Gazetteer import 20170519",
    "name:ara_x_preferred": [
      "كليلاند"
    ],
    "name:arz_x_preferred": [
      "كليلاند"
    ],
    "name:ceb_x_preferred": [
      "Cleland"
    ],
    "name:cym_x_preferred": [
      "Cleland"
    ],
    "name:eng_x_preferred": [
      "Cleland"
    ],
    "name:eus_x_preferred": [
      "Cleland"
    ],
    "name:fra_x_preferred": [
      "Cleland"
    ],
    "name:gle_x_preferred": [
      "Clealand"
    ],
    "name:jpn_x_preferred": [
      "クリーランド"
    ],
    "name:nld_x_preferred": [
      "Cleland"
    ],
    "name:nno_x_preferred": [
      "Cleland"
    ],
    "name:nob_x_preferred": [
      "Cleland"
    ],
    "name:spa_x_preferred": [
      "Cleland"
    ],
    "name:swe_x_preferred": [
      "Cleland"
    ],
    "qs_pg:aaroncc": "GB",
    "qs_pg:gn_country": "GB",
    "qs_pg:gn_fcode": "PPL",
    "qs_pg:gn_id": 2652877,
    "qs_pg:gn_pop": 2733,
    "qs_pg:name": "Cleland",
    "qs_pg:name_adm0": "United Kingdom",
    "qs_pg:name_adm1": "Scotland",
    "qs_pg:photos": 214,
    "qs_pg:photos_1k": 43,
    "qs_pg:photos_9k": 1,
    "qs_pg:photos_9r": 4,
    "qs_pg:photos_all": 214,
    "qs_pg:photos_sr": 4,
    "qs_pg:pop_sr": 4,
    "qs_pg:qs_id": 234094,
    "qs_pg:qs_pg_placetype": "locality",
    "qs_pg:qs_pg_placetype_gp": "Town",
    "qs_pg:woe_adm0": 23424975,
    "qs_pg:woe_id": 16268,
    "src:geom": "qs_pg",
    "src:lbl_centroid": "qs_pg",
    "src:population": "wikidata",
    "woe:adm0_id": 23424975,
    "woe:name_adm0": "United Kingdom",
    "woe:name_adm1": "Scotland",
    "woe:placetype": "Town",
    "wof:belongsto": [
      1880773061,
      102191581,
      85633159,
      1880762099,
      404227471,
      136253055,
      1360698949
    ],
    "wof:breaches": [],
    "wof:concordances": {
      "gn:id": 2652877,
      "gp:id": 16268,
      "qs_pg:id": 234094,
      "wd:id": "Q3439048"
    },
    "wof:country": "GB",
    "wof:created": 1497291702,
    "wof:geomhash": "7e72beb09c2f22eb4638253e53b9014e",
    "wof:hierarchy": [
      {
        "continent_id": 102191581,
        "country_id": 85633159,
        "county_id": 1360698949,
        "empire_id": 136253055,
        "locality_id": 1125812149,
        "macrocounty_id": 1880762099,
        "macroregion_id": 404227471,
        "region_id": 1880773061
      }
    ],
    "wof:id": 1125812149,
    "wof:lastmodified": 1765385660,
    "wof:name": "Cleland",
    "wof:parent_id": 1360698949,
    "wof:placetype": "locality",
    "wof:population": 3130,
    "wof:population_rank": 4,
    "wof:repo": "whosonfirst-data-admin-gb",
    "wof:superseded_by": [],
    "wof:supersedes": [],
    "wof:tags": []
  },
  "bbox": [
    -3.9142,
    55.80243,
    -3.9142,
    55.80243
  ],
  "geometry": {"type":"Point","coordinates":[-3.9142,55.80243]}
}
