{
  "id": 1343797499,
  "type": "Feature",
  "properties": {
    "edtf:cessation": "",
    "edtf:inception": "",
    "geom:area": 0,
    "geom:area_square_m": 0,
    "geom:bbox": "-4.175920,57.451250,-4.175920,57.451250",
    "geom:latitude": 57.45125,
    "geom:longitude": -4.17592,
    "gn:admin1_code": "SCT",
    "gn:admin2_code": "V3",
    "gn:asciiname": "Milton of Leys",
    "gn:country_code": "GB",
    "gn:dem": 150,
    "gn:feature_class": "P",
    "gn:feature_code": "PPL",
    "gn:geonameid": 11592183,
    "gn:latitude": 57.45125,
    "gn:longitude": -4.17592,
    "gn:modification_date": "2017-06-14",
    "gn:name": "Milton of Leys",
    "gn:population": 1740,
    "gn:timezone": "Europe/London",
    "iso:country": "GB",
    "lbl:bbox": "-4.19592,57.43125,-4.15592,57.47125",
    "lbl:max_zoom": 16,
    "lbl:min_zoom": 12,
    "mz:hierarchy_label": 1,
    "mz:is_current": -1,
    "mz:min_zoom": 11,
    "name:gle_x_preferred": [
      "Baile Muilinn an Leigheis"
    ],
    "name:spa_x_preferred": [
      "Milton of Leys"
    ],
    "src:geom": "geonames",
    "src:population": "wikidata",
    "wof:belongsto": [
      1880762005,
      1360699045
    ],
    "wof:breaches": [],
    "wof:concordances": {
      "gn:id": 11592183,
      "wk:page": "Milton_of_Leys"
    },
    "wof:country": "GB",
    "wof:created": 1765389035,
    "wof:geomhash": "7ffea36d789b7a4b0971d13d62834cd8",
    "wof:hierarchy": [
      {
        "continent_id": -1,
        "country_id": -1,
        "county_id": 1360699045,
        "locality_id": 1343797499,
        "macrocounty_id": 1880762005,
        "region_id": -1
      }
    ],
    "wof:id": 1343797499,
    "wof:lastmodified": 1765389035,
    "wof:name": "Milton of Leys",
    "wof:parent_id": 1360699045,
    "wof:placetype": "locality",
    "wof:population": 2860,
    "wof:population_rank": 4,
    "wof:repo": "whosonfirst-data-admin-gb",
    "wof:superseded_by": [],
    "wof:supersedes": [],
    "wof:tags": []
  },
  "bbox": [
    -4.17592,
    57.45125,
    -4.17592,
    57.45125
  ],
  "geometry": {"type":"Point","coordinates":[-4.17592,57.45125]}
}
