{
  "id": 1125977457,
  "type": "Feature",
  "properties": {
    "edtf:cessation": "",
    "edtf:inception": "",
    "geom:area": 0,
    "geom:area_square_m": 0,
    "geom:bbox": "-4.455670,55.922410,-4.455670,55.922410",
    "geom:latitude": 55.92241,
    "geom:longitude": -4.45567,
    "gn:country": "GB",
    "gn:fcode": "PPL",
    "gn:population": 3528,
    "iso:country": "GB",
    "lbl:bbox": "-4.47567,55.90241,-4.43567,55.94241",
    "lbl:latitude": 55.92241,
    "lbl:longitude": -4.45567,
    "lbl:max_zoom": 15,
    "lbl:min_zoom": 11.5,
    "mz:hierarchy_label": 1,
    "mz:is_current": 1,
    "mz:min_zoom": 11,
    "mz:note": "Quattroshapes Point Gazetteer import 20170519",
    "name:ben_x_preferred": [
      "কিলপ্যাট্রিক"
    ],
    "name:ceb_x_preferred": [
      "Old Kilpatrick"
    ],
    "name:cym_x_preferred": [
      "Old Kilpatrick"
    ],
    "name:deu_x_preferred": [
      "Old Kilpatrick"
    ],
    "name:eng_x_preferred": [
      "Old Kilpatrick"
    ],
    "name:eus_x_preferred": [
      "Old Kilpatrick"
    ],
    "name:fas_x_preferred": [
      "اولد کیلپتریک"
    ],
    "name:fra_x_preferred": [
      "Old Kilpatrick"
    ],
    "name:gle_x_preferred": [
      "Cille Phádraig"
    ],
    "name:gle_x_variant": [
      "Cill Phàdraig"
    ],
    "name:guj_x_preferred": [
      "ઓલ્ડ કિલપેટ્રિક"
    ],
    "name:ita_x_preferred": [
      "Old Kilpatrick"
    ],
    "name:jpn_x_preferred": [
      "オルド・キルパトリク"
    ],
    "name:kan_x_preferred": [
      "ಓಲ್ಡ್ ಕಿಲ್ಪಾಟ್ರಿಕ್"
    ],
    "name:kor_x_preferred": [
      "킨페트릭"
    ],
    "name:lit_x_preferred": [
      "Kilpatrikas"
    ],
    "name:nld_x_preferred": [
      "Old Kilpatrick"
    ],
    "name:por_x_preferred": [
      "Old Kilpatrick"
    ],
    "name:rus_x_preferred": [
      "Олд-Килпатрик"
    ],
    "name:sco_x_preferred": [
      "Auld Kilpatrick"
    ],
    "name:sco_x_variant": [
      "Auld Kilpaitrick"
    ],
    "name:spa_x_preferred": [
      "Old Kilpatrick"
    ],
    "name:swe_x_preferred": [
      "Old Kilpatrick"
    ],
    "name:tam_x_preferred": [
      "ஓல்ட் கில்பாட்ரிக்"
    ],
    "name:tam_x_variant": [
      "ஓல்ட்  கில்பாட்ரிக்"
    ],
    "name:tel_x_preferred": [
      "ఓల్డ్ కిల్పట్రిక్"
    ],
    "name:und_x_variant": [
      "West Kilpatrick"
    ],
    "name:urd_x_preferred": [
      "اولڈ کیلپاتریک"
    ],
    "name:zho_x_preferred": [
      "老基尔帕特里克"
    ],
    "qs_pg:aaroncc": "GB",
    "qs_pg:gn_country": "GB",
    "qs_pg:gn_fcode": "PPL",
    "qs_pg:gn_id": 2641014,
    "qs_pg:gn_pop": 3528,
    "qs_pg:name": "Old Kilpatrick",
    "qs_pg:name_adm0": "United Kingdom",
    "qs_pg:name_adm1": "Scotland",
    "qs_pg:photos": 549,
    "qs_pg:photos_1k": 111,
    "qs_pg:photos_9k": 2,
    "qs_pg:photos_9r": 5,
    "qs_pg:photos_all": 549,
    "qs_pg:photos_sr": 7,
    "qs_pg:pop_sr": 4,
    "qs_pg:qs_id": 235279,
    "qs_pg:qs_pg_placetype": "locality",
    "qs_pg:qs_pg_placetype_gp": "Town",
    "qs_pg:woe_adm0": 23424975,
    "qs_pg:woe_id": 30931,
    "src:geom": "qs_pg",
    "src:lbl_centroid": "qs_pg",
    "src:population": "wikidata",
    "woe:adm0_id": 23424975,
    "woe:name_adm0": "United Kingdom",
    "woe:name_adm1": "Scotland",
    "woe:placetype": "Town",
    "wof:belongsto": [
      1880772937,
      102191581,
      85633159,
      1880762097,
      404227471,
      136253055,
      1360698819
    ],
    "wof:breaches": [],
    "wof:concordances": {
      "gn:id": 2641014,
      "gp:id": 30931,
      "qs_pg:id": 235279,
      "wd:id": "Q2064938"
    },
    "wof:country": "GB",
    "wof:created": 1497298406,
    "wof:geomhash": "34d9d69e60f4e31ff8e0ec90b85c303f",
    "wof:hierarchy": [
      {
        "continent_id": 102191581,
        "country_id": 85633159,
        "county_id": 1360698819,
        "empire_id": 136253055,
        "locality_id": 1125977457,
        "macrocounty_id": 1880762097,
        "macroregion_id": 404227471,
        "region_id": 1880772937
      }
    ],
    "wof:id": 1125977457,
    "wof:lastmodified": 1765387232,
    "wof:name": "Old Kilpatrick",
    "wof:parent_id": 1360698819,
    "wof:placetype": "locality",
    "wof:population": 4680,
    "wof:population_rank": 4,
    "wof:repo": "whosonfirst-data-admin-gb",
    "wof:superseded_by": [],
    "wof:supersedes": [],
    "wof:tags": []
  },
  "bbox": [
    -4.45567,
    55.92241,
    -4.45567,
    55.92241
  ],
  "geometry": {"type":"Point","coordinates":[-4.45567,55.92241]}
}
