{
  "id": 85860057,
  "type": "Feature",
  "properties": {
    "edtf:cessation": "",
    "edtf:inception": "",
    "geom:area": 0.00002724983799997362,
    "geom:area_square_m": 210531.899169,
    "geom:bbox": "-0.145792,51.330612,-0.137329,51.334044",
    "geom:latitude": 51.33237129208749,
    "geom:longitude": -0.1413133742372647,
    "iso:country": "GB",
    "lbl:latitude": 51.335975,
    "lbl:longitude": -0.131493,
    "lbl:max_zoom": 18,
    "mps:latitude": 51.332328,
    "mps:longitude": -0.14131,
    "mz:hierarchy_label": 1,
    "mz:is_current": 1,
    "mz:is_funky": 0,
    "mz:is_hard_boundary": 0,
    "mz:is_landuse_aoi": 0,
    "mz:is_official": 0,
    "mz:max_zoom": 19,
    "mz:min_zoom": 15,
    "mz:tier_locality": 7,
    "mz:tier_metro": 1,
    "name:ceb_x_preferred": [
      "Woodmancote"
    ],
    "name:deu_x_preferred": [
      "Woodmancote"
    ],
    "name:eng_x_preferred": [
      "Woodcote"
    ],
    "name:eng_x_variant": [
      "Woodmancote"
    ],
    "name:fas_x_preferred": [
      "وودمانکوت"
    ],
    "name:fra_x_preferred": [
      "Woodmancote"
    ],
    "name:gle_x_preferred": [
      "Woodmancote"
    ],
    "name:ita_x_preferred": [
      "Woodmancote"
    ],
    "name:jpn_x_preferred": [
      "ウッドマンコート"
    ],
    "name:lld_x_preferred": [
      "Woodmancote"
    ],
    "name:nan_x_preferred": [
      "Woodmancote"
    ],
    "name:nld_x_preferred": [
      "Woodmancote"
    ],
    "name:pol_x_preferred": [
      "Woodmancote"
    ],
    "name:rus_x_preferred": [
      "Вудманкот"
    ],
    "name:swe_x_preferred": [
      "Woodmancote"
    ],
    "name:tur_x_preferred": [
      "Woodmancote"
    ],
    "name:zho_x_preferred": [
      "伍德曼考特"
    ],
    "reversegeo:latitude": 51.332328,
    "reversegeo:longitude": -0.14131,
    "src:geom": "mz",
    "src:geom_alt": [
      "quattroshapes_pg",
      "quattroshapes"
    ],
    "src:lbl_centroid": "mz",
    "src:population": "wikidata",
    "wof:belongsto": [
      1880762729,
      102191581,
      1880762179,
      85633159,
      404227469,
      101750367,
      136253055,
      1158857301,
      1880771825
    ],
    "wof:breaches": [],
    "wof:concordances": {
      "gn:id": 2633631,
      "gp:id": 20089341,
      "qs_pg:id": 202160,
      "wd:id": "Q2295573",
      "wk:page": "Woodmancote, West Sussex"
    },
    "wof:country": "GB",
    "wof:created": 1765391314,
    "wof:geom_alt": [
      "quattroshapes_pg",
      "quattroshapes"
    ],
    "wof:geomhash": "c8e326155ac59f530878debb2f86e8b5",
    "wof:hierarchy": [
      {
        "borough_id": 1158857301,
        "continent_id": 102191581,
        "country_id": 85633159,
        "county_id": 1880771825,
        "empire_id": 136253055,
        "locality_id": 101750367,
        "macrocounty_id": 1880762179,
        "macroregion_id": 404227469,
        "neighbourhood_id": 85860057,
        "region_id": 1880762729
      }
    ],
    "wof:id": 85860057,
    "wof:lang": [
      "eng"
    ],
    "wof:lastmodified": 1765391314,
    "wof:name": "Woodcote",
    "wof:parent_id": 1158857301,
    "wof:placetype": "neighbourhood",
    "wof:population": 557,
    "wof:population_rank": 2,
    "wof:repo": "whosonfirst-data-admin-gb",
    "wof:superseded_by": [],
    "wof:supersedes": [],
    "wof:tags": []
  },
  "bbox": [
    -0.145792,
    51.330612,
    -0.137329,
    51.334044
  ],
  "geometry": {"type":"MultiPolygon","coordinates":[[[[-0.142822,51.330612],[-0.14422,51.330612],[-0.144068,51.33067],[-0.145027,51.331397],[-0.145172,51.331543],[-0.145445,51.332103],[-0.145617,51.332431],[-0.145751,51.33293],[-0.145783,51.333342],[-0.145792,51.333383],[-0.144966,51.334044],[-0.142822,51.334044],[-0.142822,51.334044],[-0.137329,51.334044],[-0.137329,51.334044],[-0.137329,51.330612],[-0.137329,51.330612],[-0.142822,51.330612]]]]}
}
