{
  "id": 101873575,
  "type": "Feature",
  "properties": {
    "edtf:cessation": "",
    "edtf:inception": "",
    "geom:area": 0,
    "geom:area_square_m": 0,
    "geom:bbox": "-3.869906,56.065390,-3.869906,56.065390",
    "geom:latitude": 56.06539,
    "geom:longitude": -3.869906,
    "gn:population": 1752,
    "iso:country": "GB",
    "lbl:bbox": "-3.889906,56.04539,-3.849906,56.08539",
    "lbl:latitude": 56.06539,
    "lbl:longitude": -3.869905,
    "lbl:max_zoom": 16,
    "lbl:min_zoom": 12,
    "mps:latitude": 56.06539,
    "mps:longitude": -3.869905,
    "mz:hierarchy_label": 1,
    "mz:is_current": 1,
    "mz:min_zoom": 11,
    "name:ara_x_preferred": [
      "بلين"
    ],
    "name:arz_x_preferred": [
      "بلين"
    ],
    "name:bul_x_preferred": [
      "Плеан"
    ],
    "name:ceb_x_preferred": [
      "Plean"
    ],
    "name:cym_x_preferred": [
      "Plean"
    ],
    "name:deu_x_preferred": [
      "Plean"
    ],
    "name:eng_x_preferred": [
      "Plean"
    ],
    "name:eus_x_preferred": [
      "Plean"
    ],
    "name:fas_x_preferred": [
      "پلین"
    ],
    "name:fra_x_preferred": [
      "Plean"
    ],
    "name:jpn_x_preferred": [
      "プリーン"
    ],
    "name:nld_x_preferred": [
      "Plean"
    ],
    "name:spa_x_preferred": [
      "Plean"
    ],
    "name:swe_x_preferred": [
      "Plean"
    ],
    "qs:a0": "United Kingdom",
    "qs:a1": "*Stirling",
    "qs:a1_lc": "GB11RG0000",
    "qs:a1r": "0Scotland",
    "qs:a1r_lc": "GB11000000",
    "qs:adm0": "United Kingdom",
    "qs:id": 0,
    "qs:la_lc": "*",
    "qs:level": "locality",
    "qs:loc": "Plean",
    "qs:loc_alt": "Plean",
    "qs:pop": 0,
    "qs:source": "RCustom EuroGlobalMap + UMZ Urban Polygons + Geonames + GeoPlanet",
    "qs:type": "buffered point",
    "src:geom": "whosonfirst",
    "src:geom_alt": [
      "quattroshapes_pg",
      "quattroshapes"
    ],
    "src:geom_via": "quattroshapes",
    "src:lbl_centroid": "mapshaper",
    "src:population": "wikidata",
    "wd:latitude": 56.05,
    "wd:longitude": -3.86667,
    "wd:wordcount": 378,
    "wof:belongsto": [
      1880762131,
      1360699003
    ],
    "wof:breaches": [],
    "wof:concordances": {
      "gn:id": 2640219,
      "gp:id": 32153,
      "qs_pg:id": 140696,
      "wd:id": "Q1011227",
      "wk:page": "Plean"
    },
    "wof:country": "GB",
    "wof:created": 1765385075,
    "wof:geom_alt": [
      "quattroshapes_pg",
      "quattroshapes"
    ],
    "wof:geomhash": "43ca5cdeb67258d24362373a7efc27fd",
    "wof:hierarchy": [
      {
        "continent_id": -1,
        "country_id": -1,
        "county_id": 1360699003,
        "locality_id": 101873575,
        "macrocounty_id": 1880762131,
        "region_id": -1
      }
    ],
    "wof:id": 101873575,
    "wof:lastmodified": 1765385075,
    "wof:name": "Plean",
    "wof:parent_id": 1360699003,
    "wof:placetype": "locality",
    "wof:population": 1980,
    "wof:population_rank": 3,
    "wof:repo": "whosonfirst-data-admin-gb",
    "wof:superseded_by": [],
    "wof:supersedes": [],
    "wof:tags": []
  },
  "bbox": [
    -3.869906,
    56.06539,
    -3.869906,
    56.06539
  ],
  "geometry": {"type":"Point","coordinates":[-3.869906,56.06539]}
}
