{
  "id": 101872691,
  "type": "Feature",
  "properties": {
    "edtf:cessation": "",
    "edtf:inception": "",
    "geom:area": 0,
    "geom:area_square_m": 0,
    "geom:bbox": "-2.469439,56.829919,-2.469439,56.829919",
    "geom:latitude": 56.829919,
    "geom:longitude": -2.469439,
    "gn:population": 1916,
    "iso:country": "GB",
    "lbl:bbox": "-2.489439,56.809919,-2.449439,56.849919",
    "lbl:latitude": 56.829918,
    "lbl:longitude": -2.469439,
    "lbl:max_zoom": 16,
    "lbl:min_zoom": 12,
    "mps:latitude": 56.829918,
    "mps:longitude": -2.469439,
    "mz:hierarchy_label": 1,
    "mz:is_current": 1,
    "mz:min_zoom": 11,
    "name:ast_x_preferred": [
      "Laurencekirk"
    ],
    "name:bel_x_preferred": [
      "Лорэнскірк"
    ],
    "name:ben_x_preferred": [
      "মীন্স"
    ],
    "name:ceb_x_preferred": [
      "Laurencekirk"
    ],
    "name:ces_x_preferred": [
      "Laurencekirk"
    ],
    "name:cym_x_preferred": [
      "Laurencekirk"
    ],
    "name:deu_x_preferred": [
      "Laurencekirk"
    ],
    "name:eng_x_preferred": [
      "Laurencekirk"
    ],
    "name:eus_x_preferred": [
      "Laurencekirk"
    ],
    "name:fas_x_preferred": [
      "لورنسکیرک"
    ],
    "name:fra_x_preferred": [
      "Laurencekirk"
    ],
    "name:gla_x_preferred": [
      "Coinmheadh"
    ],
    "name:gla_x_variant": [
      "Eaglais Labhrainn"
    ],
    "name:gle_x_preferred": [
      "Coinmheadh"
    ],
    "name:gle_x_variant": [
      "Eaglais Labhrainn"
    ],
    "name:guj_x_preferred": [
      "લોરેન્સકિર્ક"
    ],
    "name:ita_x_preferred": [
      "Laurencekirk"
    ],
    "name:jpn_x_preferred": [
      "ミーアンズ"
    ],
    "name:jpn_x_variant": [
      "ローレンスカーク"
    ],
    "name:kan_x_preferred": [
      "ಲಾರೆನ್ಸ್ಕಿರ್ಕ್"
    ],
    "name:kor_x_preferred": [
      "로랑세커크"
    ],
    "name:lit_x_preferred": [
      "Mernsas"
    ],
    "name:nld_x_preferred": [
      "Laurencekirk"
    ],
    "name:pol_x_preferred": [
      "Laurencekirk"
    ],
    "name:por_x_preferred": [
      "Laurencekirk"
    ],
    "name:rus_x_preferred": [
      "Лоренскирк"
    ],
    "name:sco_x_preferred": [
      "Lowrenkirk"
    ],
    "name:sco_x_variant": [
      "Lowrinkirk"
    ],
    "name:spa_x_preferred": [
      "Laurencekirk"
    ],
    "name:swe_x_preferred": [
      "Laurencekirk"
    ],
    "name:tam_x_preferred": [
      "லாரென்ஸ்கிர்க்"
    ],
    "name:tel_x_preferred": [
      "లురెంక్ ఎకిర్క్"
    ],
    "name:urd_x_preferred": [
      "لاورینکیکیرک"
    ],
    "name:zho_x_preferred": [
      "劳伦斯柯克"
    ],
    "qs:a0": "United Kingdom",
    "qs:a1": "*Aberdeenshire",
    "qs:a1_lc": "GB11QB0000",
    "qs:a1r": "0Scotland",
    "qs:a1r_lc": "GB11000000",
    "qs:adm0": "United Kingdom",
    "qs:id": 0,
    "qs:la_lc": "*",
    "qs:level": "locality",
    "qs:loc": "Laurencekirk",
    "qs:loc_alt": "Laurencekirk",
    "qs:pop": 0,
    "qs:source": "RCustom EuroGlobalMap + UMZ Urban Polygons + Geonames + GeoPlanet",
    "qs:type": "buffered point",
    "src:geom": "whosonfirst",
    "src:geom_alt": [
      "quattroshapes_pg",
      "quattroshapes"
    ],
    "src:geom_via": "quattroshapes",
    "src:lbl_centroid": "mapshaper",
    "src:population": "wikidata",
    "wd:latitude": 56.83,
    "wd:longitude": -2.46,
    "wd:wordcount": 751,
    "wof:belongsto": [
      1880773121,
      102191581,
      85633159,
      1880762109,
      404227471,
      136253055,
      1360699031
    ],
    "wof:breaches": [],
    "wof:concordances": {
      "gn:id": 2644809,
      "gp:id": 25891,
      "qs_pg:id": 18737,
      "wd:id": "Q987775",
      "wk:page": "Laurencekirk"
    },
    "wof:country": "GB",
    "wof:created": 1765384907,
    "wof:geom_alt": [
      "quattroshapes",
      "quattroshapes_pg"
    ],
    "wof:geomhash": "e9e82624b91ee01135636f84f10db40e",
    "wof:hierarchy": [
      {
        "continent_id": 102191581,
        "country_id": 85633159,
        "county_id": 1360699031,
        "empire_id": 136253055,
        "locality_id": 101872691,
        "macrocounty_id": 1880762109,
        "macroregion_id": 404227471,
        "region_id": 1880773121
      }
    ],
    "wof:id": 101872691,
    "wof:lastmodified": 1765384907,
    "wof:name": "Laurencekirk",
    "wof:parent_id": 1360699031,
    "wof:placetype": "locality",
    "wof:population": 3040,
    "wof:population_rank": 4,
    "wof:repo": "whosonfirst-data-admin-gb",
    "wof:superseded_by": [],
    "wof:supersedes": [],
    "wof:tags": []
  },
  "bbox": [
    -2.469439,
    56.829919,
    -2.469439,
    56.829919
  ],
  "geometry": {"type":"Point","coordinates":[-2.469439,56.829919]}
}
