{
  "id": 101872515,
  "type": "Feature",
  "properties": {
    "edtf:cessation": "",
    "edtf:inception": "",
    "geom:area": 0,
    "geom:area_square_m": 0,
    "geom:bbox": "-4.201929,55.974791,-4.201929,55.974791",
    "geom:latitude": 55.974791,
    "geom:longitude": -4.201929,
    "gn:population": 3795,
    "iso:country": "GB",
    "lbl:bbox": "-4.221929,55.954791,-4.181929,55.994791",
    "lbl:latitude": 55.974791,
    "lbl:longitude": -4.201929,
    "lbl:max_zoom": 15,
    "lbl:min_zoom": 11.5,
    "mps:latitude": 55.974791,
    "mps:longitude": -4.201929,
    "mz:hierarchy_label": 1,
    "mz:is_current": 1,
    "mz:min_zoom": 11,
    "name:ast_x_preferred": [
      "Lennoxtown"
    ],
    "name:ceb_x_preferred": [
      "Lennoxtown"
    ],
    "name:cym_x_preferred": [
      "Lennoxtown"
    ],
    "name:deu_x_preferred": [
      "Lennoxtown"
    ],
    "name:eng_x_preferred": [
      "Lennoxtown"
    ],
    "name:eus_x_preferred": [
      "Lennoxtown"
    ],
    "name:fas_x_preferred": [
      "لنوکستاون"
    ],
    "name:fra_x_preferred": [
      "Lennoxtown"
    ],
    "name:gla_x_preferred": [
      "Baile na Leamhnachd"
    ],
    "name:gle_x_preferred": [
      "Baile na Leamhnachd"
    ],
    "name:ita_x_preferred": [
      "Lennoxtown"
    ],
    "name:jpn_x_preferred": [
      "レノックスタウン"
    ],
    "name:nld_x_preferred": [
      "Lennoxtown"
    ],
    "name:rus_x_preferred": [
      "Леннокстаун"
    ],
    "name:spa_x_preferred": [
      "Lennoxtown"
    ],
    "name:swe_x_preferred": [
      "Lennoxtown"
    ],
    "name:zho_x_preferred": [
      "丁沃尔"
    ],
    "name:zho_x_variant": [
      "倫諾克斯敦"
    ],
    "qs:a0": "United Kingdom",
    "qs:a1": "*East Dunbartonshire",
    "qs:a1_lc": "GB11QL0000",
    "qs:a1r": "0Scotland",
    "qs:a1r_lc": "GB11000000",
    "qs:adm0": "United Kingdom",
    "qs:id": 0,
    "qs:la_lc": "*",
    "qs:level": "locality",
    "qs:loc": "Lennoxtown",
    "qs:loc_alt": "Lennoxtown",
    "qs:pop": 0,
    "qs:source": "RCustom EuroGlobalMap + UMZ Urban Polygons + Geonames + GeoPlanet",
    "qs:type": "buffered point",
    "src:geom": "whosonfirst",
    "src:geom_alt": [
      "quattroshapes_pg",
      "quattroshapes"
    ],
    "src:geom_via": "quattroshapes",
    "src:lbl_centroid": "mapshaper",
    "src:population": "wikidata",
    "wd:latitude": 55.974,
    "wd:longitude": -4.206,
    "wd:wordcount": 1749,
    "wof:belongsto": [
      1880772937,
      102191581,
      85633159,
      1880762097,
      404227471,
      136253055,
      1360698835
    ],
    "wof:breaches": [],
    "wof:concordances": {
      "gn:id": 2644622,
      "gp:id": 26112,
      "qs_pg:id": 247314,
      "wd:id": "Q1010313",
      "wk:page": "Lennoxtown"
    },
    "wof:country": "GB",
    "wof:created": 1765384894,
    "wof:geom_alt": [
      "quattroshapes",
      "quattroshapes_pg"
    ],
    "wof:geomhash": "974626a2ee2a8eada17bba2196ec016b",
    "wof:hierarchy": [
      {
        "continent_id": 102191581,
        "country_id": 85633159,
        "county_id": 1360698835,
        "empire_id": 136253055,
        "locality_id": 101872515,
        "macrocounty_id": 1880762097,
        "macroregion_id": 404227471,
        "region_id": 1880772937
      }
    ],
    "wof:id": 101872515,
    "wof:lastmodified": 1765384894,
    "wof:name": "Lennoxtown",
    "wof:parent_id": 1360698835,
    "wof:placetype": "locality",
    "wof:population": 4140,
    "wof:population_rank": 4,
    "wof:repo": "whosonfirst-data-admin-gb",
    "wof:superseded_by": [],
    "wof:supersedes": [],
    "wof:tags": []
  },
  "bbox": [
    -4.201929,
    55.974791,
    -4.201929,
    55.974791
  ],
  "geometry": {"type":"Point","coordinates":[-4.201929,55.974791]}
}
