{
  "id": 1293135989,
  "type": "Feature",
  "properties": {
    "edtf:cessation": "",
    "edtf:inception": "",
    "geom:area": 0,
    "geom:area_square_m": 0,
    "geom:bbox": "-2.967550,55.922570,-2.967550,55.922570",
    "geom:latitude": 55.92257,
    "geom:longitude": -2.96755,
    "gn:admin1_code": "SCT",
    "gn:admin2_code": "U6",
    "gn:asciiname": "Elphinstone",
    "gn:country_code": "GB",
    "gn:dem": 126,
    "gn:feature_class": "P",
    "gn:feature_code": "PPL",
    "gn:geonameid": 11592146,
    "gn:latitude": 55.92257,
    "gn:longitude": -2.96755,
    "gn:modification_date": "2017-06-14",
    "gn:name": "Elphinstone",
    "gn:population": 540,
    "gn:timezone": "Europe/London",
    "iso:country": "GB",
    "lbl:bbox": "-2.98755,55.90257,-2.94755,55.94257",
    "lbl:max_zoom": 17,
    "lbl:min_zoom": 12.5,
    "mz:hierarchy_label": 1,
    "mz:is_current": -1,
    "mz:min_zoom": 11,
    "name:cym_x_preferred": [
      "Elphinstone"
    ],
    "name:eus_x_preferred": [
      "Elphinstone"
    ],
    "name:gla_x_preferred": [
      "Elphinstone"
    ],
    "name:ita_x_preferred": [
      "Elphinstone"
    ],
    "name:spa_x_preferred": [
      "Elphinstone"
    ],
    "name:swe_x_preferred": [
      "Elphinstone"
    ],
    "src:geom": "geonames",
    "src:population": "wikidata",
    "wof:belongsto": [
      1880773107,
      102191581,
      85633159,
      1880762091,
      404227471,
      136253055,
      1360699017
    ],
    "wof:breaches": [],
    "wof:concordances": {
      "gn:id": 11592146,
      "wk:page": "Elphinstone,_East_Lothian"
    },
    "wof:country": "GB",
    "wof:created": 1765388653,
    "wof:geomhash": "64e04356cb0753a95e27c5235f84697a",
    "wof:hierarchy": [
      {
        "continent_id": 102191581,
        "country_id": 85633159,
        "county_id": 1360699017,
        "empire_id": 136253055,
        "locality_id": 1293135989,
        "macrocounty_id": 1880762091,
        "macroregion_id": 404227471,
        "region_id": 1880773107
      }
    ],
    "wof:id": 1293135989,
    "wof:lastmodified": 1765388653,
    "wof:name": "Elphinstone",
    "wof:parent_id": 1360699017,
    "wof:placetype": "locality",
    "wof:population": 580,
    "wof:population_rank": 2,
    "wof:repo": "whosonfirst-data-admin-gb",
    "wof:superseded_by": [],
    "wof:supersedes": [],
    "wof:tags": []
  },
  "bbox": [
    -2.96755,
    55.92257,
    -2.96755,
    55.92257
  ],
  "geometry": {"type":"Point","coordinates":[-2.96755,55.92257]}
}
