{
  "id": 1360791021,
  "type": "Feature",
  "properties": {
    "edtf:cessation": "",
    "edtf:inception": "",
    "geom:area": 0,
    "geom:area_square_m": 0,
    "geom:bbox": "-0.832174,53.604962,-0.832174,53.604962",
    "geom:latitude": 53.604962,
    "geom:longitude": -0.832174,
    "gn:admin1_code": "ENG",
    "gn:admin2_code": "J3",
    "gn:admin3_code": "00FD015",
    "gn:asciiname": "Crowle",
    "gn:country_code": "GB",
    "gn:dem": 10,
    "gn:feature_class": "P",
    "gn:feature_code": "PPLA3",
    "gn:geonameid": 2651841,
    "gn:latitude": 53.60753,
    "gn:longitude": -0.83256,
    "gn:modification_date": "2017-06-12",
    "gn:name": "Crowle",
    "gn:population": 3928,
    "gn:timezone": "Europe/London",
    "iso:country": "GB",
    "lbl:bbox": "-0.837174,53.599962,-0.827174,53.609962",
    "lbl:latitude": 53.604963,
    "lbl:longitude": -0.832173,
    "lbl:max_zoom": 18,
    "mps:latitude": 53.604963,
    "mps:longitude": -0.832173,
    "mz:hierarchy_label": 1,
    "mz:is_current": 1,
    "mz:min_zoom": 15,
    "name:ast_x_preferred": [
      "Crowle"
    ],
    "name:azb_x_preferred": [
      "کرول"
    ],
    "name:ben_x_preferred": [
      "ক্রয়েল"
    ],
    "name:ceb_x_preferred": [
      "Crowle"
    ],
    "name:cym_x_preferred": [
      "Crowle"
    ],
    "name:deu_x_preferred": [
      "Crowle"
    ],
    "name:eng_x_preferred": [
      "Crowle"
    ],
    "name:fas_x_preferred": [
      "کرول، لینکلن‌شر"
    ],
    "name:fas_x_variant": [
      "کرول"
    ],
    "name:fra_x_preferred": [
      "Crowle"
    ],
    "name:gle_x_preferred": [
      "Crowle"
    ],
    "name:guj_x_preferred": [
      "ક્રોવ્લ"
    ],
    "name:ita_x_preferred": [
      "Crowle"
    ],
    "name:jpn_x_preferred": [
      "クロウル"
    ],
    "name:kan_x_preferred": [
      "ಕ್ರೌಲ್ಲೆ"
    ],
    "name:kor_x_preferred": [
      "크로울"
    ],
    "name:lit_x_preferred": [
      "Kraulis"
    ],
    "name:lld_x_preferred": [
      "Crowle"
    ],
    "name:nld_x_preferred": [
      "Crowle"
    ],
    "name:nno_x_preferred": [
      "Crowle i Lincolnshire"
    ],
    "name:pol_x_preferred": [
      "Crowle"
    ],
    "name:por_x_preferred": [
      "Crowle"
    ],
    "name:ron_x_preferred": [
      "Crowle"
    ],
    "name:rus_x_preferred": [
      "Кроул"
    ],
    "name:spa_x_preferred": [
      "Crowle"
    ],
    "name:swe_x_preferred": [
      "Crowle"
    ],
    "name:tam_x_preferred": [
      "கிரௌலே"
    ],
    "name:tel_x_preferred": [
      "క్రోలె"
    ],
    "name:urd_x_preferred": [
      "کروولی"
    ],
    "qs:a0": "United Kingdom",
    "qs:a1": "*North Lincolnshire",
    "qs:a1_lc": "GB12FD0000",
    "qs:a1r": "0England",
    "qs:a1r_lc": "GB12000000",
    "qs:adm0": "United Kingdom",
    "qs:la_lc": "*",
    "qs:level": "locality",
    "qs:loc": "Crowle",
    "qs:loc_alt": "Crowle",
    "qs:pop": 0,
    "qs:source": "RCustom EuroGlobalMap + UMZ Urban Polygons + Geonames + GeoPlanet",
    "qs:type": "buffered point",
    "src:geom": "whosonfirst",
    "src:geom_alt": [
      "quattroshapes_pg",
      "quattroshapes"
    ],
    "src:geom_via": "quattroshapes",
    "src:lbl_centroid": "mapshaper",
    "src:population": "wikidata",
    "wd:latitude": 53.60735,
    "wd:longitude": -0.832108,
    "wd:wordcount": 3361,
    "wof:belongsto": [
      102191581,
      1880762033,
      404431527,
      85633159,
      404227469,
      1360756097,
      136253055,
      1360698901,
      1880762701
    ],
    "wof:breaches": [],
    "wof:concordances": {
      "gn:id": 2651842,
      "gp:id": 17514,
      "qs_pg:id": 8,
      "wd:id": "Q2575465",
      "wk:page": "Crowle, Lincolnshire"
    },
    "wof:concordances_alt": {
      "gn:id": [
        2651841
      ],
      "qs_pg:id": [
        1189138
      ],
      "wk:page": [
        "Crowle%2C_Lincolnshire"
      ]
    },
    "wof:country": "GB",
    "wof:created": 1765389447,
    "wof:geomhash": "b8916c1adc8c42c690c412489e06e2c4",
    "wof:hierarchy": [
      {
        "continent_id": 102191581,
        "country_id": 85633159,
        "county_id": 1360698901,
        "empire_id": 136253055,
        "localadmin_id": 404431527,
        "locality_id": 1360756097,
        "macrocounty_id": 1880762033,
        "macroregion_id": 404227469,
        "neighbourhood_id": 1360791021,
        "region_id": 1880762701
      }
    ],
    "wof:id": 1360791021,
    "wof:lastmodified": 1765389447,
    "wof:name": "Crowle",
    "wof:parent_id": 1360756097,
    "wof:placetype": "neighbourhood",
    "wof:population": 4828,
    "wof:population_rank": 4,
    "wof:repo": "whosonfirst-data-admin-gb",
    "wof:superseded_by": [],
    "wof:supersedes": [
      101872169,
      1360806887
    ],
    "wof:tags": []
  },
  "bbox": [
    -0.832174,
    53.604962,
    -0.832174,
    53.604962
  ],
  "geometry": {"type":"Point","coordinates":[-0.832174,53.604962]}
}
