{
  "id": 420784513,
  "type": "Feature",
  "properties": {
    "edtf:cessation": "",
    "edtf:inception": "",
    "geom:area": 0,
    "geom:area_square_m": 0,
    "geom:bbox": "-2.243998,53.427336,-2.243998,53.427336",
    "geom:latitude": 53.427336,
    "geom:longitude": -2.243998,
    "iso:country": "GB",
    "lbl:bbox": "-2.24899782925,53.4223360929,-2.23899782925,53.4323360929",
    "lbl:latitude": 53.427336,
    "lbl:longitude": -2.243998,
    "lbl:max_zoom": 18,
    "mz:hierarchy_label": 1,
    "mz:is_current": -1,
    "mz:is_funky": 0,
    "mz:is_hard_boundary": 0,
    "mz:is_landuse_aoi": 0,
    "mz:is_official": 0,
    "mz:max_zoom": 18,
    "mz:min_zoom": 15,
    "mz:tier_locality": 0,
    "name:ast_x_preferred": [
      "Didsbury"
    ],
    "name:cat_x_preferred": [
      "Didsbury"
    ],
    "name:ceb_x_preferred": [
      "Didsbury"
    ],
    "name:cym_x_preferred": [
      "Didsbury"
    ],
    "name:deu_x_preferred": [
      "Didsbury"
    ],
    "name:ell_x_preferred": [
      "Ντίντσμπουρι"
    ],
    "name:eng_x_preferred": [
      "Didsbury"
    ],
    "name:fas_x_preferred": [
      "دیدزبری"
    ],
    "name:fra_x_preferred": [
      "Didsbury"
    ],
    "name:gle_x_preferred": [
      "Didsbury"
    ],
    "name:heb_x_preferred": [
      "דידסבורי"
    ],
    "name:ita_x_preferred": [
      "Didsbury"
    ],
    "name:jpn_x_preferred": [
      "ディズベリ"
    ],
    "name:lld_x_preferred": [
      "Didsbury"
    ],
    "name:nld_x_preferred": [
      "Didsbury"
    ],
    "name:nob_x_preferred": [
      "Didsbury"
    ],
    "name:pol_x_preferred": [
      "Didsbury"
    ],
    "name:por_x_preferred": [
      "Didsbury"
    ],
    "name:rus_x_preferred": [
      "Дидсбери"
    ],
    "name:sco_x_preferred": [
      "Didsbury"
    ],
    "name:spa_x_preferred": [
      "Didsbury"
    ],
    "name:swe_x_preferred": [
      "Didsbury"
    ],
    "name:zho_x_preferred": [
      "迪兹伯利"
    ],
    "src:geom": "unknown",
    "src:population": "wikidata",
    "wd:wordcount": 5429,
    "wof:belongsto": [
      1880773095,
      102191581,
      85633159,
      1880762163,
      404227469,
      101750525,
      136253055,
      1360698893
    ],
    "wof:breaches": [],
    "wof:concordances": {
      "gp:id": 43883,
      "qs_pg:id": 395089,
      "wd:id": "Q1210672"
    },
    "wof:country": "GB",
    "wof:created": 1458871929,
    "wof:geomhash": "5bdf3706fa9fb2b8c2b92cd256a9e3c7",
    "wof:hierarchy": [
      {
        "continent_id": 102191581,
        "country_id": 85633159,
        "county_id": 1360698893,
        "empire_id": 136253055,
        "locality_id": 101750525,
        "macrocounty_id": 1880762163,
        "macroregion_id": 404227469,
        "neighbourhood_id": 420784513,
        "region_id": 1880773095
      }
    ],
    "wof:id": 420784513,
    "wof:lastmodified": 1765390911,
    "wof:name": "West Didsbury",
    "wof:parent_id": 101750525,
    "wof:placetype": "neighbourhood",
    "wof:population": 26788,
    "wof:population_rank": 7,
    "wof:repo": "whosonfirst-data-admin-gb",
    "wof:superseded_by": [],
    "wof:supersedes": [],
    "wof:tags": []
  },
  "bbox": [
    -2.243998,
    53.427336,
    -2.243998,
    53.427336
  ],
  "geometry": {"type":"Point","coordinates":[-2.243998,53.427336]}
}
