{
  "id": 1360795971,
  "type": "Feature",
  "properties": {
    "edtf:cessation": "",
    "edtf:inception": "",
    "geom:area": 0,
    "geom:area_square_m": 0,
    "geom:bbox": "-0.982245,50.963705,-0.982245,50.963705",
    "geom:latitude": 50.963705,
    "geom:longitude": -0.982245,
    "gn:country": null,
    "iso:country": "GB",
    "lbl:bbox": "-0.987245,50.958705,-0.977245,50.968705",
    "lbl:latitude": 50.963705,
    "lbl:longitude": -0.982245,
    "lbl:max_zoom": 18,
    "mz:hierarchy_label": 1,
    "mz:is_current": 1,
    "mz:min_zoom": 15,
    "mz:note": "Quattroshapes Point Gazetteer import 20170519",
    "name:ben_x_preferred": [
      "হর্নডিন"
    ],
    "name:bul_x_preferred": [
      "Хорндеан"
    ],
    "name:ceb_x_preferred": [
      "Horndean"
    ],
    "name:cym_x_preferred": [
      "Horndean"
    ],
    "name:deu_x_preferred": [
      "Horndean"
    ],
    "name:eng_x_preferred": [
      "Horndean"
    ],
    "name:fas_x_preferred": [
      "هورندین"
    ],
    "name:fra_x_preferred": [
      "Horndean"
    ],
    "name:gle_x_preferred": [
      "Horndean"
    ],
    "name:guj_x_preferred": [
      "હોર્નડીન"
    ],
    "name:ita_x_preferred": [
      "Horndean"
    ],
    "name:jpn_x_preferred": [
      "ホーンディーン"
    ],
    "name:kan_x_preferred": [
      "ಹೊರ್ನ್ಡಿಯನ್"
    ],
    "name:kor_x_preferred": [
      "혼딘"
    ],
    "name:lit_x_preferred": [
      "Horndynas"
    ],
    "name:nld_x_preferred": [
      "Horndean"
    ],
    "name:pol_x_preferred": [
      "Horndean"
    ],
    "name:por_x_preferred": [
      "Horndean"
    ],
    "name:rus_x_preferred": [
      "Хорндин"
    ],
    "name:spa_x_preferred": [
      "Horndean"
    ],
    "name:swe_x_preferred": [
      "Horndean"
    ],
    "name:tam_x_preferred": [
      "ஹோர்ந்தேன்"
    ],
    "name:tel_x_preferred": [
      "హార్న్డీన్"
    ],
    "name:urd_x_preferred": [
      "ہورندیان"
    ],
    "name:zho_x_preferred": [
      "霍恩丁"
    ],
    "qs_pg:aaroncc": "GB",
    "qs_pg:gn_country": null,
    "qs_pg:name": "Horndean",
    "qs_pg:name_adm0": "United Kingdom",
    "qs_pg:name_adm1": "England",
    "qs_pg:photos": 440,
    "qs_pg:photos_1k": 89,
    "qs_pg:photos_9k": 2,
    "qs_pg:photos_9r": 5,
    "qs_pg:photos_all": 440,
    "qs_pg:photos_sr": 6,
    "qs_pg:pop_sr": 0,
    "qs_pg:qs_id": 897713,
    "qs_pg:qs_pg_placetype": "locality",
    "qs_pg:qs_pg_placetype_gp": "Town",
    "qs_pg:woe_adm0": 23424975,
    "qs_pg:woe_id": 23905,
    "src:geom": "qs_pg",
    "src:lbl_centroid": "qs_pg",
    "src:population": "wikidata",
    "woe:adm0_id": 23424975,
    "woe:name_adm0": "United Kingdom",
    "woe:name_adm1": "England",
    "woe:placetype": "Town",
    "wof:belongsto": [
      1880762717,
      102191581,
      1880762155,
      404429941,
      85633159,
      404227469,
      1125927507,
      136253055,
      1880771465
    ],
    "wof:breaches": [],
    "wof:concordances": {
      "gp:id": 23905,
      "qs_pg:id": 897713,
      "wd:id": "Q2916481"
    },
    "wof:country": "GB",
    "wof:created": 1497294538,
    "wof:geomhash": "763d365c82b3bba7173c7da95c63badb",
    "wof:hierarchy": [
      {
        "continent_id": 102191581,
        "country_id": 85633159,
        "county_id": 1880771465,
        "empire_id": 136253055,
        "localadmin_id": 404429941,
        "locality_id": 1125927507,
        "macrocounty_id": 1880762155,
        "macroregion_id": 404227469,
        "neighbourhood_id": 1360795971,
        "region_id": 1880762717
      }
    ],
    "wof:id": 1360795971,
    "wof:lastmodified": 1765389738,
    "wof:name": "Horndean",
    "wof:parent_id": 1125927507,
    "wof:placetype": "neighbourhood",
    "wof:population": 13488,
    "wof:population_rank": 6,
    "wof:repo": "whosonfirst-data-admin-gb",
    "wof:superseded_by": [],
    "wof:supersedes": [
      1125875923
    ],
    "wof:tags": []
  },
  "bbox": [
    -0.982245,
    50.963705,
    -0.982245,
    50.963705
  ],
  "geometry": {"type":"Point","coordinates":[-0.982245,50.963705]}
}
