{
  "id": 85792371,
  "type": "Feature",
  "properties": {
    "edtf:cessation": "",
    "edtf:inception": "",
    "geom:area": 0.0004328784530000131,
    "geom:area_square_m": 3340508.309338,
    "geom:bbox": "0.049438,51.373495,0.076904,51.396635",
    "geom:latitude": 51.38446228806563,
    "geom:longitude": 0.06148151442822766,
    "gn:latitude": 51.15779,
    "gn:longitude": 0.25972,
    "iso:country": "GB",
    "lbl:latitude": 51.390828,
    "lbl:longitude": 0.048873,
    "lbl:max_zoom": 18,
    "mps:latitude": 51.384206,
    "mps:longitude": 0.059847,
    "mz:hierarchy_label": 1,
    "mz:is_current": 1,
    "mz:is_funky": 0,
    "mz:is_hard_boundary": 0,
    "mz:is_landuse_aoi": 0,
    "mz:is_official": 0,
    "mz:max_zoom": 18,
    "mz:min_zoom": 15,
    "mz:tier_locality": 7,
    "mz:tier_metro": 1,
    "name:eng_x_preferred": [
      "Southborough"
    ],
    "name:eng_x_variant": [
      "Copse Hill"
    ],
    "name:fra_x_preferred": [
      "Southborough"
    ],
    "name:gle_x_preferred": [
      "Southborough"
    ],
    "name:hin_x_preferred": [
      "साउथबरो"
    ],
    "name:urd_x_preferred": [
      "ساؤتھبرو، بروملی"
    ],
    "name:urd_x_variant": [
      "ساؤتھبرو"
    ],
    "src:geom": "quattroshapes",
    "src:geom_alt": [
      "quattroshapes_pg"
    ],
    "src:lbl_centroid": "mz",
    "src:population": "wikidata",
    "wof:belongsto": [
      1880762729,
      102191581,
      1880762179,
      85633159,
      404227469,
      101750367,
      136253055,
      1158857297,
      1880771825
    ],
    "wof:breaches": [],
    "wof:concordances": {
      "gn:id": 2637474,
      "gp:id": 43514,
      "qs_pg:id": 427234,
      "wd:id": "Q121541",
      "wk:page": "Southborough, Kent"
    },
    "wof:country": "GB",
    "wof:created": 1765391271,
    "wof:geom_alt": [
      "quattroshapes_pg"
    ],
    "wof:geomhash": "ddf1bca130edc06125e7781552ffb6c8",
    "wof:hierarchy": [
      {
        "borough_id": 1158857297,
        "continent_id": 102191581,
        "country_id": 85633159,
        "county_id": 1880771825,
        "empire_id": 136253055,
        "locality_id": 101750367,
        "macrocounty_id": 1880762179,
        "macroregion_id": 404227469,
        "neighbourhood_id": 85792371,
        "region_id": 1880762729
      }
    ],
    "wof:id": 85792371,
    "wof:lang": [
      "eng"
    ],
    "wof:lastmodified": 1765391271,
    "wof:name": "Southborough",
    "wof:parent_id": 1158857297,
    "wof:placetype": "neighbourhood",
    "wof:population": 11967,
    "wof:population_rank": 6,
    "wof:repo": "whosonfirst-data-admin-gb",
    "wof:superseded_by": [],
    "wof:supersedes": [],
    "wof:tags": []
  },
  "bbox": [
    0.049438,
    51.373495,
    0.076904,
    51.396635
  ],
  "geometry": {"type":"Polygon","coordinates":[[[0.066337,51.396635],[0.066872,51.395778],[0.066516,51.394065],[0.066872,51.392351],[0.065918,51.390822],[0.065918,51.390452],[0.068665,51.388985],[0.068665,51.388923],[0.068665,51.387209],[0.069199,51.386352],[0.071411,51.386352],[0.072382,51.385574],[0.074158,51.386144],[0.076181,51.385495],[0.076904,51.385495],[0.076904,51.385263],[0.076904,51.382067],[0.076904,51.382067],[0.076904,51.378638],[0.076904,51.378638],[0.071411,51.378638],[0.071411,51.375209],[0.071411,51.375209],[0.066159,51.375209],[0.065918,51.374978],[0.065196,51.375209],[0.063171,51.375858],[0.061147,51.375209],[0.060425,51.374978],[0.060244,51.37492],[0.059535,51.373784],[0.059114,51.373495],[0.056002,51.373495],[0.054932,51.375209],[0.054932,51.375209],[0.053862,51.376924],[0.051463,51.376924],[0.049679,51.378638],[0.049438,51.378638],[0.049438,51.37887],[0.049438,51.382067],[0.049438,51.382067],[0.049439,51.382067],[0.050508,51.383781],[0.049438,51.385495],[0.049438,51.385495],[0.049438,51.388923],[0.049438,51.388923],[0.049438,51.392351],[0.049438,51.392351],[0.054932,51.392351],[0.054932,51.394249],[0.054932,51.395778],[0.060425,51.395778],[0.060959,51.396635],[0.063171,51.396635],[0.065918,51.396635],[0.066337,51.396635]]]}
}
