{
  "id": 85789311,
  "type": "Feature",
  "properties": {
    "edtf:cessation": "",
    "edtf:inception": "",
    "geom:area": 0.00042856512199999995,
    "geom:area_square_m": 3301168.572197,
    "geom:bbox": "-2.515869,51.455427,-2.476352,51.481765",
    "geom:latitude": 51.467796354756956,
    "geom:longitude": -2.497727502609828,
    "gn:latitude": 51.9,
    "gn:longitude": -2.08333,
    "gn:population": 103249,
    "iso:country": "GB",
    "lbl:latitude": 51.465642,
    "lbl:longitude": -2.501081,
    "lbl:max_zoom": 18,
    "mps:latitude": 51.464621,
    "mps:longitude": -2.500717,
    "mz:hierarchy_label": 1,
    "mz:is_current": -1,
    "mz:is_funky": 0,
    "mz:is_hard_boundary": 0,
    "mz:is_landuse_aoi": 0,
    "mz:is_official": 0,
    "mz:max_zoom": 18,
    "mz:min_zoom": 15,
    "mz:tier_locality": 4,
    "mz:tier_metro": 30,
    "name:ara_x_preferred": [
      "شلتنهام"
    ],
    "name:arz_x_preferred": [
      "شلتنهام"
    ],
    "name:ast_x_preferred": [
      "Cheltenham"
    ],
    "name:azb_x_preferred": [
      "چلتنهام"
    ],
    "name:bel_x_preferred": [
      "Чэлтнем"
    ],
    "name:bel_x_variant": [
      "Чэлтнэм"
    ],
    "name:ben_x_preferred": [
      "চেলটেনহ্যাম"
    ],
    "name:bre_x_preferred": [
      "Cheltenham"
    ],
    "name:bul_x_preferred": [
      "Челтнъм"
    ],
    "name:cat_x_preferred": [
      "Cheltenham"
    ],
    "name:ceb_x_preferred": [
      "Cheltenham"
    ],
    "name:ces_x_preferred": [
      "Cheltenham"
    ],
    "name:cym_x_preferred": [
      "Cheltenham"
    ],
    "name:dan_x_preferred": [
      "Cheltenham"
    ],
    "name:deu_x_preferred": [
      "Cheltenham"
    ],
    "name:ell_x_preferred": [
      "Τσέλτεναμ"
    ],
    "name:eng_x_preferred": [
      "New Cheltenham"
    ],
    "name:eng_x_variant": [
      "Cheltenham"
    ],
    "name:epo_x_preferred": [
      "Cheltenham"
    ],
    "name:eus_x_preferred": [
      "Cheltenham"
    ],
    "name:fas_x_preferred": [
      "چلتنهام"
    ],
    "name:fin_x_preferred": [
      "Cheltenham"
    ],
    "name:fra_x_preferred": [
      "Cheltenham"
    ],
    "name:gle_x_preferred": [
      "Cheltenham"
    ],
    "name:guj_x_preferred": [
      "ચેલ્તેનહામ"
    ],
    "name:heb_x_preferred": [
      "צ'לטנהאם"
    ],
    "name:hun_x_preferred": [
      "Cheltenham"
    ],
    "name:hye_x_preferred": [
      "Չելթնեմ"
    ],
    "name:ind_x_preferred": [
      "Cheltenham"
    ],
    "name:ita_x_preferred": [
      "Cheltenham"
    ],
    "name:jpn_x_preferred": [
      "チェルトナム"
    ],
    "name:kan_x_preferred": [
      "ಚೆಲ್ಟೆನ್ಹಾಮ್"
    ],
    "name:kat_x_preferred": [
      "ჩელტნემი"
    ],
    "name:kor_x_preferred": [
      "첼트넘"
    ],
    "name:lat_x_preferred": [
      "Cheltenham"
    ],
    "name:lat_x_variant": [
      "Cheltenhamia"
    ],
    "name:lit_x_preferred": [
      "Čeltnamas"
    ],
    "name:lld_x_preferred": [
      "Cheltenham"
    ],
    "name:ltz_x_preferred": [
      "Cheltenham"
    ],
    "name:mlg_x_preferred": [
      "Cheltenham"
    ],
    "name:nan_x_preferred": [
      "Cheltenham"
    ],
    "name:nld_x_preferred": [
      "Cheltenham"
    ],
    "name:nno_x_preferred": [
      "Cheltenham"
    ],
    "name:nob_x_preferred": [
      "Cheltenham"
    ],
    "name:nor_x_preferred": [
      "Cheltenham"
    ],
    "name:pol_x_preferred": [
      "Cheltenham"
    ],
    "name:por_x_preferred": [
      "Cheltenham"
    ],
    "name:que_x_preferred": [
      "Cheltenham"
    ],
    "name:ron_x_preferred": [
      "Cheltenham"
    ],
    "name:rus_x_preferred": [
      "Челтнем"
    ],
    "name:sco_x_preferred": [
      "Cheltenham"
    ],
    "name:slk_x_preferred": [
      "Cheltenham"
    ],
    "name:slv_x_preferred": [
      "Cheltenham"
    ],
    "name:spa_x_preferred": [
      "Cheltenham"
    ],
    "name:srp_x_preferred": [
      "Челтенам"
    ],
    "name:swe_x_preferred": [
      "Cheltenham"
    ],
    "name:szl_x_preferred": [
      "Cheltenham"
    ],
    "name:tam_x_preferred": [
      "செல்டென்ஹாம்"
    ],
    "name:tat_x_preferred": [
      "Челтнәм"
    ],
    "name:tel_x_preferred": [
      "చెల్టిన్హమ్"
    ],
    "name:tha_x_preferred": [
      "เชลต์นัม"
    ],
    "name:tur_x_preferred": [
      "Cheltenham"
    ],
    "name:ukr_x_preferred": [
      "Челтнем"
    ],
    "name:urd_x_preferred": [
      "چیلٹین ہیم"
    ],
    "name:vec_x_preferred": [
      "Cheltenham"
    ],
    "name:vol_x_preferred": [
      "Cheltenham"
    ],
    "name:yue_x_preferred": [
      "車頓咸"
    ],
    "name:zho_x_preferred": [
      "切爾滕納姆"
    ],
    "qs:gn_adm0_cc": "GB",
    "qs:gn_fcode": "PPL",
    "qs:gn_local": 2654675,
    "qs:gn_nam_loc": "Bristol, City of Bristol, England, GB",
    "qs:gn_namadm1": "ENG",
    "qs:gn_name": "Cheltenham",
    "qs:local_max": 8672,
    "qs:local_sum": 133678,
    "qs:localhoods": 87,
    "qs:name": "New Cheltenham",
    "qs:name_adm0": "United Kingdom",
    "qs:name_adm1": "England",
    "qs:name_adm2": "Gloucestershire",
    "qs:name_lau": "South Gloucestershire",
    "qs:name_local": "Bristol",
    "qs:photo_max": 69,
    "qs:photo_sum": 370,
    "qs:placetype": "Suburb",
    "qs:quad_count": 29,
    "qs:woe_adm0": 23424975,
    "qs:woe_adm1": 24554868,
    "qs:woe_adm2": 12602184,
    "qs:woe_lau": 12696146,
    "qs:woe_local": 13963,
    "qs:woe_ver": "7.10.0",
    "src:geom": "quattroshapes",
    "src:geom_alt": [
      "quattroshapes_pg"
    ],
    "src:lbl_centroid": "mz",
    "src:population": "wikidata",
    "wof:belongsto": [
      1880762693,
      102191581,
      1880762161,
      1360817185,
      85633159,
      404227469,
      1360887535,
      136253055,
      1360698895
    ],
    "wof:breaches": [],
    "wof:concordances": {
      "gn:id": 2653261,
      "gp:id": 29904,
      "qs_pg:id": 772855,
      "wd:id": "Q206988",
      "wk:page": "Cheltenham"
    },
    "wof:country": "GB",
    "wof:created": 1765391123,
    "wof:geom_alt": [
      "quattroshapes_pg"
    ],
    "wof:geomhash": "d146a8709059c8e6b406970b33e35440",
    "wof:hierarchy": [
      {
        "continent_id": 102191581,
        "country_id": 85633159,
        "county_id": 1360698895,
        "empire_id": 136253055,
        "localadmin_id": 1360817185,
        "locality_id": 1360887535,
        "macrocounty_id": 1880762161,
        "macroregion_id": 404227469,
        "neighbourhood_id": 85789311,
        "region_id": 1880762693
      }
    ],
    "wof:id": 85789311,
    "wof:lang": [
      "eng"
    ],
    "wof:lastmodified": 1765391123,
    "wof:name": "New Cheltenham",
    "wof:parent_id": 1360887535,
    "wof:placetype": "neighbourhood",
    "wof:population": 116447,
    "wof:population_rank": 9,
    "wof:repo": "whosonfirst-data-admin-gb",
    "wof:superseded_by": [],
    "wof:supersedes": [],
    "wof:tags": []
  },
  "bbox": [
    -2.515869,
    51.455427,
    -2.476352,
    51.481765
  ],
  "geometry": {"type":"Polygon","coordinates":[[[-2.486484,51.481765],[-2.485769,51.481383],[-2.48291,51.481383],[-2.48291,51.479853],[-2.482573,51.479672],[-2.481602,51.479672],[-2.481602,51.479672],[-2.478482,51.479672],[-2.477417,51.477962],[-2.477417,51.477962],[-2.477417,51.477962],[-2.476352,51.476251],[-2.477417,51.47454],[-2.477417,51.47454],[-2.481957,51.47454],[-2.48291,51.47301],[-2.48291,51.471119],[-2.48291,51.471119],[-2.488403,51.471119],[-2.489469,51.469408],[-2.493896,51.469408],[-2.493896,51.467697],[-2.493896,51.464275],[-2.493896,51.464275],[-2.493896,51.460852],[-2.493896,51.460852],[-2.493896,51.457663],[-2.493896,51.45743],[-2.494139,51.45743],[-2.494139,51.45743],[-2.49939,51.45743],[-2.500184,51.456155],[-2.503913,51.457352],[-2.504883,51.456574],[-2.505387,51.45617],[-2.507629,51.457369],[-2.510376,51.4559],[-2.511261,51.455427],[-2.511685,51.455718],[-2.514803,51.455718],[-2.515869,51.45743],[-2.515869,51.45743],[-2.515869,51.460619],[-2.515869,51.460852],[-2.515142,51.460852],[-2.51395,51.461235],[-2.513123,51.462564],[-2.513123,51.464275],[-2.513123,51.464335],[-2.510376,51.465805],[-2.510376,51.467697],[-2.510376,51.467697],[-2.510376,51.467697],[-2.50931,51.469408],[-2.505949,51.469408],[-2.504883,51.471119],[-2.504883,51.471119],[-2.500343,51.471119],[-2.499632,51.47454],[-2.49939,51.474774],[-2.49843,51.475699],[-2.498362,51.475881],[-2.49807,51.476194],[-2.494485,51.477016],[-2.493896,51.477962],[-2.493896,51.477962],[-2.489356,51.477962],[-2.488403,51.479492],[-2.488403,51.481149],[-2.488403,51.481383],[-2.487675,51.481383],[-2.486484,51.481765]]]}
}
