{
  "id": 1126074693,
  "type": "Feature",
  "properties": {
    "edtf:cessation": "",
    "edtf:inception": "",
    "geom:area": 0,
    "geom:area_square_m": 0,
    "geom:bbox": "-0.088684,51.478950,-0.088684,51.478950",
    "geom:latitude": 51.47895,
    "geom:longitude": -0.088684,
    "gn:country": null,
    "iso:country": "GB",
    "lbl:bbox": "-0.093684,51.47395,-0.083684,51.48395",
    "lbl:latitude": 51.47895,
    "lbl:longitude": -0.088684,
    "lbl:max_zoom": 18,
    "mz:hierarchy_label": 1,
    "mz:is_current": 1,
    "mz:min_zoom": 15,
    "mz:note": "Quattroshapes Point Gazetteer import 20170519",
    "name:eng_x_preferred": [
      "Brunswick Park"
    ],
    "name:fra_x_preferred": [
      "Brunswick Park"
    ],
    "name:gle_x_preferred": [
      "Brunswick Park"
    ],
    "name:hin_x_preferred": [
      "ब्रंसविक पार्क"
    ],
    "name:nld_x_preferred": [
      "Brunswick Park"
    ],
    "name:nob_x_preferred": [
      "Brunswick Park"
    ],
    "name:urd_x_preferred": [
      "برنزوک پارک"
    ],
    "qs_pg:aaroncc": "GB",
    "qs_pg:gn_country": null,
    "qs_pg:name": "Brunswick Park",
    "qs_pg:name_adm0": "United Kingdom",
    "qs_pg:name_adm1": "England",
    "qs_pg:photos": 5,
    "qs_pg:photos_1k": 1,
    "qs_pg:photos_9k": 1,
    "qs_pg:photos_9r": 1,
    "qs_pg:photos_all": 5,
    "qs_pg:photos_sr": 1,
    "qs_pg:pop_sr": 0,
    "qs_pg:qs_id": 22190,
    "qs_pg:qs_pg_placetype": "neighbourhood",
    "qs_pg:qs_pg_placetype_gp": "Suburb",
    "qs_pg:woe_adm0": 23424975,
    "qs_pg:woe_id": 43344,
    "src:geom": "qs_pg",
    "src:lbl_centroid": "qs_pg",
    "src:population": "wikidata",
    "woe:adm0_id": 23424975,
    "woe:name_adm0": "United Kingdom",
    "woe:name_adm1": "England",
    "woe:placetype": "Suburb",
    "wof:belongsto": [
      1880762729,
      102191581,
      1880762179,
      85633159,
      404227469,
      101750367,
      136253055,
      1158857247,
      1880771825
    ],
    "wof:breaches": [],
    "wof:concordances": {
      "gp:id": 43344,
      "qs_pg:id": 22190,
      "wd:id": "Q149665"
    },
    "wof:country": "GB",
    "wof:created": 1497310683,
    "wof:geomhash": "1fc6112c834821fea0a354dbd9847eb3",
    "wof:hierarchy": [
      {
        "borough_id": 1158857247,
        "continent_id": 102191581,
        "country_id": 85633159,
        "county_id": 1880771825,
        "empire_id": 136253055,
        "locality_id": 101750367,
        "macrocounty_id": 1880762179,
        "macroregion_id": 404227469,
        "neighbourhood_id": 1126074693,
        "region_id": 1880762729
      }
    ],
    "wof:id": 1126074693,
    "wof:lastmodified": 1765388066,
    "wof:name": "Brunswick Park",
    "wof:parent_id": 1158857247,
    "wof:placetype": "neighbourhood",
    "wof:population": 16394,
    "wof:population_rank": 6,
    "wof:repo": "whosonfirst-data-admin-gb",
    "wof:superseded_by": [],
    "wof:supersedes": [],
    "wof:tags": []
  },
  "bbox": [
    -0.088684,
    51.47895,
    -0.088684,
    51.47895
  ],
  "geometry": {"type":"Point","coordinates":[-0.088684,51.47895]}
}
