{
  "id": 101873811,
  "type": "Feature",
  "properties": {
    "edtf:cessation": "",
    "edtf:inception": "",
    "geom:area": 0,
    "geom:area_square_m": 0,
    "geom:bbox": "-6.096464,54.701771,-6.096464,54.701771",
    "geom:latitude": 54.701771,
    "geom:longitude": -6.096464,
    "iso:country": "GB",
    "lbl:bbox": "-6.116464,54.681771,-6.076464,54.721771",
    "lbl:latitude": 54.701771,
    "lbl:longitude": -6.096463,
    "lbl:max_zoom": 18,
    "lbl:min_zoom": 13.5,
    "mps:latitude": 54.701771,
    "mps:longitude": -6.096463,
    "mz:hierarchy_label": 1,
    "mz:is_current": 1,
    "mz:min_zoom": 12,
    "name:ceb_x_preferred": [
      "Templepatrick"
    ],
    "name:eng_x_preferred": [
      "Templepatrick"
    ],
    "name:eus_x_preferred": [
      "Templepatrick"
    ],
    "name:fas_x_preferred": [
      "تمپل‌پاتریک"
    ],
    "name:fra_x_preferred": [
      "Templepatrick"
    ],
    "name:gla_x_preferred": [
      "Teampall Phádraig"
    ],
    "name:gle_x_preferred": [
      "Teampall Phádraig"
    ],
    "name:ita_x_preferred": [
      "Templepatrick"
    ],
    "name:jpn_x_preferred": [
      "テンプルパトリック"
    ],
    "name:msa_x_preferred": [
      "Templepatrick"
    ],
    "name:nld_x_preferred": [
      "Templepatrick"
    ],
    "name:pli_x_preferred": [
      "तेम्प्लेपत्रिच्क"
    ],
    "name:spa_x_preferred": [
      "Templepatrick"
    ],
    "name:swe_x_preferred": [
      "Templepatrick"
    ],
    "name:ukr_x_preferred": [
      "Темплпатрік"
    ],
    "qs:a0": "United Kingdom",
    "qs:a1": "*Antrim",
    "qs:a1_lc": "N_A",
    "qs:a1r": "0Northern Ireland",
    "qs:a1r_lc": "N_A",
    "qs:adm0": "United Kingdom",
    "qs:la_lc": "*",
    "qs:level": "locality",
    "qs:loc": "Templepatrick",
    "qs:loc_alt": "Templepatrick",
    "qs:pop": 0,
    "qs:source": "RCustom EuroGlobalMap + UMZ Urban Polygons + Geonames + GeoPlanet",
    "qs:type": "buffered point",
    "src:geom": "whosonfirst",
    "src:geom_alt": [
      "quattroshapes_pg",
      "quattroshapes"
    ],
    "src:geom_via": "quattroshapes",
    "src:lbl_centroid": "mapshaper",
    "src:population": "wikidata",
    "wd:latitude": 54.6833,
    "wd:longitude": -6.08333,
    "wd:wordcount": 473,
    "wof:belongsto": [
      1360699239,
      102191581,
      85633159,
      1880762225,
      404227473,
      136253055,
      1880762245
    ],
    "wof:breaches": [],
    "wof:concordances": {
      "fct:id": "0aa5a71a-8f76-11e1-848f-cfd5bf3ef515",
      "gn:id": 2636113,
      "gp:id": 45187,
      "qs_pg:id": 140650,
      "wd:id": "Q2223119",
      "wk:page": "Templepatrick"
    },
    "wof:country": "GB",
    "wof:created": 1765385093,
    "wof:geom_alt": [
      "quattroshapes",
      "quattroshapes_pg"
    ],
    "wof:geomhash": "cfdff1af5b1c84629c9f2c81206e2c00",
    "wof:hierarchy": [
      {
        "continent_id": 102191581,
        "country_id": 85633159,
        "county_id": 1880762245,
        "empire_id": 136253055,
        "locality_id": 101873811,
        "macrocounty_id": 1880762225,
        "macroregion_id": 404227473,
        "region_id": 1360699239
      }
    ],
    "wof:id": 101873811,
    "wof:lang": [
      "eng"
    ],
    "wof:lastmodified": 1765385093,
    "wof:name": "Templepatrick",
    "wof:parent_id": 1880762245,
    "wof:placetype": "locality",
    "wof:population": 1437,
    "wof:population_rank": 3,
    "wof:repo": "whosonfirst-data-admin-gb",
    "wof:superseded_by": [],
    "wof:supersedes": [],
    "wof:tags": []
  },
  "bbox": [
    -6.096464,
    54.701771,
    -6.096464,
    54.701771
  ],
  "geometry": {"type":"Point","coordinates":[-6.096464,54.701771]}
}
