{
  "id": 1326457271,
  "type": "Feature",
  "properties": {
    "edtf:cessation": "",
    "edtf:inception": "",
    "geom:area": 0,
    "geom:area_square_m": 0,
    "geom:bbox": "-3.876330,55.992960,-3.876330,55.992960",
    "geom:latitude": 55.99296,
    "geom:longitude": -3.87633,
    "gn:admin1_code": "SCT",
    "gn:admin2_code": "U9",
    "gn:asciiname": "High Bonnybridge",
    "gn:country_code": "GB",
    "gn:dem": 61,
    "gn:feature_class": "P",
    "gn:feature_code": "PPL",
    "gn:geonameid": 11592282,
    "gn:latitude": 55.99296,
    "gn:longitude": -3.87633,
    "gn:modification_date": "2017-06-14",
    "gn:name": "High Bonnybridge",
    "gn:population": 620,
    "gn:timezone": "Europe/London",
    "iso:country": "GB",
    "lbl:bbox": "-3.89633,55.97296,-3.85633,56.01296",
    "lbl:max_zoom": 17,
    "lbl:min_zoom": 12.5,
    "mz:hierarchy_label": 1,
    "mz:is_current": -1,
    "mz:min_zoom": 11,
    "name:eus_x_preferred": [
      "High Bonnybridge"
    ],
    "name:spa_x_preferred": [
      "High Bonnybridge"
    ],
    "src:geom": "geonames",
    "src:population": "wikidata",
    "wof:belongsto": [
      1880762131,
      1360698865
    ],
    "wof:breaches": [],
    "wof:concordances": {
      "gn:id": 11592282,
      "wk:page": "High_Bonnybridge"
    },
    "wof:country": "GB",
    "wof:created": 1765388878,
    "wof:geomhash": "91225045763e960865b3d8b5ee7676db",
    "wof:hierarchy": [
      {
        "continent_id": -1,
        "country_id": -1,
        "county_id": 1360698865,
        "locality_id": 1326457271,
        "macrocounty_id": 1880762131,
        "region_id": -1
      }
    ],
    "wof:id": 1326457271,
    "wof:lastmodified": 1765388878,
    "wof:name": "High Bonnybridge",
    "wof:parent_id": 1360698865,
    "wof:placetype": "locality",
    "wof:population": 580,
    "wof:population_rank": 2,
    "wof:repo": "whosonfirst-data-admin-gb",
    "wof:superseded_by": [],
    "wof:supersedes": [],
    "wof:tags": []
  },
  "bbox": [
    -3.87633,
    55.99296,
    -3.87633,
    55.99296
  ],
  "geometry": {"type":"Point","coordinates":[-3.87633,55.99296]}
}
