{
  "id": 101873589,
  "type": "Feature",
  "properties": {
    "edtf:cessation": "",
    "edtf:inception": "",
    "geom:area": 0,
    "geom:area_square_m": 0,
    "geom:bbox": "-3.213566,56.392066,-3.213566,56.392066",
    "geom:latitude": 56.392066,
    "geom:longitude": -3.213566,
    "iso:country": "GB",
    "lbl:bbox": "-3.233566,56.372066,-3.193566,56.412066",
    "lbl:latitude": 56.392067,
    "lbl:longitude": -3.213566,
    "lbl:max_zoom": 18,
    "lbl:min_zoom": 13.5,
    "mps:latitude": 56.392067,
    "mps:longitude": -3.213566,
    "mz:hierarchy_label": 1,
    "mz:is_current": 1,
    "mz:min_zoom": 12,
    "name:ceb_x_preferred": [
      "Errol"
    ],
    "name:cym_x_preferred": [
      "Errol"
    ],
    "name:deu_x_preferred": [
      "Errol"
    ],
    "name:eng_x_preferred": [
      "Errol"
    ],
    "name:eus_x_preferred": [
      "Errol"
    ],
    "name:fra_x_preferred": [
      "Errol"
    ],
    "name:jpn_x_preferred": [
      "エロル"
    ],
    "name:nld_x_preferred": [
      "Errol"
    ],
    "name:pli_x_preferred": [
      "हेलेन'स बी"
    ],
    "name:rus_x_preferred": [
      "Эррол"
    ],
    "name:sco_x_preferred": [
      "Errol"
    ],
    "name:spa_x_preferred": [
      "Errol"
    ],
    "name:swe_x_preferred": [
      "Errol"
    ],
    "qs:a0": "United Kingdom",
    "qs:a1": "*Perth and Kinross",
    "qs:a1_lc": "GB11RB0000",
    "qs:a1r": "0Scotland",
    "qs:a1r_lc": "GB11000000",
    "qs:adm0": "United Kingdom",
    "qs:id": 0,
    "qs:la_lc": "*",
    "qs:level": "locality",
    "qs:loc": "Errol",
    "qs:loc_alt": "Errol",
    "qs:pop": 0,
    "qs:source": "RCustom EuroGlobalMap + UMZ Urban Polygons + Geonames + GeoPlanet",
    "qs:type": "buffered point",
    "src:geom": "whosonfirst",
    "src:geom_alt": [
      "quattroshapes_pg",
      "quattroshapes"
    ],
    "src:geom_via": "quattroshapes",
    "src:lbl_centroid": "mapshaper",
    "src:population": "wikidata",
    "wd:latitude": 56.3915,
    "wd:longitude": -3.21321,
    "wd:wordcount": 418,
    "wof:belongsto": [
      1880772947,
      102191581,
      85633159,
      1880762043,
      404227471,
      136253055,
      1360698829
    ],
    "wof:breaches": [],
    "wof:concordances": {
      "gn:id": 2649921,
      "gp:id": 19670,
      "qs_pg:id": 1113539,
      "wd:id": "Q5395549",
      "wk:page": "Errol, Perth and Kinross"
    },
    "wof:country": "GB",
    "wof:created": 1765385076,
    "wof:geom_alt": [
      "quattroshapes_pg",
      "quattroshapes"
    ],
    "wof:geomhash": "4bf9112dfeea87adc09dcb2772eede1c",
    "wof:hierarchy": [
      {
        "continent_id": 102191581,
        "country_id": 85633159,
        "county_id": 1360698829,
        "empire_id": 136253055,
        "locality_id": 101873589,
        "macrocounty_id": 1880762043,
        "macroregion_id": 404227471,
        "region_id": 1880772947
      }
    ],
    "wof:id": 101873589,
    "wof:lastmodified": 1765385076,
    "wof:name": "Errol",
    "wof:parent_id": 1360698829,
    "wof:placetype": "locality",
    "wof:population": 1500,
    "wof:population_rank": 3,
    "wof:repo": "whosonfirst-data-admin-gb",
    "wof:superseded_by": [],
    "wof:supersedes": [],
    "wof:tags": []
  },
  "bbox": [
    -3.213566,
    56.392066,
    -3.213566,
    56.392066
  ],
  "geometry": {"type":"Point","coordinates":[-3.213566,56.392066]}
}
