{
  "id": 85788247,
  "type": "Feature",
  "properties": {
    "edtf:cessation": "",
    "edtf:inception": "",
    "geom:area": 0.00014593738549996114,
    "geom:area_square_m": 1066023.642159,
    "geom:bbox": "-1.560059,53.784426,-1.538086,53.795365",
    "geom:latitude": 53.78984265834723,
    "geom:longitude": -1.5486492256915616,
    "iso:country": "GB",
    "lbl:latitude": 53.787205,
    "lbl:longitude": -1.557016,
    "lbl:max_zoom": 18,
    "mps:latitude": 53.789294,
    "mps:longitude": -1.546453,
    "mz:hierarchy_label": 1,
    "mz:is_current": 1,
    "mz:is_funky": 0,
    "mz:is_hard_boundary": 0,
    "mz:is_landuse_aoi": 0,
    "mz:is_official": 0,
    "mz:max_zoom": 18,
    "mz:min_zoom": 13,
    "mz:tier_locality": 4,
    "mz:tier_metro": 30,
    "name:azb_x_preferred": [
      "هولبک"
    ],
    "name:eng_x_preferred": [
      "Holbeck"
    ],
    "name:fas_x_preferred": [
      "هولبک"
    ],
    "name:gle_x_preferred": [
      "Holbeck"
    ],
    "name:ind_x_preferred": [
      "Holbeck"
    ],
    "name:jpn_x_preferred": [
      "ホルベック"
    ],
    "name:lld_x_preferred": [
      "Holbeck"
    ],
    "name:nld_x_preferred": [
      "Holbeck"
    ],
    "name:pol_x_preferred": [
      "Holbeck"
    ],
    "name:swe_x_preferred": [
      "Holbeck"
    ],
    "name:urd_x_preferred": [
      "ہولبیک"
    ],
    "name:zho_x_preferred": [
      "霍尔贝克"
    ],
    "src:geom": "quattroshapes",
    "src:geom_alt": [
      "quattroshapes_pg"
    ],
    "src:lbl_centroid": "mz",
    "src:population": "wikidata",
    "wof:belongsto": [
      1880773017,
      102191581,
      85633159,
      1880762059,
      404227469,
      101750579,
      136253055,
      1360698749
    ],
    "wof:breaches": [],
    "wof:concordances": {
      "gn:id": 2646784,
      "gp:id": 23630,
      "qs_pg:id": 899760,
      "wd:id": "Q2210392",
      "wk:page": "Holbeck, Nottinghamshire"
    },
    "wof:country": "GB",
    "wof:created": 1765391071,
    "wof:geom_alt": [
      "quattroshapes_pg"
    ],
    "wof:geomhash": "9785d60f5cb0d22038aa0ff2c44e96bf",
    "wof:hierarchy": [
      {
        "continent_id": 102191581,
        "country_id": 85633159,
        "county_id": 1360698749,
        "empire_id": 136253055,
        "locality_id": 101750579,
        "macrocounty_id": 1880762059,
        "macroregion_id": 404227469,
        "neighbourhood_id": 85788247,
        "region_id": 1880773017
      }
    ],
    "wof:id": 85788247,
    "wof:lang": [
      "eng"
    ],
    "wof:lastmodified": 1765391071,
    "wof:name": "Holbeck",
    "wof:parent_id": 101750579,
    "wof:placetype": "neighbourhood",
    "wof:population": 5505,
    "wof:population_rank": 5,
    "wof:repo": "whosonfirst-data-admin-gb",
    "wof:superseded_by": [],
    "wof:supersedes": [],
    "wof:tags": []
  },
  "bbox": [
    -1.560059,
    53.784426,
    -1.538086,
    53.795365
  ],
  "geometry": {"type":"Polygon","coordinates":[[[-1.549072,53.795365],[-1.549072,53.794973],[-1.549072,53.794567],[-1.549072,53.794162],[-1.547699,53.794162],[-1.547352,53.794162],[-1.546326,53.794162],[-1.545863,53.794162],[-1.544042,53.794162],[-1.543579,53.794162],[-1.543579,53.793378],[-1.543579,53.792539],[-1.540833,53.792539],[-1.540833,53.790917],[-1.538086,53.790917],[-1.538086,53.789294],[-1.538086,53.787672],[-1.538781,53.786496],[-1.540833,53.787654],[-1.543579,53.786104],[-1.543579,53.785994],[-1.543579,53.784426],[-1.544505,53.784426],[-1.544505,53.784426],[-1.548146,53.784426],[-1.548146,53.784426],[-1.549072,53.784426],[-1.549072,53.786049],[-1.551819,53.786049],[-1.551819,53.787672],[-1.554565,53.787672],[-1.557312,53.787672],[-1.560059,53.787672],[-1.560059,53.789294],[-1.560059,53.790917],[-1.557312,53.790917],[-1.557312,53.791363],[-1.557312,53.792539],[-1.555939,53.792539],[-1.555939,53.793351],[-1.555707,53.793351],[-1.554565,53.793351],[-1.554565,53.794162],[-1.554102,53.794162],[-1.552363,53.794162],[-1.552265,53.79425],[-1.552122,53.794973],[-1.551819,53.794973],[-1.550677,53.794973],[-1.550446,53.795365],[-1.549759,53.794978],[-1.549072,53.795365]]]}
}
