{
  "id": 1209951889,
  "type": "Feature",
  "properties": {
    "edtf:cessation": "",
    "edtf:inception": "",
    "geom:area": 0,
    "geom:area_square_m": 0,
    "geom:bbox": "-6.183330,54.300000,-6.183330,54.300000",
    "geom:latitude": 54.3,
    "geom:longitude": -6.18333,
    "gn:admin1_code": "NIR",
    "gn:admin2_code": "N09000002",
    "gn:asciiname": "Annaclone",
    "gn:country_code": "GB",
    "gn:dem": 110,
    "gn:feature_class": "P",
    "gn:feature_code": "PPL",
    "gn:geonameid": 2657300,
    "gn:latitude": 54.3,
    "gn:longitude": -6.18333,
    "gn:modification_date": "2016-12-04",
    "gn:name": "Annaclone",
    "gn:population": 0,
    "gn:timezone": "Europe/London",
    "iso:country": "GB",
    "lbl:bbox": "-6.20333,54.28,-6.16333,54.32",
    "lbl:max_zoom": 18,
    "lbl:min_zoom": 13.5,
    "mz:hierarchy_label": 1,
    "mz:is_current": -1,
    "mz:min_zoom": 12,
    "name:ceb_x_preferred": [
      "Annaclone"
    ],
    "name:gle_x_preferred": [
      "Eanach Cluana"
    ],
    "name:msa_x_preferred": [
      "Annaclone"
    ],
    "name:pli_x_preferred": [
      "अन्नाक्लोने"
    ],
    "name:spa_x_preferred": [
      "Annaclone"
    ],
    "name:swe_x_preferred": [
      "Annaclone"
    ],
    "src:geom": "geonames",
    "src:population": "wikidata",
    "wof:belongsto": [
      1360699225,
      102191581,
      85633159,
      1880762227,
      404227473,
      136253055,
      1880762249
    ],
    "wof:breaches": [],
    "wof:concordances": {
      "gn:id": 2657300,
      "wk:page": "Annaclone"
    },
    "wof:country": "GB",
    "wof:created": 1765388192,
    "wof:geomhash": "43d831745ccd79b861223105669b5107",
    "wof:hierarchy": [
      {
        "continent_id": 102191581,
        "country_id": 85633159,
        "county_id": 1880762249,
        "empire_id": 136253055,
        "locality_id": 1209951889,
        "macrocounty_id": 1880762227,
        "macroregion_id": 404227473,
        "region_id": 1360699225
      }
    ],
    "wof:id": 1209951889,
    "wof:lastmodified": 1765388192,
    "wof:name": "Annaclone",
    "wof:parent_id": 1880762249,
    "wof:placetype": "locality",
    "wof:population": 150,
    "wof:population_rank": 1,
    "wof:repo": "whosonfirst-data-admin-gb",
    "wof:superseded_by": [],
    "wof:supersedes": [],
    "wof:tags": []
  },
  "bbox": [
    -6.18333,
    54.3,
    -6.18333,
    54.3
  ],
  "geometry": {"type":"Point","coordinates":[-6.18333,54.3]}
}
