{
  "id": 85785933,
  "type": "Feature",
  "properties": {
    "edtf:cessation": "",
    "edtf:inception": "",
    "geom:area": 0,
    "geom:area_square_m": 0,
    "geom:bbox": "-2.168078,53.357036,-2.168078,53.357036",
    "geom:latitude": 53.357036,
    "geom:longitude": -2.168078,
    "gn:latitude": 53.35801,
    "gn:longitude": -2.16539,
    "gn:population": 25506,
    "iso:country": "GB",
    "lbl:bbox": "-2.173078,53.352036,-2.163078,53.362036",
    "lbl:latitude": 53.357036,
    "lbl:longitude": -2.168078,
    "lbl:max_zoom": 18,
    "mps:latitude": 53.349489,
    "mps:longitude": -2.151096,
    "mz:hierarchy_label": 0,
    "mz:is_current": -1,
    "mz:is_funky": 0,
    "mz:is_hard_boundary": 0,
    "mz:is_landuse_aoi": 0,
    "mz:is_official": 0,
    "mz:max_zoom": 18,
    "mz:min_zoom": 14,
    "mz:tier_locality": 2,
    "mz:tier_metro": 1,
    "name:ast_x_preferred": [
      "Bramhall"
    ],
    "name:ceb_x_preferred": [
      "Bramhall"
    ],
    "name:cym_x_preferred": [
      "Bramhall"
    ],
    "name:eng_x_preferred": [
      "Bramhall"
    ],
    "name:fas_x_preferred": [
      "برامهال"
    ],
    "name:fra_x_preferred": [
      "Bramhall"
    ],
    "name:gle_x_preferred": [
      "Bramhall"
    ],
    "name:heb_x_preferred": [
      "ברמהול"
    ],
    "name:jpn_x_preferred": [
      "ブラムホール"
    ],
    "name:lld_x_preferred": [
      "Bramhall"
    ],
    "name:nld_x_preferred": [
      "Bramhall"
    ],
    "name:nno_x_preferred": [
      "Bramhall"
    ],
    "name:nob_x_preferred": [
      "Bramhall"
    ],
    "name:pol_x_preferred": [
      "Bramhall"
    ],
    "name:rus_x_preferred": [
      "Брэмхолл"
    ],
    "name:spa_x_preferred": [
      "Bramhall"
    ],
    "name:swe_x_preferred": [
      "Bramhall"
    ],
    "name:zho_x_preferred": [
      "布拉姆霍尔"
    ],
    "qs:gn_fcode": "PPL",
    "qs:gn_local": 0,
    "qs:gn_namadm1": "ENG",
    "qs:gn_name": "Bramhall",
    "qs:local_max": 3229,
    "qs:local_sum": 12301,
    "qs:localhoods": 8,
    "qs:name": "Bramhall",
    "qs:name_adm0": "United Kingdom",
    "qs:name_adm1": "England",
    "qs:name_adm2": "Greater Manchester",
    "qs:name_lau": "Stockport Metropolitan Borough",
    "qs:name_local": "Stockport",
    "qs:photo_max": 627,
    "qs:photo_sum": 2136,
    "qs:placetype": "Suburb",
    "qs:quad_count": 149,
    "qs:woe_adm0": 23424975,
    "qs:woe_adm1": 24554868,
    "qs:woe_adm2": 12602158,
    "qs:woe_lau": 12695845,
    "qs:woe_local": 36177,
    "qs:woe_ver": "7.10.0",
    "src:geom": "mz",
    "src:geom_alt": [
      "quattroshapes_pg",
      "quattroshapes"
    ],
    "src:lbl_centroid": "mz",
    "src:population": "wikidata",
    "wd:latitude": 53.35745,
    "wd:longitude": -2.164542,
    "wd:wordcount": 1396,
    "wof:belongsto": [
      1880773095,
      102191581,
      85633159,
      1880762163,
      404227469,
      101750527,
      136253055,
      1360698879
    ],
    "wof:breaches": [],
    "wof:concordances": {
      "gn:id": 2654927,
      "gp:id": 13624,
      "qs_pg:id": 1074110,
      "wd:id": "Q2161108",
      "wk:page": "Bramhall"
    },
    "wof:country": "GB",
    "wof:created": 1765390978,
    "wof:geom_alt": [
      "quattroshapes",
      "quattroshapes_pg"
    ],
    "wof:geomhash": "b0b53ce7d054338db70b88613911d212",
    "wof:hierarchy": [
      {
        "continent_id": 102191581,
        "country_id": 85633159,
        "county_id": 1360698879,
        "empire_id": 136253055,
        "locality_id": 101750527,
        "macrocounty_id": 1880762163,
        "macroregion_id": 404227469,
        "neighbourhood_id": 85785933,
        "region_id": 1880773095
      }
    ],
    "wof:id": 85785933,
    "wof:lang": [
      "eng"
    ],
    "wof:lastmodified": 1765390978,
    "wof:name": "Bramhall",
    "wof:parent_id": 101750527,
    "wof:placetype": "neighbourhood",
    "wof:population": 17195,
    "wof:population_rank": 6,
    "wof:repo": "whosonfirst-data-admin-gb",
    "wof:superseded_by": [],
    "wof:supersedes": [],
    "wof:tags": []
  },
  "bbox": [
    -2.168078,
    53.357036,
    -2.168078,
    53.357036
  ],
  "geometry": {"type":"Point","coordinates":[-2.168078,53.357036]}
}
