{
  "id": 85789609,
  "type": "Feature",
  "properties": {
    "edtf:cessation": "",
    "edtf:inception": "",
    "geom:area": 0,
    "geom:area_square_m": 0,
    "geom:bbox": "-2.285719,53.459961,-2.285719,53.459961",
    "geom:latitude": 53.459961,
    "geom:longitude": -2.285719,
    "gn:latitude": 53.45756,
    "gn:longitude": -2.28818,
    "iso:country": "GB",
    "lbl:bbox": "-2.290719,53.454961,-2.280719,53.464961",
    "lbl:latitude": 53.459961,
    "lbl:longitude": -2.285719,
    "lbl:max_zoom": 18,
    "mps:latitude": 53.459117,
    "mps:longitude": -2.264195,
    "mz:hierarchy_label": 0,
    "mz:is_current": -1,
    "mz:is_funky": 0,
    "mz:is_hard_boundary": 0,
    "mz:is_landuse_aoi": 0,
    "mz:is_official": 0,
    "mz:max_zoom": 18,
    "mz:min_zoom": 13,
    "mz:tier_locality": 2,
    "mz:tier_metro": 1,
    "name:azb_x_preferred": [
      "الدترافورد"
    ],
    "name:deu_x_preferred": [
      "Old Trafford"
    ],
    "name:eng_x_preferred": [
      "Old Trafford"
    ],
    "name:fas_x_preferred": [
      "الدترافورد"
    ],
    "name:gle_x_preferred": [
      "Old Trafford"
    ],
    "name:ind_x_preferred": [
      "Old Trafford"
    ],
    "name:jpn_x_preferred": [
      "オールド・トラフォード"
    ],
    "name:nld_x_preferred": [
      "Old Trafford"
    ],
    "name:nya_x_preferred": [
      "Old Trafford"
    ],
    "name:urd_x_preferred": [
      "اولڈ ٹریفرڈ"
    ],
    "name:zho_x_preferred": [
      "老特拉福德區"
    ],
    "qs:gn_fcode": "PPLX",
    "qs:gn_local": 0,
    "qs:gn_namadm1": "ENG",
    "qs:gn_name": "Old Trafford",
    "qs:local_max": 2766,
    "qs:local_sum": 4268,
    "qs:localhoods": 3,
    "qs:name": "Old Trafford",
    "qs:name_adm0": "United Kingdom",
    "qs:name_adm1": "England",
    "qs:name_adm2": "Greater Manchester",
    "qs:name_lau": "Manchester City",
    "qs:name_local": "Stretford",
    "qs:photo_max": 568,
    "qs:photo_sum": 1423,
    "qs:placetype": "Suburb",
    "qs:quad_count": 40,
    "qs:woe_adm0": 23424975,
    "qs:woe_adm1": 24554868,
    "qs:woe_adm2": 12602158,
    "qs:woe_lau": 12695841,
    "qs:woe_local": 36479,
    "qs:woe_ver": "7.10.0",
    "src:geom": "mz",
    "src:geom_alt": [
      "quattroshapes_pg",
      "quattroshapes"
    ],
    "src:lbl_centroid": "mz",
    "src:population": "wikidata",
    "wof:belongsto": [
      1880773095,
      102191581,
      1880762163,
      1360817437,
      85633159,
      404227469,
      1125882177,
      136253055,
      1360698935
    ],
    "wof:breaches": [],
    "wof:concordances": {
      "gn:id": 6691246,
      "gp:id": 30986,
      "qs_pg:id": 1141351,
      "wd:id": "Q1455478",
      "wk:page": "Old Trafford, Greater Manchester"
    },
    "wof:country": "GB",
    "wof:created": 1765391137,
    "wof:geom_alt": [
      "quattroshapes",
      "quattroshapes_pg"
    ],
    "wof:geomhash": "aa4f0631720f67e37c388894a0200bbc",
    "wof:hierarchy": [
      {
        "continent_id": 102191581,
        "country_id": 85633159,
        "county_id": 1360698935,
        "empire_id": 136253055,
        "localadmin_id": 1360817437,
        "locality_id": 1125882177,
        "macrocounty_id": 1880762163,
        "macroregion_id": 404227469,
        "neighbourhood_id": 85789609,
        "region_id": 1880773095
      }
    ],
    "wof:id": 85789609,
    "wof:lang": [
      "eng"
    ],
    "wof:lastmodified": 1765391137,
    "wof:name": "Old Trafford",
    "wof:parent_id": 1125882177,
    "wof:placetype": "neighbourhood",
    "wof:population": 13000,
    "wof:population_rank": 6,
    "wof:repo": "whosonfirst-data-admin-gb",
    "wof:superseded_by": [],
    "wof:supersedes": [],
    "wof:tags": []
  },
  "bbox": [
    -2.285719,
    53.459961,
    -2.285719,
    53.459961
  ],
  "geometry": {"type":"Point","coordinates":[-2.285719,53.459961]}
}
