{
  "id": 85786593,
  "type": "Feature",
  "properties": {
    "edtf:cessation": "",
    "edtf:inception": "",
    "geom:area": 0.0014308472390000472,
    "geom:area_square_m": 10979629.22048,
    "geom:bbox": "-0.025519,51.621190,0.034017,51.680852",
    "geom:latitude": 51.64121695618143,
    "geom:longitude": 0.006401123731996374,
    "gn:latitude": 51.63033,
    "gn:longitude": 0.00051,
    "iso:country": "GB",
    "lbl:latitude": 51.629227,
    "lbl:longitude": -0.001466,
    "lbl:max_zoom": 18,
    "mps:latitude": 51.634524,
    "mps:longitude": 0.005312,
    "mz:hierarchy_label": 1,
    "mz:is_current": -1,
    "mz:is_funky": 0,
    "mz:is_hard_boundary": 0,
    "mz:is_landuse_aoi": 0,
    "mz:is_official": 0,
    "mz:max_zoom": 18,
    "mz:min_zoom": 13,
    "mz:tier_locality": 7,
    "mz:tier_metro": 1,
    "name:ast_x_preferred": [
      "Chingford"
    ],
    "name:azb_x_preferred": [
      "چینقفورد"
    ],
    "name:cat_x_preferred": [
      "Chingford"
    ],
    "name:cym_x_preferred": [
      "Chingford"
    ],
    "name:dan_x_preferred": [
      "Chingford"
    ],
    "name:ell_x_preferred": [
      "Τσίνγκφορντ"
    ],
    "name:eng_x_preferred": [
      "Chingford"
    ],
    "name:fas_x_preferred": [
      "چینگفورد"
    ],
    "name:fra_x_preferred": [
      "Chingford"
    ],
    "name:gle_x_preferred": [
      "Chingford"
    ],
    "name:heb_x_preferred": [
      "צ'ינגפורד"
    ],
    "name:jpn_x_preferred": [
      "チングフォード"
    ],
    "name:lld_x_preferred": [
      "Chingford"
    ],
    "name:ltz_x_preferred": [
      "Chingford"
    ],
    "name:nld_x_preferred": [
      "Chingford"
    ],
    "name:nno_x_preferred": [
      "Chingford"
    ],
    "name:nob_x_preferred": [
      "Chingford"
    ],
    "name:nor_x_preferred": [
      "Chingford"
    ],
    "name:rus_x_preferred": [
      "Чингфорд"
    ],
    "name:swe_x_preferred": [
      "Chingford"
    ],
    "name:swe_x_variant": [
      "Chinley"
    ],
    "name:tur_x_preferred": [
      "Chingford"
    ],
    "name:urd_x_preferred": [
      "چنگفورڈ"
    ],
    "name:vie_x_preferred": [
      "Chingford"
    ],
    "name:zho_x_preferred": [
      "清福德"
    ],
    "qs:gn_adm0_cc": "GB",
    "qs:gn_fcode": "PPL",
    "qs:gn_local": 2643743,
    "qs:gn_namadm1": "ENG",
    "qs:gn_name": "Chingford",
    "qs:local_max": 40697,
    "qs:local_sum": 1675717,
    "qs:localhoods": 643,
    "qs:name": "Chingford",
    "qs:name_adm0": "United Kingdom",
    "qs:name_adm1": "England",
    "qs:name_adm2": "Greater London",
    "qs:name_lau": "London Borough of Waltham Forest",
    "qs:name_local": "London",
    "qs:photo_max": 865,
    "qs:photo_sum": 5801,
    "qs:placetype": "Suburb",
    "qs:quad_count": 155,
    "qs:woe_adm0": 23424975,
    "qs:woe_adm1": 24554868,
    "qs:woe_adm2": 23416974,
    "qs:woe_lau": 12695838,
    "qs:woe_local": 44418,
    "qs:woe_ver": "7.10.0",
    "src:geom": "quattroshapes",
    "src:geom_alt": [
      "quattroshapes_pg"
    ],
    "src:lbl_centroid": "mz",
    "src:population": "wikidata",
    "wd:latitude": 51.631,
    "wd:longitude": 0.016,
    "wd:wordcount": 2646,
    "wof:belongsto": [
      1880762729,
      102191581,
      1880762179,
      85633159,
      404227469,
      101750367,
      136253055,
      1158857287,
      1880771825
    ],
    "wof:breaches": [],
    "wof:concordances": {
      "gn:id": 2653148,
      "gp:id": 15946,
      "qs_pg:id": 2646,
      "wd:id": "Q3778007",
      "wk:page": "Chingford"
    },
    "wof:country": "GB",
    "wof:created": 1765390997,
    "wof:geom_alt": [
      "quattroshapes_pg"
    ],
    "wof:geomhash": "07f9f9170d09001c717c83adc0227a58",
    "wof:hierarchy": [
      {
        "borough_id": 1158857287,
        "continent_id": 102191581,
        "country_id": 85633159,
        "county_id": 1880771825,
        "empire_id": 136253055,
        "locality_id": 101750367,
        "macrocounty_id": 1880762179,
        "macroregion_id": 404227469,
        "neighbourhood_id": 85786593,
        "region_id": 1880762729
      }
    ],
    "wof:id": 85786593,
    "wof:lang": [
      "eng"
    ],
    "wof:lastmodified": 1765390997,
    "wof:name": "Chingford",
    "wof:parent_id": 1158857287,
    "wof:placetype": "neighbourhood",
    "wof:population": 70583,
    "wof:population_rank": 8,
    "wof:repo": "whosonfirst-data-admin-gb",
    "wof:superseded_by": [],
    "wof:supersedes": [],
    "wof:tags": []
  },
  "bbox": [
    -0.025519,
    51.62119,
    0.034017,
    51.680852
  ],
  "geometry": {"type":"MultiPolygon","coordinates":[[[[0.013944,51.656198],[0.016479,51.652111],[0.016479,51.652111],[0.016479,51.652111],[0.017537,51.650407],[0.021973,51.650407],[0.026408,51.650407],[0.027466,51.648703],[0.027466,51.648703],[0.027466,51.648703],[0.029581,51.645294],[0.029581,51.645294],[0.030844,51.645294],[0.032959,51.641885],[0.032959,51.641885],[0.032959,51.641885],[0.032959,51.638476],[0.032959,51.638476],[0.034017,51.636771],[0.032959,51.635067],[0.032959,51.635067],[0.028417,51.635067],[0.027466,51.633534],[0.027466,51.631657],[0.027466,51.631657],[0.025349,51.628247],[0.025349,51.628247],[0.024089,51.628247],[0.024089,51.628247],[0.021973,51.628247],[0.016725,51.628247],[0.016479,51.62801],[0.01426,51.625864],[0.014533,51.624837],[0.014512,51.624597],[0.011232,51.621427],[0.010986,51.62119],[0.01025,51.621427],[0.00824,51.622075],[0.00623,51.621427],[0.005493,51.62119],[0.005248,51.621427],[0,51.621427],[-0.005493,51.621427],[-0.010035,51.621427],[-0.010035,51.621427],[-0.010986,51.621427],[-0.010986,51.624837],[-0.011723,51.624837],[-0.013733,51.62419],[-0.015743,51.624837],[-0.016479,51.624837],[-0.016725,51.624837],[-0.016725,51.624837],[-0.021973,51.624837],[-0.02409,51.624837],[-0.024719,51.625344],[-0.024719,51.627125],[-0.025217,51.628247],[-0.025519,51.631657],[-0.024742,51.634577],[-0.024261,51.634789],[-0.021973,51.638476],[-0.021973,51.638476],[-0.021973,51.638476],[-0.020005,51.641647],[-0.016725,51.638476],[-0.016479,51.638476],[-0.016479,51.638476],[-0.014791,51.638476],[-0.011786,51.640897],[-0.011569,51.640947],[-0.010986,51.641885],[-0.010986,51.641885],[-0.010986,51.641885],[-0.008871,51.645294],[-0.007608,51.645294],[-0.005706,51.646827],[-0.002853,51.645294],[0,51.645294],[0.000291,51.645763],[0.001373,51.646012],[0.002456,51.645763],[0.002747,51.646232],[0.002747,51.646998],[0.003222,51.646998],[0.003751,51.64785],[0.005493,51.64785],[0.005493,51.648703],[0.010986,51.648703],[0.010986,51.652111],[0.010986,51.653815],[0.013944,51.656198]]],[[[0.013733,51.680852],[0.015684,51.68066],[0.01756,51.680091],[0.019289,51.679166],[0.020804,51.677923],[0.022048,51.676407],[0.022972,51.674679],[0.023541,51.672803],[0.023665,51.671539],[0.023666,51.671539],[0.022902,51.669692],[0.015874,51.662138],[0.015776,51.662107],[0.006197,51.665968],[0.009296,51.675962],[0.011408,51.679368],[0.012717,51.680775],[0.012715,51.680752],[0.013733,51.680852]]]]}
}
