{
  "id": 101872639,
  "type": "Feature",
  "properties": {
    "edtf:cessation": "",
    "edtf:inception": "",
    "geom:area": 0,
    "geom:area_square_m": 0,
    "geom:bbox": "-3.264526,56.547841,-3.264526,56.547841",
    "geom:latitude": 56.547841,
    "geom:longitude": -3.264526,
    "iso:country": "GB",
    "lbl:bbox": "-3.284526,56.527841,-3.244526,56.567841",
    "lbl:latitude": 56.547842,
    "lbl:longitude": -3.264526,
    "lbl:max_zoom": 18,
    "lbl:min_zoom": 13.5,
    "mps:latitude": 56.547842,
    "mps:longitude": -3.264526,
    "mz:hierarchy_label": 1,
    "mz:is_current": 1,
    "mz:min_zoom": 12,
    "name:ast_x_preferred": [
      "Coupar Angus"
    ],
    "name:ceb_x_preferred": [
      "Coupar Angus"
    ],
    "name:cym_x_preferred": [
      "Coupar Angus"
    ],
    "name:deu_x_preferred": [
      "Coupar Angus"
    ],
    "name:eng_x_preferred": [
      "Coupar Angus"
    ],
    "name:eus_x_preferred": [
      "Coupar Angus"
    ],
    "name:fas_x_preferred": [
      "کوپار آنگس"
    ],
    "name:fra_x_preferred": [
      "Coupar Angus"
    ],
    "name:gla_x_preferred": [
      "Cupar Aonghais"
    ],
    "name:gla_x_variant": [
      "Cùbar Aonghais"
    ],
    "name:gle_x_preferred": [
      "Cúbar Aonghais"
    ],
    "name:gle_x_variant": [
      "Cùbar Aonghais"
    ],
    "name:heb_x_preferred": [
      "קופר אנגוס"
    ],
    "name:hun_x_preferred": [
      "Coupar Angus"
    ],
    "name:ita_x_preferred": [
      "Coupar Angus"
    ],
    "name:jpn_x_preferred": [
      "クパー・アンガス"
    ],
    "name:nld_x_preferred": [
      "Coupar Angus"
    ],
    "name:nno_x_preferred": [
      "Coupar Angus"
    ],
    "name:nob_x_preferred": [
      "Coupar Angus"
    ],
    "name:nor_x_preferred": [
      "Coupar Angus"
    ],
    "name:pol_x_preferred": [
      "Coupar Angus"
    ],
    "name:rus_x_preferred": [
      "Копар-Ангус"
    ],
    "name:rus_x_variant": [
      "Копар Ангус",
      "Купар-Ангус"
    ],
    "name:sco_x_preferred": [
      "Coupar Angus"
    ],
    "name:spa_x_preferred": [
      "Coupar Angus"
    ],
    "name:swe_x_preferred": [
      "Coupar Angus"
    ],
    "name:zho_x_preferred": [
      "库珀安格斯"
    ],
    "qs:a0": "United Kingdom",
    "qs:a1": "*Perth and Kinross",
    "qs:a1_lc": "GB11RB0000",
    "qs:a1r": "0Scotland",
    "qs:a1r_lc": "GB11000000",
    "qs:adm0": "United Kingdom",
    "qs:id": 0,
    "qs:la_lc": "*",
    "qs:level": "locality",
    "qs:loc": "Coupar Angus",
    "qs:loc_alt": "Coupar Angus",
    "qs:pop": 0,
    "qs:source": "RCustom EuroGlobalMap + UMZ Urban Polygons + Geonames + GeoPlanet",
    "qs:type": "buffered point",
    "src:geom": "whosonfirst",
    "src:geom_alt": [
      "quattroshapes_pg",
      "quattroshapes"
    ],
    "src:geom_via": "quattroshapes",
    "src:lbl_centroid": "mapshaper",
    "src:population": "wikidata",
    "wd:latitude": 56.546425,
    "wd:longitude": -3.266958,
    "wd:wordcount": 436,
    "wof:belongsto": [
      1880772947,
      102191581,
      85633159,
      1880762043,
      404227471,
      136253055,
      1360698829
    ],
    "wof:breaches": [],
    "wof:concordances": {
      "gn:id": 2652236,
      "gp:id": 17017,
      "qs_pg:id": 1286545,
      "wd:id": "Q1011681",
      "wk:page": "Coupar Angus"
    },
    "wof:country": "GB",
    "wof:created": 1765384904,
    "wof:geom_alt": [
      "quattroshapes_pg",
      "quattroshapes"
    ],
    "wof:geomhash": "bf99b6d647c0c11e630dac0199c12efb",
    "wof:hierarchy": [
      {
        "continent_id": 102191581,
        "country_id": 85633159,
        "county_id": 1360698829,
        "empire_id": 136253055,
        "locality_id": 101872639,
        "macrocounty_id": 1880762043,
        "macroregion_id": 404227471,
        "region_id": 1880772947
      }
    ],
    "wof:id": 101872639,
    "wof:lastmodified": 1765384904,
    "wof:name": "Coupar Angus",
    "wof:parent_id": 1360698829,
    "wof:placetype": "locality",
    "wof:population": 2350,
    "wof:population_rank": 4,
    "wof:repo": "whosonfirst-data-admin-gb",
    "wof:superseded_by": [],
    "wof:supersedes": [],
    "wof:tags": []
  },
  "bbox": [
    -3.264526,
    56.547841,
    -3.264526,
    56.547841
  ],
  "geometry": {"type":"Point","coordinates":[-3.264526,56.547841]}
}
