{
  "id": 1360808337,
  "type": "Feature",
  "properties": {
    "edtf:cessation": "",
    "edtf:inception": "",
    "geom:area": 0,
    "geom:area_square_m": 0,
    "geom:bbox": "-1.150560,51.765480,-1.150560,51.765480",
    "geom:latitude": 51.76548,
    "geom:longitude": -1.15056,
    "gn:admin1_code": "ENG",
    "gn:admin2_code": "K2",
    "gn:admin3_code": "38UD",
    "gn:admin4_code": "38UD030",
    "gn:asciiname": "Forest Hill",
    "gn:country_code": "GB",
    "gn:dem": 100,
    "gn:feature_class": "P",
    "gn:feature_code": "PPL",
    "gn:geonameid": 11593192,
    "gn:latitude": 51.76548,
    "gn:longitude": -1.15056,
    "gn:modification_date": "2017-06-21",
    "gn:name": "Forest Hill",
    "gn:population": 0,
    "gn:timezone": "Europe/London",
    "iso:country": "GB",
    "lbl:bbox": "-1.15556,51.76048,-1.14556,51.77048",
    "lbl:max_zoom": 18,
    "mz:hierarchy_label": 1,
    "mz:is_current": 1,
    "mz:min_zoom": 15,
    "name:ceb_x_preferred": [
      "Forest Hill"
    ],
    "name:deu_x_preferred": [
      "Forest Hill"
    ],
    "name:ita_x_preferred": [
      "Forest Hill"
    ],
    "name:mlg_x_preferred": [
      "Forest Hill"
    ],
    "name:nld_x_preferred": [
      "Forest Hill"
    ],
    "name:pol_x_preferred": [
      "Forest Hill"
    ],
    "name:por_x_preferred": [
      "Forest Hill"
    ],
    "name:spa_x_preferred": [
      "Forest Hill"
    ],
    "name:srp_x_preferred": [
      "Форист Хил"
    ],
    "name:swe_x_preferred": [
      "Forest Hill"
    ],
    "src:geom": "geonames",
    "src:population": "wikidata",
    "wof:belongsto": [
      1880762695,
      102191581,
      1880762079,
      404439089,
      85633159,
      404227469,
      1360755195,
      136253055,
      1880771611
    ],
    "wof:breaches": [],
    "wof:concordances": {
      "gn:id": 11593192
    },
    "wof:country": "GB",
    "wof:created": 1765390596,
    "wof:geomhash": "bc16db1e2bf33c9a7f15454c1fa3d1a9",
    "wof:hierarchy": [
      {
        "continent_id": 102191581,
        "country_id": 85633159,
        "county_id": 1880771611,
        "empire_id": 136253055,
        "localadmin_id": 404439089,
        "locality_id": 1360755195,
        "macrocounty_id": 1880762079,
        "macroregion_id": 404227469,
        "neighbourhood_id": 1360808337,
        "region_id": 1880762695
      }
    ],
    "wof:id": 1360808337,
    "wof:lastmodified": 1765390596,
    "wof:name": "Forest Hill",
    "wof:parent_id": 1360755195,
    "wof:placetype": "neighbourhood",
    "wof:population": 557,
    "wof:population_rank": 2,
    "wof:repo": "whosonfirst-data-admin-gb",
    "wof:superseded_by": [],
    "wof:supersedes": [
      1309739395
    ],
    "wof:tags": []
  },
  "bbox": [
    -1.15056,
    51.76548,
    -1.15056,
    51.76548
  ],
  "geometry": {"type":"Point","coordinates":[-1.15056,51.76548]}
}
