{
  "id": 85790401,
  "type": "Feature",
  "properties": {
    "edtf:cessation": "",
    "edtf:inception": "",
    "geom:area": 0.00011254929900001795,
    "geom:area_square_m": 864758.109895,
    "geom:bbox": "0.013733,51.576687,0.028418,51.588841",
    "geom:latitude": 51.58267547641162,
    "geom:longitude": 0.02091582152628896,
    "gn:latitude": 51.58432,
    "gn:longitude": 0.01923,
    "iso:country": "GB",
    "lbl:latitude": 51.582436,
    "lbl:longitude": 0.021743,
    "lbl:max_zoom": 18,
    "mps:latitude": 51.583029,
    "mps:longitude": 0.020919,
    "mz:hierarchy_label": 1,
    "mz:is_current": -1,
    "mz:is_funky": 0,
    "mz:is_hard_boundary": 0,
    "mz:is_landuse_aoi": 0,
    "mz:is_official": 0,
    "mz:max_zoom": 18,
    "mz:min_zoom": 14,
    "mz:tier_locality": 7,
    "mz:tier_metro": 1,
    "name:eng_x_preferred": [
      "Snaresbrook"
    ],
    "name:fra_x_preferred": [
      "Snaresbrook"
    ],
    "name:gle_x_preferred": [
      "Snaresbrook"
    ],
    "name:hin_x_preferred": [
      "स्नेर्सब्रुक"
    ],
    "name:ita_x_preferred": [
      "Snaresbrook"
    ],
    "name:nld_x_preferred": [
      "Snaresbrook"
    ],
    "name:nno_x_preferred": [
      "Snaresbrook"
    ],
    "name:nob_x_preferred": [
      "Snaresbrook"
    ],
    "name:pol_x_preferred": [
      "Snaresbrook"
    ],
    "name:swe_x_preferred": [
      "Snaresbrook"
    ],
    "name:urd_x_preferred": [
      "سنیریس بروک"
    ],
    "name:zho_x_preferred": [
      "斯尼亞斯布羅克"
    ],
    "qs:gn_adm0_cc": "GB",
    "qs:gn_fcode": "PPL",
    "qs:gn_local": 2643743,
    "qs:gn_namadm1": "ENG",
    "qs:gn_name": "Snaresbrook",
    "qs:local_max": 40697,
    "qs:local_sum": 1675717,
    "qs:localhoods": 643,
    "qs:name": "Snaresbrook",
    "qs:name_adm0": "United Kingdom",
    "qs:name_adm1": "England",
    "qs:name_adm2": "Greater London",
    "qs:name_lau": "London Borough of Redbridge",
    "qs:name_local": "London",
    "qs:photo_max": 111,
    "qs:photo_sum": 760,
    "qs:placetype": "Suburb",
    "qs:quad_count": 32,
    "qs:woe_adm0": 23424975,
    "qs:woe_adm1": 24554868,
    "qs:woe_adm2": 23416974,
    "qs:woe_lau": 12695835,
    "qs:woe_local": 44418,
    "qs:woe_ver": "7.10.0",
    "src:geom": "quattroshapes",
    "src:geom_alt": [
      "quattroshapes_pg"
    ],
    "src:lbl_centroid": "mz",
    "src:population": "wikidata",
    "wd:wordcount": 284,
    "wof:belongsto": [
      1880762729,
      102191581,
      1880762179,
      85633159,
      404227469,
      101750367,
      136253055,
      1158857291,
      1880771825
    ],
    "wof:breaches": [],
    "wof:concordances": {
      "gn:id": 2637595,
      "gp:id": 35060,
      "qs_pg:id": 1165437,
      "wd:id": "Q2612131",
      "wk:page": "Snaresbrook"
    },
    "wof:country": "GB",
    "wof:created": 1765391178,
    "wof:geom_alt": [
      "quattroshapes_pg"
    ],
    "wof:geomhash": "2ecd139eada00a1e34ad1d2c98e61e1f",
    "wof:hierarchy": [
      {
        "borough_id": 1158857291,
        "continent_id": 102191581,
        "country_id": 85633159,
        "county_id": 1880771825,
        "empire_id": 136253055,
        "locality_id": 101750367,
        "macrocounty_id": 1880762179,
        "macroregion_id": 404227469,
        "neighbourhood_id": 85790401,
        "region_id": 1880762729
      }
    ],
    "wof:id": 85790401,
    "wof:lang": [
      "eng"
    ],
    "wof:lastmodified": 1765391178,
    "wof:name": "Snaresbrook",
    "wof:parent_id": 1158857291,
    "wof:placetype": "neighbourhood",
    "wof:population": 11868,
    "wof:population_rank": 6,
    "wof:repo": "whosonfirst-data-admin-gb",
    "wof:superseded_by": [],
    "wof:supersedes": [],
    "wof:tags": []
  },
  "bbox": [
    0.013733,
    51.576687,
    0.028418,
    51.588841
  ],
  "geometry": {"type":"Polygon","coordinates":[[[0.028064,51.58219],[0.028418,51.580483],[0.024719,51.580483],[0.024719,51.578776],[0.021973,51.578776],[0.021973,51.57707],[0.019117,51.57707],[0.018403,51.576687],[0.017447,51.576994],[0.017431,51.57707],[0.016479,51.57707],[0.016479,51.580483],[0.013733,51.580483],[0.013733,51.58219],[0.013733,51.583897],[0.013733,51.583955],[0.016479,51.585428],[0.016479,51.58731],[0.016479,51.58731],[0.021021,51.58731],[0.021973,51.588841],[0.024719,51.587368],[0.024719,51.58731],[0.024719,51.585603],[0.027466,51.585603],[0.028064,51.585603],[0.028418,51.583897],[0.028418,51.583897],[0.028064,51.58219]]]}
}
