{
  "id": 85787245,
  "type": "Feature",
  "properties": {
    "edtf:cessation": "",
    "edtf:inception": "",
    "geom:area": 0.00040430409300003413,
    "geom:area_square_m": 3103846.71358,
    "geom:bbox": "-0.288391,51.602561,-0.258179,51.643928",
    "geom:latitude": 51.62060134320457,
    "geom:longitude": -0.27475231100855857,
    "iso:country": "GB",
    "lbl:latitude": 51.610161,
    "lbl:longitude": -0.275254,
    "lbl:max_zoom": 18,
    "mps:latitude": 51.612481,
    "mps:longitude": -0.270913,
    "mz:hierarchy_label": 1,
    "mz:is_current": -1,
    "mz:is_funky": 0,
    "mz:is_hard_boundary": 0,
    "mz:is_landuse_aoi": 0,
    "mz:is_official": 0,
    "mz:max_zoom": 18,
    "mz:min_zoom": 13,
    "mz:tier_locality": 7,
    "mz:tier_metro": 1,
    "name:azb_x_preferred": [
      "اجور"
    ],
    "name:cat_x_preferred": [
      "Edgware"
    ],
    "name:ceb_x_preferred": [
      "Edgware"
    ],
    "name:cym_x_preferred": [
      "Edgware"
    ],
    "name:dan_x_preferred": [
      "Edgware"
    ],
    "name:ell_x_preferred": [
      "Έτζγουεαρ"
    ],
    "name:eng_x_preferred": [
      "Edgware"
    ],
    "name:fas_x_preferred": [
      "ادجوار"
    ],
    "name:fin_x_preferred": [
      "Edgware"
    ],
    "name:fra_x_preferred": [
      "Edgware"
    ],
    "name:gle_x_preferred": [
      "Edgware"
    ],
    "name:heb_x_preferred": [
      "אדג'וור"
    ],
    "name:hin_x_preferred": [
      "एजवेयर"
    ],
    "name:ita_x_preferred": [
      "Edgware"
    ],
    "name:jpn_x_preferred": [
      "エッジウェア"
    ],
    "name:nld_x_preferred": [
      "Edgware"
    ],
    "name:nob_x_preferred": [
      "Edgware"
    ],
    "name:nor_x_preferred": [
      "Edgware"
    ],
    "name:pol_x_preferred": [
      "Edgware"
    ],
    "name:por_x_preferred": [
      "Edgware"
    ],
    "name:slv_x_preferred": [
      "Edgware"
    ],
    "name:spa_x_preferred": [
      "Edgware"
    ],
    "name:swe_x_preferred": [
      "Edgware"
    ],
    "name:ukr_x_preferred": [
      "Еджвер"
    ],
    "name:urd_x_preferred": [
      "ایجویر، لنڈن"
    ],
    "name:urd_x_variant": [
      "ایجویر"
    ],
    "name:yid_x_preferred": [
      "עדזשווער"
    ],
    "name:zho_x_preferred": [
      "埃奇韋爾"
    ],
    "qs:gn_adm0_cc": "GB",
    "qs:gn_fcode": "PPL",
    "qs:gn_local": 2643743,
    "qs:gn_namadm1": "ENG",
    "qs:gn_name": "Edgware",
    "qs:local_max": 40697,
    "qs:local_sum": 1675717,
    "qs:localhoods": 643,
    "qs:name": "Edgware",
    "qs:name_adm0": "United Kingdom",
    "qs:name_adm1": "England",
    "qs:name_adm2": "Greater London",
    "qs:name_lau": "London Borough of Barnet",
    "qs:name_local": "London",
    "qs:photo_max": 117,
    "qs:photo_sum": 392,
    "qs:placetype": "Suburb",
    "qs:quad_count": 26,
    "qs:woe_adm0": 23424975,
    "qs:woe_adm1": 24554868,
    "qs:woe_adm2": 23416974,
    "qs:woe_funk": "Grouping neighborhood",
    "qs:woe_lau": 12695821,
    "qs:woe_local": 44418,
    "qs:woe_ver": "7.10.0",
    "src:geom": "quattroshapes",
    "src:geom_alt": [
      "quattroshapes_pg"
    ],
    "src:lbl_centroid": "mz",
    "src:population": "wikidata",
    "wd:wordcount": 1431,
    "wof:belongsto": [
      1880762729,
      102191581,
      1880762179,
      85633159,
      404227469,
      101750367,
      136253055,
      1158857285,
      1880771825
    ],
    "wof:breaches": [
      85790773
    ],
    "wof:concordances": {
      "gn:id": 2650228,
      "gp:id": 19341,
      "qs_pg:id": 900398,
      "wd:id": "Q149651",
      "wk:page": "Edgware"
    },
    "wof:country": "GB",
    "wof:created": 1765391026,
    "wof:geom_alt": [
      "quattroshapes_pg"
    ],
    "wof:geomhash": "a5de876b1b168b93369a9a61c495c6e3",
    "wof:hierarchy": [
      {
        "borough_id": 1158857285,
        "continent_id": 102191581,
        "country_id": 85633159,
        "county_id": 1880771825,
        "empire_id": 136253055,
        "locality_id": 101750367,
        "macrocounty_id": 1880762179,
        "macroregion_id": 404227469,
        "neighbourhood_id": 85787245,
        "region_id": 1880762729
      }
    ],
    "wof:id": 85787245,
    "wof:lang": [
      "eng"
    ],
    "wof:lastmodified": 1765391026,
    "wof:name": "Edgware",
    "wof:parent_id": 1158857285,
    "wof:placetype": "neighbourhood",
    "wof:population": 58619,
    "wof:population_rank": 8,
    "wof:repo": "whosonfirst-data-admin-gb",
    "wof:superseded_by": [],
    "wof:supersedes": [],
    "wof:tags": []
  },
  "bbox": [
    -0.288391,
    51.602561,
    -0.258179,
    51.643928
  ],
  "geometry": {"type":"MultiPolygon","coordinates":[[[[-0.271091,51.6184],[-0.269902,51.618017],[-0.269165,51.618017],[-0.263672,51.618017],[-0.258179,51.618017],[-0.258179,51.618016],[-0.258179,51.614606],[-0.258179,51.614606],[-0.258179,51.611195],[-0.258179,51.611195],[-0.263672,51.611195],[-0.263672,51.607783],[-0.263672,51.607783],[-0.269165,51.607783],[-0.269165,51.604372],[-0.269165,51.604372],[-0.274658,51.604372],[-0.275242,51.603432],[-0.279027,51.602561],[-0.280151,51.604372],[-0.280151,51.604372],[-0.280151,51.606251],[-0.282898,51.607725],[-0.282898,51.607783],[-0.282898,51.609489],[-0.282077,51.610812],[-0.281751,51.610916],[-0.281578,51.611195],[-0.280865,51.612344],[-0.28075,51.6129],[-0.280151,51.6129],[-0.277405,51.6129],[-0.277405,51.614606],[-0.277405,51.614663],[-0.274658,51.616138],[-0.274658,51.616484],[-0.274658,51.618017],[-0.271804,51.618017],[-0.271091,51.6184]]],[[[-0.274658,51.628247],[-0.275717,51.626542],[-0.279093,51.626542],[-0.280151,51.628247],[-0.285645,51.628247],[-0.287762,51.628247],[-0.288391,51.628755],[-0.288391,51.631149],[-0.287761,51.631657],[-0.285645,51.635067],[-0.285645,51.635067],[-0.285645,51.638476],[-0.285645,51.638476],[-0.285644,51.638476],[-0.283529,51.641885],[-0.280993,51.643928],[-0.277405,51.642483],[-0.277405,51.639492],[-0.274658,51.635067],[-0.274658,51.635067],[-0.274658,51.635067],[-0.274658,51.631657],[-0.274658,51.631657],[-0.2736,51.629952],[-0.274658,51.628248],[-0.274658,51.628247]]]]}
}
