{
  "id": 1125846863,
  "type": "Feature",
  "properties": {
    "edtf:cessation": "",
    "edtf:inception": "",
    "geom:area": 0,
    "geom:area_square_m": 0,
    "geom:bbox": "-2.176760,57.205220,-2.176760,57.205220",
    "geom:latitude": 57.20522,
    "geom:longitude": -2.17676,
    "gn:country": "GB",
    "gn:fcode": "PPL",
    "gn:population": 5375,
    "iso:country": "GB",
    "lbl:bbox": "-2.19676,57.18522,-2.15676,57.22522",
    "lbl:latitude": 57.20522,
    "lbl:longitude": -2.17676,
    "lbl:max_zoom": 15,
    "lbl:min_zoom": 11,
    "mz:hierarchy_label": 1,
    "mz:is_current": 1,
    "mz:min_zoom": 11,
    "mz:note": "Quattroshapes Point Gazetteer import 20170519",
    "name:ast_x_preferred": [
      "Dyce"
    ],
    "name:ben_x_preferred": [
      "ডাইচ"
    ],
    "name:ceb_x_preferred": [
      "Dyce"
    ],
    "name:deu_x_preferred": [
      "Dyce"
    ],
    "name:eng_x_preferred": [
      "Dyce"
    ],
    "name:eus_x_preferred": [
      "Dyce"
    ],
    "name:fra_x_preferred": [
      "Dyce"
    ],
    "name:gla_x_preferred": [
      "Deis"
    ],
    "name:gle_x_preferred": [
      "Deis"
    ],
    "name:guj_x_preferred": [
      "ડાઈસ"
    ],
    "name:jpn_x_preferred": [
      "ダイス"
    ],
    "name:kan_x_preferred": [
      "ಡೈಸ್"
    ],
    "name:kor_x_preferred": [
      "다이스"
    ],
    "name:lit_x_preferred": [
      "Daisas"
    ],
    "name:nld_x_preferred": [
      "Dyce"
    ],
    "name:por_x_preferred": [
      "Dyce"
    ],
    "name:rus_x_preferred": [
      "Дайс"
    ],
    "name:sco_x_preferred": [
      "Dyce"
    ],
    "name:spa_x_preferred": [
      "Dyce"
    ],
    "name:swe_x_preferred": [
      "Dyce"
    ],
    "name:tam_x_preferred": [
      "ட்யஸ்"
    ],
    "name:tel_x_preferred": [
      "డైస్"
    ],
    "name:urd_x_preferred": [
      "دیکی"
    ],
    "qs_pg:aaroncc": "GB",
    "qs_pg:gn_country": "GB",
    "qs_pg:gn_fcode": "PPL",
    "qs_pg:gn_id": 2650601,
    "qs_pg:gn_pop": 5375,
    "qs_pg:name": "Dyce",
    "qs_pg:name_adm0": "United Kingdom",
    "qs_pg:name_adm1": "Scotland",
    "qs_pg:photos": 352,
    "qs_pg:photos_1k": 71,
    "qs_pg:photos_9k": 2,
    "qs_pg:photos_9r": 5,
    "qs_pg:photos_all": 352,
    "qs_pg:photos_sr": 6,
    "qs_pg:pop_sr": 5,
    "qs_pg:qs_id": 1249300,
    "qs_pg:qs_pg_placetype": "locality",
    "qs_pg:qs_pg_placetype_gp": "Town",
    "qs_pg:woe_adm0": 23424975,
    "qs_pg:woe_id": 18794,
    "src:geom": "qs_pg",
    "src:lbl_centroid": "qs_pg",
    "src:population": "wikidata",
    "woe:adm0_id": 23424975,
    "woe:name_adm0": "United Kingdom",
    "woe:name_adm1": "Scotland",
    "woe:placetype": "Town",
    "wof:belongsto": [
      1880773079,
      102191581,
      85633159,
      1880762093,
      404227471,
      136253055,
      1360698989
    ],
    "wof:breaches": [],
    "wof:concordances": {
      "gn:id": 2650601,
      "gp:id": 18794,
      "qs_pg:id": 1249300,
      "wd:id": "Q2374318"
    },
    "wof:country": "GB",
    "wof:created": 1497293205,
    "wof:geomhash": "6443c9d332190726898b3b09b5277287",
    "wof:hierarchy": [
      {
        "continent_id": 102191581,
        "country_id": 85633159,
        "county_id": 1360698989,
        "empire_id": 136253055,
        "locality_id": 1125846863,
        "macrocounty_id": 1880762093,
        "macroregion_id": 404227471,
        "region_id": 1880773079
      }
    ],
    "wof:id": 1125846863,
    "wof:lastmodified": 1765385838,
    "wof:name": "Dyce",
    "wof:parent_id": 1360698989,
    "wof:placetype": "locality",
    "wof:population": 6190,
    "wof:population_rank": 5,
    "wof:repo": "whosonfirst-data-admin-gb",
    "wof:superseded_by": [],
    "wof:supersedes": [],
    "wof:tags": []
  },
  "bbox": [
    -2.17676,
    57.20522,
    -2.17676,
    57.20522
  ],
  "geometry": {"type":"Point","coordinates":[-2.17676,57.20522]}
}
