{
  "id": 101873559,
  "type": "Feature",
  "properties": {
    "edtf:cessation": "",
    "edtf:inception": "",
    "geom:area": 0,
    "geom:area_square_m": 0,
    "geom:bbox": "-3.023928,56.180162,-3.023928,56.180162",
    "geom:latitude": 56.180162,
    "geom:longitude": -3.023928,
    "iso:country": "GB",
    "lbl:bbox": "-3.043928,56.160162,-3.003928,56.200162",
    "lbl:latitude": 56.180162,
    "lbl:longitude": -3.023928,
    "lbl:max_zoom": 18,
    "lbl:min_zoom": 13.5,
    "mps:latitude": 56.180162,
    "mps:longitude": -3.023928,
    "mz:hierarchy_label": 1,
    "mz:is_current": 1,
    "mz:min_zoom": 12,
    "name:ast_x_preferred": [
      "Methil"
    ],
    "name:bul_x_preferred": [
      "Медил"
    ],
    "name:cat_x_preferred": [
      "Methil"
    ],
    "name:ceb_x_preferred": [
      "Methil"
    ],
    "name:cym_x_preferred": [
      "Methil"
    ],
    "name:deu_x_preferred": [
      "Methil"
    ],
    "name:eng_x_preferred": [
      "Methil"
    ],
    "name:eng_x_variant": [
      "Methilhill"
    ],
    "name:eus_x_preferred": [
      "Methil"
    ],
    "name:fas_x_preferred": [
      "متیل"
    ],
    "name:fra_x_preferred": [
      "Methil"
    ],
    "name:gla_x_preferred": [
      "Meadhchill"
    ],
    "name:gla_x_variant": [
      "Maothchoille"
    ],
    "name:gle_x_preferred": [
      "Meadhchill"
    ],
    "name:ita_x_preferred": [
      "Methil"
    ],
    "name:jpn_x_preferred": [
      "メシル"
    ],
    "name:lit_x_preferred": [
      "Metilas"
    ],
    "name:nld_x_preferred": [
      "Methil"
    ],
    "name:pol_x_preferred": [
      "Methil"
    ],
    "name:rus_x_preferred": [
      "Метил"
    ],
    "name:sco_x_preferred": [
      "Methil"
    ],
    "name:sco_x_variant": [
      "Methul"
    ],
    "name:spa_x_preferred": [
      "Methil"
    ],
    "name:swe_x_preferred": [
      "Methil"
    ],
    "name:ukr_x_preferred": [
      "Метіл"
    ],
    "name:zho_x_preferred": [
      "梅蒂尔"
    ],
    "qs:a0": "United Kingdom",
    "qs:a1": "*Fife",
    "qs:a1_lc": "GB11QR0000",
    "qs:a1r": "0Scotland",
    "qs:a1r_lc": "GB11000000",
    "qs:adm0": "United Kingdom",
    "qs:id": 0,
    "qs:la_lc": "*",
    "qs:level": "locality",
    "qs:loc": "Methil",
    "qs:loc_alt": "Methil",
    "qs:pop": 0,
    "qs:source": "RCustom EuroGlobalMap + UMZ Urban Polygons + Geonames + GeoPlanet",
    "qs:type": "buffered point",
    "src:geom": "whosonfirst",
    "src:geom_alt": [
      "quattroshapes_pg",
      "quattroshapes"
    ],
    "src:geom_via": "quattroshapes",
    "src:lbl_centroid": "mapshaper",
    "src:population": "wikidata",
    "wd:latitude": 56.1844,
    "wd:longitude": -3.0223,
    "wd:wordcount": 398,
    "wof:belongsto": [
      1880762125,
      1360699123
    ],
    "wof:breaches": [],
    "wof:concordances": {
      "fct:id": "0aa5d316-8f76-11e1-848f-cfd5bf3ef515",
      "gn:id": 2642694,
      "gp:id": 28773,
      "qs_pg:id": 963065,
      "wd:id": "Q938271",
      "wk:page": "Methil"
    },
    "wof:country": "GB",
    "wof:created": 1765385074,
    "wof:geom_alt": [
      "quattroshapes_pg",
      "quattroshapes"
    ],
    "wof:geomhash": "7a96d271b835dc3694a61dfffc0895e7",
    "wof:hierarchy": [
      {
        "continent_id": -1,
        "country_id": -1,
        "county_id": 1360699123,
        "locality_id": 101873559,
        "macrocounty_id": 1880762125,
        "region_id": -1
      }
    ],
    "wof:id": 101873559,
    "wof:lang": [
      "eng"
    ],
    "wof:lastmodified": 1765385074,
    "wof:name": "Methil",
    "wof:parent_id": 1360699123,
    "wof:placetype": "locality",
    "wof:population": 10800,
    "wof:population_rank": 6,
    "wof:repo": "whosonfirst-data-admin-gb",
    "wof:superseded_by": [],
    "wof:supersedes": [],
    "wof:tags": []
  },
  "bbox": [
    -3.023928,
    56.180162,
    -3.023928,
    56.180162
  ],
  "geometry": {"type":"Point","coordinates":[-3.023928,56.180162]}
}
