{
  "id": 1360808707,
  "type": "Feature",
  "properties": {
    "edtf:cessation": "",
    "edtf:inception": "",
    "geom:area": 0,
    "geom:area_square_m": 0,
    "geom:bbox": "-1.716670,53.166670,-1.716670,53.166670",
    "geom:latitude": 53.16667,
    "geom:longitude": -1.71667,
    "gn:admin1_code": "ENG",
    "gn:admin2_code": "D3",
    "gn:admin3_code": "17UF",
    "gn:admin4_code": "17UF075",
    "gn:asciiname": "Middleton-by-Youlgreave",
    "gn:country_code": "GB",
    "gn:dem": 277,
    "gn:feature_class": "P",
    "gn:feature_code": "PPL",
    "gn:geonameid": 2642594,
    "gn:latitude": 53.16667,
    "gn:longitude": -1.71667,
    "gn:modification_date": "2018-07-03",
    "gn:name": "Middleton-by-Youlgreave",
    "gn:population": 0,
    "gn:timezone": "Europe/London",
    "iso:country": "GB",
    "lbl:bbox": "-1.72167,53.16167,-1.71167,53.17167",
    "lbl:max_zoom": 18,
    "mz:hierarchy_label": 1,
    "mz:is_current": 1,
    "mz:min_zoom": 15,
    "name:cym_x_preferred": [
      "Middleton-by-Youlgreave"
    ],
    "name:pol_x_preferred": [
      "Middleton-by-Youlgreave"
    ],
    "src:geom": "geonames",
    "src:population": "wikidata",
    "wof:belongsto": [
      1880762707,
      102191581,
      1880762133,
      404452417,
      85633159,
      404227469,
      1360758139,
      136253055,
      1880771389
    ],
    "wof:breaches": [],
    "wof:concordances": {
      "gn:id": 2642594
    },
    "wof:country": "GB",
    "wof:created": 1765390635,
    "wof:geomhash": "361818af80cbdb5df6113a059cef8d67",
    "wof:hierarchy": [
      {
        "continent_id": 102191581,
        "country_id": 85633159,
        "county_id": 1880771389,
        "empire_id": 136253055,
        "localadmin_id": 404452417,
        "locality_id": 1360758139,
        "macrocounty_id": 1880762133,
        "macroregion_id": 404227469,
        "neighbourhood_id": 1360808707,
        "region_id": 1880762707
      }
    ],
    "wof:id": 1360808707,
    "wof:lastmodified": 1765390635,
    "wof:name": "Middleton-by-Youlgreave",
    "wof:parent_id": 1360758139,
    "wof:placetype": "neighbourhood",
    "wof:population": 137,
    "wof:population_rank": 1,
    "wof:repo": "whosonfirst-data-admin-gb",
    "wof:superseded_by": [],
    "wof:supersedes": [
      1326559161
    ],
    "wof:tags": []
  },
  "bbox": [
    -1.71667,
    53.16667,
    -1.71667,
    53.16667
  ],
  "geometry": {"type":"Point","coordinates":[-1.71667,53.16667]}
}
