{
  "id": 1360808751,
  "type": "Feature",
  "properties": {
    "edtf:cessation": "",
    "edtf:inception": "",
    "geom:area": 0,
    "geom:area_square_m": 0,
    "geom:bbox": "1.500000,52.433330,1.500000,52.433330",
    "geom:latitude": 52.43333000000001,
    "geom:longitude": 1.5,
    "gn:admin1_code": "ENG",
    "gn:admin2_code": "N5",
    "gn:admin3_code": "42UH",
    "gn:admin4_code": "42UH032",
    "gn:asciiname": "Ilketshall St Andrew",
    "gn:country_code": "GB",
    "gn:dem": 39,
    "gn:feature_class": "P",
    "gn:feature_code": "PPL",
    "gn:geonameid": 2646273,
    "gn:latitude": 52.43333,
    "gn:longitude": 1.5,
    "gn:modification_date": "2018-07-03",
    "gn:name": "Ilketshall St Andrew",
    "gn:population": 0,
    "gn:timezone": "Europe/London",
    "iso:country": "GB",
    "lbl:bbox": "1.495,52.42833,1.505,52.43833",
    "lbl:max_zoom": 18,
    "mz:hierarchy_label": 1,
    "mz:is_current": 1,
    "mz:min_zoom": 15,
    "name:ceb_x_preferred": [
      "St Andrew"
    ],
    "name:eng_x_preferred": [
      "Ilketshall St Andrew"
    ],
    "name:nld_x_preferred": [
      "St. Andrew"
    ],
    "name:pol_x_preferred": [
      "Ilketshall St Andrew"
    ],
    "name:swe_x_preferred": [
      "Ilketshall St Andrew"
    ],
    "name:und_x_variant": [
      "Ilketshall",
      "Ilketshall Saint Andrew"
    ],
    "src:geom": "geonames",
    "src:population": "wikidata",
    "wof:belongsto": [
      404443779,
      1880762001,
      1360758525,
      1880771635
    ],
    "wof:breaches": [],
    "wof:concordances": {
      "gn:id": 2646273,
      "wk:page": "St_Andrew%2C_Ilketshall"
    },
    "wof:country": "GB",
    "wof:created": 1765390640,
    "wof:geomhash": "f044a8297c1411e7325be11bb6643a71",
    "wof:hierarchy": [
      {
        "continent_id": -1,
        "country_id": -1,
        "county_id": 1880771635,
        "localadmin_id": 404443779,
        "locality_id": 1360758525,
        "macrocounty_id": 1880762001,
        "neighbourhood_id": 1360808751,
        "region_id": -1
      }
    ],
    "wof:id": 1360808751,
    "wof:lastmodified": 1765390640,
    "wof:name": "Ilketshall St Andrew",
    "wof:parent_id": 1360758525,
    "wof:placetype": "neighbourhood",
    "wof:population": 282,
    "wof:population_rank": 2,
    "wof:repo": "whosonfirst-data-admin-gb",
    "wof:superseded_by": [],
    "wof:supersedes": [
      1326659335
    ],
    "wof:tags": []
  },
  "bbox": [
    1.5,
    52.43333000000001,
    1.5,
    52.43333000000001
  ],
  "geometry": {"type":"Point","coordinates":[1.5,52.43333000000001]}
}
