{
  "id": 101751935,
  "type": "Feature",
  "properties": {
    "edtf:cessation": "",
    "edtf:inception": "",
    "geom:area": 0.0021533661420000266,
    "geom:area_square_m": 15404464.629123,
    "geom:bbox": "-5.712120,54.635395,-5.616353,54.668438",
    "geom:latitude": 54.65266412073875,
    "geom:longitude": -5.661691369685284,
    "gn:population": 60385,
    "iso:country": "GB",
    "lbl:latitude": 54.651443,
    "lbl:longitude": -5.655989,
    "lbl:max_zoom": 14,
    "lbl:min_zoom": 9.5,
    "mps:latitude": 54.651443,
    "mps:longitude": -5.655989,
    "mz:hierarchy_label": 1,
    "mz:is_current": 1,
    "mz:min_zoom": 8,
    "name:afr_x_preferred": [
      "Bangor"
    ],
    "name:arz_x_preferred": [
      "بانجور"
    ],
    "name:ast_x_preferred": [
      "Bangor"
    ],
    "name:aze_x_preferred": [
      "Banqor"
    ],
    "name:bel_x_preferred": [
      "Бангар"
    ],
    "name:bre_x_preferred": [
      "Beannchar"
    ],
    "name:bul_x_preferred": [
      "Бангор"
    ],
    "name:cat_x_preferred": [
      "Bangor"
    ],
    "name:ceb_x_preferred": [
      "Bangor"
    ],
    "name:ces_x_preferred": [
      "Bangor"
    ],
    "name:cym_x_preferred": [
      "Bangor"
    ],
    "name:deu_x_preferred": [
      "Bangor"
    ],
    "name:ell_x_preferred": [
      "Μπάνγκορ"
    ],
    "name:eng_x_preferred": [
      "Bangor"
    ],
    "name:est_x_preferred": [
      "Bangor"
    ],
    "name:eus_x_preferred": [
      "Bangor"
    ],
    "name:fas_x_preferred": [
      "بنگور، کانتی داون"
    ],
    "name:fas_x_variant": [
      "بنگور"
    ],
    "name:fin_x_preferred": [
      "Bangor"
    ],
    "name:fra_x_preferred": [
      "Bangor"
    ],
    "name:gla_x_preferred": [
      "Beannchar"
    ],
    "name:gle_x_preferred": [
      "Beannchar"
    ],
    "name:hbs_x_preferred": [
      "Bangor"
    ],
    "name:heb_x_preferred": [
      "בנגור"
    ],
    "name:hun_x_preferred": [
      "Bangor"
    ],
    "name:ita_x_preferred": [
      "Bangor"
    ],
    "name:jpn_x_preferred": [
      "バンガー"
    ],
    "name:kor_x_preferred": [
      "뱅고어"
    ],
    "name:lit_x_preferred": [
      "Bangoras"
    ],
    "name:msa_x_preferred": [
      "Bangor"
    ],
    "name:nld_x_preferred": [
      "Bangor"
    ],
    "name:nno_x_preferred": [
      "Bangor i Nord-Irland"
    ],
    "name:nob_x_preferred": [
      "Bangor"
    ],
    "name:nor_x_preferred": [
      "Bangor"
    ],
    "name:pol_x_preferred": [
      "Bangor"
    ],
    "name:rus_x_preferred": [
      "Бангор"
    ],
    "name:slv_x_preferred": [
      "Bangor"
    ],
    "name:spa_x_preferred": [
      "Bangor"
    ],
    "name:srp_x_preferred": [
      "Бангор"
    ],
    "name:swe_x_preferred": [
      "Bangor"
    ],
    "name:tat_x_preferred": [
      "Бәңгор"
    ],
    "name:ukr_x_preferred": [
      "Бангор"
    ],
    "name:urd_x_preferred": [
      "بینگور، کاؤنٹی ڈاؤن"
    ],
    "name:urd_x_variant": [
      "بینگور"
    ],
    "name:yue_x_preferred": [
      "班高"
    ],
    "name:zho_x_preferred": [
      "班戈"
    ],
    "qs:a0": "United Kingdom",
    "qs:a1": "*North Down",
    "qs:a1_lc": "N_A",
    "qs:a1r": "0Northern Ireland",
    "qs:a1r_lc": "N_A",
    "qs:adm0": "United Kingdom",
    "qs:la_lc": "*",
    "qs:level": "locality",
    "qs:loc": "Bangor",
    "qs:loc_alt": "Bangor",
    "qs:pop": 0,
    "qs:source": "RCustom EuroGlobalMap + UMZ Urban Polygons + Geonames + GeoPlanet",
    "qs:type": "urban core",
    "src:geom": "quattroshapes",
    "src:geom_alt": [
      "quattroshapes_pg"
    ],
    "src:lbl_centroid": "mapshaper",
    "src:population": "wikidata",
    "wd:wordcount": 5296,
    "wof:belongsto": [
      1360699243,
      102191581,
      85633159,
      1880762239,
      404227473,
      136253055,
      1880762269
    ],
    "wof:breaches": [],
    "wof:concordances": {
      "gn:id": 2656396,
      "gp:id": 44535,
      "qs_pg:id": 279055,
      "wd:id": "Q806551",
      "wk:page": "Bangor, County Down"
    },
    "wof:country": "GB",
    "wof:created": 1765384723,
    "wof:geom_alt": [
      "quattroshapes_pg"
    ],
    "wof:geomhash": "92ccd64c475ef71c19dca5859f6585b1",
    "wof:hierarchy": [
      {
        "continent_id": 102191581,
        "country_id": 85633159,
        "county_id": 1880762269,
        "empire_id": 136253055,
        "locality_id": 101751935,
        "macrocounty_id": 1880762239,
        "macroregion_id": 404227473,
        "region_id": 1360699243
      }
    ],
    "wof:id": 101751935,
    "wof:lastmodified": 1765384723,
    "wof:name": "Bangor",
    "wof:parent_id": 1880762269,
    "wof:placetype": "locality",
    "wof:population": 61011,
    "wof:population_rank": 8,
    "wof:repo": "whosonfirst-data-admin-gb",
    "wof:superseded_by": [],
    "wof:supersedes": [],
    "wof:tags": []
  },
  "bbox": [
    -5.71212,
    54.635395,
    -5.616353,
    54.668438
  ],
  "geometry": {"type":"Polygon","coordinates":[[[-5.651424,54.668438],[-5.650251,54.663944],[-5.640207,54.66521],[-5.632208,54.666927],[-5.630196,54.666669],[-5.625885,54.666115],[-5.625623,54.666121],[-5.618672,54.666286],[-5.616353,54.664116],[-5.618288,54.661236],[-5.620818,54.65979],[-5.622702,54.657779],[-5.624549,54.655521],[-5.624605,54.655452],[-5.62347,54.653934],[-5.618256,54.652492],[-5.619084,54.647625],[-5.621012,54.642544],[-5.624534,54.642692],[-5.629114,54.643333],[-5.633086,54.64278],[-5.637003,54.640808],[-5.636556,54.639145],[-5.647126,54.636032],[-5.649124,54.637669],[-5.656964,54.635395],[-5.659347,54.637996],[-5.660905,54.637707],[-5.672412,54.638695],[-5.672927,54.63879],[-5.678189,54.639763],[-5.679624,54.637749],[-5.684623,54.638927],[-5.684723,54.641037],[-5.694074,54.643524],[-5.701144,54.646717],[-5.706149,54.646578],[-5.706508,54.646568],[-5.703513,54.64777],[-5.708389,54.651753],[-5.708719,54.659112],[-5.708724,54.659202],[-5.71212,54.659267],[-5.712097,54.663044],[-5.707709,54.663437],[-5.70478,54.663837],[-5.700975,54.664314],[-5.700989,54.661152],[-5.695855,54.660351],[-5.694441,54.661983],[-5.692917,54.66249],[-5.690622,54.663254],[-5.688239,54.660587],[-5.686261,54.660488],[-5.685845,54.663929],[-5.687659,54.664985],[-5.683845,54.666519],[-5.677268,54.667469],[-5.675632,54.667183],[-5.668846,54.662517],[-5.66457,54.662491],[-5.664009,54.662487],[-5.663998,54.662487],[-5.663908,54.662681],[-5.663119,54.664386],[-5.653421,54.668225],[-5.651424,54.668438]]]}
}
