{
  "id": 101872689,
  "type": "Feature",
  "properties": {
    "edtf:cessation": "",
    "edtf:inception": "",
    "geom:area": 0,
    "geom:area_square_m": 0,
    "geom:bbox": "-2.347119,57.237674,-2.347119,57.237674",
    "geom:latitude": 57.237674,
    "geom:longitude": -2.347119,
    "gn:population": 2170,
    "iso:country": "GB",
    "lbl:bbox": "-2.367119,57.217674,-2.327119,57.257674",
    "lbl:latitude": 57.237674,
    "lbl:longitude": -2.347118,
    "lbl:max_zoom": 15,
    "lbl:min_zoom": 11.5,
    "mps:latitude": 57.237674,
    "mps:longitude": -2.347118,
    "mz:hierarchy_label": 1,
    "mz:is_current": 1,
    "mz:min_zoom": 11,
    "name:ara_x_preferred": [
      "كينتور"
    ],
    "name:ast_x_preferred": [
      "Kintore"
    ],
    "name:bre_x_preferred": [
      "Kintore"
    ],
    "name:ceb_x_preferred": [
      "Kintore"
    ],
    "name:cym_x_preferred": [
      "Kintore"
    ],
    "name:deu_x_preferred": [
      "Kintore"
    ],
    "name:eng_x_preferred": [
      "Kintore"
    ],
    "name:eus_x_preferred": [
      "Kintore"
    ],
    "name:fas_x_preferred": [
      "کینتور"
    ],
    "name:gla_x_preferred": [
      "Ceann Tòrr"
    ],
    "name:gla_x_variant": [
      "Ceann-an-Tor"
    ],
    "name:gle_x_preferred": [
      "Ceann Tórr"
    ],
    "name:gle_x_variant": [
      "Ceann Tòrr"
    ],
    "name:ita_x_preferred": [
      "Kintore"
    ],
    "name:jpn_x_preferred": [
      "キントア"
    ],
    "name:nld_x_preferred": [
      "Kintore"
    ],
    "name:sco_x_preferred": [
      "Kintore"
    ],
    "name:sco_x_variant": [
      "Kintair"
    ],
    "name:spa_x_preferred": [
      "Kintore"
    ],
    "name:swe_x_preferred": [
      "Kintore"
    ],
    "qs:a0": "United Kingdom",
    "qs:a1": "*Aberdeenshire",
    "qs:a1_lc": "GB11QB0000",
    "qs:a1r": "0Scotland",
    "qs:a1r_lc": "GB11000000",
    "qs:adm0": "United Kingdom",
    "qs:id": 0,
    "qs:la_lc": "*",
    "qs:level": "locality",
    "qs:loc": "Kintore",
    "qs:loc_alt": "Kintore",
    "qs:pop": 0,
    "qs:source": "RCustom EuroGlobalMap + UMZ Urban Polygons + Geonames + GeoPlanet",
    "qs:type": "buffered point",
    "src:geom": "whosonfirst",
    "src:geom_alt": [
      "quattroshapes_pg",
      "quattroshapes"
    ],
    "src:geom_via": "quattroshapes",
    "src:lbl_centroid": "mapshaper",
    "src:population": "wikidata",
    "wd:latitude": 57.236,
    "wd:longitude": -2.34621,
    "wd:wordcount": 542,
    "wof:belongsto": [
      1880773121,
      102191581,
      85633159,
      1880762109,
      404227471,
      136253055,
      1360699031
    ],
    "wof:breaches": [],
    "wof:concordances": {
      "gn:id": 2645358,
      "gp:id": 25305,
      "qs_pg:id": 1036957,
      "wd:id": "Q407193",
      "wk:page": "Kintore, Aberdeenshire"
    },
    "wof:country": "GB",
    "wof:created": 1765384907,
    "wof:geom_alt": [
      "quattroshapes_pg",
      "quattroshapes"
    ],
    "wof:geomhash": "b544b7494b8d685e7ad8254a4babaf69",
    "wof:hierarchy": [
      {
        "continent_id": 102191581,
        "country_id": 85633159,
        "county_id": 1360699031,
        "empire_id": 136253055,
        "locality_id": 101872689,
        "macrocounty_id": 1880762109,
        "macroregion_id": 404227471,
        "region_id": 1880773121
      }
    ],
    "wof:id": 101872689,
    "wof:lastmodified": 1765384907,
    "wof:name": "Kintore",
    "wof:parent_id": 1360699031,
    "wof:placetype": "locality",
    "wof:population": 4790,
    "wof:population_rank": 4,
    "wof:repo": "whosonfirst-data-admin-gb",
    "wof:superseded_by": [],
    "wof:supersedes": [],
    "wof:tags": []
  },
  "bbox": [
    -2.347119,
    57.237674,
    -2.347119,
    57.237674
  ],
  "geometry": {"type":"Point","coordinates":[-2.347119,57.237674]}
}
