{
  "id": 101873677,
  "type": "Feature",
  "properties": {
    "edtf:cessation": "",
    "edtf:inception": "",
    "geom:area": 0,
    "geom:area_square_m": 0,
    "geom:bbox": "-3.609860,57.328598,-3.609860,57.328598",
    "geom:latitude": 57.328598,
    "geom:longitude": -3.60986,
    "iso:country": "GB",
    "lbl:bbox": "-3.62986,57.308598,-3.58986,57.348598",
    "lbl:latitude": 57.328598,
    "lbl:longitude": -3.60986,
    "lbl:max_zoom": 18,
    "lbl:min_zoom": 13.5,
    "mps:latitude": 57.328598,
    "mps:longitude": -3.60986,
    "mz:hierarchy_label": 1,
    "mz:is_current": 1,
    "mz:min_zoom": 12,
    "name:ast_x_preferred": [
      "Grantown-on-Spey"
    ],
    "name:cat_x_preferred": [
      "Grantown-on-Spey"
    ],
    "name:ceb_x_preferred": [
      "Grantown on Spey"
    ],
    "name:cym_x_preferred": [
      "Grantown-on-Spey"
    ],
    "name:deu_x_preferred": [
      "Grantown-on-Spey"
    ],
    "name:eng_x_preferred": [
      "Grantown-on-Spey"
    ],
    "name:eng_x_variant": [
      "Grantown",
      "Grantown on Spey"
    ],
    "name:eus_x_preferred": [
      "Grantown-on-Spey"
    ],
    "name:fra_x_preferred": [
      "Grantown-on-Spey"
    ],
    "name:gla_x_preferred": [
      "Baile Ùr nan Granndach"
    ],
    "name:gle_x_preferred": [
      "Baile Ùr nan Granndach"
    ],
    "name:ita_x_preferred": [
      "Grantown-on-Spey"
    ],
    "name:jpn_x_preferred": [
      "グランタウン＝オン＝スペイ"
    ],
    "name:nld_x_preferred": [
      "Grantown-on-Spey"
    ],
    "name:nno_x_preferred": [
      "Grantown-on-Spey"
    ],
    "name:nob_x_preferred": [
      "Grantown-on-Spey"
    ],
    "name:nor_x_preferred": [
      "Grantown-on-Spey"
    ],
    "name:pol_x_preferred": [
      "Grantown-on-Spey"
    ],
    "name:sco_x_preferred": [
      "Grantoun"
    ],
    "name:spa_x_preferred": [
      "Grantown-on-Spey"
    ],
    "name:swe_x_preferred": [
      "Grantown on Spey"
    ],
    "name:swe_x_variant": [
      "Grantown-on-Spey"
    ],
    "name:zho_x_preferred": [
      "斯佩河畔格兰敦"
    ],
    "qs:a0": "United Kingdom",
    "qs:a1": "*Highland",
    "qs:a1_lc": "GB11QT0000",
    "qs:a1r": "0Scotland",
    "qs:a1r_lc": "GB11000000",
    "qs:adm0": "United Kingdom",
    "qs:id": 0,
    "qs:la_lc": "*",
    "qs:level": "locality",
    "qs:loc": "Grantown-on-Spey",
    "qs:loc_alt": "Grantown-on-Spey",
    "qs:pop": 0,
    "qs:source": "RCustom EuroGlobalMap + UMZ Urban Polygons + Geonames + GeoPlanet",
    "qs:type": "buffered point",
    "src:geom": "whosonfirst",
    "src:geom_alt": [
      "quattroshapes_pg",
      "quattroshapes"
    ],
    "src:geom_via": "quattroshapes",
    "src:lbl_centroid": "mapshaper",
    "src:population": "wikidata",
    "wd:wordcount": 712,
    "wof:belongsto": [
      1880762005,
      1360699045
    ],
    "wof:breaches": [],
    "wof:concordances": {
      "fct:id": "0aa62398-8f76-11e1-848f-cfd5bf3ef515",
      "gn:id": 2648205,
      "gp:id": 21511,
      "qs_pg:id": 1253448,
      "wd:id": "Q1010396",
      "wk:page": "Grantown-on-Spey"
    },
    "wof:country": "GB",
    "wof:created": 1765385082,
    "wof:geom_alt": [
      "quattroshapes_pg",
      "quattroshapes"
    ],
    "wof:geomhash": "408cff2da7b94bfe644082cfedbb8cc8",
    "wof:hierarchy": [
      {
        "continent_id": -1,
        "country_id": -1,
        "county_id": 1360699045,
        "locality_id": 101873677,
        "macrocounty_id": 1880762005,
        "region_id": -1
      }
    ],
    "wof:id": 101873677,
    "wof:lang": [
      "eng"
    ],
    "wof:lastmodified": 1765385082,
    "wof:name": "Grantown-on-Spey",
    "wof:parent_id": 1360699045,
    "wof:placetype": "locality",
    "wof:population": 2470,
    "wof:population_rank": 4,
    "wof:repo": "whosonfirst-data-admin-gb",
    "wof:superseded_by": [],
    "wof:supersedes": [],
    "wof:tags": []
  },
  "bbox": [
    -3.60986,
    57.328598,
    -3.60986,
    57.328598
  ],
  "geometry": {"type":"Point","coordinates":[-3.60986,57.328598]}
}
