{
  "id": 101873679,
  "type": "Feature",
  "properties": {
    "edtf:cessation": "",
    "edtf:inception": "",
    "geom:area": 0,
    "geom:area_square_m": 0,
    "geom:bbox": "-3.869079,57.585033,-3.869079,57.585033",
    "geom:latitude": 57.585033,
    "geom:longitude": -3.869079,
    "gn:population": 8551,
    "iso:country": "GB",
    "lbl:bbox": "-3.889079,57.565033,-3.849079,57.605033",
    "lbl:latitude": 57.585033,
    "lbl:longitude": -3.869079,
    "lbl:max_zoom": 15,
    "lbl:min_zoom": 11,
    "mps:latitude": 57.585033,
    "mps:longitude": -3.869079,
    "mz:hierarchy_label": 1,
    "mz:is_current": 1,
    "mz:min_zoom": 11,
    "name:ara_x_preferred": [
      "نارين"
    ],
    "name:arz_x_preferred": [
      "نارين"
    ],
    "name:ast_x_preferred": [
      "Nairn"
    ],
    "name:ben_x_preferred": [
      "নারিন"
    ],
    "name:ceb_x_preferred": [
      "Nairn"
    ],
    "name:ces_x_preferred": [
      "Nairn"
    ],
    "name:cym_x_preferred": [
      "Nairn"
    ],
    "name:deu_x_preferred": [
      "Nairn"
    ],
    "name:eng_x_preferred": [
      "Nairn"
    ],
    "name:eus_x_preferred": [
      "Nairn"
    ],
    "name:fas_x_preferred": [
      "نیرن"
    ],
    "name:fra_x_preferred": [
      "Nairn"
    ],
    "name:gla_x_preferred": [
      "Inbhir Narann"
    ],
    "name:gle_x_preferred": [
      "Inbhir Narann"
    ],
    "name:guj_x_preferred": [
      "નાયર્ન"
    ],
    "name:hbs_x_preferred": [
      "Nairn"
    ],
    "name:heb_x_preferred": [
      "ניירן"
    ],
    "name:ita_x_preferred": [
      "Nairn"
    ],
    "name:jpn_x_preferred": [
      "ネアン"
    ],
    "name:kan_x_preferred": [
      "ನಾಯರ್"
    ],
    "name:kor_x_preferred": [
      "네언"
    ],
    "name:lit_x_preferred": [
      "Nernas"
    ],
    "name:nld_x_preferred": [
      "Nairn"
    ],
    "name:nno_x_preferred": [
      "Nairn"
    ],
    "name:nob_x_preferred": [
      "Nairn"
    ],
    "name:nor_x_preferred": [
      "Nairn"
    ],
    "name:pol_x_preferred": [
      "Nairn"
    ],
    "name:por_x_preferred": [
      "Nairn"
    ],
    "name:rus_x_preferred": [
      "Нэрн"
    ],
    "name:sco_x_preferred": [
      "Nairn"
    ],
    "name:slv_x_preferred": [
      "Nairn"
    ],
    "name:spa_x_preferred": [
      "Nairn"
    ],
    "name:swe_x_preferred": [
      "Nairn"
    ],
    "name:tam_x_preferred": [
      "நைர்ன்"
    ],
    "name:tel_x_preferred": [
      "నైర్న్"
    ],
    "name:tur_x_preferred": [
      "Nairn"
    ],
    "name:ukr_x_preferred": [
      "Нерн"
    ],
    "name:urd_x_preferred": [
      "نیرن"
    ],
    "name:zho_x_preferred": [
      "奈恩"
    ],
    "qs:a0": "United Kingdom",
    "qs:a1": "*Highland",
    "qs:a1_lc": "GB11QT0000",
    "qs:a1r": "0Scotland",
    "qs:a1r_lc": "GB11000000",
    "qs:adm0": "United Kingdom",
    "qs:id": 0,
    "qs:la_lc": "*",
    "qs:level": "locality",
    "qs:loc": "Nairn",
    "qs:loc_alt": "Nairn",
    "qs:pop": 0,
    "qs:source": "RCustom EuroGlobalMap + UMZ Urban Polygons + Geonames + GeoPlanet",
    "qs:type": "buffered point",
    "src:geom": "whosonfirst",
    "src:geom_alt": [
      "quattroshapes_pg",
      "quattroshapes"
    ],
    "src:geom_via": "quattroshapes",
    "src:lbl_centroid": "mapshaper",
    "src:population": "wikidata",
    "wd:latitude": 57.583333,
    "wd:longitude": -3.866667,
    "wd:wordcount": 1413,
    "wof:belongsto": [
      1880762005,
      1360699045
    ],
    "wof:breaches": [],
    "wof:concordances": {
      "fct:id": "0aa5d9ba-8f76-11e1-848f-cfd5bf3ef515",
      "gn:id": 2641910,
      "gp:id": 29644,
      "qs_pg:id": 453977,
      "wd:id": "Q980084",
      "wk:page": "Nairn"
    },
    "wof:country": "GB",
    "wof:created": 1765385082,
    "wof:geom_alt": [
      "quattroshapes_pg",
      "quattroshapes"
    ],
    "wof:geomhash": "a42f0ff6943b87473361d6dc0a323fb3",
    "wof:hierarchy": [
      {
        "continent_id": -1,
        "country_id": -1,
        "county_id": 1360699045,
        "locality_id": 101873679,
        "macrocounty_id": 1880762005,
        "region_id": -1
      }
    ],
    "wof:id": 101873679,
    "wof:lang": [
      "eng"
    ],
    "wof:lastmodified": 1765385082,
    "wof:name": "Nairn",
    "wof:parent_id": 1360699045,
    "wof:placetype": "locality",
    "wof:population": 10022,
    "wof:population_rank": 6,
    "wof:repo": "whosonfirst-data-admin-gb",
    "wof:superseded_by": [],
    "wof:supersedes": [],
    "wof:tags": []
  },
  "bbox": [
    -3.869079,
    57.585033,
    -3.869079,
    57.585033
  ],
  "geometry": {"type":"Point","coordinates":[-3.869079,57.585033]}
}
