{
  "id": 1360792609,
  "type": "Feature",
  "properties": {
    "edtf:cessation": "",
    "edtf:inception": "",
    "geom:area": 0,
    "geom:area_square_m": 0,
    "geom:bbox": "-0.763238,51.229957,-0.763238,51.229957",
    "geom:latitude": 51.229957,
    "geom:longitude": -0.763238,
    "gn:country": null,
    "iso:country": "GB",
    "lbl:bbox": "-0.768238,51.2249565,-0.758238,51.2349565",
    "lbl:latitude": 51.229957,
    "lbl:longitude": -0.763238,
    "lbl:max_zoom": 18,
    "mz:hierarchy_label": 1,
    "mz:is_current": 1,
    "mz:min_zoom": 15,
    "mz:note": "Quattroshapes Point Gazetteer import 20170519",
    "name:azb_x_preferred": [
      "بدشات لی"
    ],
    "name:eng_x_preferred": [
      "Badshot Lea"
    ],
    "name:fas_x_preferred": [
      "بدشات لی"
    ],
    "name:fra_x_preferred": [
      "Badshot Lea"
    ],
    "name:gle_x_preferred": [
      "Badshot Lea"
    ],
    "name:nld_x_preferred": [
      "Badshot Lea"
    ],
    "name:pol_x_preferred": [
      "Badshot Lea"
    ],
    "name:spa_x_preferred": [
      "Badshot Lea"
    ],
    "name:swe_x_preferred": [
      "Badshot Lea"
    ],
    "qs_pg:aaroncc": "GB",
    "qs_pg:gn_country": null,
    "qs_pg:name": "Badshot Lea",
    "qs_pg:name_adm0": "United Kingdom",
    "qs_pg:name_adm1": "England",
    "qs_pg:photos": 28,
    "qs_pg:photos_1k": 6,
    "qs_pg:photos_9k": 1,
    "qs_pg:photos_9r": 2,
    "qs_pg:photos_all": 28,
    "qs_pg:photos_sr": 2,
    "qs_pg:pop_sr": 0,
    "qs_pg:qs_id": 270050,
    "qs_pg:qs_pg_placetype": "locality",
    "qs_pg:qs_pg_placetype_gp": "Town",
    "qs_pg:woe_adm0": 23424975,
    "qs_pg:woe_id": 11578,
    "src:geom": "qs_pg",
    "src:lbl_centroid": "qs_pg",
    "src:population": "wikidata",
    "woe:adm0_id": 23424975,
    "woe:name_adm0": "United Kingdom",
    "woe:name_adm1": "England",
    "woe:placetype": "Town",
    "wof:belongsto": [
      1880762727,
      102191581,
      1880761993,
      404432891,
      85633159,
      404227469,
      101852483,
      136253055,
      1880771647
    ],
    "wof:breaches": [],
    "wof:concordances": {
      "gp:id": 11578,
      "qs_pg:id": 270050,
      "wd:id": "Q4841155"
    },
    "wof:country": "GB",
    "wof:created": 1497290826,
    "wof:geomhash": "2f8faf67536e94c472e5b399f1131ee7",
    "wof:hierarchy": [
      {
        "continent_id": 102191581,
        "country_id": 85633159,
        "county_id": 1880771647,
        "empire_id": 136253055,
        "localadmin_id": 404432891,
        "locality_id": 101852483,
        "macrocounty_id": 1880761993,
        "macroregion_id": 404227469,
        "neighbourhood_id": 1360792609,
        "region_id": 1880762727
      }
    ],
    "wof:id": 1360792609,
    "wof:lastmodified": 1765389533,
    "wof:name": "Badshot Lea",
    "wof:parent_id": 101852483,
    "wof:placetype": "neighbourhood",
    "wof:population": 1509,
    "wof:population_rank": 3,
    "wof:repo": "whosonfirst-data-admin-gb",
    "wof:superseded_by": [],
    "wof:supersedes": [
      1125789879
    ],
    "wof:tags": []
  },
  "bbox": [
    -0.763238,
    51.229957,
    -0.763238,
    51.229957
  ],
  "geometry": {"type":"Point","coordinates":[-0.763238,51.229957]}
}
