{
  "id": 1360806391,
  "type": "Feature",
  "properties": {
    "edtf:cessation": "",
    "edtf:inception": "",
    "geom:area": 0,
    "geom:area_square_m": 0,
    "geom:bbox": "-1.160000,52.925730,-1.160000,52.925730",
    "geom:latitude": 52.92573,
    "geom:longitude": -1.16,
    "gn:admin1_code": "ENG",
    "gn:admin2_code": "J8",
    "gn:admin3_code": "37UJ",
    "gn:asciiname": "Wilford",
    "gn:country_code": "GB",
    "gn:dem": 29,
    "gn:feature_class": "P",
    "gn:feature_code": "PPL",
    "gn:geonameid": 2633903,
    "gn:latitude": 52.92573,
    "gn:longitude": -1.16,
    "gn:modification_date": "2011-03-03",
    "gn:name": "Wilford",
    "gn:population": 0,
    "gn:timezone": "Europe/London",
    "iso:country": "GB",
    "lbl:bbox": "-1.165,52.92073,-1.155,52.93073",
    "lbl:max_zoom": 18,
    "mz:hierarchy_label": 1,
    "mz:is_current": 1,
    "mz:min_zoom": 15,
    "name:fra_x_preferred": [
      "Wilford"
    ],
    "name:pol_x_preferred": [
      "Wilford"
    ],
    "name:und_x_variant": [
      "Willford"
    ],
    "src:geom": "geonames",
    "src:population": "wikidata",
    "wof:belongsto": [
      1880762689,
      102191581,
      85633159,
      1880762077,
      404227469,
      1175612705,
      136253055,
      1360698801
    ],
    "wof:breaches": [],
    "wof:concordances": {
      "gn:id": 2633903,
      "wk:page": "Wilford"
    },
    "wof:country": "GB",
    "wof:created": 1765390381,
    "wof:geomhash": "9e7c65f865db99d224ec1216d8e4f6a4",
    "wof:hierarchy": [
      {
        "continent_id": 102191581,
        "country_id": 85633159,
        "county_id": 1360698801,
        "empire_id": 136253055,
        "locality_id": 1175612705,
        "macrocounty_id": 1880762077,
        "macroregion_id": 404227469,
        "neighbourhood_id": 1360806391,
        "region_id": 1880762689
      }
    ],
    "wof:id": 1360806391,
    "wof:lastmodified": 1765390381,
    "wof:name": "Wilford",
    "wof:parent_id": 1175612705,
    "wof:placetype": "neighbourhood",
    "wof:population": 4428,
    "wof:population_rank": 4,
    "wof:repo": "whosonfirst-data-admin-gb",
    "wof:superseded_by": [],
    "wof:supersedes": [
      1210051753
    ],
    "wof:tags": []
  },
  "bbox": [
    -1.16,
    52.92573,
    -1.16,
    52.92573
  ],
  "geometry": {"type":"Point","coordinates":[-1.16,52.92573]}
}
