{
  "id": 101872549,
  "type": "Feature",
  "properties": {
    "edtf:cessation": "",
    "edtf:inception": "",
    "geom:area": 0,
    "geom:area_square_m": 0,
    "geom:bbox": "-3.237058,56.350768,-3.237058,56.350768",
    "geom:latitude": 56.350768,
    "geom:longitude": -3.237058,
    "gn:population": 1909,
    "iso:country": "GB",
    "lbl:bbox": "-3.257058,56.330768,-3.217058,56.370768",
    "lbl:latitude": 56.350769,
    "lbl:longitude": -3.237057,
    "lbl:max_zoom": 16,
    "lbl:min_zoom": 12,
    "mps:latitude": 56.350769,
    "mps:longitude": -3.237057,
    "mz:hierarchy_label": 1,
    "mz:is_current": 1,
    "mz:min_zoom": 11,
    "name:ast_x_preferred": [
      "Newburgh"
    ],
    "name:ceb_x_preferred": [
      "Newburgh"
    ],
    "name:cym_x_preferred": [
      "Newburgh"
    ],
    "name:deu_x_preferred": [
      "Newburgh"
    ],
    "name:eng_x_preferred": [
      "Newburgh"
    ],
    "name:eus_x_preferred": [
      "Newburgh"
    ],
    "name:fas_x_preferred": [
      "نیوبر"
    ],
    "name:gla_x_preferred": [
      "Am Borgh Ùr"
    ],
    "name:ita_x_preferred": [
      "Newburgh"
    ],
    "name:jpn_x_preferred": [
      "ニューバーグ"
    ],
    "name:nld_x_preferred": [
      "Newburgh"
    ],
    "name:rus_x_preferred": [
      "Ньюбург"
    ],
    "name:sco_x_preferred": [
      "Neeburgh"
    ],
    "name:spa_x_preferred": [
      "Newburgh"
    ],
    "name:swe_x_preferred": [
      "Newburgh"
    ],
    "qs:a0": "United Kingdom",
    "qs:a1": "*Fife",
    "qs:a1_lc": "GB11QR0000",
    "qs:a1r": "0Scotland",
    "qs:a1r_lc": "GB11000000",
    "qs:adm0": "United Kingdom",
    "qs:id": 0,
    "qs:la_lc": "*",
    "qs:level": "locality",
    "qs:loc": "Newburgh",
    "qs:loc_alt": "Newburgh",
    "qs:pop": 0,
    "qs:source": "RCustom EuroGlobalMap + UMZ Urban Polygons + Geonames + GeoPlanet",
    "qs:type": "buffered point",
    "src:geom": "whosonfirst",
    "src:geom_alt": [
      "quattroshapes_pg",
      "quattroshapes"
    ],
    "src:geom_via": "quattroshapes",
    "src:lbl_centroid": "mapshaper",
    "src:population": "wikidata",
    "wd:latitude": 56.3517,
    "wd:longitude": -3.2383,
    "wd:wordcount": 1083,
    "wof:belongsto": [
      1880762125,
      1360699123
    ],
    "wof:breaches": [],
    "wof:concordances": {
      "fct:id": "0aa5cdbc-8f76-11e1-848f-cfd5bf3ef515",
      "gn:id": 2641692,
      "gp:id": 30055,
      "qs_pg:id": 280117,
      "wd:id": "Q3875618",
      "wk:page": "Newburgh, Fife"
    },
    "wof:country": "GB",
    "wof:created": 1765384897,
    "wof:geom_alt": [
      "quattroshapes",
      "quattroshapes_pg"
    ],
    "wof:geomhash": "8ab1a82c138cc761e2450308c4d783e6",
    "wof:hierarchy": [
      {
        "continent_id": -1,
        "country_id": -1,
        "county_id": 1360699123,
        "locality_id": 101872549,
        "macrocounty_id": 1880762125,
        "region_id": -1
      }
    ],
    "wof:id": 101872549,
    "wof:lang": [
      "eng"
    ],
    "wof:lastmodified": 1765384897,
    "wof:name": "Newburgh",
    "wof:parent_id": 1360699123,
    "wof:placetype": "locality",
    "wof:population": 2120,
    "wof:population_rank": 4,
    "wof:repo": "whosonfirst-data-admin-gb",
    "wof:superseded_by": [],
    "wof:supersedes": [],
    "wof:tags": []
  },
  "bbox": [
    -3.237058,
    56.350768,
    -3.237058,
    56.350768
  ],
  "geometry": {"type":"Point","coordinates":[-3.237058,56.350768]}
}
