{
  "id": 1125848783,
  "type": "Feature",
  "properties": {
    "edtf:cessation": "",
    "edtf:inception": "",
    "geom:area": 0,
    "geom:area_square_m": 0,
    "geom:bbox": "-2.939850,55.913020,-2.939850,55.913020",
    "geom:latitude": 55.91302,
    "geom:longitude": -2.93985,
    "gn:country": "GB",
    "gn:fcode": "PPL",
    "gn:population": 2062,
    "iso:country": "GB",
    "lbl:bbox": "-2.95985,55.89302,-2.91985,55.93302",
    "lbl:latitude": 55.91302,
    "lbl:longitude": -2.93985,
    "lbl:max_zoom": 15,
    "lbl:min_zoom": 11.5,
    "mz:hierarchy_label": 1,
    "mz:is_current": 1,
    "mz:min_zoom": 11,
    "mz:note": "Quattroshapes Point Gazetteer import 20170519",
    "name:bul_x_preferred": [
      "Ормистон"
    ],
    "name:bul_x_variant": [
      "Ормистън"
    ],
    "name:ceb_x_preferred": [
      "Ormiston"
    ],
    "name:cym_x_preferred": [
      "Ormiston"
    ],
    "name:eng_x_preferred": [
      "Ormiston"
    ],
    "name:eus_x_preferred": [
      "Ormiston"
    ],
    "name:fas_x_preferred": [
      "اورمیستون"
    ],
    "name:fra_x_preferred": [
      "Ormiston"
    ],
    "name:gla_x_preferred": [
      "Ormiston"
    ],
    "name:gle_x_preferred": [
      "Ormastan"
    ],
    "name:ita_x_preferred": [
      "Ormiston"
    ],
    "name:jpn_x_preferred": [
      "オーミストン"
    ],
    "name:nld_x_preferred": [
      "Ormiston"
    ],
    "name:spa_x_preferred": [
      "Ormiston"
    ],
    "name:swe_x_preferred": [
      "Ormiston"
    ],
    "name:zho_x_preferred": [
      "奥米斯顿"
    ],
    "qs_pg:aaroncc": "GB",
    "qs_pg:gn_country": "GB",
    "qs_pg:gn_fcode": "PPL",
    "qs_pg:gn_id": 2640910,
    "qs_pg:gn_pop": 2062,
    "qs_pg:name": "Ormiston",
    "qs_pg:name_adm0": "United Kingdom",
    "qs_pg:name_adm1": "Scotland",
    "qs_pg:photos": 146,
    "qs_pg:photos_1k": 30,
    "qs_pg:photos_9k": 1,
    "qs_pg:photos_9r": 3,
    "qs_pg:photos_all": 146,
    "qs_pg:photos_sr": 3,
    "qs_pg:pop_sr": 4,
    "qs_pg:qs_id": 1253533,
    "qs_pg:qs_pg_placetype": "locality",
    "qs_pg:qs_pg_placetype_gp": "Town",
    "qs_pg:woe_adm0": 23424975,
    "qs_pg:woe_id": 31088,
    "src:geom": "qs_pg",
    "src:lbl_centroid": "qs_pg",
    "src:population": "wikidata",
    "woe:adm0_id": 23424975,
    "woe:name_adm0": "United Kingdom",
    "woe:name_adm1": "Scotland",
    "woe:placetype": "Town",
    "wof:belongsto": [
      1880773107,
      102191581,
      85633159,
      1880762091,
      404227471,
      136253055,
      1360699017
    ],
    "wof:breaches": [],
    "wof:concordances": {
      "gn:id": 2640910,
      "gp:id": 31088,
      "qs_pg:id": 1253533,
      "wd:id": "Q1009852"
    },
    "wof:country": "GB",
    "wof:created": 1497293293,
    "wof:geomhash": "0f9afd25d32f80d489c3a263e89973b1",
    "wof:hierarchy": [
      {
        "continent_id": 102191581,
        "country_id": 85633159,
        "county_id": 1360699017,
        "empire_id": 136253055,
        "locality_id": 1125848783,
        "macrocounty_id": 1880762091,
        "macroregion_id": 404227471,
        "region_id": 1880773107
      }
    ],
    "wof:id": 1125848783,
    "wof:lastmodified": 1765385848,
    "wof:name": "Ormiston",
    "wof:parent_id": 1360699017,
    "wof:placetype": "locality",
    "wof:population": 1970,
    "wof:population_rank": 3,
    "wof:repo": "whosonfirst-data-admin-gb",
    "wof:superseded_by": [],
    "wof:supersedes": [],
    "wof:tags": []
  },
  "bbox": [
    -2.93985,
    55.91302,
    -2.93985,
    55.91302
  ],
  "geometry": {"type":"Point","coordinates":[-2.93985,55.91302]}
}
