{
  "id": 1125863351,
  "type": "Feature",
  "properties": {
    "edtf:cessation": "",
    "edtf:inception": "",
    "geom:area": 0,
    "geom:area_square_m": 0,
    "geom:bbox": "-4.516050,55.829060,-4.516050,55.829060",
    "geom:latitude": 55.82906,
    "geom:longitude": -4.51605,
    "gn:country": "GB",
    "gn:fcode": "PPL",
    "gn:population": 15705,
    "iso:country": "GB",
    "lbl:bbox": "-4.53605,55.80906,-4.49605,55.84906",
    "lbl:latitude": 55.82906,
    "lbl:longitude": -4.51605,
    "lbl:max_zoom": 15,
    "lbl:min_zoom": 10.5,
    "mz:hierarchy_label": 1,
    "mz:is_current": 1,
    "mz:min_zoom": 10,
    "mz:note": "Quattroshapes Point Gazetteer import 20170519",
    "name:ara_x_preferred": [
      "جونستون"
    ],
    "name:arz_x_preferred": [
      "جونستين"
    ],
    "name:ast_x_preferred": [
      "Johnstone"
    ],
    "name:azb_x_preferred": [
      "جانستون"
    ],
    "name:cat_x_preferred": [
      "Johnstone"
    ],
    "name:ceb_x_preferred": [
      "Johnstone"
    ],
    "name:cym_x_preferred": [
      "Johnstone"
    ],
    "name:deu_x_preferred": [
      "Johnstone"
    ],
    "name:eng_x_preferred": [
      "Johnstone"
    ],
    "name:eus_x_preferred": [
      "Johnstone"
    ],
    "name:fas_x_preferred": [
      "جانستون"
    ],
    "name:fra_x_preferred": [
      "Johnstone"
    ],
    "name:gla_x_preferred": [
      "Baile Eòin"
    ],
    "name:gla_x_variant": [
      "Baile Iain"
    ],
    "name:gle_x_preferred": [
      "Baile Iain"
    ],
    "name:heb_x_preferred": [
      "ג'ונסטון"
    ],
    "name:ita_x_preferred": [
      "Johnstone"
    ],
    "name:jpn_x_preferred": [
      "ジョンストン"
    ],
    "name:lit_x_preferred": [
      "Džonstonas"
    ],
    "name:nld_x_preferred": [
      "Johnstone"
    ],
    "name:pol_x_preferred": [
      "Johnstone"
    ],
    "name:rus_x_preferred": [
      "Джонстон"
    ],
    "name:sco_x_preferred": [
      "Johnstoun"
    ],
    "name:spa_x_preferred": [
      "Johnstone"
    ],
    "name:swe_x_preferred": [
      "Johnstone"
    ],
    "name:tur_x_preferred": [
      "Johnstone"
    ],
    "name:ukr_x_preferred": [
      "Джонстон"
    ],
    "name:yue_x_preferred": [
      "莊士東"
    ],
    "name:zho_x_preferred": [
      "約翰斯通市"
    ],
    "qs_pg:aaroncc": "GB",
    "qs_pg:gn_country": "GB",
    "qs_pg:gn_fcode": "PPL",
    "qs_pg:gn_id": 2645951,
    "qs_pg:gn_pop": 15705,
    "qs_pg:name": "Johnstone",
    "qs_pg:name_adm0": "United Kingdom",
    "qs_pg:name_adm1": "Scotland",
    "qs_pg:photos": 1280,
    "qs_pg:photos_1k": 259,
    "qs_pg:photos_9k": 6,
    "qs_pg:photos_9r": 7,
    "qs_pg:photos_all": 1280,
    "qs_pg:photos_sr": 12,
    "qs_pg:pop_sr": 6,
    "qs_pg:qs_id": 1289080,
    "qs_pg:qs_pg_placetype": "locality",
    "qs_pg:qs_pg_placetype_gp": "Town",
    "qs_pg:woe_adm0": 23424975,
    "qs_pg:woe_id": 24644,
    "src:geom": "qs_pg",
    "src:lbl_centroid": "qs_pg",
    "src:population": "wikidata",
    "woe:adm0_id": 23424975,
    "woe:name_adm0": "United Kingdom",
    "woe:name_adm1": "Scotland",
    "woe:placetype": "Town",
    "wof:belongsto": [
      1880773179,
      102191581,
      85633159,
      1880762039,
      404227471,
      136253055,
      1360699097
    ],
    "wof:breaches": [],
    "wof:concordances": {
      "gn:id": 2645951,
      "gp:id": 24644,
      "qs_pg:id": 1289080,
      "wd:id": "Q2240072"
    },
    "wof:country": "GB",
    "wof:created": 1497293926,
    "wof:geomhash": "71bda5f1b4c419c02227c58497472dfe",
    "wof:hierarchy": [
      {
        "continent_id": 102191581,
        "country_id": 85633159,
        "county_id": 1360699097,
        "empire_id": 136253055,
        "locality_id": 1125863351,
        "macrocounty_id": 1880762039,
        "macroregion_id": 404227471,
        "region_id": 1880773179
      }
    ],
    "wof:id": 1125863351,
    "wof:lastmodified": 1765385933,
    "wof:name": "Johnstone",
    "wof:parent_id": 1360699097,
    "wof:placetype": "locality",
    "wof:population": 16090,
    "wof:population_rank": 6,
    "wof:repo": "whosonfirst-data-admin-gb",
    "wof:superseded_by": [],
    "wof:supersedes": [],
    "wof:tags": []
  },
  "bbox": [
    -4.51605,
    55.82906,
    -4.51605,
    55.82906
  ],
  "geometry": {"type":"Point","coordinates":[-4.51605,55.82906]}
}
