{
  "id": 85788521,
  "type": "Feature",
  "properties": {
    "edtf:cessation": "",
    "edtf:inception": "",
    "geom:area": 0.0004968619215000165,
    "geom:area_square_m": 3817661.672002,
    "geom:bbox": "-0.327666,51.568239,-0.295570,51.593329",
    "geom:latitude": 51.582072065154954,
    "geom:longitude": -0.31043855788368285,
    "gn:id": "",
    "gn:latitude": 51.58544,
    "gn:longitude": -0.31157,
    "iso:country": "GB",
    "lbl:latitude": 51.58612,
    "lbl:longitude": -0.314852,
    "lbl:max_zoom": 18,
    "mps:latitude": 51.582324,
    "mps:longitude": -0.310743,
    "mz:hierarchy_label": 1,
    "mz:is_current": 1,
    "mz:is_funky": 0,
    "mz:is_hard_boundary": 0,
    "mz:is_landuse_aoi": 0,
    "mz:is_official": 0,
    "mz:max_zoom": 18,
    "mz:min_zoom": 14,
    "mz:tier_locality": 7,
    "mz:tier_metro": 1,
    "name:eng_x_preferred": [
      "Kenton"
    ],
    "name:fra_x_preferred": [
      "Kenton"
    ],
    "name:gle_x_preferred": [
      "Kenton Theas"
    ],
    "name:heb_x_preferred": [
      "קנטון"
    ],
    "name:hin_x_preferred": [
      "केंटन"
    ],
    "name:jpn_x_preferred": [
      "ケントン"
    ],
    "name:nld_x_preferred": [
      "Kenton"
    ],
    "name:nob_x_preferred": [
      "Kenton"
    ],
    "name:pol_x_preferred": [
      "Kenton"
    ],
    "name:rus_x_preferred": [
      "Кентон"
    ],
    "name:urd_x_preferred": [
      "کینٹن"
    ],
    "name:zho_x_preferred": [
      "肯頓"
    ],
    "src:geom": "quattroshapes",
    "src:geom_alt": [
      "quattroshapes_pg"
    ],
    "src:lbl_centroid": "mz",
    "src:population": "wikidata",
    "wof:belongsto": [
      1880762729,
      102191581,
      1880762179,
      85633159,
      404227469,
      101750367,
      136253055,
      1158857263,
      1880771825
    ],
    "wof:breaches": [],
    "wof:concordances": {
      "fct:id": "0ab520fa-8f76-11e1-848f-cfd5bf3ef515",
      "gn:id": 2645788,
      "gp:id": 24808,
      "qs_pg:id": 1079556,
      "wd:id": "Q146364",
      "wk:page": "Kenton"
    },
    "wof:country": "GB",
    "wof:created": 1765391083,
    "wof:geom_alt": [
      "quattroshapes_pg"
    ],
    "wof:geomhash": "c8e7ff6348f017985045e6662f635785",
    "wof:hierarchy": [
      {
        "borough_id": 1158857263,
        "continent_id": 102191581,
        "country_id": 85633159,
        "county_id": 1880771825,
        "empire_id": 136253055,
        "locality_id": 101750367,
        "macrocounty_id": 1880762179,
        "macroregion_id": 404227469,
        "neighbourhood_id": 85788521,
        "region_id": 1880762729
      }
    ],
    "wof:id": 85788521,
    "wof:lang": [
      "eng"
    ],
    "wof:lastmodified": 1765391083,
    "wof:name": "Kenton",
    "wof:parent_id": 1158857263,
    "wof:placetype": "neighbourhood",
    "wof:population": 35600,
    "wof:population_rank": 7,
    "wof:repo": "whosonfirst-data-admin-gb",
    "wof:superseded_by": [],
    "wof:supersedes": [],
    "wof:tags": []
  },
  "bbox": [
    -0.327666,
    51.568239,
    -0.29557,
    51.593329
  ],
  "geometry": {"type":"Polygon","coordinates":[[[-0.31311,51.593329],[-0.307968,51.592147],[-0.307266,51.592711],[-0.302124,51.591529],[-0.300819,51.592429],[-0.297691,51.592429],[-0.296631,51.590723],[-0.296631,51.590723],[-0.296631,51.590723],[-0.296047,51.589782],[-0.296631,51.588841],[-0.296631,51.58731],[-0.297583,51.58731],[-0.298004,51.586631],[-0.298004,51.585603],[-0.298217,51.584918],[-0.297583,51.583897],[-0.296631,51.583897],[-0.296631,51.582365],[-0.296631,51.580483],[-0.296631,51.580483],[-0.29557,51.578776],[-0.296631,51.57707],[-0.296631,51.577069],[-0.302124,51.577069],[-0.302124,51.573656],[-0.302124,51.573656],[-0.306665,51.573656],[-0.307019,51.571949],[-0.307617,51.571949],[-0.310364,51.571949],[-0.310364,51.570241],[-0.310364,51.570183],[-0.31311,51.56871],[-0.313988,51.568239],[-0.314416,51.568534],[-0.317542,51.568534],[-0.318604,51.570241],[-0.318604,51.570241],[-0.318604,51.572124],[-0.318604,51.573656],[-0.318604,51.57707],[-0.32135,51.57707],[-0.32135,51.578776],[-0.324695,51.578776],[-0.324811,51.579334],[-0.326843,51.580425],[-0.326843,51.580483],[-0.326843,51.58219],[-0.327666,51.583514],[-0.326952,51.583897],[-0.324097,51.585428],[-0.324097,51.585778],[-0.324097,51.58731],[-0.321241,51.58731],[-0.318604,51.588725],[-0.318495,51.589016],[-0.318387,51.589191],[-0.316705,51.590544],[-0.316605,51.590918],[-0.31311,51.593329]]]}
}
