{
  "id": 1360808401,
  "type": "Feature",
  "properties": {
    "edtf:cessation": "",
    "edtf:inception": "",
    "geom:area": 0,
    "geom:area_square_m": 0,
    "geom:bbox": "1.089530,52.533790,1.089530,52.533790",
    "geom:latitude": 52.53379,
    "geom:longitude": 1.08953,
    "gn:admin1_code": "ENG",
    "gn:admin2_code": "I9",
    "gn:admin3_code": "33UH",
    "gn:admin4_code": "33UH117",
    "gn:asciiname": "Spooner Row",
    "gn:country_code": "GB",
    "gn:dem": 44,
    "gn:feature_class": "P",
    "gn:feature_code": "PPL",
    "gn:geonameid": 2637207,
    "gn:latitude": 52.53379,
    "gn:longitude": 1.08953,
    "gn:modification_date": "2018-07-03",
    "gn:name": "Spooner Row",
    "gn:population": 0,
    "gn:timezone": "Europe/London",
    "iso:country": "GB",
    "lbl:bbox": "1.08453,52.52879,1.09453,52.53879",
    "lbl:max_zoom": 18,
    "mz:hierarchy_label": 1,
    "mz:is_current": 1,
    "mz:min_zoom": 15,
    "name:ceb_x_preferred": [
      "Spooner Row"
    ],
    "name:cym_x_preferred": [
      "Spooner Row"
    ],
    "name:pol_x_preferred": [
      "Spooner Row"
    ],
    "name:swe_x_preferred": [
      "Spooner Row"
    ],
    "src:geom": "geonames",
    "src:population": "wikidata",
    "wof:belongsto": [
      1880762699,
      102191581,
      1880762037,
      404444211,
      85633159,
      404227469,
      1125975353,
      136253055,
      1880771585
    ],
    "wof:breaches": [],
    "wof:concordances": {
      "gn:id": 2637207,
      "wk:page": "Spooner_Row"
    },
    "wof:country": "GB",
    "wof:created": 1765390603,
    "wof:geomhash": "da70f6b3ddb7fe15a36c36360d81fd01",
    "wof:hierarchy": [
      {
        "continent_id": 102191581,
        "country_id": 85633159,
        "county_id": 1880771585,
        "empire_id": 136253055,
        "localadmin_id": 404444211,
        "locality_id": 1125975353,
        "macrocounty_id": 1880762037,
        "macroregion_id": 404227469,
        "neighbourhood_id": 1360808401,
        "region_id": 1880762699
      }
    ],
    "wof:id": 1360808401,
    "wof:lastmodified": 1765390603,
    "wof:name": "Spooner Row",
    "wof:parent_id": 1125975353,
    "wof:placetype": "neighbourhood",
    "wof:population": 783,
    "wof:population_rank": 2,
    "wof:repo": "whosonfirst-data-admin-gb",
    "wof:superseded_by": [],
    "wof:supersedes": [
      1309935011
    ],
    "wof:tags": []
  },
  "bbox": [
    1.08953,
    52.53379,
    1.08953,
    52.53379
  ],
  "geometry": {"type":"Point","coordinates":[1.08953,52.53379]}
}
