{
  "id": 1360796871,
  "type": "Feature",
  "properties": {
    "edtf:cessation": "",
    "edtf:inception": "",
    "geom:area": 0,
    "geom:area_square_m": 0,
    "geom:bbox": "-1.845360,53.367970,-1.845360,53.367970",
    "geom:latitude": 53.36797,
    "geom:longitude": -1.84536,
    "gn:country": "GB",
    "gn:fcode": "PPLL",
    "gn:population": 92600,
    "iso:country": "GB",
    "lbl:bbox": "-1.85036,53.36297,-1.84036,53.37297",
    "lbl:latitude": 53.36797,
    "lbl:longitude": -1.84536,
    "lbl:max_zoom": 18,
    "mz:hierarchy_label": 1,
    "mz:is_current": 1,
    "mz:min_zoom": 15,
    "mz:note": "Quattroshapes Point Gazetteer import 20170519",
    "name:bar_x_preferred": [
      "High Peak"
    ],
    "name:ben_x_preferred": [
      "হাই পিক"
    ],
    "name:cat_x_preferred": [
      "High Peak"
    ],
    "name:ceb_x_preferred": [
      "High Peak District"
    ],
    "name:cym_x_preferred": [
      "Bwrdeistref High Peak"
    ],
    "name:deu_x_preferred": [
      "High Peak"
    ],
    "name:eng_x_historical": [
      "High Peak Hundred",
      "Dark Peak"
    ],
    "name:eng_x_preferred": [
      "High Peak"
    ],
    "name:eng_x_variant": [
      "High Peak District",
      "High Peak Hundred",
      "Dark Peak"
    ],
    "name:fin_x_preferred": [
      "High Peak"
    ],
    "name:fra_x_preferred": [
      "High Peak"
    ],
    "name:gle_x_preferred": [
      "High Peak"
    ],
    "name:guj_x_preferred": [
      "હાઇ પીક"
    ],
    "name:ita_x_preferred": [
      "High Peak"
    ],
    "name:jpn_x_preferred": [
      "ハイ・ピーク"
    ],
    "name:kan_x_preferred": [
      "ಹೈ ಪೀಕ್"
    ],
    "name:kor_x_preferred": [
      "하이피크"
    ],
    "name:lit_x_preferred": [
      "Hai Pykas"
    ],
    "name:nan_x_preferred": [
      "High Peak"
    ],
    "name:nld_x_preferred": [
      "High Peak"
    ],
    "name:nob_x_preferred": [
      "High Peak"
    ],
    "name:pol_x_preferred": [
      "High Peak"
    ],
    "name:por_x_preferred": [
      "High Peak"
    ],
    "name:ron_x_preferred": [
      "High Peak"
    ],
    "name:rus_x_preferred": [
      "Хай-Пик"
    ],
    "name:spa_x_preferred": [
      "High Peak"
    ],
    "name:swe_x_preferred": [
      "High Peak District"
    ],
    "name:tam_x_preferred": [
      "ஹை பீக்"
    ],
    "name:tam_x_variant": [
      "ஹை  பீக்"
    ],
    "name:tel_x_preferred": [
      "కోల్విచ్"
    ],
    "name:urd_x_preferred": [
      "ہائی پیک، ڈربیشائر"
    ],
    "name:urd_x_variant": [
      "ہائی پیک"
    ],
    "name:zho_x_preferred": [
      "海皮克"
    ],
    "qs_pg:aaroncc": "GB",
    "qs_pg:gn_country": "GB",
    "qs_pg:gn_fcode": "PPLL",
    "qs_pg:gn_id": 8299617,
    "qs_pg:gn_pop": 92600,
    "qs_pg:name": "High Peak",
    "qs_pg:photos_9r": 0,
    "qs_pg:photos_sr": 0,
    "qs_pg:pop_sr": 8,
    "qs_pg:qs_id": 381602,
    "qs_pg:qs_pg_placetype": "locality",
    "src:geom": "qs_pg",
    "src:lbl_centroid": "qs_pg",
    "src:population": "wikidata",
    "wof:belongsto": [
      1880762707,
      102191581,
      1880762133,
      404438059,
      85633159,
      404227469,
      1125937941,
      136253055,
      1880771377
    ],
    "wof:breaches": [],
    "wof:concordances": {
      "gn:id": 8299617,
      "qs_pg:id": 381602,
      "wd:id": "Q1458060"
    },
    "wof:country": "GB",
    "wof:created": 1497295284,
    "wof:geomhash": "e28bd286d3ea96e684850473674425dc",
    "wof:hierarchy": [
      {
        "continent_id": 102191581,
        "country_id": 85633159,
        "county_id": 1880771377,
        "empire_id": 136253055,
        "localadmin_id": 404438059,
        "locality_id": 1125937941,
        "macrocounty_id": 1880762133,
        "macroregion_id": 404227469,
        "neighbourhood_id": 1360796871,
        "region_id": 1880762707
      }
    ],
    "wof:id": 1360796871,
    "wof:lastmodified": 1765389811,
    "wof:name": "High Peak",
    "wof:parent_id": 1125937941,
    "wof:placetype": "neighbourhood",
    "wof:population": 91109,
    "wof:population_rank": 8,
    "wof:repo": "whosonfirst-data-admin-gb",
    "wof:superseded_by": [],
    "wof:supersedes": [
      1125890317
    ],
    "wof:tags": []
  },
  "bbox": [
    -1.84536,
    53.36797,
    -1.84536,
    53.36797
  ],
  "geometry": {"type":"Point","coordinates":[-1.84536,53.36797]}
}
