{
  "id": 85785221,
  "type": "Feature",
  "properties": {
    "edtf:cessation": "",
    "edtf:inception": "",
    "geom:area": 0.0003304883185000416,
    "geom:area_square_m": 2543263.461303,
    "geom:bbox": "-0.280151,51.500644,-0.258179,51.522416",
    "geom:latitude": 51.51243091774409,
    "geom:longitude": -0.26809502065407453,
    "gn:latitude": 51.50901,
    "gn:longitude": -0.2762,
    "gn:population": 53689,
    "iso:country": "GB",
    "lbl:latitude": 51.509452,
    "lbl:longitude": -0.264562,
    "lbl:max_zoom": 18,
    "mps:latitude": 51.512323,
    "mps:longitude": -0.268304,
    "mz:hierarchy_label": 1,
    "mz:is_current": 1,
    "mz:is_funky": 0,
    "mz:is_hard_boundary": 0,
    "mz:is_landuse_aoi": 0,
    "mz:is_official": 0,
    "mz:max_zoom": 18,
    "mz:min_zoom": 13,
    "mz:tier_locality": 7,
    "mz:tier_metro": 1,
    "name:ara_x_preferred": [
      "أكتون"
    ],
    "name:arz_x_preferred": [
      "اكتون"
    ],
    "name:ast_x_preferred": [
      "Acton"
    ],
    "name:azb_x_preferred": [
      "آکتون"
    ],
    "name:aze_x_preferred": [
      "Akton"
    ],
    "name:bel_x_preferred": [
      "Эктан"
    ],
    "name:bul_x_preferred": [
      "Актън"
    ],
    "name:cat_x_preferred": [
      "Acton"
    ],
    "name:ceb_x_preferred": [
      "Acton"
    ],
    "name:cym_x_preferred": [
      "Acton"
    ],
    "name:dan_x_preferred": [
      "Acton"
    ],
    "name:ell_x_preferred": [
      "Άκτον"
    ],
    "name:eng_x_preferred": [
      "Acton"
    ],
    "name:eus_x_preferred": [
      "Acton"
    ],
    "name:fas_x_preferred": [
      "آکتون، لندن"
    ],
    "name:fas_x_variant": [
      "آکتون"
    ],
    "name:fra_x_preferred": [
      "Acton"
    ],
    "name:gle_x_preferred": [
      "Acton"
    ],
    "name:heb_x_preferred": [
      "אקטון"
    ],
    "name:hin_x_preferred": [
      "ऐक्टन"
    ],
    "name:hye_x_preferred": [
      "Աքթուն"
    ],
    "name:ita_x_preferred": [
      "Acton"
    ],
    "name:jpn_x_preferred": [
      "アクトン"
    ],
    "name:kat_x_preferred": [
      "აქტონი"
    ],
    "name:lld_x_preferred": [
      "Acton"
    ],
    "name:msa_x_preferred": [
      "Acton"
    ],
    "name:nld_x_preferred": [
      "Acton"
    ],
    "name:nno_x_preferred": [
      "Acton i London"
    ],
    "name:nob_x_preferred": [
      "Acton"
    ],
    "name:pol_x_preferred": [
      "Acton"
    ],
    "name:ron_x_preferred": [
      "Acton"
    ],
    "name:rus_x_preferred": [
      "Актон"
    ],
    "name:slv_x_preferred": [
      "Acton"
    ],
    "name:spa_x_preferred": [
      "Acton"
    ],
    "name:swe_x_preferred": [
      "Acton"
    ],
    "name:tur_x_preferred": [
      "Acton"
    ],
    "name:ukr_x_preferred": [
      "Ектон"
    ],
    "name:urd_x_preferred": [
      "ایکٹون، لندن"
    ],
    "name:urd_x_variant": [
      "جنوبی ایکٹون"
    ],
    "name:vie_x_preferred": [
      "Acton"
    ],
    "name:yue_x_preferred": [
      "厄頓"
    ],
    "name:zho_x_preferred": [
      "阿克頓"
    ],
    "qs:gn_adm0_cc": "GB",
    "qs:gn_fcode": "PPL",
    "qs:gn_local": 2643743,
    "qs:gn_namadm1": "ENG",
    "qs:gn_name": "Acton",
    "qs:local_max": 40697,
    "qs:local_sum": 1675717,
    "qs:localhoods": 643,
    "qs:name": "Acton",
    "qs:name_adm0": "United Kingdom",
    "qs:name_adm1": "England",
    "qs:name_adm2": "Greater London",
    "qs:name_lau": "London Borough of Ealing",
    "qs:name_local": "London",
    "qs:photo_max": 154,
    "qs:photo_sum": 1498,
    "qs:placetype": "Suburb",
    "qs:quad_count": 49,
    "qs:woe_adm0": 23424975,
    "qs:woe_adm1": 24554868,
    "qs:woe_adm2": 23416974,
    "qs:woe_lau": 12695826,
    "qs:woe_local": 44418,
    "qs:woe_ver": "7.10.0",
    "src:geom": "quattroshapes",
    "src:geom_alt": [
      "quattroshapes_pg"
    ],
    "src:lbl_centroid": "mz",
    "src:population": "wikidata",
    "wof:belongsto": [
      1880762729,
      102191581,
      1880762179,
      85633159,
      404227469,
      101750367,
      136253055,
      1158857265,
      1880771825
    ],
    "wof:breaches": [],
    "wof:concordances": {
      "gn:id": 2657697,
      "gp:id": 10383,
      "qs_pg:id": 1119261,
      "wd:id": "Q83609",
      "wk:page": "Acton, London"
    },
    "wof:country": "GB",
    "wof:created": 1765390949,
    "wof:geom_alt": [
      "quattroshapes_pg"
    ],
    "wof:geomhash": "cf1ced329ea41d676b8f2b84b6d778a6",
    "wof:hierarchy": [
      {
        "borough_id": 1158857265,
        "continent_id": 102191581,
        "country_id": 85633159,
        "county_id": 1880771825,
        "empire_id": 136253055,
        "locality_id": 101750367,
        "macrocounty_id": 1880762179,
        "macroregion_id": 404227469,
        "neighbourhood_id": 85785221,
        "region_id": 1880762729
      }
    ],
    "wof:id": 85785221,
    "wof:lang": [
      "eng"
    ],
    "wof:lastmodified": 1765390949,
    "wof:name": "Acton",
    "wof:parent_id": 1158857265,
    "wof:placetype": "neighbourhood",
    "wof:population": 62480,
    "wof:population_rank": 8,
    "wof:repo": "whosonfirst-data-admin-gb",
    "wof:superseded_by": [],
    "wof:supersedes": [],
    "wof:tags": []
  },
  "bbox": [
    -0.280151,
    51.500644,
    -0.258179,
    51.522416
  ],
  "geometry": {"type":"Polygon","coordinates":[[[-0.260925,51.520707],[-0.260925,51.518998],[-0.258179,51.518998],[-0.258179,51.517467],[-0.258179,51.51558],[-0.258179,51.51558],[-0.258179,51.513692],[-0.258179,51.512161],[-0.260925,51.512161],[-0.260925,51.510452],[-0.260925,51.508742],[-0.260925,51.507033],[-0.258179,51.507033],[-0.258179,51.505323],[-0.258179,51.503614],[-0.260925,51.503614],[-0.260925,51.501904],[-0.261457,51.501049],[-0.263672,51.501049],[-0.264177,51.500644],[-0.26653,51.501904],[-0.267245,51.502287],[-0.268157,51.501994],[-0.269165,51.503614],[-0.271912,51.503614],[-0.271912,51.505323],[-0.274658,51.505323],[-0.274658,51.507033],[-0.274658,51.508742],[-0.27519,51.509597],[-0.276873,51.509597],[-0.277405,51.510452],[-0.277405,51.512161],[-0.280151,51.512161],[-0.280151,51.51558],[-0.280151,51.518998],[-0.279199,51.518998],[-0.275611,51.518998],[-0.275256,51.520707],[-0.274658,51.520707],[-0.271912,51.520707],[-0.269165,51.520707],[-0.269165,51.522416],[-0.266418,51.522416],[-0.263672,51.522416],[-0.263672,51.520707],[-0.260925,51.520707]]]}
}
