{
  "id": 1360791155,
  "type": "Feature",
  "properties": {
    "edtf:cessation": "",
    "edtf:inception": "",
    "geom:area": 0,
    "geom:area_square_m": 0,
    "geom:bbox": "-3.511159,54.520122,-3.511159,54.520122",
    "geom:latitude": 54.520122,
    "geom:longitude": -3.511159,
    "gn:population": 6507,
    "iso:country": "GB",
    "lbl:bbox": "-3.516159,54.515122,-3.506159,54.525122",
    "lbl:latitude": 54.520123,
    "lbl:longitude": -3.511159,
    "lbl:max_zoom": 18,
    "mps:latitude": 54.520123,
    "mps:longitude": -3.511159,
    "mz:hierarchy_label": 1,
    "mz:is_current": 1,
    "mz:min_zoom": 15,
    "name:ast_x_preferred": [
      "Cleator Moor"
    ],
    "name:azb_x_preferred": [
      "کلیتور مور"
    ],
    "name:ben_x_preferred": [
      "ক্লিটর মুর"
    ],
    "name:ceb_x_preferred": [
      "Cleator Moor"
    ],
    "name:cym_x_preferred": [
      "Cleator Moor"
    ],
    "name:deu_x_preferred": [
      "Cleator Moor"
    ],
    "name:eng_x_preferred": [
      "Cleator Moor"
    ],
    "name:fas_x_preferred": [
      "کلیتور مور"
    ],
    "name:fra_x_preferred": [
      "Cleator Moor"
    ],
    "name:gle_x_preferred": [
      "Cleator Moor"
    ],
    "name:guj_x_preferred": [
      "ક્લીટર મૂર"
    ],
    "name:ita_x_preferred": [
      "Cleator Moor"
    ],
    "name:jpn_x_preferred": [
      "クリエーター・モーア"
    ],
    "name:kan_x_preferred": [
      "ಕ್ಲೇಟರ್ ಮೂರ್"
    ],
    "name:kor_x_preferred": [
      "클리터 무어"
    ],
    "name:lit_x_preferred": [
      "Klitor Muras"
    ],
    "name:lld_x_preferred": [
      "Cleator Moor"
    ],
    "name:nan_x_preferred": [
      "Cleator Moor"
    ],
    "name:nld_x_preferred": [
      "Cleator Moor"
    ],
    "name:nno_x_preferred": [
      "Cleator Moor"
    ],
    "name:pol_x_preferred": [
      "Cleator Moor"
    ],
    "name:por_x_preferred": [
      "Cleator Moor"
    ],
    "name:ron_x_preferred": [
      "Cleator Moor"
    ],
    "name:rus_x_preferred": [
      "Клитор-Мур"
    ],
    "name:spa_x_preferred": [
      "Cleator Moor"
    ],
    "name:swe_x_preferred": [
      "Cleator Moor"
    ],
    "name:tam_x_preferred": [
      "கிலேட்டர் மூர்"
    ],
    "name:tel_x_preferred": [
      "క్లిటర్ మూర్"
    ],
    "name:tur_x_preferred": [
      "Cleator Moor"
    ],
    "name:und_x_variant": [
      "Moore"
    ],
    "name:urd_x_preferred": [
      "کلیاتور مور"
    ],
    "name:vol_x_preferred": [
      "Cleator Moor"
    ],
    "name:zho_x_preferred": [
      "克利特穆爾"
    ],
    "qs:a0": "United Kingdom",
    "qs:a1": "*Cumbria",
    "qs:a1_lc": "GB12160000",
    "qs:a1r": "0England",
    "qs:a1r_lc": "GB12000000",
    "qs:adm0": "United Kingdom",
    "qs:la_lc": "*",
    "qs:level": "locality",
    "qs:loc": "Cleator Moor",
    "qs:loc_alt": "Cleator Moor",
    "qs:pop": 0,
    "qs:source": "RCustom EuroGlobalMap + UMZ Urban Polygons + Geonames + GeoPlanet",
    "qs:type": "buffered point",
    "src:geom": "whosonfirst",
    "src:geom_alt": [
      "quattroshapes_pg",
      "quattroshapes"
    ],
    "src:geom_via": "quattroshapes",
    "src:lbl_centroid": "mapshaper",
    "src:population": "wikidata",
    "wd:latitude": 54.5211,
    "wd:longitude": -3.5119,
    "wd:wordcount": 1138,
    "wof:belongsto": [
      1880773269,
      102191581,
      1880761989,
      404431179,
      85633159,
      404227469,
      1243582737,
      136253055,
      1880773239
    ],
    "wof:breaches": [],
    "wof:concordances": {
      "gn:id": 2642285,
      "gp:id": 29270,
      "qs_pg:id": 234095,
      "wd:id": "Q677656",
      "wk:page": "Cleator Moor"
    },
    "wof:concordances_alt": {
      "qs_pg:id": 291937
    },
    "wof:country": "GB",
    "wof:created": 1765389459,
    "wof:geomhash": "30aea1ffee24f4f45d96ecda00f494a3",
    "wof:hierarchy": [
      {
        "continent_id": 102191581,
        "country_id": 85633159,
        "county_id": 1880773239,
        "empire_id": 136253055,
        "localadmin_id": 404431179,
        "locality_id": 1243582737,
        "macrocounty_id": 1880761989,
        "macroregion_id": 404227469,
        "neighbourhood_id": 1360791155,
        "region_id": 1880773269
      }
    ],
    "wof:id": 1360791155,
    "wof:lastmodified": 1765389459,
    "wof:name": "Cleator Moor",
    "wof:parent_id": 1243582737,
    "wof:placetype": "neighbourhood",
    "wof:population": 6686,
    "wof:population_rank": 5,
    "wof:repo": "whosonfirst-data-admin-gb",
    "wof:superseded_by": [],
    "wof:supersedes": [
      101873413
    ],
    "wof:tags": []
  },
  "bbox": [
    -3.511159,
    54.520122,
    -3.511159,
    54.520122
  ],
  "geometry": {"type":"Point","coordinates":[-3.511159,54.520122]}
}
