{
  "id": 85683667,
  "type": "Feature",
  "properties": {
    "edtf:cessation": "",
    "edtf:deprecated": "2017-12-20",
    "edtf:inception": "",
    "geom:area": 0.001606372498999944,
    "geom:area_square_m": 12364771.440738,
    "geom:bbox": "-0.228443,51.477279,-0.149782,51.530353",
    "geom:latitude": 51.501198628722655,
    "geom:longitude": -0.19215041723919646,
    "iso:country": "GB",
    "lbl:latitude": 51.498542,
    "lbl:longitude": -0.194764,
    "mps:latitude": 51.498542,
    "mps:longitude": -0.194764,
    "mz:hierarchy_label": 1,
    "mz:is_current": 0,
    "mz:is_funky": 1,
    "mz:max_zoom": 11,
    "mz:min_zoom": 11,
    "name:ara_x_preferred": [
      "كينسينغتون وتشيلسي"
    ],
    "name:bel_x_preferred": [
      "Бора Кенсінгтон і Чэлсі"
    ],
    "name:ben_x_preferred": [
      "কেনসিংটন ও চেলসি"
    ],
    "name:bul_x_preferred": [
      "Кенсингтън и Челси"
    ],
    "name:cat_x_preferred": [
      "Kensington i Chelsea"
    ],
    "name:ces_x_preferred": [
      "Kensington a Chelsea"
    ],
    "name:cym_x_preferred": [
      "Kensington a Chelsea"
    ],
    "name:dan_x_preferred": [
      "Kensington and Chelsea"
    ],
    "name:deu_x_preferred": [
      "Royal Borough of Kensington and Chelsea"
    ],
    "name:eng_x_preferred": [
      "Kensington and Chelsea"
    ],
    "name:epo_x_preferred": [
      "Kensington kaj Chelsea"
    ],
    "name:eus_x_preferred": [
      "Kensington eta Chelsea"
    ],
    "name:fas_x_preferred": [
      "منطقه سلطنتی کنزینگتون و چلسی"
    ],
    "name:fin_x_preferred": [
      "Kensington and Chelsea"
    ],
    "name:fra_x_preferred": [
      "borough royal de Kensington et Chelsea"
    ],
    "name:gle_x_preferred": [
      "Buirg Ríoga Kensington agus Chelsea"
    ],
    "name:glg_x_preferred": [
      "Kensington e Chelsea"
    ],
    "name:guj_x_preferred": [
      "રોયલ બોરો ઓફ કેન્સિંગ્ટન અને ચેલ્સી"
    ],
    "name:heb_x_preferred": [
      "הרובע המלכותי קנזינגטון וצ'לסי"
    ],
    "name:hin_x_preferred": [
      "केंसिंग्टन ऐंड चेल्सी बरो"
    ],
    "name:hun_x_preferred": [
      "Royal Borough of Kensington and Chelsea"
    ],
    "name:hye_x_preferred": [
      "Կենսինգտոն և Չելսի"
    ],
    "name:ind_x_preferred": [
      "Kensington dan Chelsea"
    ],
    "name:isl_x_preferred": [
      "Kensington og Chelsea"
    ],
    "name:ita_x_preferred": [
      "Kensington e Chelsea"
    ],
    "name:jpn_x_preferred": [
      "ケンジントン・アンド・チェルシー王室特別区"
    ],
    "name:kan_x_preferred": [
      "ರಾಯಲ್ ಬರೋ ಆಫ್ ಕೆನ್ಸಿಂಗ್ಟನ್ ಮತ್ತು ಚೆಲ್ಸಿಯಾ"
    ],
    "name:kat_x_preferred": [
      "კენსინგტონი და ჩელსი"
    ],
    "name:kor_x_preferred": [
      "켄징턴 첼시 구"
    ],
    "name:lat_x_preferred": [
      "Kensington et Chelsea"
    ],
    "name:mar_x_preferred": [
      "केन्सिंग्टन व चेल्सी"
    ],
    "name:mkd_x_preferred": [
      "Кензингтон и Челси"
    ],
    "name:nld_x_preferred": [
      "Kensington en Chelsea"
    ],
    "name:nno_x_preferred": [
      "Royal Borough of Kensington and Chelsea"
    ],
    "name:nob_x_preferred": [
      "Kensington and Chelsea"
    ],
    "name:oci_x_preferred": [
      "Kensington e Chelsea"
    ],
    "name:pnb_x_preferred": [
      "کنسنگٹن تے چیلسی"
    ],
    "name:pol_x_preferred": [
      "Royal Borough of Kensington and Chelsea"
    ],
    "name:por_x_preferred": [
      "Kensington e Chelsea"
    ],
    "name:ron_x_preferred": [
      "Kensington and Chelsea"
    ],
    "name:rus_x_preferred": [
      "Кенсингтон и Челси"
    ],
    "name:sco_x_preferred": [
      "Royal Borough of Kensington and Chelsea"
    ],
    "name:spa_x_preferred": [
      "Kensington y Chelsea"
    ],
    "name:srp_x_preferred": [
      "Лондонска општина Кенсингтон и Челси"
    ],
    "name:swe_x_preferred": [
      "Royal Borough of Kensington and Chelsea"
    ],
    "name:tam_x_preferred": [
      "ராயல்  பாரூக்ஹ்  ஆப்  கென்சிங்டன் \u0026 செல்சியா"
    ],
    "name:tel_x_preferred": [
      "రాయల్ బోరోగ్ అఫ్ కెన్సింగ్టన్ అండ్ చెల్సి"
    ],
    "name:tgk_x_preferred": [
      "Кенсингтон ва Челси"
    ],
    "name:ukr_x_preferred": [
      "Кенсінгтон і Челсі"
    ],
    "name:urd_x_preferred": [
      "کینزنگٹن اور چیلسی بورو"
    ],
    "name:vie_x_preferred": [
      "Khu hoàng gia Kensington và Chelsea"
    ],
    "name:yid_x_preferred": [
      "קעניגלעכע בארא פון קענזינגטאן און טשעלסי"
    ],
    "name:zho_x_preferred": [
      "肯辛頓-切爾西區"
    ],
    "ne:abbrev": "Ken\u0026Chel",
    "ne:adm0_a3": "GBR",
    "ne:adm0_label": "7",
    "ne:adm0_sr": "1",
    "ne:adm1_cod_1": "GBR-2072",
    "ne:adm1_code": "GBR-2072",
    "ne:admin": "United Kingdom",
    "ne:area_sqkm": "0.00000000000",
    "ne:check_me": "20",
    "ne:code_hasc": "GB.KC",
    "ne:code_local": "",
    "ne:datarank": "5",
    "ne:diss_me": "2072",
    "ne:featurecla": "Admin-1 scale rank",
    "ne:fips": "UK17",
    "ne:fips_alt": "UKG4",
    "ne:gadm_level": "2",
    "ne:geonunit": "England",
    "ne:gn_a1_code": "GB.",
    "ne:gn_id": "-2648110",
    "ne:gn_level": "-2",
    "ne:gn_name": "Greater London",
    "ne:gn_region": "",
    "ne:gns_adm1": "",
    "ne:gns_id": "6077599",
    "ne:gns_lang": "ind",
    "ne:gns_level": "1",
    "ne:gns_name": "Kensington and Chelsea, Royal London Borough of",
    "ne:gns_region": "UK35",
    "ne:gu_a3": "ENG",
    "ne:hasc_maybe": "",
    "ne:iso_3166_2": "GB-",
    "ne:iso_a2": "GB",
    "ne:labelrank": "9",
    "ne:latitude": "51.49190000000",
    "ne:longitude": "-0.17955700000",
    "ne:mapcolor13": 3,
    "ne:mapcolor9": 6,
    "ne:name": "Kensington and Chelsea",
    "ne:name_alt": "",
    "ne:name_len": 22,
    "ne:name_local": "",
    "ne:note": "",
    "ne:postal": "KC",
    "ne:provnum_ne": "3",
    "ne:region": "Greater London",
    "ne:region_cod": "",
    "ne:region_sub": "Greater London",
    "ne:sameascity": "-99",
    "ne:scalerank": "8",
    "ne:sov_a3": "GB1",
    "ne:sub_code": "",
    "ne:type": "London Borough (royal)",
    "ne:type_en": "London Borough (royal)",
    "ne:wikipedia": "",
    "ne:woe_id": 12695812,
    "ne:woe_label": "",
    "ne:woe_name": "Royal Borough of Kensington and Chelsea",
    "qs:a0": "United Kingdom",
    "qs:a0_lc": "GB00000000",
    "qs:a1": "Kensington and Chelsea",
    "qs:a1_alt": "Kensington and Chelsea",
    "qs:a1_lc": "GB12AW0000",
    "qs:a1r": "England",
    "qs:a1r_alt": "England",
    "qs:a1r_lc": "GB12000000",
    "qs:adm0": "United Kingdom",
    "qs:adm0_a3": "GBR",
    "qs:level": "adm1",
    "qs:source": "EuroGlobalMap",
    "qs:type": "London Borough",
    "src:geom": "quattroshapes",
    "src:geom_alt": [],
    "src:lbl:centroid": "mapshaper",
    "src:population": "wikidata",
    "unlc:subdivision": "GB-KEC",
    "wd:wordcount": 46,
    "wof:belongsto": [
      102191581,
      85633159,
      404227469
    ],
    "wof:breaches": [],
    "wof:concordances": {
      "fips:code": "UK17",
      "gn:id": -2648110,
      "gp:id": 12695812,
      "hasc:id": "GB.KC",
      "unlc:id": "GB-KEC",
      "wd:id": "Q188801"
    },
    "wof:country": "GB",
    "wof:created": 1765390919,
    "wof:geomhash": "5828e1369e24117c54566365f590671f",
    "wof:hierarchy": [
      {
        "continent_id": 102191581,
        "country_id": 85633159,
        "macroregion_id": 404227469,
        "region_id": 85683667
      }
    ],
    "wof:id": 85683667,
    "wof:lastmodified": 1765390919,
    "wof:name": "Kensington and Chelsea",
    "wof:parent_id": 404227469,
    "wof:placetype": "region",
    "wof:population": 146154,
    "wof:population_rank": 9,
    "wof:repo": "whosonfirst-data-admin-gb",
    "wof:shortcode": "KC",
    "wof:subdivision": "GB-KEC",
    "wof:superseded_by": [
      1158857317
    ],
    "wof:supersedes": [],
    "wof:tags": []
  },
  "bbox": [
    -0.228443,
    51.477279,
    -0.149782,
    51.530353
  ],
  "geometry": {"type":"Polygon","coordinates":[[[-0.215968,51.527927],[-0.215452,51.526737],[-0.212641,51.52689],[-0.20588,51.525814],[-0.203769,51.523494],[-0.201523,51.522743],[-0.200532,51.520649],[-0.203615,51.520584],[-0.201427,51.517799],[-0.200686,51.517975],[-0.199147,51.514549],[-0.195012,51.51503],[-0.194004,51.511757],[-0.192923,51.51181],[-0.192082,51.509865],[-0.187872,51.510177],[-0.184198,51.501793],[-0.180275,51.501461],[-0.17951,51.497776],[-0.168353,51.499019],[-0.167582,51.498298],[-0.165742,51.499241],[-0.165445,51.498695],[-0.160963,51.501587],[-0.158415,51.502247],[-0.157813,51.499016],[-0.155986,51.497509],[-0.155257,51.495064],[-0.155952,51.494491],[-0.154953,51.493854],[-0.155928,51.493198],[-0.154756,51.491962],[-0.15576,51.491447],[-0.155135,51.490047],[-0.155813,51.489605],[-0.150305,51.486229],[-0.149949,51.485515],[-0.149782,51.484558],[-0.166721,51.482383],[-0.173309,51.480934],[-0.175192,51.479988],[-0.177755,51.47755],[-0.179312,51.477802],[-0.18336,51.477279],[-0.195927,51.487369],[-0.196387,51.487205],[-0.198238,51.488121],[-0.202346,51.491684],[-0.201819,51.491874],[-0.204603,51.494652],[-0.207328,51.496147],[-0.20794,51.496021],[-0.214094,51.500732],[-0.217856,51.506099],[-0.215874,51.506366],[-0.216095,51.507465],[-0.215142,51.507644],[-0.215743,51.509117],[-0.216819,51.509464],[-0.217149,51.510391],[-0.217993,51.510227],[-0.217828,51.509758],[-0.219226,51.509575],[-0.222867,51.515915],[-0.228241,51.521095],[-0.226669,51.521976],[-0.22656,51.524795],[-0.227134,51.524791],[-0.227352,51.527889],[-0.228443,51.530353],[-0.227634,51.529926],[-0.223541,51.529937],[-0.215968,51.527927]]]}
}
