{
  "id": 85789983,
  "type": "Feature",
  "properties": {
    "edtf:cessation": "",
    "edtf:inception": "",
    "geom:area": 0,
    "geom:area_square_m": 0,
    "geom:bbox": "-1.522070,52.970641,-1.522070,52.970641",
    "geom:latitude": 52.970641,
    "geom:longitude": -1.52207,
    "gn:latitude": 52.96494,
    "gn:longitude": -1.50376,
    "iso:country": "GB",
    "lbl:bbox": "-1.52707,52.965641,-1.51707,52.975641",
    "lbl:latitude": 52.970641,
    "lbl:longitude": -1.52207,
    "lbl:max_zoom": 18,
    "mps:latitude": 52.987847,
    "mps:longitude": -1.496568,
    "mz:hierarchy_label": 0,
    "mz:is_current": -1,
    "mz:is_funky": 0,
    "mz:is_hard_boundary": 0,
    "mz:is_landuse_aoi": 0,
    "mz:is_official": 0,
    "mz:max_zoom": 18,
    "mz:min_zoom": 13,
    "mz:tier_locality": 3,
    "name:ceb_x_preferred": [
      "Quarndon"
    ],
    "name:cym_x_preferred": [
      "Quarndon"
    ],
    "name:eng_x_preferred": [
      "Quarndon"
    ],
    "name:fas_x_preferred": [
      "کوارندان"
    ],
    "name:fra_x_preferred": [
      "Quarndon"
    ],
    "name:gle_x_preferred": [
      "Quarndon"
    ],
    "name:ita_x_preferred": [
      "Quarndon"
    ],
    "name:jpn_x_preferred": [
      "クウォーンドン"
    ],
    "name:lld_x_preferred": [
      "Quarndon"
    ],
    "name:nan_x_preferred": [
      "Quarndon"
    ],
    "name:nld_x_preferred": [
      "Quarndon"
    ],
    "name:pol_x_preferred": [
      "Quarndon"
    ],
    "name:spa_x_preferred": [
      "Quarndon"
    ],
    "name:swe_x_preferred": [
      "Quarndon"
    ],
    "qs:gn_adm0_cc": "GB",
    "qs:gn_fcode": "PPL",
    "qs:gn_local": 2650000,
    "qs:gn_nam_loc": "rauceby",
    "qs:gn_namadm1": "ENG",
    "qs:gn_name": "Quarndon",
    "qs:local_max": 4610,
    "qs:local_sum": 19661,
    "qs:localhoods": 15,
    "qs:name": "Quarndon",
    "qs:name_adm0": "United Kingdom",
    "qs:name_adm1": "England",
    "qs:name_adm2": "Derbyshire",
    "qs:name_lau": "Amber Valley Borough",
    "qs:name_local": "Derby",
    "qs:photo_max": 359,
    "qs:photo_sum": 1747,
    "qs:placetype": "Suburb",
    "qs:quad_count": 108,
    "qs:woe_adm0": 23424975,
    "qs:woe_adm1": 24554868,
    "qs:woe_adm2": 12602143,
    "qs:woe_lau": 12695906,
    "qs:woe_local": 18114,
    "qs:woe_ver": "7.10.0",
    "src:geom": "mz",
    "src:geom_alt": [
      "quattroshapes_pg",
      "quattroshapes"
    ],
    "src:lbl_centroid": "yerbashapes",
    "src:population": "wikidata",
    "wd:latitude": 52.966,
    "wd:longitude": -1.503,
    "wd:wordcount": 1304,
    "wof:belongsto": [
      1880762707,
      102191581,
      1880762133,
      404441501,
      85633159,
      404227469,
      1125838343,
      136253055,
      1880771385
    ],
    "wof:breaches": [],
    "wof:concordances": {
      "gn:id": 2639805,
      "gp:id": 32744,
      "qs_pg:id": 1113962,
      "wd:id": "Q2467726",
      "wk:page": "Quarndon"
    },
    "wof:country": "GB",
    "wof:created": 1765391156,
    "wof:geom_alt": [
      "quattroshapes_pg",
      "quattroshapes"
    ],
    "wof:geomhash": "e4967b97fe766dd9fb739c483b70c878",
    "wof:hierarchy": [
      {
        "continent_id": 102191581,
        "country_id": 85633159,
        "county_id": 1880771385,
        "empire_id": 136253055,
        "localadmin_id": 404441501,
        "locality_id": 1125838343,
        "macrocounty_id": 1880762133,
        "macroregion_id": 404227469,
        "neighbourhood_id": 85789983,
        "region_id": 1880762707
      }
    ],
    "wof:id": 85789983,
    "wof:lang": [
      "eng"
    ],
    "wof:lastmodified": 1765391156,
    "wof:name": "Quarndon",
    "wof:parent_id": 1125838343,
    "wof:placetype": "neighbourhood",
    "wof:population": 998,
    "wof:population_rank": 2,
    "wof:repo": "whosonfirst-data-admin-gb",
    "wof:superseded_by": [],
    "wof:supersedes": [],
    "wof:tags": []
  },
  "bbox": [
    -1.52207,
    52.970641,
    -1.52207,
    52.970641
  ],
  "geometry": {"type":"Point","coordinates":[-1.52207,52.970641]}
}
