{
  "id": 101750637,
  "type": "Feature",
  "properties": {
    "edtf:cessation": "",
    "edtf:inception": "",
    "geom:area": 0.0019033118659999547,
    "geom:area_square_m": 13136435.533499,
    "geom:bbox": "-3.506567,56.046621,-3.399175,56.087638",
    "geom:latitude": 56.07080089262295,
    "geom:longitude": -3.442371999195692,
    "iso:country": "GB",
    "lbl:latitude": 56.070601,
    "lbl:longitude": -3.438711,
    "lbl:max_zoom": 18,
    "lbl:min_zoom": 13.5,
    "mps:latitude": 56.070601,
    "mps:longitude": -3.438711,
    "mz:hierarchy_label": 1,
    "mz:is_current": 1,
    "mz:min_zoom": 12,
    "name:ara_x_preferred": [
      "دمفرلين"
    ],
    "name:ara_x_variant": [
      "دنفيرملين"
    ],
    "name:arz_x_preferred": [
      "دنفيرملين"
    ],
    "name:ast_x_preferred": [
      "Dunfermline"
    ],
    "name:azb_x_preferred": [
      "دانفرم‌لاین"
    ],
    "name:aze_x_preferred": [
      "Danfermlin"
    ],
    "name:bel_x_preferred": [
      "Горад Данфермлін"
    ],
    "name:bel_x_variant": [
      "Данфермлін"
    ],
    "name:ben_x_preferred": [
      "ডানফামলাইন"
    ],
    "name:bul_x_preferred": [
      "Дънфърмлин"
    ],
    "name:cat_x_preferred": [
      "Dunfermline"
    ],
    "name:ceb_x_preferred": [
      "Dunfermline"
    ],
    "name:ces_x_preferred": [
      "Dunfermline"
    ],
    "name:cym_x_preferred": [
      "Dunfermline"
    ],
    "name:dan_x_preferred": [
      "Dunfermline"
    ],
    "name:deu_x_preferred": [
      "Dunfermline"
    ],
    "name:ell_x_preferred": [
      "Ντανφέρμλιν"
    ],
    "name:eng_x_preferred": [
      "Dunfermline"
    ],
    "name:epo_x_preferred": [
      "Dunfermline"
    ],
    "name:est_x_preferred": [
      "Dunfermline"
    ],
    "name:eus_x_preferred": [
      "Dunfermline"
    ],
    "name:fas_x_preferred": [
      "دانفرم‌لاین"
    ],
    "name:fin_x_preferred": [
      "Dunfermline"
    ],
    "name:fra_x_preferred": [
      "Dunfermline"
    ],
    "name:gla_x_preferred": [
      "Dùn Phàrlain"
    ],
    "name:gle_x_preferred": [
      "Dún Phárlain"
    ],
    "name:gle_x_variant": [
      "Dùn Phàrlain"
    ],
    "name:guj_x_preferred": [
      "ડનફર્મલાઇન"
    ],
    "name:hbs_x_preferred": [
      "Dunfermline"
    ],
    "name:heb_x_preferred": [
      "דנפרמליין"
    ],
    "name:hun_x_preferred": [
      "Dunfermline"
    ],
    "name:hye_x_preferred": [
      "Դանֆերմլին"
    ],
    "name:hye_x_variant": [
      "Դանֆրմլին"
    ],
    "name:isl_x_preferred": [
      "Dunfermline"
    ],
    "name:ita_x_preferred": [
      "Dunfermline"
    ],
    "name:jpn_x_preferred": [
      "ダンファームリン"
    ],
    "name:kan_x_preferred": [
      "ಡನ್ಫರ್ಮ್ಲಿನ್"
    ],
    "name:kaz_x_preferred": [
      "Данфермлин"
    ],
    "name:kor_x_preferred": [
      "던펌린"
    ],
    "name:lit_x_preferred": [
      "Danfermlinas"
    ],
    "name:mkd_x_preferred": [
      "Данфермлин"
    ],
    "name:nds_x_preferred": [
      "Dunfermline"
    ],
    "name:nld_x_preferred": [
      "Dunfermline"
    ],
    "name:nno_x_preferred": [
      "Dunfermline"
    ],
    "name:nob_x_preferred": [
      "Dunfermline"
    ],
    "name:nor_x_preferred": [
      "Dunfermline"
    ],
    "name:pnb_x_preferred": [
      "ڈنفرملائن"
    ],
    "name:pol_x_preferred": [
      "Dunfermline"
    ],
    "name:por_x_preferred": [
      "Dunfermline"
    ],
    "name:ron_x_preferred": [
      "Dunfermline"
    ],
    "name:rus_x_preferred": [
      "Данфермлин"
    ],
    "name:sco_x_preferred": [
      "Dunfaurlin"
    ],
    "name:slv_x_preferred": [
      "Dunfermline"
    ],
    "name:spa_x_preferred": [
      "Dunfermline"
    ],
    "name:swe_x_preferred": [
      "Dunfermline"
    ],
    "name:szl_x_preferred": [
      "Dunfermline"
    ],
    "name:tam_x_preferred": [
      "டன்பெற் மலின்"
    ],
    "name:tat_x_preferred": [
      "Данфермлин"
    ],
    "name:tel_x_preferred": [
      "డున్ఫెర్మ్లైన్"
    ],
    "name:tha_x_preferred": [
      "ดันเฟิร์มลิน"
    ],
    "name:ukr_x_preferred": [
      "Данфермлін"
    ],
    "name:ukr_x_variant": [
      "Данфермлайн"
    ],
    "name:urd_x_preferred": [
      "ڈنفئرلین"
    ],
    "name:zho_x_preferred": [
      "鄧弗姆林"
    ],
    "qs:a0": "United Kingdom",
    "qs:a1": "*Fife",
    "qs:a1_lc": "GB11QR0000",
    "qs:a1r": "0Scotland",
    "qs:a1r_lc": "GB11000000",
    "qs:adm0": "United Kingdom",
    "qs:id": 0,
    "qs:la_lc": "*",
    "qs:level": "locality",
    "qs:loc": "Dunfermline",
    "qs:loc_alt": "Dunfermline",
    "qs:pop": 0,
    "qs:source": "RCustom EuroGlobalMap + UMZ Urban Polygons + Geonames + GeoPlanet",
    "qs:type": "urban core",
    "src:geom": "quattroshapes",
    "src:geom_alt": [
      "quattroshapes_pg"
    ],
    "src:lbl_centroid": "mapshaper",
    "src:population": "wikidata",
    "wd:latitude": 56.071389,
    "wd:longitude": -3.461667,
    "wd:wordcount": 8144,
    "wof:belongsto": [
      1880773203,
      102191581,
      85633159,
      1880762125,
      404227471,
      136253055,
      1360699123
    ],
    "wof:breaches": [],
    "wof:concordances": {
      "fct:id": "0aa5f350-8f76-11e1-848f-cfd5bf3ef515",
      "gn:id": 2650732,
      "gp:id": 18649,
      "qs_pg:id": 1141057,
      "wd:id": "Q211950",
      "wk:page": "Dunfermline"
    },
    "wof:country": "GB",
    "wof:created": 1765384719,
    "wof:geom_alt": [
      "quattroshapes_pg"
    ],
    "wof:geomhash": "7bc16b6a834d36c6b8c3c290e8651e51",
    "wof:hierarchy": [
      {
        "continent_id": 102191581,
        "country_id": 85633159,
        "county_id": 1360699123,
        "empire_id": 136253055,
        "locality_id": 101750637,
        "macrocounty_id": 1880762125,
        "macroregion_id": 404227471,
        "region_id": 1880773203
      }
    ],
    "wof:id": 101750637,
    "wof:lang": [
      "eng"
    ],
    "wof:lastmodified": 1765384719,
    "wof:name": "Dunfermline",
    "wof:parent_id": 1360699123,
    "wof:placetype": "locality",
    "wof:population": 53100,
    "wof:population_rank": 8,
    "wof:repo": "whosonfirst-data-admin-gb",
    "wof:superseded_by": [],
    "wof:supersedes": [],
    "wof:tags": []
  },
  "bbox": [
    -3.506567,
    56.046621,
    -3.399175,
    56.087638
  ],
  "geometry": {"type":"Polygon","coordinates":[[[-3.459562,56.084753],[-3.459565,56.079876],[-3.446736,56.084642],[-3.425969,56.084399],[-3.417606,56.084301],[-3.41325,56.082184],[-3.412987,56.082056],[-3.408199,56.083073],[-3.408421,56.083371],[-3.410941,56.086755],[-3.403524,56.086707],[-3.402547,56.084814],[-3.400814,56.081457],[-3.399175,56.078281],[-3.416714,56.071257],[-3.414734,56.060044],[-3.413986,56.055809],[-3.438152,56.056634],[-3.439552,56.056682],[-3.428801,56.049245],[-3.428724,56.049261],[-3.411943,56.052597],[-3.409602,56.048424],[-3.423562,56.047394],[-3.427039,56.047137],[-3.432717,56.046718],[-3.434043,56.046621],[-3.435753,56.047263],[-3.439166,56.048545],[-3.443484,56.050166],[-3.456213,56.064124],[-3.462401,56.060874],[-3.465213,56.059396],[-3.469473,56.059209],[-3.470274,56.059173],[-3.466687,56.060242],[-3.465988,56.06045],[-3.466017,56.06049],[-3.470766,56.066948],[-3.462693,56.06715],[-3.467985,56.071829],[-3.468262,56.072074],[-3.471551,56.071315],[-3.474709,56.070587],[-3.477318,56.069984],[-3.476665,56.075847],[-3.494577,56.080083],[-3.496137,56.080452],[-3.496456,56.080336],[-3.503282,56.077864],[-3.506567,56.079872],[-3.504933,56.081478],[-3.499344,56.086971],[-3.485957,56.081997],[-3.474443,56.083964],[-3.479316,56.080204],[-3.466261,56.079192],[-3.46626,56.087638],[-3.464871,56.08704],[-3.459562,56.084753]]]}
}
