{
  "id": 1360713427,
  "type": "Feature",
  "properties": {
    "edtf:cessation": "",
    "edtf:inception": "",
    "geom:area": 0,
    "geom:area_square_m": 0,
    "geom:bbox": "-4.297980,51.782200,-4.297980,51.782200",
    "geom:latitude": 51.7822,
    "geom:longitude": -4.29798,
    "gn:admin1_code": "WLS",
    "gn:admin2_code": "X7",
    "gn:admin3_code": "00NU029",
    "gn:asciiname": "Llandefaelog",
    "gn:country_code": "GB",
    "gn:dem": 66,
    "gn:feature_class": "P",
    "gn:feature_code": "PPL",
    "gn:geonameid": 2644141,
    "gn:latitude": 51.7822,
    "gn:longitude": -4.29798,
    "gn:modification_date": "2011-03-03",
    "gn:name": "Llandefaelog",
    "gn:population": 0,
    "gn:timezone": "Europe/London",
    "iso:country": "GB",
    "lbl:bbox": "-4.30298,51.7772,-4.29298,51.7872",
    "lbl:max_zoom": 18,
    "mz:hierarchy_label": 1,
    "mz:is_current": -1,
    "mz:min_zoom": 15,
    "name:und_x_variant": [
      "Llandefailog",
      "Llandefeilog",
      "Llandefaelog"
    ],
    "src:geom": "geonames",
    "src:population": "wikidata",
    "wof:belongsto": [
      1880772913,
      102191581,
      1880762181,
      404448419,
      85633159,
      404227475,
      1360711581,
      136253055,
      1360698785
    ],
    "wof:breaches": [],
    "wof:concordances": {
      "gn:id": 2644141
    },
    "wof:country": "GB",
    "wof:created": 1765389275,
    "wof:geomhash": "8c92a6f1e64fe01330d863cbbe821bc1",
    "wof:hierarchy": [
      {
        "continent_id": 102191581,
        "country_id": 85633159,
        "county_id": 1360698785,
        "empire_id": 136253055,
        "localadmin_id": 404448419,
        "locality_id": 1360711581,
        "macrocounty_id": 1880762181,
        "macroregion_id": 404227475,
        "neighbourhood_id": 1360713427,
        "region_id": 1880772913
      }
    ],
    "wof:id": 1360713427,
    "wof:lastmodified": 1765389275,
    "wof:name": "Llandefaelog",
    "wof:parent_id": 1360711581,
    "wof:placetype": "neighbourhood",
    "wof:population": 1349,
    "wof:population_rank": 3,
    "wof:repo": "whosonfirst-data-admin-gb",
    "wof:superseded_by": [],
    "wof:supersedes": [
      1326965485
    ],
    "wof:tags": []
  },
  "bbox": [
    -4.29798,
    51.7822,
    -4.29798,
    51.7822
  ],
  "geometry": {"type":"Point","coordinates":[-4.29798,51.7822]}
}
