{
  "id": 85790801,
  "type": "Feature",
  "properties": {
    "edtf:cessation": "",
    "edtf:inception": "",
    "geom:area": 0.00041255114550000103,
    "geom:area_square_m": 3172643.24293,
    "geom:bbox": "-0.015793,51.530960,0.022941,51.554874",
    "geom:latitude": 51.54255421769654,
    "geom:longitude": 0.0013541174696270247,
    "iso:country": "GB",
    "lbl:latitude": 51.539058,
    "lbl:longitude": -0.003909,
    "lbl:max_zoom": 18,
    "mps:latitude": 51.54724,
    "mps:longitude": 0.000969,
    "mz:hierarchy_label": 1,
    "mz:is_current": -1,
    "mz:is_funky": 0,
    "mz:is_hard_boundary": 0,
    "mz:is_landuse_aoi": 0,
    "mz:is_official": 0,
    "mz:max_zoom": 18,
    "mz:min_zoom": 13,
    "mz:tier_locality": 7,
    "mz:tier_metro": 1,
    "name:afr_x_preferred": [
      "Stratford"
    ],
    "name:ast_x_preferred": [
      "Stratford"
    ],
    "name:azb_x_preferred": [
      "استراتفورد"
    ],
    "name:ben_x_preferred": [
      "bybys"
    ],
    "name:cat_x_preferred": [
      "Stratford"
    ],
    "name:cym_x_preferred": [
      "Stratford"
    ],
    "name:deu_x_preferred": [
      "Stratford"
    ],
    "name:ell_x_preferred": [
      "Στράτφορντ"
    ],
    "name:eng_x_preferred": [
      "Stratford"
    ],
    "name:est_x_preferred": [
      "Stratford"
    ],
    "name:eus_x_preferred": [
      "Stratford"
    ],
    "name:fas_x_preferred": [
      "استراتفورد، لندن"
    ],
    "name:fas_x_variant": [
      "استراتفورد"
    ],
    "name:fin_x_preferred": [
      "Stratford"
    ],
    "name:fra_x_preferred": [
      "Stratford"
    ],
    "name:gle_x_preferred": [
      "Stratford"
    ],
    "name:heb_x_preferred": [
      "סטרטפורד"
    ],
    "name:hye_x_preferred": [
      "Ստրատֆորդ"
    ],
    "name:isl_x_preferred": [
      "Stratford"
    ],
    "name:ita_x_preferred": [
      "Stratford"
    ],
    "name:jpn_x_preferred": [
      "ストラトフォード"
    ],
    "name:kor_x_preferred": [
      "스트랫퍼드"
    ],
    "name:lat_x_preferred": [
      "Stratfordia"
    ],
    "name:lld_x_preferred": [
      "Stratford"
    ],
    "name:nld_x_preferred": [
      "Stratford"
    ],
    "name:nob_x_preferred": [
      "Stratford"
    ],
    "name:pol_x_preferred": [
      "Stratford"
    ],
    "name:rus_x_preferred": [
      "Стратфорд"
    ],
    "name:slv_x_preferred": [
      "Stratford"
    ],
    "name:spa_x_preferred": [
      "Stratford"
    ],
    "name:swe_x_preferred": [
      "Stratford"
    ],
    "name:tur_x_preferred": [
      "Stratford"
    ],
    "name:urd_x_preferred": [
      "سٹراٹفورڈ"
    ],
    "name:yid_x_preferred": [
      "סטראטפארד"
    ],
    "name:yue_x_preferred": [
      "史察福"
    ],
    "name:zho_x_preferred": [
      "斯特拉特福德"
    ],
    "qs:gn_adm0_cc": "GB",
    "qs:gn_fcode": "PPL",
    "qs:gn_local": 2643743,
    "qs:gn_namadm1": "ENG",
    "qs:gn_name": "Stratford",
    "qs:local_max": 40697,
    "qs:local_sum": 1675717,
    "qs:localhoods": 643,
    "qs:name": "Stratford",
    "qs:name_adm0": "United Kingdom",
    "qs:name_adm1": "England",
    "qs:name_adm2": "Greater London",
    "qs:name_lau": "London Borough of Newham",
    "qs:name_local": "London",
    "qs:photo_max": 789,
    "qs:photo_sum": 6479,
    "qs:placetype": "Suburb",
    "qs:quad_count": 188,
    "qs:woe_adm0": 23424975,
    "qs:woe_adm1": 24554868,
    "qs:woe_adm2": 23416974,
    "qs:woe_lau": 12695815,
    "qs:woe_local": 44418,
    "qs:woe_ver": "7.10.0",
    "src:geom": "quattroshapes",
    "src:geom_alt": [
      "quattroshapes_pg"
    ],
    "src:lbl_centroid": "mz",
    "src:population": "wikidata",
    "wof:belongsto": [
      1880762729,
      102191581,
      1880762179,
      85633159,
      404227469,
      101750367,
      136253055,
      1158857293,
      1880771825
    ],
    "wof:breaches": [],
    "wof:concordances": {
      "gn:id": 2636714,
      "gp:id": 36419,
      "qs_pg:id": 774170,
      "wd:id": "Q676136",
      "wk:page": "Stratford, London"
    },
    "wof:country": "GB",
    "wof:created": 1765391197,
    "wof:geom_alt": [
      "quattroshapes_pg"
    ],
    "wof:geomhash": "8c84df4a07adacd45b4ed092dffdaa36",
    "wof:hierarchy": [
      {
        "borough_id": 1158857293,
        "continent_id": 102191581,
        "country_id": 85633159,
        "county_id": 1880771825,
        "empire_id": 136253055,
        "locality_id": 101750367,
        "macrocounty_id": 1880762179,
        "macroregion_id": 404227469,
        "neighbourhood_id": 85790801,
        "region_id": 1880762729
      }
    ],
    "wof:id": 85790801,
    "wof:lang": [
      "eng"
    ],
    "wof:lastmodified": 1765391197,
    "wof:name": "Stratford",
    "wof:parent_id": 1158857293,
    "wof:placetype": "neighbourhood",
    "wof:population": 51387,
    "wof:population_rank": 8,
    "wof:repo": "whosonfirst-data-admin-gb",
    "wof:superseded_by": [],
    "wof:supersedes": [],
    "wof:tags": []
  },
  "bbox": [
    -0.015793,
    51.53096,
    0.022941,
    51.554874
  ],
  "geometry": {"type":"Polygon","coordinates":[[[0.000598,51.554874],[0.000952,51.553167],[0.005493,51.553167],[0.005493,51.551635],[0.005493,51.549751],[0.010986,51.549751],[0.010986,51.549751],[0.010986,51.547866],[0.011938,51.546335],[0.016479,51.546335],[0.016479,51.542919],[0.016479,51.541211],[0.019226,51.541211],[0.019226,51.539502],[0.021973,51.539502],[0.022687,51.538354],[0.022571,51.537794],[0.022925,51.536086],[0.022941,51.536009],[0.021973,51.535231],[0.021467,51.534825],[0.019226,51.536026],[0.017194,51.534937],[0.016479,51.536086],[0.015765,51.537234],[0.015881,51.537794],[0.015527,51.539502],[0.011939,51.539502],[0.011939,51.539502],[0.010986,51.539502],[0.00824,51.539502],[0.007709,51.540356],[0.006024,51.540356],[0.005493,51.539502],[0.003223,51.539502],[0.002747,51.538737],[0.002747,51.537794],[0.000476,51.537794],[0,51.537028],[0,51.536086],[-0.002747,51.536086],[-0.002747,51.534377],[-0.002747,51.532669],[-0.002747,51.531725],[-0.002747,51.53096],[-0.005493,51.53096],[-0.005969,51.53096],[-0.00824,51.53096],[-0.01051,51.53096],[-0.010986,51.53096],[-0.010986,51.531725],[-0.010986,51.531903],[-0.010986,51.532669],[-0.010986,51.533523],[-0.01236,51.533523],[-0.01236,51.533994],[-0.013046,51.534362],[-0.013554,51.53409],[-0.013733,51.534377],[-0.013911,51.534664],[-0.013882,51.534804],[-0.013911,51.534944],[-0.01442,51.535217],[-0.01442,51.535231],[-0.01442,51.535658],[-0.01442,51.536086],[-0.01442,51.5361],[-0.013733,51.536468],[-0.013733,51.53694],[-0.01236,51.53694],[-0.01236,51.537411],[-0.01236,51.537794],[-0.011673,51.537794],[-0.011673,51.538221],[-0.010986,51.538221],[-0.010986,51.538648],[-0.010748,51.538648],[-0.009613,51.538648],[-0.009613,51.53912],[-0.009613,51.539502],[-0.009613,51.540356],[-0.010986,51.540356],[-0.011343,51.540356],[-0.012122,51.540356],[-0.01236,51.540356],[-0.01236,51.540739],[-0.01236,51.541211],[-0.013733,51.541211],[-0.013733,51.542065],[-0.014868,51.542065],[-0.015106,51.542065],[-0.015106,51.542919],[-0.015793,51.542919],[-0.015793,51.543346],[-0.015793,51.543582],[-0.015793,51.543773],[-0.01545,51.543773],[-0.01545,51.543986],[-0.015106,51.543986],[-0.015106,51.544627],[-0.014868,51.544627],[-0.013733,51.544627],[-0.013257,51.544627],[-0.011462,51.544627],[-0.010986,51.544627],[-0.010986,51.543773],[-0.009613,51.543773],[-0.00824,51.543773],[-0.00824,51.544627],[-0.00824,51.545393],[-0.00824,51.546335],[-0.00824,51.546394],[-0.005493,51.547866],[-0.005493,51.549751],[-0.005493,51.549751],[-0.005493,51.551635],[-0.005493,51.553167],[-0.002747,51.553167],[-0.002747,51.554874],[0,51.554874],[0.000598,51.554874]],[[-0.004807,51.542904],[-0.005493,51.542536],[-0.00618,51.542904],[-0.006866,51.542536],[-0.006866,51.542065],[-0.005731,51.542065],[-0.005493,51.542447],[-0.004807,51.542079],[-0.004807,51.542065],[-0.004807,51.541829],[-0.004463,51.541645],[-0.004209,51.541781],[-0.00412,51.541638],[-0.004031,51.541494],[-0.004045,51.541424],[-0.003941,51.540924],[-0.00397,51.540784],[-0.003882,51.540356],[-0.00412,51.539974],[-0.00412,51.539502],[-0.002747,51.539502],[-0.002747,51.539974],[-0.002747,51.540356],[-0.001373,51.540356],[-0.001373,51.541211],[-0.000687,51.541211],[-0.000687,51.541638],[-0.000687,51.542065],[-0.001373,51.542065],[-0.001373,51.542492],[-0.001941,51.542492],[-0.001985,51.542278],[-0.00206,51.542278],[-0.002403,51.542278],[-0.002403,51.542065],[-0.002747,51.542065],[-0.00309,51.542065],[-0.00309,51.542278],[-0.003433,51.542278],[-0.003508,51.542278],[-0.003552,51.542492],[-0.00412,51.542492],[-0.004269,51.542492],[-0.004298,51.542632],[-0.004807,51.542904]]]}
}
