{
  "id": 1360803383,
  "type": "Feature",
  "properties": {
    "edtf:cessation": "",
    "edtf:inception": "",
    "geom:area": 0,
    "geom:area_square_m": 0,
    "geom:bbox": "-1.167490,51.647140,-1.167490,51.647140",
    "geom:latitude": 51.64714,
    "geom:longitude": -1.16749,
    "gn:country": "GB",
    "gn:fcode": "PPL",
    "gn:population": 992,
    "iso:country": "GB",
    "lbl:bbox": "-1.17249,51.64214,-1.16249,51.65214",
    "lbl:latitude": 51.64714,
    "lbl:longitude": -1.16749,
    "lbl:max_zoom": 18,
    "mz:hierarchy_label": 1,
    "mz:is_current": 1,
    "mz:min_zoom": 15,
    "mz:note": "Quattroshapes Point Gazetteer import 20170519",
    "name:ang_x_preferred": [
      "Dorceceaster"
    ],
    "name:cat_x_preferred": [
      "Dorchester on Thames"
    ],
    "name:ceb_x_preferred": [
      "Dorchester on Thames"
    ],
    "name:deu_x_preferred": [
      "Dorchester"
    ],
    "name:eng_x_preferred": [
      "Dorchester on Thames"
    ],
    "name:fas_x_preferred": [
      "دورچستر آن تمز"
    ],
    "name:fra_x_preferred": [
      "Dorchester"
    ],
    "name:fry_x_preferred": [
      "Dorchester"
    ],
    "name:gle_x_preferred": [
      "Dorchester cois Tamaise"
    ],
    "name:ita_x_preferred": [
      "Dorchester"
    ],
    "name:jpn_x_preferred": [
      "ドルチェスター・オン・テムズ"
    ],
    "name:lat_x_preferred": [
      "Dorcestria apud Mercios"
    ],
    "name:nan_x_preferred": [
      "Dorchester"
    ],
    "name:nld_x_preferred": [
      "Dorchester"
    ],
    "name:nob_x_preferred": [
      "Dorchester-on-Thames"
    ],
    "name:pol_x_preferred": [
      "Dorchester on Thames"
    ],
    "name:rus_x_preferred": [
      "Дорчестер-он-Темз"
    ],
    "name:spa_x_preferred": [
      "Dorchester"
    ],
    "name:swe_x_preferred": [
      "Dorchester on Thames"
    ],
    "name:tur_x_preferred": [
      "Dorchester on Thames"
    ],
    "name:zho_x_preferred": [
      "泰晤士河畔多切斯特"
    ],
    "qs_pg:aaroncc": "GB",
    "qs_pg:gn_country": "GB",
    "qs_pg:gn_fcode": "PPL",
    "qs_pg:gn_id": 6950944,
    "qs_pg:gn_pop": 992,
    "qs_pg:name": "Dorchester on Thames",
    "qs_pg:photos_9r": 0,
    "qs_pg:photos_sr": 0,
    "qs_pg:pop_sr": 2,
    "qs_pg:qs_id": 653185,
    "qs_pg:qs_pg_placetype": "locality",
    "src:geom": "qs_pg",
    "src:lbl_centroid": "qs_pg",
    "src:population": "wikidata",
    "wof:belongsto": [
      1880762695,
      102191581,
      1880762079,
      404452099,
      85633159,
      404227469,
      1243290703,
      136253055,
      1880771611
    ],
    "wof:breaches": [],
    "wof:concordances": {
      "gn:id": 6950944,
      "qs_pg:id": 653185,
      "wd:id": "Q1243780"
    },
    "wof:country": "GB",
    "wof:created": 1497301461,
    "wof:geomhash": "08c0c579b21b9c736486ae2bc6533762",
    "wof:hierarchy": [
      {
        "continent_id": 102191581,
        "country_id": 85633159,
        "county_id": 1880771611,
        "empire_id": 136253055,
        "localadmin_id": 404452099,
        "locality_id": 1243290703,
        "macrocounty_id": 1880762079,
        "macroregion_id": 404227469,
        "neighbourhood_id": 1360803383,
        "region_id": 1880762695
      }
    ],
    "wof:id": 1360803383,
    "wof:lastmodified": 1765390232,
    "wof:name": "Dorchester on Thames",
    "wof:parent_id": 1243290703,
    "wof:placetype": "neighbourhood",
    "wof:population": 991,
    "wof:population_rank": 2,
    "wof:repo": "whosonfirst-data-admin-gb",
    "wof:superseded_by": [],
    "wof:supersedes": [
      1126030855
    ],
    "wof:tags": []
  },
  "bbox": [
    -1.16749,
    51.64714,
    -1.16749,
    51.64714
  ],
  "geometry": {"type":"Point","coordinates":[-1.16749,51.64714]}
}
