{
  "id": 85861887,
  "type": "Feature",
  "properties": {
    "edtf:cessation": "",
    "edtf:inception": "",
    "geom:area": 0,
    "geom:area_square_m": 0,
    "geom:bbox": "-1.231281,52.979672,-1.231281,52.979672",
    "geom:latitude": 52.979672,
    "geom:longitude": -1.231281,
    "gn:id": "",
    "iso:country": "GB",
    "lbl:bbox": "-1.236281,52.974672,-1.226281,52.984672",
    "lbl:latitude": 52.979672,
    "lbl:longitude": -1.231281,
    "lbl:max_zoom": 18,
    "mps:latitude": 52.987141,
    "mps:longitude": -1.232945,
    "mz:hierarchy_label": 0,
    "mz:is_current": -1,
    "mz:is_funky": 0,
    "mz:is_hard_boundary": 0,
    "mz:is_landuse_aoi": 0,
    "mz:is_official": 0,
    "mz:max_zoom": 18,
    "mz:min_zoom": 15,
    "mz:tier_locality": 3,
    "name:ben_x_preferred": [
      "ব্রোক্সটোবি"
    ],
    "name:bul_x_preferred": [
      "Брокстоу"
    ],
    "name:ceb_x_preferred": [
      "Broxtowe District"
    ],
    "name:cym_x_preferred": [
      "Bwrdeistref Broxtowe"
    ],
    "name:deu_x_preferred": [
      "Broxtowe"
    ],
    "name:eng_x_preferred": [
      "Broxtowe"
    ],
    "name:fas_x_preferred": [
      "بروکستاو"
    ],
    "name:fra_x_preferred": [
      "Broxtowe"
    ],
    "name:gle_x_preferred": [
      "Broxtowe"
    ],
    "name:guj_x_preferred": [
      "બ્રોક્સટોવ"
    ],
    "name:ita_x_preferred": [
      "Broxtowe"
    ],
    "name:jpn_x_preferred": [
      "ブロックストウ"
    ],
    "name:kan_x_preferred": [
      "ಬ್ರಾಕ್ಸ್ಟೋವ್"
    ],
    "name:kor_x_preferred": [
      "브록스토"
    ],
    "name:lit_x_preferred": [
      "Brokstevas"
    ],
    "name:nan_x_preferred": [
      "Broxtowe"
    ],
    "name:nld_x_preferred": [
      "Broxtowe"
    ],
    "name:nob_x_preferred": [
      "Broxtowe"
    ],
    "name:nor_x_preferred": [
      "Broxtowe"
    ],
    "name:pol_x_preferred": [
      "Broxtowe"
    ],
    "name:por_x_preferred": [
      "Broxtowe"
    ],
    "name:ron_x_preferred": [
      "Broxtowe"
    ],
    "name:rus_x_preferred": [
      "Брокстоу"
    ],
    "name:spa_x_preferred": [
      "Broxtowe"
    ],
    "name:swe_x_preferred": [
      "Broxtowe District"
    ],
    "name:tam_x_preferred": [
      "பரோஸ்ட்டோவெ"
    ],
    "name:tel_x_preferred": [
      "బ్రొక్ష్తోవె"
    ],
    "name:ukr_x_preferred": [
      "Брокстоу"
    ],
    "name:urd_x_preferred": [
      "بروکسٹوے"
    ],
    "name:yue_x_preferred": [
      "薄士桃"
    ],
    "name:zho_x_preferred": [
      "布羅克斯托"
    ],
    "qs:gn_adm0_cc": "GB",
    "qs:gn_id": 0,
    "qs:gn_local": 2652263,
    "qs:gn_nam_loc": "bilston",
    "qs:gn_namadm1": "ENG",
    "qs:local_max": 5369,
    "qs:local_sum": 43913,
    "qs:localhoods": 32,
    "qs:name": "Broxtowe",
    "qs:name_adm0": "United Kingdom",
    "qs:name_adm1": "England",
    "qs:name_adm2": "Nottinghamshire",
    "qs:name_lau": "Nottingham City",
    "qs:name_local": "Nottingham",
    "qs:photo_max": 37,
    "qs:photo_sum": 249,
    "qs:placetype": "Suburb",
    "qs:quad_count": 40,
    "qs:woe_adm0": 23424975,
    "qs:woe_adm1": 24554868,
    "qs:woe_adm2": 12602147,
    "qs:woe_lau": 12696180,
    "qs:woe_local": 30720,
    "qs:woe_ver": "7.10.0",
    "src:geom": "mz",
    "src:geom_alt": [
      "quattroshapes_pg",
      "quattroshapes"
    ],
    "src:lbl_centroid": "yerbashapes",
    "src:population": "wikidata",
    "wd:wordcount": 696,
    "wof:belongsto": [
      1880762689,
      102191581,
      85633159,
      1880762077,
      404227469,
      1175612705,
      136253055,
      1360698801
    ],
    "wof:breaches": [],
    "wof:concordances": {
      "gp:id": 20094385,
      "qs_pg:id": 230432,
      "wd:id": "Q605605"
    },
    "wof:country": "GB",
    "wof:created": 1765391380,
    "wof:geom_alt": [
      "quattroshapes_pg",
      "quattroshapes"
    ],
    "wof:geomhash": "85fdc5a06a8d0361a5d31412342f4433",
    "wof:hierarchy": [
      {
        "continent_id": 102191581,
        "country_id": 85633159,
        "county_id": 1360698801,
        "empire_id": 136253055,
        "locality_id": 1175612705,
        "macrocounty_id": 1880762077,
        "macroregion_id": 404227469,
        "neighbourhood_id": 85861887,
        "region_id": 1880762689
      }
    ],
    "wof:id": 85861887,
    "wof:lang": [
      "eng"
    ],
    "wof:lastmodified": 1765391380,
    "wof:name": "Broxtowe",
    "wof:parent_id": 1175612705,
    "wof:placetype": "neighbourhood",
    "wof:population": 112113,
    "wof:population_rank": 9,
    "wof:repo": "whosonfirst-data-admin-gb",
    "wof:superseded_by": [],
    "wof:supersedes": [],
    "wof:tags": []
  },
  "bbox": [
    -1.231281,
    52.979672,
    -1.231281,
    52.979672
  ],
  "geometry": {"type":"Point","coordinates":[-1.231281,52.979672]}
}
