{
  "id": 1360790681,
  "type": "Feature",
  "properties": {
    "edtf:cessation": "",
    "edtf:inception": "",
    "geom:area": 0,
    "geom:area_square_m": 0,
    "geom:bbox": "-4.517468,50.831230,-4.517468,50.831230",
    "geom:latitude": 50.83123,
    "geom:longitude": -4.517468,
    "iso:country": "GB",
    "lbl:bbox": "-4.522468,50.82623,-4.512468,50.83623",
    "lbl:latitude": 50.83123,
    "lbl:longitude": -4.517467,
    "lbl:max_zoom": 18,
    "mps:latitude": 50.83123,
    "mps:longitude": -4.517467,
    "mz:hierarchy_label": 1,
    "mz:is_current": 1,
    "mz:min_zoom": 15,
    "name:ast_x_preferred": [
      "Stratton"
    ],
    "name:ceb_x_preferred": [
      "Stratton"
    ],
    "name:cor_x_preferred": [
      "Stradneth"
    ],
    "name:cym_x_preferred": [
      "Stratton"
    ],
    "name:deu_x_preferred": [
      "Stratton"
    ],
    "name:eng_x_preferred": [
      "Stratton"
    ],
    "name:eus_x_preferred": [
      "Stratton"
    ],
    "name:fas_x_preferred": [
      "استراتون"
    ],
    "name:fra_x_preferred": [
      "Stratton"
    ],
    "name:ita_x_preferred": [
      "Stratton"
    ],
    "name:lat_x_preferred": [
      "Stratton"
    ],
    "name:lld_x_preferred": [
      "Stratton"
    ],
    "name:nld_x_preferred": [
      "Stratton"
    ],
    "name:pol_x_preferred": [
      "Stratton"
    ],
    "name:spa_x_preferred": [
      "Stratton"
    ],
    "name:swe_x_preferred": [
      "Stratton"
    ],
    "qs:a0": "United Kingdom",
    "qs:a1": "*Cornwall",
    "qs:a1_lc": "GB12HE0000",
    "qs:a1r": "0England",
    "qs:a1r_lc": "GB12000000",
    "qs:adm0": "United Kingdom",
    "qs:la_lc": "*",
    "qs:level": "locality",
    "qs:loc": "Stratton",
    "qs:loc_alt": "Stratton",
    "qs:pop": 0,
    "qs:source": "RCustom EuroGlobalMap + UMZ Urban Polygons + Geonames + GeoPlanet",
    "qs:type": "buffered point",
    "src:geom": "whosonfirst",
    "src:geom_alt": [
      "quattroshapes_pg",
      "quattroshapes"
    ],
    "src:geom_via": "quattroshapes",
    "src:lbl_centroid": "mapshaper",
    "src:population": "wikidata",
    "wd:latitude": 50.83,
    "wd:longitude": -4.519,
    "wd:wordcount": 1176,
    "wof:belongsto": [
      1880773165,
      102191581,
      1880762119,
      404440359,
      85633159,
      404227469,
      1360756147,
      136253055,
      1360699085
    ],
    "wof:breaches": [],
    "wof:concordances": {
      "gn:id": 2636681,
      "gp:id": 36451,
      "qs_pg:id": 535811,
      "wd:id": "Q1626529",
      "wk:page": "Stratton, Cornwall"
    },
    "wof:concordances_alt": {
      "qs_pg:id": 1038423
    },
    "wof:country": "GB",
    "wof:created": 1765389419,
    "wof:geomhash": "459fbe81da57f7a13da8fdeb492ed1e1",
    "wof:hierarchy": [
      {
        "continent_id": 102191581,
        "country_id": 85633159,
        "county_id": 1360699085,
        "empire_id": 136253055,
        "localadmin_id": 404440359,
        "locality_id": 1360756147,
        "macrocounty_id": 1880762119,
        "macroregion_id": 404227469,
        "neighbourhood_id": 1360790681,
        "region_id": 1880773165
      }
    ],
    "wof:id": 1360790681,
    "wof:lastmodified": 1765389419,
    "wof:name": "Stratton",
    "wof:parent_id": 1360756147,
    "wof:placetype": "neighbourhood",
    "wof:population": 2272,
    "wof:population_rank": 4,
    "wof:repo": "whosonfirst-data-admin-gb",
    "wof:superseded_by": [],
    "wof:supersedes": [
      101852423
    ],
    "wof:tags": []
  },
  "bbox": [
    -4.517468,
    50.83123,
    -4.517468,
    50.83123
  ],
  "geometry": {"type":"Point","coordinates":[-4.517468,50.83123]}
}
