{
  "id": 101873767,
  "type": "Feature",
  "properties": {
    "edtf:cessation": "",
    "edtf:inception": "",
    "geom:area": 0,
    "geom:area_square_m": 0,
    "geom:bbox": "-6.078128,54.462414,-6.078128,54.462414",
    "geom:latitude": 54.462414,
    "geom:longitude": -6.078128,
    "iso:country": "GB",
    "lbl:bbox": "-6.098128,54.442414,-6.058128,54.482414",
    "lbl:latitude": 54.462414,
    "lbl:longitude": -6.078128,
    "lbl:max_zoom": 18,
    "lbl:min_zoom": 13.5,
    "mps:latitude": 54.462414,
    "mps:longitude": -6.078128,
    "mz:hierarchy_label": 1,
    "mz:is_current": 1,
    "mz:min_zoom": 12,
    "name:bul_x_preferred": [
      "Хилсбъроу"
    ],
    "name:ceb_x_preferred": [
      "Hillsborough"
    ],
    "name:dan_x_preferred": [
      "Hillsborough"
    ],
    "name:deu_x_preferred": [
      "Royal Hillsborough"
    ],
    "name:eng_x_preferred": [
      "Hillsborough"
    ],
    "name:eng_x_variant": [
      "Royal Hillsborough"
    ],
    "name:eus_x_preferred": [
      "Hillsborough"
    ],
    "name:fas_x_preferred": [
      "هیلزبورو"
    ],
    "name:fra_x_preferred": [
      "Hillsborough"
    ],
    "name:fra_x_variant": [
      "Royal Hillsborough"
    ],
    "name:gle_x_preferred": [
      "Cromghlinn"
    ],
    "name:heb_x_preferred": [
      "הילסבורו"
    ],
    "name:ita_x_preferred": [
      "Hillsborough"
    ],
    "name:jpn_x_preferred": [
      "ロイヤル・ヒルズバラ"
    ],
    "name:msa_x_preferred": [
      "Hillsborough"
    ],
    "name:nld_x_preferred": [
      "Hillsborough"
    ],
    "name:pli_x_preferred": [
      "हिल्ल्स्बोरौघ"
    ],
    "name:ron_x_preferred": [
      "Hillsborough"
    ],
    "name:rus_x_preferred": [
      "Хиллсборо"
    ],
    "name:spa_x_preferred": [
      "Hillsborough"
    ],
    "name:swe_x_preferred": [
      "Hillsborough"
    ],
    "name:zho_x_preferred": [
      "皇家希尔斯伯勒"
    ],
    "qs:a0": "United Kingdom",
    "qs:a1": "*Lisburn",
    "qs:a1_lc": "N_A",
    "qs:a1r": "0Northern Ireland",
    "qs:a1r_lc": "N_A",
    "qs:adm0": "United Kingdom",
    "qs:id": 0,
    "qs:la_lc": "*",
    "qs:level": "locality",
    "qs:loc": "Hillsborough",
    "qs:loc_alt": "Hillsborough",
    "qs:pop": 0,
    "qs:source": "RCustom EuroGlobalMap + UMZ Urban Polygons + Geonames + GeoPlanet",
    "qs:type": "buffered point",
    "src:geom": "whosonfirst",
    "src:geom_alt": [
      "quattroshapes_pg",
      "quattroshapes"
    ],
    "src:geom_via": "quattroshapes",
    "src:lbl_centroid": "mapshaper",
    "src:population": "wikidata",
    "wof:belongsto": [
      1360699239,
      102191581,
      85633159,
      1880762225,
      404227473,
      136253055,
      1880762259
    ],
    "wof:breaches": [],
    "wof:concordances": {
      "gn:id": 2646890,
      "gp:id": 44873,
      "qs_pg:id": 467778,
      "wd:id": "Q58094"
    },
    "wof:country": "GB",
    "wof:created": 1765385089,
    "wof:geom_alt": [
      "quattroshapes_pg",
      "quattroshapes"
    ],
    "wof:geomhash": "144e7305a6910f9d6a8346edb47b17a7",
    "wof:hierarchy": [
      {
        "continent_id": 102191581,
        "country_id": 85633159,
        "county_id": 1880762259,
        "empire_id": 136253055,
        "locality_id": 101873767,
        "macrocounty_id": 1880762225,
        "macroregion_id": 404227473,
        "region_id": 1360699239
      }
    ],
    "wof:id": 101873767,
    "wof:lastmodified": 1765385089,
    "wof:name": "Hillsborough",
    "wof:parent_id": 1880762259,
    "wof:placetype": "locality",
    "wof:population": 3952,
    "wof:population_rank": 4,
    "wof:repo": "whosonfirst-data-admin-gb",
    "wof:superseded_by": [],
    "wof:supersedes": [],
    "wof:tags": []
  },
  "bbox": [
    -6.078128,
    54.462414,
    -6.078128,
    54.462414
  ],
  "geometry": {"type":"Point","coordinates":[-6.078128,54.462414]}
}
