{
  "id": 1360808689,
  "type": "Feature",
  "properties": {
    "edtf:cessation": "",
    "edtf:inception": "",
    "geom:area": 0,
    "geom:area_square_m": 0,
    "geom:bbox": "-3.064970,53.423240,-3.064970,53.423240",
    "geom:latitude": 53.42324,
    "geom:longitude": -3.06497,
    "gn:admin1_code": "ENG",
    "gn:admin2_code": "Q1",
    "gn:admin3_code": "00CA009",
    "gn:asciiname": "Wallasey",
    "gn:country_code": "GB",
    "gn:dem": 14,
    "gn:feature_class": "P",
    "gn:feature_code": "PPLA2",
    "gn:geonameid": 2634873,
    "gn:latitude": 53.42324,
    "gn:longitude": -3.06497,
    "gn:modification_date": "2011-03-03",
    "gn:name": "Wallasey",
    "gn:population": 58794,
    "gn:timezone": "Europe/London",
    "iso:country": "GB",
    "lbl:bbox": "-3.06997,53.41824,-3.05997,53.42824",
    "lbl:max_zoom": 18,
    "mz:hierarchy_label": 1,
    "mz:is_current": 1,
    "mz:min_zoom": 15,
    "name:azb_x_preferred": [
      "والاسی"
    ],
    "name:ceb_x_preferred": [
      "Wallasey"
    ],
    "name:cym_x_preferred": [
      "Wallasey"
    ],
    "name:deu_x_preferred": [
      "Wallasey"
    ],
    "name:eng_x_preferred": [
      "Wallasey"
    ],
    "name:fas_x_preferred": [
      "والاسی"
    ],
    "name:fra_x_preferred": [
      "Wallasey"
    ],
    "name:ita_x_preferred": [
      "Wallasey"
    ],
    "name:kor_x_preferred": [
      "월러시"
    ],
    "name:nld_x_preferred": [
      "Wallasey"
    ],
    "name:nno_x_preferred": [
      "Wallasey"
    ],
    "name:pol_x_preferred": [
      "Wallasey"
    ],
    "name:ron_x_preferred": [
      "Wallasey"
    ],
    "name:rus_x_preferred": [
      "Уолласи"
    ],
    "name:spa_x_preferred": [
      "Wallasey"
    ],
    "name:srp_x_preferred": [
      "Воласи"
    ],
    "name:swe_x_preferred": [
      "Wallasey"
    ],
    "name:szl_x_preferred": [
      "Wallasey"
    ],
    "name:tat_x_preferred": [
      "Воласи"
    ],
    "name:vol_x_preferred": [
      "Wallasey"
    ],
    "name:zho_x_preferred": [
      "沃勒西"
    ],
    "src:geom": "geonames",
    "src:population": "wikidata",
    "wof:belongsto": [
      1880773063,
      102191581,
      85633159,
      1880762035,
      404227469,
      101750549,
      136253055,
      1360699049
    ],
    "wof:breaches": [],
    "wof:concordances": {
      "gn:id": 2634873,
      "wk:page": "Wallasey"
    },
    "wof:country": "GB",
    "wof:created": 1765390633,
    "wof:geomhash": "3bb599e1d24f2c325c7ae60fe3e38f27",
    "wof:hierarchy": [
      {
        "continent_id": 102191581,
        "country_id": 85633159,
        "county_id": 1360699049,
        "empire_id": 136253055,
        "locality_id": 101750549,
        "macrocounty_id": 1880762035,
        "macroregion_id": 404227469,
        "neighbourhood_id": 1360808689,
        "region_id": 1880773063
      }
    ],
    "wof:id": 1360808689,
    "wof:lastmodified": 1765390633,
    "wof:name": "Wallasey",
    "wof:parent_id": 101750549,
    "wof:placetype": "neighbourhood",
    "wof:population": 60284,
    "wof:population_rank": 8,
    "wof:repo": "whosonfirst-data-admin-gb",
    "wof:superseded_by": [],
    "wof:supersedes": [
      1326465803
    ],
    "wof:tags": []
  },
  "bbox": [
    -3.06497,
    53.42324,
    -3.06497,
    53.42324
  ],
  "geometry": {"type":"Point","coordinates":[-3.06497,53.42324]}
}
