{
  "id": 101872635,
  "type": "Feature",
  "properties": {
    "edtf:cessation": "",
    "edtf:inception": "",
    "geom:area": 0,
    "geom:area_square_m": 0,
    "geom:bbox": "-3.067979,56.498029,-3.067979,56.498029",
    "geom:latitude": 56.498029,
    "geom:longitude": -3.067979,
    "gn:population": 1542,
    "iso:country": "GB",
    "lbl:bbox": "-3.087979,56.478029,-3.047979,56.518029",
    "lbl:latitude": 56.498029,
    "lbl:longitude": -3.067978,
    "lbl:max_zoom": 16,
    "lbl:min_zoom": 12,
    "mps:latitude": 56.498029,
    "mps:longitude": -3.067978,
    "mz:hierarchy_label": 1,
    "mz:is_current": -1,
    "mz:min_zoom": 11,
    "name:ast_x_preferred": [
      "Muirhead"
    ],
    "name:cym_x_preferred": [
      "Muirhead"
    ],
    "name:eng_x_preferred": [
      "Muirhead"
    ],
    "name:eus_x_preferred": [
      "Muirhead"
    ],
    "name:nld_x_preferred": [
      "Muirhead"
    ],
    "name:nob_x_preferred": [
      "Muirhead"
    ],
    "name:spa_x_preferred": [
      "Muirhead"
    ],
    "name:ukr_x_preferred": [
      "М'юїргед"
    ],
    "name:und_x_variant": [
      "Muirhead of Liff"
    ],
    "name:zho_x_preferred": [
      "穆爾黑德"
    ],
    "qs:a0": "United Kingdom",
    "qs:a1": "*Angus",
    "qs:a1_lc": "GB11QC0000",
    "qs:a1r": "0Scotland",
    "qs:a1r_lc": "GB11000000",
    "qs:adm0": "United Kingdom",
    "qs:id": 0,
    "qs:la_lc": "*",
    "qs:level": "locality",
    "qs:loc": "Muirhead",
    "qs:loc_alt": "Muirhead",
    "qs:pop": 0,
    "qs:source": "RCustom EuroGlobalMap + UMZ Urban Polygons + Geonames + GeoPlanet",
    "qs:type": "buffered point",
    "src:geom": "whosonfirst",
    "src:geom_alt": [
      "quattroshapes_pg",
      "quattroshapes"
    ],
    "src:geom_via": "quattroshapes",
    "src:lbl_centroid": "mapshaper",
    "src:population": "wikidata",
    "wd:latitude": 55.9002,
    "wd:longitude": -4.107,
    "wd:wordcount": 169,
    "wof:belongsto": [
      1880772935,
      102191581,
      85633159,
      1880762021,
      404227471,
      136253055,
      1360698807
    ],
    "wof:breaches": [],
    "wof:concordances": {
      "gn:id": 2642006,
      "gp:id": 29538,
      "qs_pg:id": 1196301,
      "wd:id": "Q6933241"
    },
    "wof:country": "GB",
    "wof:created": 1765384903,
    "wof:geom_alt": [
      "quattroshapes",
      "quattroshapes_pg"
    ],
    "wof:geomhash": "8e2658db43f6228fb8a95e62e6a21c68",
    "wof:hierarchy": [
      {
        "continent_id": 102191581,
        "country_id": 85633159,
        "county_id": 1360698807,
        "empire_id": 136253055,
        "locality_id": 101872635,
        "macrocounty_id": 1880762021,
        "macroregion_id": 404227471,
        "region_id": 1880772935
      }
    ],
    "wof:id": 101872635,
    "wof:lastmodified": 1765384903,
    "wof:name": "Muirhead",
    "wof:parent_id": 1360698807,
    "wof:placetype": "locality",
    "wof:population": 1380,
    "wof:population_rank": 3,
    "wof:repo": "whosonfirst-data-admin-gb",
    "wof:superseded_by": [],
    "wof:supersedes": [],
    "wof:tags": []
  },
  "bbox": [
    -3.067979,
    56.498029,
    -3.067979,
    56.498029
  ],
  "geometry": {"type":"Point","coordinates":[-3.067979,56.498029]}
}
