{
  "id": 85787545,
  "type": "Feature",
  "properties": {
    "edtf:cessation": "",
    "edtf:inception": "",
    "geom:area": 0,
    "geom:area_square_m": 0,
    "geom:bbox": "-1.071681,53.949202,-1.071681,53.949202",
    "geom:latitude": 53.949202,
    "geom:longitude": -1.071681,
    "gn:id": "",
    "iso:country": "GB",
    "lbl:bbox": "-1.076681,53.944202,-1.066681,53.954202",
    "lbl:latitude": 53.949202,
    "lbl:longitude": -1.071681,
    "lbl:max_zoom": 18,
    "mps:latitude": 53.937744,
    "mps:longitude": -1.06541,
    "mz:hierarchy_label": 0,
    "mz:is_current": -1,
    "mz:is_funky": 0,
    "mz:is_hard_boundary": 0,
    "mz:is_landuse_aoi": 0,
    "mz:is_official": 0,
    "mz:max_zoom": 18,
    "mz:min_zoom": 13,
    "mz:tier_locality": 3,
    "name:bel_x_preferred": [
      "Фулфард"
    ],
    "name:ben_x_preferred": [
      "ফুলফোর্ড"
    ],
    "name:ceb_x_preferred": [
      "Fulford"
    ],
    "name:deu_x_preferred": [
      "Fulford"
    ],
    "name:ell_x_preferred": [
      "Φούλφορντ"
    ],
    "name:eng_x_preferred": [
      "Fulford"
    ],
    "name:eng_x_variant": [
      "Gate Fulford"
    ],
    "name:epo_x_preferred": [
      "Fulford"
    ],
    "name:fas_x_preferred": [
      "فولفورد"
    ],
    "name:fra_x_preferred": [
      "Fulford"
    ],
    "name:gle_x_preferred": [
      "Fulford"
    ],
    "name:guj_x_preferred": [
      "ફલફોર્ડ"
    ],
    "name:heb_x_preferred": [
      "פולפורד"
    ],
    "name:ita_x_preferred": [
      "Fulford"
    ],
    "name:jpn_x_preferred": [
      "フルフォード"
    ],
    "name:kan_x_preferred": [
      "ಫಲ್ಫರ್ಡ್"
    ],
    "name:kor_x_preferred": [
      "펄포드"
    ],
    "name:lit_x_preferred": [
      "Fulfordas"
    ],
    "name:nld_x_preferred": [
      "Fulford"
    ],
    "name:nob_x_preferred": [
      "Fulford"
    ],
    "name:nor_x_preferred": [
      "Fulford"
    ],
    "name:pol_x_preferred": [
      "Fulford"
    ],
    "name:por_x_preferred": [
      "Fulford"
    ],
    "name:rus_x_preferred": [
      "Фулфорд"
    ],
    "name:spa_x_preferred": [
      "Fulford"
    ],
    "name:swe_x_preferred": [
      "Fulford"
    ],
    "name:szl_x_preferred": [
      "Fulford"
    ],
    "name:tam_x_preferred": [
      "பியூல்போர்ட்"
    ],
    "name:tel_x_preferred": [
      "ఫుల్ఫోర్డ్"
    ],
    "name:tur_x_preferred": [
      "Fulford"
    ],
    "name:urd_x_preferred": [
      "فولفورڈ"
    ],
    "name:zho_x_preferred": [
      "富尔福德"
    ],
    "qs:gn_id": 0,
    "qs:gn_local": 0,
    "qs:local_max": 6977,
    "qs:local_sum": 18915,
    "qs:localhoods": 4,
    "qs:name": "Fulford",
    "qs:name_adm0": "United Kingdom",
    "qs:name_adm1": "England",
    "qs:name_adm2": "North Yorkshire",
    "qs:name_lau": "York City",
    "qs:name_local": "York",
    "qs:photo_max": 514,
    "qs:photo_sum": 4769,
    "qs:placetype": "Suburb",
    "qs:quad_count": 158,
    "qs:woe_adm0": 23424975,
    "qs:woe_adm1": 24554868,
    "qs:woe_adm2": 12602195,
    "qs:woe_lau": 12696148,
    "qs:woe_local": 41415,
    "qs:woe_ver": "7.10.0",
    "src:geom": "mz",
    "src:geom_alt": [
      "quattroshapes_pg",
      "quattroshapes"
    ],
    "src:lbl_centroid": "yerbashapes",
    "src:population": "wikidata",
    "wd:latitude": 53.938,
    "wd:longitude": -1.073,
    "wd:wordcount": 839,
    "wof:belongsto": [
      1880772891,
      102191581,
      85633159,
      1880762011,
      404227469,
      101751641,
      136253055,
      1360698977
    ],
    "wof:breaches": [],
    "wof:concordances": {
      "gp:id": 20716,
      "qs_pg:id": 898044,
      "wd:id": "Q2702269"
    },
    "wof:country": "GB",
    "wof:created": 1765391042,
    "wof:geom_alt": [
      "quattroshapes_pg",
      "quattroshapes"
    ],
    "wof:geomhash": "88140375c43be0a5cf9a4630d50ffc9f",
    "wof:hierarchy": [
      {
        "continent_id": 102191581,
        "country_id": 85633159,
        "county_id": 1360698977,
        "empire_id": 136253055,
        "locality_id": 101751641,
        "macrocounty_id": 1880762011,
        "macroregion_id": 404227469,
        "neighbourhood_id": 85787545,
        "region_id": 1880772891
      }
    ],
    "wof:id": 85787545,
    "wof:lang": [
      "eng"
    ],
    "wof:lastmodified": 1765391042,
    "wof:name": "Fulford",
    "wof:parent_id": 101751641,
    "wof:placetype": "neighbourhood",
    "wof:population": 3082,
    "wof:population_rank": 4,
    "wof:repo": "whosonfirst-data-admin-gb",
    "wof:superseded_by": [],
    "wof:supersedes": [],
    "wof:tags": []
  },
  "bbox": [
    -1.071681,
    53.949202,
    -1.071681,
    53.949202
  ],
  "geometry": {"type":"Point","coordinates":[-1.071681,53.949202]}
}
