{
  "id": 1276363663,
  "type": "Feature",
  "properties": {
    "edtf:cessation": "",
    "edtf:inception": "",
    "geom:area": 0,
    "geom:area_square_m": 0,
    "geom:bbox": "-5.798030,54.591960,-5.798030,54.591960",
    "geom:latitude": 54.59196,
    "geom:longitude": -5.79803,
    "gn:admin1_code": "NIR",
    "gn:admin2_code": "N09000007",
    "gn:asciiname": "Dundonald",
    "gn:country_code": "GB",
    "gn:dem": 43,
    "gn:feature_class": "P",
    "gn:feature_code": "PPL",
    "gn:geonameid": 2650749,
    "gn:latitude": 54.59196,
    "gn:longitude": -5.79803,
    "gn:modification_date": "2016-12-04",
    "gn:name": "Dundonald",
    "gn:population": 13985,
    "gn:timezone": "Europe/London",
    "iso:country": "GB",
    "lbl:bbox": "-5.81803,54.57196,-5.77803,54.61196",
    "lbl:max_zoom": 15,
    "lbl:min_zoom": 10.5,
    "mz:hierarchy_label": 1,
    "mz:is_current": -1,
    "mz:min_zoom": 10,
    "name:bul_x_preferred": [
      "Дъндоналд"
    ],
    "name:ceb_x_preferred": [
      "Dundonald"
    ],
    "name:deu_x_preferred": [
      "Dundonald"
    ],
    "name:gle_x_preferred": [
      "Dún Dónaill"
    ],
    "name:rus_x_preferred": [
      "Дундональд"
    ],
    "name:spa_x_preferred": [
      "Dundonald"
    ],
    "name:swe_x_preferred": [
      "Dundonald"
    ],
    "src:geom": "geonames",
    "src:population": "wikidata",
    "wof:belongsto": [
      1360699239,
      102191581,
      85633159,
      1880762225,
      404227473,
      136253055,
      1880762259
    ],
    "wof:breaches": [],
    "wof:concordances": {
      "gn:id": 2650749,
      "wk:page": "Dundonald"
    },
    "wof:country": "GB",
    "wof:created": 1765388558,
    "wof:geomhash": "5599ad4e25a705882a264fa9b2a1ac45",
    "wof:hierarchy": [
      {
        "continent_id": 102191581,
        "country_id": 85633159,
        "county_id": 1880762259,
        "empire_id": 136253055,
        "locality_id": 1276363663,
        "macrocounty_id": 1880762225,
        "macroregion_id": 404227473,
        "region_id": 1360699239
      }
    ],
    "wof:id": 1276363663,
    "wof:lastmodified": 1765388558,
    "wof:name": "Dundonald",
    "wof:parent_id": 1880762259,
    "wof:placetype": "locality",
    "wof:population": 16098,
    "wof:population_rank": 6,
    "wof:repo": "whosonfirst-data-admin-gb",
    "wof:superseded_by": [],
    "wof:supersedes": [],
    "wof:tags": []
  },
  "bbox": [
    -5.79803,
    54.59196,
    -5.79803,
    54.59196
  ],
  "geometry": {"type":"Point","coordinates":[-5.79803,54.59196]}
}
