{
  "id": 101873431,
  "type": "Feature",
  "properties": {
    "edtf:cessation": "",
    "edtf:inception": "",
    "geom:area": 0,
    "geom:area_square_m": 0,
    "geom:bbox": "-4.049153,54.835888,-4.049153,54.835888",
    "geom:latitude": 54.835888,
    "geom:longitude": -4.049153,
    "gn:population": 3367,
    "iso:country": "GB",
    "lbl:bbox": "-4.069153,54.815888,-4.029153,54.855888",
    "lbl:latitude": 54.835888,
    "lbl:longitude": -4.049153,
    "lbl:max_zoom": 15,
    "lbl:min_zoom": 11.5,
    "mps:latitude": 54.835888,
    "mps:longitude": -4.049153,
    "mz:hierarchy_label": 1,
    "mz:is_current": 1,
    "mz:min_zoom": 11,
    "name:ast_x_preferred": [
      "Kirkcudbright"
    ],
    "name:ceb_x_preferred": [
      "Kirkcudbright"
    ],
    "name:cym_x_preferred": [
      "Kirkcudbright"
    ],
    "name:deu_x_preferred": [
      "Kirkcudbright"
    ],
    "name:eng_x_preferred": [
      "Kirkcudbright"
    ],
    "name:eng_x_variant": [
      "Kircudbright"
    ],
    "name:eus_x_preferred": [
      "Kirkcudbright"
    ],
    "name:fas_x_preferred": [
      "کرکادبرایت"
    ],
    "name:fin_x_preferred": [
      "Kirkcudbright"
    ],
    "name:fra_x_preferred": [
      "Kirkcudbright"
    ],
    "name:gla_x_preferred": [
      "Cille Chuithbeirt"
    ],
    "name:gle_x_preferred": [
      "Cille Chuithbeirt"
    ],
    "name:glv_x_preferred": [
      "Keeill Choobragh"
    ],
    "name:hbs_x_preferred": [
      "Kirkcudbright"
    ],
    "name:ita_x_preferred": [
      "Kirkcudbright"
    ],
    "name:jpn_x_preferred": [
      "カークーブリー"
    ],
    "name:jpn_x_variant": [
      "カークーブリ"
    ],
    "name:mkd_x_preferred": [
      "Керкубри"
    ],
    "name:nld_x_preferred": [
      "Kirkcudbright"
    ],
    "name:pol_x_preferred": [
      "Kirkcudbright"
    ],
    "name:rus_x_preferred": [
      "Керкубри"
    ],
    "name:sco_x_preferred": [
      "Kirkcoubrie"
    ],
    "name:spa_x_preferred": [
      "Kirkcudbright"
    ],
    "name:swe_x_preferred": [
      "Kirkcudbright"
    ],
    "name:ukr_x_preferred": [
      "Керкубрі"
    ],
    "name:zho_x_preferred": [
      "柯库布里"
    ],
    "qs:a0": "United Kingdom",
    "qs:a1": "*Dumfries and Galloway",
    "qs:a1_lc": "GB11QH0000",
    "qs:a1r": "0Scotland",
    "qs:a1r_lc": "GB11000000",
    "qs:adm0": "United Kingdom",
    "qs:id": 0,
    "qs:la_lc": "*",
    "qs:level": "locality",
    "qs:loc": "Kirkcudbright",
    "qs:loc_alt": "Kirkcudbright",
    "qs:pop": 0,
    "qs:source": "RCustom EuroGlobalMap + UMZ Urban Polygons + Geonames + GeoPlanet",
    "qs:type": "buffered point",
    "src:geom": "whosonfirst",
    "src:geom_alt": [
      "quattroshapes_pg",
      "quattroshapes"
    ],
    "src:geom_via": "quattroshapes",
    "src:lbl_centroid": "mapshaper",
    "src:population": "wikidata",
    "wd:latitude": 54.816667,
    "wd:longitude": -4.033333,
    "wd:wordcount": 1898,
    "wof:belongsto": [
      1880762171,
      1360699039
    ],
    "wof:breaches": [],
    "wof:concordances": {
      "fct:id": "0aa63612-8f76-11e1-848f-cfd5bf3ef515",
      "gn:id": 2645287,
      "gp:id": 25387,
      "qs_pg:id": 17627,
      "wd:id": "Q1011387",
      "wk:page": "Kirkcudbright"
    },
    "wof:country": "GB",
    "wof:created": 1765385026,
    "wof:geom_alt": [
      "quattroshapes_pg",
      "quattroshapes"
    ],
    "wof:geomhash": "70131d0f1f207f014e967efab64587d7",
    "wof:hierarchy": [
      {
        "continent_id": -1,
        "country_id": -1,
        "county_id": 1360699039,
        "locality_id": 101873431,
        "macrocounty_id": 1880762171,
        "region_id": -1
      }
    ],
    "wof:id": 101873431,
    "wof:lang": [
      "eng"
    ],
    "wof:lastmodified": 1765385026,
    "wof:name": "Kirkcudbright",
    "wof:parent_id": 1360699039,
    "wof:placetype": "locality",
    "wof:population": 3420,
    "wof:population_rank": 4,
    "wof:repo": "whosonfirst-data-admin-gb",
    "wof:superseded_by": [],
    "wof:supersedes": [],
    "wof:tags": []
  },
  "bbox": [
    -4.049153,
    54.835888,
    -4.049153,
    54.835888
  ],
  "geometry": {"type":"Point","coordinates":[-4.049153,54.835888]}
}
