{
  "id": 85789943,
  "type": "Feature",
  "properties": {
    "edtf:cessation": "",
    "edtf:inception": "",
    "geom:area": 0.0012901836999999472,
    "geom:area_square_m": 9483215.422897,
    "geom:bbox": "-2.320057,53.514184,-2.260437,53.544250",
    "geom:latitude": 53.52832386266118,
    "geom:longitude": -2.2908552628173484,
    "gn:latitude": 53.53333,
    "gn:longitude": -2.28333,
    "gn:population": 32125,
    "iso:country": "GB",
    "lbl:latitude": 53.531739,
    "lbl:longitude": -2.283477,
    "lbl:max_zoom": 18,
    "mps:latitude": 53.527245,
    "mps:longitude": -2.290861,
    "mz:hierarchy_label": 1,
    "mz:is_current": -1,
    "mz:is_funky": 0,
    "mz:is_hard_boundary": 0,
    "mz:is_landuse_aoi": 0,
    "mz:is_official": 0,
    "mz:max_zoom": 18,
    "mz:min_zoom": 13,
    "mz:tier_locality": 4,
    "name:ara_x_preferred": [
      "برستويتش"
    ],
    "name:arz_x_preferred": [
      "برستويتش"
    ],
    "name:ast_x_preferred": [
      "Prestwich"
    ],
    "name:ceb_x_preferred": [
      "Prestwich"
    ],
    "name:cym_x_preferred": [
      "Prestwich"
    ],
    "name:deu_x_preferred": [
      "Prestwich"
    ],
    "name:ell_x_preferred": [
      "Πρεστγουίτς"
    ],
    "name:eng_x_preferred": [
      "Prestwich"
    ],
    "name:fas_x_preferred": [
      "پرستویچ"
    ],
    "name:fra_x_preferred": [
      "Prestwich"
    ],
    "name:gle_x_preferred": [
      "Prestwich"
    ],
    "name:heb_x_preferred": [
      "פרסטוויץ"
    ],
    "name:ind_x_preferred": [
      "Potternewton"
    ],
    "name:ita_x_preferred": [
      "Prestwich"
    ],
    "name:jpn_x_preferred": [
      "プレストウィッチ"
    ],
    "name:lat_x_preferred": [
      "Prestwich"
    ],
    "name:lld_x_preferred": [
      "Prestwich"
    ],
    "name:nld_x_preferred": [
      "Prestwich"
    ],
    "name:pol_x_preferred": [
      "Prestwich"
    ],
    "name:rus_x_preferred": [
      "Прествич"
    ],
    "name:swe_x_preferred": [
      "Prestwich"
    ],
    "name:ukr_x_preferred": [
      "Прествіч"
    ],
    "name:urd_x_preferred": [
      "پریسٹوچ"
    ],
    "name:zho_x_preferred": [
      "普雷斯特威奇"
    ],
    "qs:gn_adm0_cc": "GB",
    "qs:gn_fcode": "PPL",
    "qs:gn_local": 2643123,
    "qs:gn_namadm1": "ENG",
    "qs:gn_name": "Prestwich",
    "qs:local_max": 9270,
    "qs:local_sum": 123713,
    "qs:localhoods": 57,
    "qs:name": "Prestwich",
    "qs:name_adm0": "United Kingdom",
    "qs:name_adm1": "England",
    "qs:name_adm2": "Greater Manchester",
    "qs:name_lau": "Bury Metropolitan Borough",
    "qs:name_local": "Manchester",
    "qs:photo_max": 1099,
    "qs:photo_sum": 4170,
    "qs:placetype": "Suburb",
    "qs:quad_count": 101,
    "qs:woe_adm0": 23424975,
    "qs:woe_adm1": 24554868,
    "qs:woe_adm2": 12602158,
    "qs:woe_lau": 12695840,
    "qs:woe_local": 28218,
    "qs:woe_ver": "7.10.0",
    "src:geom": "quattroshapes",
    "src:geom_alt": [
      "quattroshapes_pg"
    ],
    "src:lbl_centroid": "yerbashapes",
    "src:population": "wikidata",
    "wd:latitude": 53.5333,
    "wd:longitude": -2.2833,
    "wd:wordcount": 3859,
    "wof:belongsto": [
      1880773095,
      102191581,
      85633159,
      1880762163,
      404227469,
      101750567,
      136253055,
      1360698847
    ],
    "wof:breaches": [],
    "wof:concordances": {
      "gn:id": 2639897,
      "gp:id": 32598,
      "qs_pg:id": 1041961,
      "wd:id": "Q1003559",
      "wk:page": "Prestwich"
    },
    "wof:country": "GB",
    "wof:created": 1765391153,
    "wof:geom_alt": [
      "quattroshapes_pg"
    ],
    "wof:geomhash": "a7bd7518450f34b1b87ff9a17fe1bbfa",
    "wof:hierarchy": [
      {
        "continent_id": 102191581,
        "country_id": 85633159,
        "county_id": 1360698847,
        "empire_id": 136253055,
        "locality_id": 101750567,
        "macrocounty_id": 1880762163,
        "macroregion_id": 404227469,
        "neighbourhood_id": 85789943,
        "region_id": 1880773095
      }
    ],
    "wof:id": 85789943,
    "wof:lang": [
      "eng"
    ],
    "wof:lastmodified": 1765391153,
    "wof:name": "Prestwich",
    "wof:parent_id": 101750567,
    "wof:placetype": "neighbourhood",
    "wof:population": 31500,
    "wof:population_rank": 7,
    "wof:repo": "whosonfirst-data-admin-gb",
    "wof:superseded_by": [],
    "wof:supersedes": [],
    "wof:tags": []
  },
  "bbox": [
    -2.320057,
    53.514184,
    -2.260437,
    53.54425
  ],
  "geometry": {"type":"Polygon","coordinates":[[[-2.263184,53.540307],[-2.263184,53.538606],[-2.260437,53.537066],[-2.260437,53.537043],[-2.260437,53.535411],[-2.260437,53.533778],[-2.260437,53.532146],[-2.263184,53.532146],[-2.263184,53.530513],[-2.263184,53.527248],[-2.263184,53.523982],[-2.265971,53.523982],[-2.266669,53.523592],[-2.267742,53.523953],[-2.268677,53.523166],[-2.268677,53.520717],[-2.269606,53.520717],[-2.269606,53.520717],[-2.27417,53.520717],[-2.27417,53.517451],[-2.27417,53.517451],[-2.279663,53.517451],[-2.281605,53.517451],[-2.28241,53.516774],[-2.28241,53.514861],[-2.283214,53.514184],[-2.285156,53.514184],[-2.290649,53.514184],[-2.296143,53.514184],[-2.301636,53.514184],[-2.307129,53.514184],[-2.307129,53.514185],[-2.3081,53.515818],[-2.312622,53.515818],[-2.314564,53.51745],[-2.316173,53.51745],[-2.320057,53.520716],[-2.318115,53.523982],[-2.318115,53.523982],[-2.318115,53.525685],[-2.318115,53.527248],[-2.315369,53.527248],[-2.315369,53.528881],[-2.314631,53.530122],[-2.315328,53.530513],[-2.318115,53.530513],[-2.318115,53.532077],[-2.318115,53.533778],[-2.318115,53.53541],[-2.313592,53.53541],[-2.312622,53.537043],[-2.312622,53.537043],[-2.312622,53.537043],[-2.310682,53.540307],[-2.310645,53.540307],[-2.307887,53.542296],[-2.307129,53.541871],[-2.304342,53.540307],[-2.303645,53.539916],[-2.302483,53.540307],[-2.301636,53.540593],[-2.301353,53.540307],[-2.296143,53.540307],[-2.290649,53.540307],[-2.285156,53.540307],[-2.282369,53.540307],[-2.281672,53.540698],[-2.280613,53.540342],[-2.280592,53.540307],[-2.279663,53.540307],[-2.279663,53.539491],[-2.276917,53.539491],[-2.27417,53.539491],[-2.27417,53.540307],[-2.268677,53.540307],[-2.268677,53.540307],[-2.266737,53.543572],[-2.26593,53.54425],[-2.263184,53.541939],[-2.263184,53.540307]]]}
}
