{
  "id": 101873653,
  "type": "Feature",
  "properties": {
    "edtf:cessation": "",
    "edtf:inception": "",
    "geom:area": 0,
    "geom:area_square_m": 0,
    "geom:bbox": "-4.058125,57.813287,-4.058125,57.813287",
    "geom:latitude": 57.813287,
    "geom:longitude": -4.058125,
    "iso:country": "GB",
    "lbl:bbox": "-4.078125,57.793287,-4.038125,57.833287",
    "lbl:latitude": 57.813288,
    "lbl:longitude": -4.058125,
    "lbl:max_zoom": 18,
    "lbl:min_zoom": 13.5,
    "mps:latitude": 57.813288,
    "mps:longitude": -4.058125,
    "mz:hierarchy_label": 1,
    "mz:is_current": 1,
    "mz:min_zoom": 12,
    "name:azb_x_preferred": [
      "تاین"
    ],
    "name:ben_x_preferred": [
      "তাইন"
    ],
    "name:cat_x_preferred": [
      "Tain"
    ],
    "name:ceb_x_preferred": [
      "Tain"
    ],
    "name:ces_x_preferred": [
      "Tain"
    ],
    "name:cym_x_preferred": [
      "Tain"
    ],
    "name:deu_x_preferred": [
      "Tain"
    ],
    "name:eng_x_preferred": [
      "Tain"
    ],
    "name:eus_x_preferred": [
      "Tain"
    ],
    "name:fas_x_preferred": [
      "تاین"
    ],
    "name:fra_x_preferred": [
      "Tain"
    ],
    "name:gla_x_preferred": [
      "Baile Dhubhthaich"
    ],
    "name:gle_x_preferred": [
      "Baile Dhubhthaich"
    ],
    "name:guj_x_preferred": [
      "ટૈન"
    ],
    "name:hbs_x_preferred": [
      "Tain"
    ],
    "name:heb_x_preferred": [
      "טאין"
    ],
    "name:ita_x_preferred": [
      "Tain"
    ],
    "name:jpn_x_preferred": [
      "タイン"
    ],
    "name:kan_x_preferred": [
      "ಟೈನ್"
    ],
    "name:kor_x_preferred": [
      "타닌"
    ],
    "name:lit_x_preferred": [
      "Tainas"
    ],
    "name:nld_x_preferred": [
      "Tain"
    ],
    "name:nno_x_preferred": [
      "Tain"
    ],
    "name:nob_x_preferred": [
      "Tain"
    ],
    "name:nor_x_preferred": [
      "Tain"
    ],
    "name:pol_x_preferred": [
      "Tain"
    ],
    "name:por_x_preferred": [
      "Tain"
    ],
    "name:rus_x_preferred": [
      "Тэйн"
    ],
    "name:sco_x_preferred": [
      "Tain"
    ],
    "name:spa_x_preferred": [
      "Tain"
    ],
    "name:swe_x_preferred": [
      "Tain"
    ],
    "name:tam_x_preferred": [
      "டைன்"
    ],
    "name:tel_x_preferred": [
      "టైన్"
    ],
    "name:ukr_x_preferred": [
      "Тейн"
    ],
    "name:urd_x_preferred": [
      "تیں"
    ],
    "name:zho_x_preferred": [
      "泰恩"
    ],
    "qs:a0": "United Kingdom",
    "qs:a1": "*Highland",
    "qs:a1_lc": "GB11QT0000",
    "qs:a1r": "0Scotland",
    "qs:a1r_lc": "GB11000000",
    "qs:adm0": "United Kingdom",
    "qs:id": 0,
    "qs:la_lc": "*",
    "qs:level": "locality",
    "qs:loc": "Tain",
    "qs:loc_alt": "Tain",
    "qs:pop": 0,
    "qs:source": "RCustom EuroGlobalMap + UMZ Urban Polygons + Geonames + GeoPlanet",
    "qs:type": "buffered point",
    "src:geom": "whosonfirst",
    "src:geom_alt": [
      "quattroshapes_pg",
      "quattroshapes"
    ],
    "src:geom_via": "quattroshapes",
    "src:lbl_centroid": "mapshaper",
    "src:population": "wikidata",
    "wd:wordcount": 1252,
    "wof:belongsto": [
      1880762005,
      1360699045
    ],
    "wof:breaches": [],
    "wof:concordances": {
      "fct:id": "0aa607be-8f76-11e1-848f-cfd5bf3ef515",
      "gn:id": 2636321,
      "gp:id": 36885,
      "qs_pg:id": 975082,
      "wd:id": "Q1020220",
      "wk:page": "Tain"
    },
    "wof:country": "GB",
    "wof:created": 1765385080,
    "wof:geom_alt": [
      "quattroshapes_pg",
      "quattroshapes"
    ],
    "wof:geomhash": "47477bbc1135e491f788f56f23dd5707",
    "wof:hierarchy": [
      {
        "continent_id": -1,
        "country_id": -1,
        "county_id": 1360699045,
        "locality_id": 101873653,
        "macrocounty_id": 1880762005,
        "region_id": -1
      }
    ],
    "wof:id": 101873653,
    "wof:lang": [
      "eng"
    ],
    "wof:lastmodified": 1765385080,
    "wof:name": "Tain",
    "wof:parent_id": 1360699045,
    "wof:placetype": "locality",
    "wof:population": 3590,
    "wof:population_rank": 4,
    "wof:repo": "whosonfirst-data-admin-gb",
    "wof:superseded_by": [],
    "wof:supersedes": [],
    "wof:tags": []
  },
  "bbox": [
    -4.058125,
    57.813287,
    -4.058125,
    57.813287
  ],
  "geometry": {"type":"Point","coordinates":[-4.058125,57.813287]}
}
