{
  "id": 1126043545,
  "type": "Feature",
  "properties": {
    "edtf:cessation": "",
    "edtf:inception": "",
    "geom:area": 0,
    "geom:area_square_m": 0,
    "geom:bbox": "-3.271300,56.277550,-3.271300,56.277550",
    "geom:latitude": 56.27755,
    "geom:longitude": -3.2713,
    "gn:country": "GB",
    "gn:fcode": "PPL",
    "gn:population": 926,
    "iso:country": "GB",
    "lbl:bbox": "-3.2913,56.25755,-3.2513,56.29755",
    "lbl:latitude": 56.27755,
    "lbl:longitude": -3.2713,
    "lbl:max_zoom": 17,
    "lbl:min_zoom": 12.5,
    "mz:hierarchy_label": 1,
    "mz:is_current": 1,
    "mz:min_zoom": 11,
    "mz:note": "Quattroshapes Point Gazetteer import 20170519",
    "name:bul_x_preferred": [
      "Стратхмигло"
    ],
    "name:ceb_x_preferred": [
      "Strathmiglo"
    ],
    "name:cym_x_preferred": [
      "Strathmiglo"
    ],
    "name:deu_x_preferred": [
      "Strathmiglo"
    ],
    "name:eng_x_preferred": [
      "Strathmiglo"
    ],
    "name:eus_x_preferred": [
      "Strathmiglo"
    ],
    "name:fra_x_preferred": [
      "Strathmiglo"
    ],
    "name:gle_x_preferred": [
      "Srath Mioglach"
    ],
    "name:ita_x_preferred": [
      "Strathmiglo"
    ],
    "name:nld_x_preferred": [
      "Strathmiglo"
    ],
    "name:sco_x_preferred": [
      "Stramiglae"
    ],
    "name:spa_x_preferred": [
      "Strathmiglo"
    ],
    "name:swe_x_preferred": [
      "Strathmiglo"
    ],
    "name:zho_x_preferred": [
      "斯特拉斯米格洛"
    ],
    "qs_pg:aaroncc": "GB",
    "qs_pg:gn_country": "GB",
    "qs_pg:gn_fcode": "PPL",
    "qs_pg:gn_id": 2636694,
    "qs_pg:gn_pop": 926,
    "qs_pg:name": "Strathmiglo",
    "qs_pg:name_adm0": "United Kingdom",
    "qs_pg:name_adm1": "Scotland",
    "qs_pg:photos": 342,
    "qs_pg:photos_1k": 69,
    "qs_pg:photos_9k": 2,
    "qs_pg:photos_9r": 5,
    "qs_pg:photos_all": 342,
    "qs_pg:photos_sr": 5,
    "qs_pg:pop_sr": 2,
    "qs_pg:qs_id": 906020,
    "qs_pg:qs_pg_placetype": "locality",
    "qs_pg:qs_pg_placetype_gp": "Town",
    "qs_pg:woe_adm0": 23424975,
    "qs_pg:woe_id": 36440,
    "src:geom": "qs_pg",
    "src:lbl_centroid": "qs_pg",
    "src:population": "wikidata",
    "woe:adm0_id": 23424975,
    "woe:name_adm0": "United Kingdom",
    "woe:name_adm1": "Scotland",
    "woe:placetype": "Town",
    "wof:belongsto": [
      1880762125,
      1360699123
    ],
    "wof:breaches": [],
    "wof:concordances": {
      "gn:id": 2636694,
      "gp:id": 36440,
      "qs_pg:id": 906020,
      "wd:id": "Q1011984"
    },
    "wof:country": "GB",
    "wof:created": 1497302299,
    "wof:geomhash": "01b59619b684d1cfa046de8da13b5595",
    "wof:hierarchy": [
      {
        "continent_id": -1,
        "country_id": -1,
        "county_id": 1360699123,
        "locality_id": 1126043545,
        "macrocounty_id": 1880762125,
        "region_id": -1
      }
    ],
    "wof:id": 1126043545,
    "wof:lastmodified": 1765387868,
    "wof:name": "Strathmiglo",
    "wof:parent_id": 1360699123,
    "wof:placetype": "locality",
    "wof:population": 910,
    "wof:population_rank": 2,
    "wof:repo": "whosonfirst-data-admin-gb",
    "wof:superseded_by": [],
    "wof:supersedes": [],
    "wof:tags": []
  },
  "bbox": [
    -3.2713,
    56.27755,
    -3.2713,
    56.27755
  ],
  "geometry": {"type":"Point","coordinates":[-3.2713,56.27755]}
}
