{
  "id": 101751941,
  "type": "Feature",
  "properties": {
    "edtf:cessation": "",
    "edtf:inception": "",
    "geom:area": 0.0029250891029999563,
    "geom:area_square_m": 20743707.459111,
    "geom:bbox": "-7.357509,54.968673,-7.258384,55.035599",
    "geom:latitude": 55.00407672734892,
    "geom:longitude": -7.311503960850361,
    "gn:population": 83652,
    "iso:country": "GB",
    "lbl:latitude": 54.992132,
    "lbl:longitude": -7.296416,
    "lbl:max_zoom": 14,
    "lbl:min_zoom": 9.5,
    "mps:latitude": 54.992132,
    "mps:longitude": -7.296416,
    "mz:hierarchy_label": 1,
    "mz:is_current": 1,
    "mz:min_zoom": 6.1,
    "name:afr_x_preferred": [
      "Derry"
    ],
    "name:ang_x_preferred": [
      "Lundendeory"
    ],
    "name:ara_x_preferred": [
      "ديري"
    ],
    "name:arz_x_preferred": [
      "ديرى"
    ],
    "name:ast_x_preferred": [
      "Derry"
    ],
    "name:azb_x_preferred": [
      "دری"
    ],
    "name:aze_x_preferred": [
      "Derri"
    ],
    "name:bel_x_preferred": [
      "Дэры"
    ],
    "name:ben_x_preferred": [
      "ডেরি"
    ],
    "name:bre_x_preferred": [
      "Doire"
    ],
    "name:bul_x_preferred": [
      "Дери"
    ],
    "name:cat_x_preferred": [
      "Derry"
    ],
    "name:ceb_x_preferred": [
      "Derry"
    ],
    "name:ces_x_preferred": [
      "Derry"
    ],
    "name:cor_x_preferred": [
      "Ker Dherow"
    ],
    "name:cym_x_preferred": [
      "Londonderry"
    ],
    "name:cym_x_variant": [
      "Derry",
      "Deri"
    ],
    "name:dan_x_preferred": [
      "Derry"
    ],
    "name:dan_x_variant": [
      "Londonderry"
    ],
    "name:deu_x_preferred": [
      "Derry"
    ],
    "name:deu_x_variant": [
      "Londonderry"
    ],
    "name:diq_x_preferred": [
      "Derry"
    ],
    "name:ell_x_preferred": [
      "Λόντοντερι"
    ],
    "name:ell_x_variant": [
      "Ντέρι"
    ],
    "name:eng_x_colloquial": [
      "Derry"
    ],
    "name:eng_x_preferred": [
      "Londonderry / Derry"
    ],
    "name:eng_x_variant": [
      "Derry",
      "Dhoire",
      "Doire",
      "Doire Choluim Chille",
      "LDY",
      "Derry City",
      "Londonderry"
    ],
    "name:epo_x_preferred": [
      "Derry"
    ],
    "name:est_x_preferred": [
      "Derry"
    ],
    "name:eus_x_preferred": [
      "Derry"
    ],
    "name:fas_x_preferred": [
      "دری"
    ],
    "name:fin_x_preferred": [
      "Londonderry"
    ],
    "name:fin_x_variant": [
      "Derry"
    ],
    "name:fra_x_preferred": [
      "Derry"
    ],
    "name:fra_x_variant": [
      "Londonderry"
    ],
    "name:fry_x_preferred": [
      "Londenderry"
    ],
    "name:fry_x_variant": [
      "Derry"
    ],
    "name:gla_x_preferred": [
      "Doire"
    ],
    "name:gle_x_preferred": [
      "Doire"
    ],
    "name:glg_x_preferred": [
      "Derry"
    ],
    "name:glv_x_preferred": [
      "Doirrey"
    ],
    "name:guj_x_preferred": [
      "ડેરી"
    ],
    "name:heb_x_preferred": [
      "דרי"
    ],
    "name:hin_x_preferred": [
      "लोंदेंडरी / डेरी"
    ],
    "name:hun_x_preferred": [
      "Londonderry"
    ],
    "name:hun_x_variant": [
      "Derry"
    ],
    "name:hye_x_preferred": [
      "Դերրի"
    ],
    "name:ile_x_preferred": [
      "Derry"
    ],
    "name:ind_x_preferred": [
      "Derry"
    ],
    "name:isl_x_preferred": [
      "Derry"
    ],
    "name:ita_x_preferred": [
      "Derry / Londonderry"
    ],
    "name:ita_x_variant": [
      "Derry"
    ],
    "name:jav_x_preferred": [
      "Londonderry"
    ],
    "name:jav_x_variant": [
      "Derry"
    ],
    "name:jpn_x_preferred": [
      "ロンドンデリー"
    ],
    "name:kan_x_preferred": [
      "ಡೆರ್ರಿ"
    ],
    "name:kaz_x_preferred": [
      "Дерри"
    ],
    "name:kor_x_preferred": [
      "데리"
    ],
    "name:kur_x_preferred": [
      "Derry"
    ],
    "name:lat_x_preferred": [
      "Derae"
    ],
    "name:lat_x_variant": [
      "Derria"
    ],
    "name:lav_x_preferred": [
      "Derija"
    ],
    "name:lav_x_variant": [
      "Deri"
    ],
    "name:lit_x_preferred": [
      "Londonderis"
    ],
    "name:lit_x_variant": [
      "Deris"
    ],
    "name:ltz_x_preferred": [
      "Derry"
    ],
    "name:mar_x_preferred": [
      "डेरी"
    ],
    "name:mkd_x_preferred": [
      "Дери"
    ],
    "name:mlt_x_preferred": [
      "Derry"
    ],
    "name:mni_x_preferred": [
      "ꯂꯣꯟꯗꯣꯟꯗꯦꯔꯔꯤ"
    ],
    "name:msa_x_preferred": [
      "Derry"
    ],
    "name:mzn_x_preferred": [
      "لاندن دری"
    ],
    "name:nld_x_preferred": [
      "Derry"
    ],
    "name:nno_x_preferred": [
      "Derry"
    ],
    "name:nob_x_preferred": [
      "Derry"
    ],
    "name:nor_x_preferred": [
      "Derry"
    ],
    "name:oci_x_preferred": [
      "Derry"
    ],
    "name:oss_x_preferred": [
      "Дерри"
    ],
    "name:pnb_x_preferred": [
      "ڈیری"
    ],
    "name:pol_x_preferred": [
      "Derry"
    ],
    "name:por_x_preferred": [
      "Derry"
    ],
    "name:que_x_preferred": [
      "Derry"
    ],
    "name:ron_x_preferred": [
      "Derry"
    ],
    "name:rus_x_preferred": [
      "Дерри"
    ],
    "name:sco_x_preferred": [
      "Lunnonderry"
    ],
    "name:sco_x_variant": [
      "Derry"
    ],
    "name:sin_x_preferred": [
      "ඩෙරි"
    ],
    "name:slk_x_preferred": [
      "Londonderry"
    ],
    "name:slk_x_variant": [
      "Derry"
    ],
    "name:slv_x_preferred": [
      "Derry"
    ],
    "name:spa_x_preferred": [
      "Derry"
    ],
    "name:srp_x_preferred": [
      "Дери"
    ],
    "name:swe_x_preferred": [
      "Derry"
    ],
    "name:swe_x_variant": [
      "Londonderry"
    ],
    "name:szl_x_preferred": [
      "Londonderry"
    ],
    "name:szl_x_variant": [
      "Derry"
    ],
    "name:tam_x_preferred": [
      "டெர்ரி"
    ],
    "name:tat_x_preferred": [
      "Дерри"
    ],
    "name:tel_x_preferred": [
      "డెర్రీ"
    ],
    "name:tgl_x_preferred": [
      "Derry"
    ],
    "name:tha_x_preferred": [
      "เดอร์รี"
    ],
    "name:tha_x_variant": [
      "เดร์รี"
    ],
    "name:tur_x_preferred": [
      "Derry"
    ],
    "name:ukr_x_preferred": [
      "Деррі"
    ],
    "name:und_x_variant": [
      "Londonderri",
      "Λαντονντερρυ",
      "Лондондерри"
    ],
    "name:urd_x_preferred": [
      "ڈیری"
    ],
    "name:uzb_x_preferred": [
      "Derri"
    ],
    "name:vie_x_preferred": [
      "Derry"
    ],
    "name:war_x_preferred": [
      "Derry"
    ],
    "name:wuu_x_preferred": [
      "伦敦德里城"
    ],
    "name:yue_x_preferred": [
      "倫敦德里"
    ],
    "name:zho_x_preferred": [
      "德里"
    ],
    "ne:ADM0CAP": 0,
    "ne:ADM0NAME": "United Kingdom",
    "ne:ADM0_A3": "GBR",
    "ne:ADM1NAME": "Derry",
    "ne:ADMIN1_COD": 0,
    "ne:CAPALT": 0,
    "ne:CAPIN": null,
    "ne:CHANGED": 0,
    "ne:CHECKME": 0,
    "ne:CITYALT": null,
    "ne:COMPARE": 0,
    "ne:DIFFASCII": 0,
    "ne:DIFFNOTE": null,
    "ne:ELEVATION": 0,
    "ne:FEATURECLA": "Populated place",
    "ne:FEATURE_CL": "P",
    "ne:FEATURE_CO": "PPL",
    "ne:GEONAMEID": 2643736,
    "ne:GEONAMESNO": "GeoNames spatial join with similar names only.",
    "ne:GN_ASCII": "Derry",
    "ne:GN_POP": 83652,
    "ne:GTOPO30": 28,
    "ne:ISO_A2": "GB",
    "ne:LABELRANK": 5,
    "ne:LATITUDE": 55.000375,
    "ne:LONGITUDE": -7.333284,
    "ne:LS_MATCH": 1,
    "ne:LS_NAME": "Londonderry",
    "ne:MAX_AREAKM": 36,
    "ne:MAX_AREAMI": 14,
    "ne:MAX_BBXMAX": -7.266667,
    "ne:MAX_BBXMIN": -7.366667,
    "ne:MAX_BBYMAX": 55.041667,
    "ne:MAX_BBYMIN": 54.975,
    "ne:MAX_NATSCA": 20,
    "ne:MAX_PERKM": 44,
    "ne:MAX_PERMI": 28,
    "ne:MAX_POP10": 81618,
    "ne:MAX_POP20": 81618,
    "ne:MAX_POP300": 0,
    "ne:MAX_POP310": 0,
    "ne:MAX_POP50": 0,
    "ne:MEAN_BBXC": -7.318664,
    "ne:MEAN_BBYC": 55.006107,
    "ne:MEGACITY": 0,
    "ne:MEGANAME": null,
    "ne:MIN_AREAKM": 36,
    "ne:MIN_AREAMI": 14,
    "ne:MIN_BBXMAX": -7.266667,
    "ne:MIN_BBXMIN": -7.366667,
    "ne:MIN_BBYMAX": 55.041667,
    "ne:MIN_BBYMIN": 54.975,
    "ne:MIN_PERKM": 44,
    "ne:MIN_PERMI": 28,
    "ne:NAME": "Londonderry",
    "ne:NAMEALT": null,
    "ne:NAMEASCII": "Londonderry",
    "ne:NAMEDIFF": 0,
    "ne:NAMEPAR": null,
    "ne:NATSCALE": 20,
    "ne:NOTE": null,
    "ne:POP1950": 0,
    "ne:POP1955": 0,
    "ne:POP1960": 0,
    "ne:POP1965": 0,
    "ne:POP1970": 0,
    "ne:POP1975": 0,
    "ne:POP1980": 0,
    "ne:POP1985": 0,
    "ne:POP1990": 0,
    "ne:POP1995": 0,
    "ne:POP2000": 0,
    "ne:POP2005": 0,
    "ne:POP2010": 0,
    "ne:POP2015": 0,
    "ne:POP2020": 0,
    "ne:POP2025": 0,
    "ne:POP2050": 0,
    "ne:POP_MAX": 83652,
    "ne:POP_MIN": 81618,
    "ne:POP_OTHER": 78886,
    "ne:RANK_MAX": 8,
    "ne:RANK_MIN": 8,
    "ne:SCALERANK": 7,
    "ne:SOV0NAME": "United Kingdom",
    "ne:SOV_A3": "GBR",
    "ne:TIMEZONE": "Europe/London",
    "ne:UN_ADM0": null,
    "ne:UN_FID": 0,
    "ne:UN_LAT": 0,
    "ne:UN_LONG": 0,
    "ne:WORLDCITY": 0,
    "qs:a0": "United Kingdom",
    "qs:a1": "*Derry",
    "qs:a1_lc": "N_A",
    "qs:a1r": "0Northern Ireland",
    "qs:a1r_lc": "N_A",
    "qs:adm0": "United Kingdom",
    "qs:la_lc": "*",
    "qs:level": "locality",
    "qs:loc": "Londonderry",
    "qs:loc_alt": "Londonderry",
    "qs:pop": 0,
    "qs:source": "RCustom EuroGlobalMap + UMZ Urban Polygons + Geonames + GeoPlanet",
    "qs:type": "urban core",
    "src:geom": "quattroshapes",
    "src:geom_alt": [
      "quattroshapes_pg"
    ],
    "src:lbl_centroid": "mapshaper",
    "src:population": "wikidata",
    "wof:belongsto": [
      1360699231,
      102191581,
      85633159,
      1880762233,
      404227473,
      136253055,
      1880762255
    ],
    "wof:breaches": [],
    "wof:concordances": {
      "fct:id": "0aa590c2-8f76-11e1-848f-cfd5bf3ef515",
      "gn:id": 2643736,
      "gp:id": 44967,
      "qs_pg:id": 663849,
      "wd:id": "Q163584",
      "wk:page": "Derry"
    },
    "wof:country": "GB",
    "wof:created": 1765384723,
    "wof:geom_alt": [
      "quattroshapes_pg"
    ],
    "wof:geomhash": "47f13a4c14de8f6d237a8f9f93ea367c",
    "wof:hierarchy": [
      {
        "continent_id": 102191581,
        "country_id": 85633159,
        "county_id": 1880762255,
        "empire_id": 136253055,
        "locality_id": 101751941,
        "macrocounty_id": 1880762233,
        "macroregion_id": 404227473,
        "region_id": 1360699231
      }
    ],
    "wof:id": 101751941,
    "wof:lang": [
      "eng"
    ],
    "wof:lastmodified": 1765384723,
    "wof:name": "Londonderry / Derry",
    "wof:parent_id": 1880762255,
    "wof:placetype": "locality",
    "wof:population": 85016,
    "wof:population_rank": 8,
    "wof:repo": "whosonfirst-data-admin-gb",
    "wof:superseded_by": [],
    "wof:supersedes": [],
    "wof:tags": []
  },
  "bbox": [
    -7.357509,
    54.968673,
    -7.258384,
    55.035599
  ],
  "geometry": {"type":"MultiPolygon","coordinates":[[[[-7.311835,55.034279],[-7.308603,55.032823],[-7.303391,55.030475],[-7.300303,55.031433],[-7.298603,55.030281],[-7.295107,55.031135],[-7.296069,55.032188],[-7.293154,55.033333],[-7.289835,55.031299],[-7.294143,55.02951],[-7.297783,55.026259],[-7.299246,55.024952],[-7.302273,55.022247],[-7.297508,55.019321],[-7.29794,55.017605],[-7.300083,55.016266],[-7.308922,55.013817],[-7.312836,55.013393],[-7.315181,55.009262],[-7.317845,55.007648],[-7.320434,55.003395],[-7.320058,55.001815],[-7.320184,55.000549],[-7.319723,54.998955],[-7.315549,54.993046],[-7.319517,54.990477],[-7.321254,54.989353],[-7.322149,54.988774],[-7.322363,54.988636],[-7.334439,54.986309],[-7.335088,54.986652],[-7.336696,54.987503],[-7.332277,54.991165],[-7.334749,54.99234],[-7.334886,54.992405],[-7.33775,54.991493],[-7.343909,54.98793],[-7.348423,54.987694],[-7.351062,54.988735],[-7.351322,54.990459],[-7.350441,54.992725],[-7.348529,54.994632],[-7.343916,54.998195],[-7.346564,55.000683],[-7.340758,55.003567],[-7.339446,55.004219],[-7.341406,55.007187],[-7.344317,55.008964],[-7.346177,55.008636],[-7.348204,55.008279],[-7.352082,55.011936],[-7.35497,55.012214],[-7.356614,55.014541],[-7.357509,55.017436],[-7.34611,55.021656],[-7.347375,55.023575],[-7.345748,55.025418],[-7.343725,55.02771],[-7.343482,55.029281],[-7.339361,55.030594],[-7.334151,55.030452],[-7.334391,55.028312],[-7.335754,55.027901],[-7.334161,55.026272],[-7.332673,55.026753],[-7.330828,55.028209],[-7.331352,55.029464],[-7.329398,55.031048],[-7.324355,55.033264],[-7.325838,55.034851],[-7.321666,55.035492],[-7.314768,55.03371],[-7.315015,55.035599],[-7.312134,55.035576],[-7.311835,55.034279]]],[[[-7.282716,54.984733],[-7.258384,54.977943],[-7.260451,54.974342],[-7.263801,54.97504],[-7.264495,54.975185],[-7.267011,54.975368],[-7.267014,54.975368],[-7.274456,54.975906],[-7.278529,54.976399],[-7.280604,54.97665],[-7.280135,54.974495],[-7.277618,54.971584],[-7.284173,54.968673],[-7.291629,54.972053],[-7.284491,54.975267],[-7.283572,54.975681],[-7.286921,54.97842],[-7.287928,54.977895],[-7.289721,54.976959],[-7.296217,54.978698],[-7.303634,54.976043],[-7.320103,54.985515],[-7.3141,54.989059],[-7.311246,54.991886],[-7.311015,54.994757],[-7.310994,54.995018],[-7.312491,54.998649],[-7.312188,55.000728],[-7.311075,55.003032],[-7.310089,55.00328],[-7.307172,55.004013],[-7.30624,55.004049],[-7.302718,55.004188],[-7.299448,55.005049],[-7.297878,55.005462],[-7.293805,55.005951],[-7.281244,55.007457],[-7.280296,55.007729],[-7.276985,55.008679],[-7.276497,55.008819],[-7.276665,55.008903],[-7.282308,55.011716],[-7.282955,55.012039],[-7.285378,55.014828],[-7.285649,55.01514],[-7.285361,55.015281],[-7.285241,55.015339],[-7.28092,55.017441],[-7.282644,55.021148],[-7.281432,55.02267],[-7.280668,55.023631],[-7.280348,55.024032],[-7.280283,55.024015],[-7.275644,55.022785],[-7.275801,55.020736],[-7.277422,55.017673],[-7.276521,55.015842],[-7.27064,55.011677],[-7.270294,55.011432],[-7.274768,55.00782],[-7.273825,55.003028],[-7.274542,54.998405],[-7.278364,54.993343],[-7.283054,54.990337],[-7.28092,54.987415],[-7.282716,54.984733]]]]}
}
