{
  "id": 85683841,
  "type": "Feature",
  "properties": {
    "edtf:cessation": "",
    "edtf:deprecated": "2017-12-20",
    "edtf:inception": "",
    "geom:area": 0.01483737523450002,
    "geom:area_square_m": 114052448.923853,
    "geom:bbox": "0.138225,51.484256,0.334068,51.631733",
    "geom:latitude": 51.56312785275721,
    "geom:longitude": 0.22051878156845423,
    "iso:country": "GB",
    "lbl:latitude": 51.567833,
    "lbl:longitude": 0.228751,
    "mps:latitude": 51.567833,
    "mps:longitude": 0.228751,
    "mz:hierarchy_label": 1,
    "mz:is_current": 0,
    "mz:is_funky": 1,
    "mz:max_zoom": 11,
    "mz:min_zoom": 11,
    "name:bel_x_preferred": [
      "бора Хейверынг"
    ],
    "name:ben_x_preferred": [
      "হ্যাভারিং"
    ],
    "name:bul_x_preferred": [
      "Хаверинг"
    ],
    "name:cat_x_preferred": [
      "Havering"
    ],
    "name:ces_x_preferred": [
      "Havering"
    ],
    "name:cym_x_preferred": [
      "Havering"
    ],
    "name:dan_x_preferred": [
      "Havering"
    ],
    "name:deu_x_preferred": [
      "London Borough of Havering"
    ],
    "name:eng_x_preferred": [
      "Havering"
    ],
    "name:est_x_preferred": [
      "Haveringi linnaosa"
    ],
    "name:eus_x_preferred": [
      "Havering"
    ],
    "name:fas_x_preferred": [
      "منطقه هیورینگ لندن"
    ],
    "name:fin_x_preferred": [
      "Havering"
    ],
    "name:fra_x_preferred": [
      "district londonien d'Havering"
    ],
    "name:gle_x_preferred": [
      "Buirg Londan Havering"
    ],
    "name:guj_x_preferred": [
      "લંડન બોરો ઓફ હેવરિંગ"
    ],
    "name:heb_x_preferred": [
      "הברינג"
    ],
    "name:hin_x_preferred": [
      "हेवरिंग बरो"
    ],
    "name:hun_x_preferred": [
      "Havering kerület"
    ],
    "name:isl_x_preferred": [
      "Havering"
    ],
    "name:ita_x_preferred": [
      "Havering"
    ],
    "name:jpn_x_preferred": [
      "ヘイヴァリング・ロンドン特別区"
    ],
    "name:kan_x_preferred": [
      "ಲಂಡನ್ ಬರೋ ಆಫ್ ಹಾವೆರಿಂಗ್"
    ],
    "name:kor_x_preferred": [
      "헤이버링 구"
    ],
    "name:lat_x_preferred": [
      "Havering"
    ],
    "name:nld_x_preferred": [
      "Havering"
    ],
    "name:nno_x_preferred": [
      "London Borough of Havering"
    ],
    "name:nob_x_preferred": [
      "Havering"
    ],
    "name:pnb_x_preferred": [
      "بارکنگ تے ڈیگنہیم"
    ],
    "name:pol_x_preferred": [
      "London Borough of Havering"
    ],
    "name:por_x_preferred": [
      "Havering"
    ],
    "name:ron_x_preferred": [
      "Havering"
    ],
    "name:rus_x_preferred": [
      "Хаверинг"
    ],
    "name:spa_x_preferred": [
      "Havering"
    ],
    "name:srp_x_preferred": [
      "Лондонска општина Хејверинг"
    ],
    "name:swe_x_preferred": [
      "London Borough of Havering"
    ],
    "name:tam_x_preferred": [
      "லண்டன்  பாரூக்ஹ்  ஹாவேரிங்"
    ],
    "name:tel_x_preferred": [
      "లండన్ బోరో ఆఫ్ హావరింగ్"
    ],
    "name:ukr_x_preferred": [
      "Гейверінг"
    ],
    "name:urd_x_preferred": [
      "ہیورنگ بورو"
    ],
    "name:vie_x_preferred": [
      "Khu Havering của Luân Đôn"
    ],
    "name:yid_x_preferred": [
      "לאנדאנער בארא פון העווערינג"
    ],
    "name:zho_x_preferred": [
      "黑弗靈區"
    ],
    "ne:abbrev": "Havering",
    "ne:adm0_a3": "GBR",
    "ne:adm0_label": "7",
    "ne:adm0_sr": "1",
    "ne:adm1_cod_1": "GBR-2675",
    "ne:adm1_code": "GBR-2675",
    "ne:admin": "United Kingdom",
    "ne:area_sqkm": "0.00000000000",
    "ne:check_me": "20",
    "ne:code_hasc": "GB.HV",
    "ne:code_local": "",
    "ne:datarank": "5",
    "ne:diss_me": "2675",
    "ne:featurecla": "Admin-1 scale rank",
    "ne:fips": "UK15",
    "ne:fips_alt": "UKF6",
    "ne:gadm_level": "2",
    "ne:geonunit": "England",
    "ne:gn_a1_code": "GB.",
    "ne:gn_id": "-2648110",
    "ne:gn_level": "-2",
    "ne:gn_name": "Greater London",
    "ne:gn_region": "",
    "ne:gns_adm1": "",
    "ne:gns_id": "6077595",
    "ne:gns_lang": "ind",
    "ne:gns_level": "1",
    "ne:gns_name": "Havering, London Borough of",
    "ne:gns_region": "UK35",
    "ne:gu_a3": "ENG",
    "ne:hasc_maybe": "",
    "ne:iso_3166_2": "GB-",
    "ne:iso_a2": "GB",
    "ne:labelrank": "9",
    "ne:latitude": "51.56340000000",
    "ne:longitude": "0.24211000000",
    "ne:mapcolor13": 3,
    "ne:mapcolor9": 6,
    "ne:name": "Havering",
    "ne:name_alt": "",
    "ne:name_len": 8,
    "ne:name_local": "",
    "ne:note": "",
    "ne:postal": "HV",
    "ne:provnum_ne": "20089",
    "ne:region": "Greater London",
    "ne:region_cod": "",
    "ne:region_sub": "Greater London",
    "ne:sameascity": "-99",
    "ne:scalerank": "8",
    "ne:sov_a3": "GB1",
    "ne:sub_code": "",
    "ne:type": "London Borough",
    "ne:type_en": "London Borough",
    "ne:wikipedia": "",
    "ne:woe_id": 12695830,
    "ne:woe_label": "",
    "ne:woe_name": "London Borough of Havering",
    "qs:a0": "United Kingdom",
    "qs:a0_lc": "GB00000000",
    "qs:a1": "Havering",
    "qs:a1_alt": "Havering",
    "qs:a1_lc": "GB12AR0000",
    "qs:a1r": "England",
    "qs:a1r_alt": "England",
    "qs:a1r_lc": "GB12000000",
    "qs:adm0": "United Kingdom",
    "qs:adm0_a3": "GBR",
    "qs:level": "adm1",
    "qs:source": "EuroGlobalMap",
    "qs:type": "London Borough",
    "src:geom": "quattroshapes",
    "src:geom_alt": [],
    "src:lbl:centroid": "mapshaper",
    "src:population": "wikidata",
    "unlc:subdivision": "GB-HAV",
    "wof:belongsto": [
      102191581,
      85633159,
      404227469
    ],
    "wof:breaches": [],
    "wof:concordances": {
      "fips:code": "UK15",
      "gn:id": -2648110,
      "gp:id": 12695830,
      "hasc:id": "GB.HV",
      "unlc:id": "GB-HAV",
      "wd:id": "Q215038"
    },
    "wof:country": "GB",
    "wof:created": 1765390922,
    "wof:geomhash": "c1f49c07c634608c704b6402f62f4cef",
    "wof:hierarchy": [
      {
        "continent_id": 102191581,
        "country_id": 85633159,
        "macroregion_id": 404227469,
        "region_id": 85683841
      }
    ],
    "wof:id": 85683841,
    "wof:lastmodified": 1765390922,
    "wof:name": "Havering",
    "wof:parent_id": 404227469,
    "wof:placetype": "region",
    "wof:population": 264703,
    "wof:population_rank": 10,
    "wof:repo": "whosonfirst-data-admin-gb",
    "wof:shortcode": "HV",
    "wof:subdivision": "GB-HAV",
    "wof:superseded_by": [
      1158857313
    ],
    "wof:supersedes": [],
    "wof:tags": []
  },
  "bbox": [
    0.138225,
    51.484256,
    0.334068,
    51.631733
  ],
  "geometry": {"type":"Polygon","coordinates":[[[0.313079,51.565815],[0.315339,51.557831],[0.318479,51.556778],[0.318941,51.555187],[0.322097,51.554195],[0.32235,51.55278],[0.325201,51.553055],[0.32786,51.550991],[0.328023,51.548557],[0.329512,51.546562],[0.328944,51.545833],[0.331489,51.54594],[0.333946,51.542488],[0.333377,51.54126],[0.334068,51.5405],[0.331473,51.540043],[0.331634,51.540794],[0.322485,51.540516],[0.300766,51.538753],[0.300902,51.538131],[0.297249,51.537658],[0.297798,51.535316],[0.281805,51.533939],[0.276383,51.532924],[0.270749,51.533088],[0.26539,51.532146],[0.265429,51.524952],[0.266795,51.524509],[0.266681,51.522953],[0.265052,51.522896],[0.264078,51.52108],[0.263726,51.517868],[0.260345,51.518368],[0.258971,51.517761],[0.253877,51.517883],[0.250894,51.528816],[0.249008,51.528671],[0.248925,51.527405],[0.248333,51.527546],[0.246367,51.526527],[0.247133,51.525089],[0.24588,51.523514],[0.242898,51.524387],[0.241081,51.522602],[0.240767,51.521206],[0.244342,51.520469],[0.244948,51.518757],[0.243979,51.518333],[0.240238,51.519348],[0.237218,51.519333],[0.241184,51.51374],[0.240035,51.513241],[0.240322,51.510883],[0.241463,51.510391],[0.242061,51.507961],[0.240041,51.507705],[0.239885,51.507248],[0.233484,51.506668],[0.226674,51.506584],[0.226062,51.505874],[0.226656,51.504486],[0.230008,51.499363],[0.224339,51.49731],[0.22367,51.497829],[0.221695,51.497806],[0.217066,51.496578],[0.215001,51.496452],[0.213115,51.495018],[0.211974,51.491039],[0.210514,51.490036],[0.210376,51.485874],[0.197202,51.484256],[0.188444,51.484428],[0.183404,51.486225],[0.180618,51.488281],[0.178419,51.491836],[0.17579,51.499794],[0.173533,51.502834],[0.169966,51.505565],[0.16573,51.507347],[0.161195,51.508568],[0.158015,51.508762],[0.158779,51.512172],[0.163008,51.52388],[0.166053,51.528797],[0.170874,51.532676],[0.175147,51.538547],[0.179303,51.540336],[0.180523,51.544113],[0.182393,51.545654],[0.186064,51.547535],[0.187553,51.550201],[0.189688,51.551513],[0.190249,51.552677],[0.187602,51.554523],[0.18696,51.555782],[0.184811,51.556423],[0.184835,51.559852],[0.182688,51.56131],[0.185207,51.565521],[0.183358,51.564651],[0.173457,51.565098],[0.161922,51.561599],[0.151505,51.567989],[0.150428,51.567821],[0.148818,51.568619],[0.146829,51.568767],[0.146711,51.569416],[0.149821,51.569694],[0.149029,51.57323],[0.147985,51.573131],[0.14818,51.575622],[0.147052,51.575676],[0.147517,51.580791],[0.148452,51.580749],[0.150997,51.583755],[0.151266,51.589123],[0.150641,51.591285],[0.151096,51.595546],[0.149818,51.597076],[0.148129,51.596397],[0.147637,51.596805],[0.148205,51.599048],[0.149538,51.602878],[0.148613,51.604282],[0.148704,51.608658],[0.147449,51.612461],[0.145449,51.61465],[0.144466,51.616787],[0.138225,51.623543],[0.162844,51.622791],[0.168943,51.621418],[0.175346,51.623584],[0.180328,51.624447],[0.18128,51.625824],[0.182711,51.625728],[0.185884,51.624355],[0.186039,51.625519],[0.188413,51.625408],[0.189443,51.624489],[0.189857,51.625099],[0.194818,51.625709],[0.200354,51.624931],[0.203657,51.625171],[0.208505,51.626678],[0.212294,51.626976],[0.21759,51.629089],[0.22212,51.630123],[0.224131,51.631733],[0.236022,51.624843],[0.252839,51.617424],[0.257736,51.614177],[0.259094,51.612282],[0.264607,51.608318],[0.26437,51.60783],[0.258489,51.606548],[0.258044,51.604908],[0.253962,51.601917],[0.254861,51.601333],[0.257959,51.601272],[0.260919,51.600387],[0.269923,51.599571],[0.270383,51.597305],[0.269379,51.595272],[0.272143,51.587742],[0.273885,51.586857],[0.280494,51.580318],[0.285137,51.574123],[0.286797,51.573459],[0.28721,51.572548],[0.28673,51.571548],[0.290245,51.564495],[0.313079,51.565815]]]}
}
