{
  "id": 420782135,
  "type": "Feature",
  "properties": {
    "edtf:cessation": "",
    "edtf:inception": "",
    "geom:area": 0,
    "geom:area_square_m": 0,
    "geom:bbox": "-0.210599,51.647290,-0.210599,51.647290",
    "geom:latitude": 51.64729,
    "geom:longitude": -0.210599,
    "iso:country": "GB",
    "lbl:bbox": "-0.215599443535,51.6422899991,-0.205599443535,51.6522899991",
    "lbl:latitude": 51.64729,
    "lbl:longitude": -0.210599,
    "lbl:max_zoom": 18,
    "mz:hierarchy_label": 1,
    "mz:is_current": -1,
    "mz:is_funky": 0,
    "mz:is_hard_boundary": 0,
    "mz:is_landuse_aoi": 0,
    "mz:is_official": 0,
    "mz:max_zoom": 18,
    "mz:min_zoom": 14,
    "mz:tier_locality": 0,
    "name:azb_x_preferred": [
      "چیپینق بارنت"
    ],
    "name:bel_x_preferred": [
      "Барнет"
    ],
    "name:ceb_x_preferred": [
      "Barnet"
    ],
    "name:ces_x_preferred": [
      "Barnet"
    ],
    "name:cym_x_preferred": [
      "Barnet"
    ],
    "name:deu_x_preferred": [
      "Barnet"
    ],
    "name:ell_x_preferred": [
      "Μπαρνέτ"
    ],
    "name:eng_x_preferred": [
      "Barnet"
    ],
    "name:fas_x_preferred": [
      "بارنت"
    ],
    "name:fra_x_preferred": [
      "Barnet"
    ],
    "name:gle_x_preferred": [
      "Barnet"
    ],
    "name:heb_x_preferred": [
      "צ'יפינג ברנט"
    ],
    "name:hin_x_preferred": [
      "बार्नेट"
    ],
    "name:ita_x_preferred": [
      "Barnet"
    ],
    "name:jpn_x_preferred": [
      "バーネット"
    ],
    "name:msa_x_preferred": [
      "Barnet"
    ],
    "name:new_x_preferred": [
      "बार्नेट"
    ],
    "name:nld_x_preferred": [
      "Barnet"
    ],
    "name:nno_x_preferred": [
      "Barnet"
    ],
    "name:nob_x_preferred": [
      "Barnet"
    ],
    "name:pol_x_preferred": [
      "Barnet"
    ],
    "name:rus_x_preferred": [
      "Барнет"
    ],
    "name:slv_x_preferred": [
      "Barnet"
    ],
    "name:spa_x_preferred": [
      "Barnet"
    ],
    "name:swe_x_preferred": [
      "Barnet"
    ],
    "name:tgk_x_preferred": [
      "Борнет"
    ],
    "name:urd_x_preferred": [
      "بارنٹ"
    ],
    "name:vie_x_preferred": [
      "Barnet"
    ],
    "name:zho_x_preferred": [
      "奇平巴尼特"
    ],
    "src:geom": "unknown",
    "src:population": "wikidata",
    "wd:wordcount": 1855,
    "wof:belongsto": [
      1880762729,
      102191581,
      1880762179,
      85633159,
      404227469,
      101750367,
      136253055,
      1158857285,
      1880771825
    ],
    "wof:breaches": [],
    "wof:concordances": {
      "gp:id": 11900,
      "wd:id": "Q2884709"
    },
    "wof:country": "GB",
    "wof:created": 1458871830,
    "wof:geomhash": "563c290cd31cec38b0b79748d282950e",
    "wof:hierarchy": [
      {
        "borough_id": 1158857285,
        "continent_id": 102191581,
        "country_id": 85633159,
        "county_id": 1880771825,
        "empire_id": 136253055,
        "locality_id": 101750367,
        "macrocounty_id": 1880762179,
        "macroregion_id": 404227469,
        "neighbourhood_id": 420782135,
        "region_id": 1880762729
      }
    ],
    "wof:id": 420782135,
    "wof:lastmodified": 1765390906,
    "wof:name": "Chipping Barnet",
    "wof:parent_id": 1158857285,
    "wof:placetype": "neighbourhood",
    "wof:population": 47359,
    "wof:population_rank": 7,
    "wof:repo": "whosonfirst-data-admin-gb",
    "wof:superseded_by": [],
    "wof:supersedes": [],
    "wof:tags": []
  },
  "bbox": [
    -0.210599,
    51.64729,
    -0.210599,
    51.64729
  ],
  "geometry": {"type":"Point","coordinates":[-0.210599,51.64729]}
}
