{
  "id": 1360712121,
  "type": "Feature",
  "properties": {
    "edtf:cessation": "",
    "edtf:inception": "",
    "geom:area": 0,
    "geom:area_square_m": 0,
    "geom:bbox": "-4.033092,51.709964,-4.033092,51.709964",
    "geom:latitude": 51.709964,
    "geom:longitude": -4.033092,
    "gn:population": 8013,
    "iso:country": "GB",
    "lbl:bbox": "-4.038092,51.704964,-4.028092,51.714964",
    "lbl:latitude": 51.709965,
    "lbl:longitude": -4.033092,
    "lbl:max_zoom": 18,
    "mps:latitude": 51.709965,
    "mps:longitude": -4.033092,
    "mz:hierarchy_label": 1,
    "mz:is_current": -1,
    "mz:min_zoom": 15,
    "name:ast_x_preferred": [
      "Pontarddulais"
    ],
    "name:bre_x_preferred": [
      "Pontarddulais"
    ],
    "name:bul_x_preferred": [
      "Понтардулаис"
    ],
    "name:cat_x_preferred": [
      "Pontarddulais"
    ],
    "name:ceb_x_preferred": [
      "Pontarddulais"
    ],
    "name:cor_x_preferred": [
      "Pontarddulais"
    ],
    "name:cym_x_preferred": [
      "Pontarddulais"
    ],
    "name:eng_x_preferred": [
      "Pontardulais"
    ],
    "name:eng_x_variant": [
      "Pontarddulais"
    ],
    "name:eus_x_preferred": [
      "Pontarddulais"
    ],
    "name:fas_x_preferred": [
      "پونتاردولیس"
    ],
    "name:fra_x_preferred": [
      "Pontarddulais"
    ],
    "name:gla_x_preferred": [
      "Pontarddulais"
    ],
    "name:gle_x_preferred": [
      "Pontarddulais"
    ],
    "name:heb_x_preferred": [
      "פונטרדולאיס"
    ],
    "name:ita_x_preferred": [
      "Pontarddulais"
    ],
    "name:nan_x_preferred": [
      "Pontarddulais"
    ],
    "name:nld_x_preferred": [
      "Pontarddulais"
    ],
    "name:spa_x_preferred": [
      "Pontarddulais"
    ],
    "name:swe_x_preferred": [
      "Pontarddulais"
    ],
    "qs:a0": "United Kingdom",
    "qs:a1": "*Abertawe#Swansea",
    "qs:a1_lc": "GB13NX0000",
    "qs:a1r": "0Wales",
    "qs:a1r_lc": "GB13000000",
    "qs:adm0": "United Kingdom",
    "qs:id": 0,
    "qs:la_lc": "*",
    "qs:level": "locality",
    "qs:loc": "Pontarddulais",
    "qs:loc_alt": "Pontarddulais",
    "qs:pop": 0,
    "qs:source": "RCustom EuroGlobalMap + UMZ Urban Polygons + Geonames + GeoPlanet",
    "qs:type": "buffered point",
    "src:geom": "whosonfirst",
    "src:geom_alt": [
      "quattroshapes_pg",
      "quattroshapes"
    ],
    "src:geom_via": "quattroshapes",
    "src:lbl_centroid": "mapshaper",
    "src:population": "wikidata",
    "wd:wordcount": 1400,
    "wof:belongsto": [
      1880773177,
      102191581,
      1880762113,
      404436613,
      85633159,
      404227475,
      1360711607,
      136253055,
      1360699095
    ],
    "wof:breaches": [],
    "wof:concordances": {
      "fct:id": "0aa686c6-8f76-11e1-848f-cfd5bf3ef515",
      "gn:id": 2640134,
      "gp:id": 32278,
      "qs_pg:id": 221155,
      "wd:id": "Q3397684"
    },
    "wof:country": "GB",
    "wof:created": 1765389188,
    "wof:geomhash": "e52e92864a7461a8f3a18326c512be0d",
    "wof:hierarchy": [
      {
        "continent_id": 102191581,
        "country_id": 85633159,
        "county_id": 1360699095,
        "empire_id": 136253055,
        "localadmin_id": 404436613,
        "locality_id": 1360711607,
        "macrocounty_id": 1880762113,
        "macroregion_id": 404227475,
        "neighbourhood_id": 1360712121,
        "region_id": 1880773177
      }
    ],
    "wof:id": 1360712121,
    "wof:lang": [
      "eng"
    ],
    "wof:lastmodified": 1765389188,
    "wof:name": "Pontarddulais",
    "wof:parent_id": 1360711607,
    "wof:placetype": "neighbourhood",
    "wof:population": 9073,
    "wof:population_rank": 5,
    "wof:repo": "whosonfirst-data-admin-gb",
    "wof:superseded_by": [],
    "wof:supersedes": [
      101852819
    ],
    "wof:tags": []
  },
  "bbox": [
    -4.033092,
    51.709964,
    -4.033092,
    51.709964
  ],
  "geometry": {"type":"Point","coordinates":[-4.033092,51.709964]}
}
