{
  "id": 1360790727,
  "type": "Feature",
  "properties": {
    "edtf:cessation": "",
    "edtf:inception": "",
    "geom:area": 0,
    "geom:area_square_m": 0,
    "geom:bbox": "-3.473580,50.904340,-3.473580,50.904340",
    "geom:latitude": 50.90434,
    "geom:longitude": -3.47358,
    "iso:country": "GB",
    "lbl:bbox": "-3.47858,50.89934,-3.46858,50.90934",
    "lbl:latitude": 50.90434,
    "lbl:longitude": -3.473579,
    "lbl:max_zoom": 18,
    "mps:latitude": 50.90434,
    "mps:longitude": -3.473579,
    "mz:hierarchy_label": 1,
    "mz:is_current": 1,
    "mz:min_zoom": 15,
    "name:ast_x_preferred": [
      "Tiverton"
    ],
    "name:azb_x_preferred": [
      "تیورتون"
    ],
    "name:ben_x_preferred": [
      "টাইভেরটন"
    ],
    "name:bul_x_preferred": [
      "Тивъртън"
    ],
    "name:cat_x_preferred": [
      "Tiverton"
    ],
    "name:ceb_x_preferred": [
      "Tiverton"
    ],
    "name:cym_x_preferred": [
      "Tiverton"
    ],
    "name:deu_x_preferred": [
      "Tiverton"
    ],
    "name:eng_x_preferred": [
      "Tiverton"
    ],
    "name:fas_x_preferred": [
      "تیورتون، دوون"
    ],
    "name:fas_x_variant": [
      "تیورتون"
    ],
    "name:fra_x_preferred": [
      "Tiverton"
    ],
    "name:gle_x_preferred": [
      "Tiverton"
    ],
    "name:guj_x_preferred": [
      "ટિવરટન"
    ],
    "name:hun_x_preferred": [
      "Tiverton"
    ],
    "name:ita_x_preferred": [
      "Tiverton"
    ],
    "name:jpn_x_preferred": [
      "ティヴァートン"
    ],
    "name:kan_x_preferred": [
      "ಟಿವರ್ಟನ್"
    ],
    "name:kor_x_preferred": [
      "티버턴"
    ],
    "name:lat_x_preferred": [
      "Tivertonia"
    ],
    "name:lit_x_preferred": [
      "Tivertonas"
    ],
    "name:lld_x_preferred": [
      "Tiverton"
    ],
    "name:nan_x_preferred": [
      "Tiverton"
    ],
    "name:nld_x_preferred": [
      "Tiverton"
    ],
    "name:nno_x_preferred": [
      "Tiverton i Devon"
    ],
    "name:nob_x_preferred": [
      "Tiverton"
    ],
    "name:pol_x_preferred": [
      "Tiverton"
    ],
    "name:por_x_preferred": [
      "Tiverton"
    ],
    "name:ron_x_preferred": [
      "Tiverton"
    ],
    "name:rus_x_preferred": [
      "Тивертон"
    ],
    "name:slv_x_preferred": [
      "Tiverton"
    ],
    "name:spa_x_preferred": [
      "Tiverton"
    ],
    "name:swe_x_preferred": [
      "Tiverton"
    ],
    "name:tam_x_preferred": [
      "டிவேர்டன்"
    ],
    "name:tel_x_preferred": [
      "టివర్టన్"
    ],
    "name:tur_x_preferred": [
      "Tiverton"
    ],
    "name:und_x_variant": [
      "Tibberton"
    ],
    "name:urd_x_preferred": [
      "تیویرٹن"
    ],
    "name:vol_x_preferred": [
      "Tiverton"
    ],
    "name:zho_x_preferred": [
      "蒂弗頓"
    ],
    "qs:a0": "United Kingdom",
    "qs:a1": "*Devon",
    "qs:a1_lc": "GB12180000",
    "qs:a1r": "0England",
    "qs:a1r_lc": "GB12000000",
    "qs:adm0": "United Kingdom",
    "qs:la_lc": "*",
    "qs:level": "locality",
    "qs:loc": "Tiverton",
    "qs:loc_alt": "Tiverton",
    "qs:pop": 0,
    "qs:source": "RCustom EuroGlobalMap + UMZ Urban Polygons + Geonames + GeoPlanet",
    "qs:type": "buffered point",
    "src:geom": "whosonfirst",
    "src:geom_alt": [
      "quattroshapes_pg",
      "quattroshapes"
    ],
    "src:geom_via": "quattroshapes",
    "src:lbl_centroid": "mapshaper",
    "src:population": "wikidata",
    "wd:latitude": 50.903,
    "wd:longitude": -3.488,
    "wd:wordcount": 2763,
    "wof:belongsto": [
      1880762683,
      102191581,
      1880762149,
      404443259,
      85633159,
      404227469,
      1260212549,
      136253055,
      1880771403
    ],
    "wof:breaches": [],
    "wof:concordances": {
      "fct:id": "0aa289c2-8f76-11e1-848f-cfd5bf3ef515",
      "gn:id": 2635867,
      "gp:id": 37680,
      "qs_pg:id": 23809,
      "wd:id": "Q637298",
      "wk:page": "Tiverton, Devon"
    },
    "wof:concordances_alt": {
      "qs_pg:id": 1314313
    },
    "wof:country": "GB",
    "wof:created": 1765389424,
    "wof:geomhash": "46d796af59d7b17de991cdf41835f9d0",
    "wof:hierarchy": [
      {
        "continent_id": 102191581,
        "country_id": 85633159,
        "county_id": 1880771403,
        "empire_id": 136253055,
        "localadmin_id": 404443259,
        "locality_id": 1260212549,
        "macrocounty_id": 1880762149,
        "macroregion_id": 404227469,
        "neighbourhood_id": 1360790727,
        "region_id": 1880762683
      }
    ],
    "wof:id": 1360790727,
    "wof:lang": [
      "eng"
    ],
    "wof:lastmodified": 1765389424,
    "wof:name": "Tiverton",
    "wof:parent_id": 1260212549,
    "wof:placetype": "neighbourhood",
    "wof:population": 22291,
    "wof:population_rank": 7,
    "wof:repo": "whosonfirst-data-admin-gb",
    "wof:superseded_by": [],
    "wof:supersedes": [
      101852627
    ],
    "wof:tags": []
  },
  "bbox": [
    -3.47358,
    50.90434,
    -3.47358,
    50.90434
  ],
  "geometry": {"type":"Point","coordinates":[-3.47358,50.90434]}
}
