{
  "id": 85787841,
  "type": "Feature",
  "properties": {
    "edtf:cessation": "",
    "edtf:inception": "",
    "geom:area": 0.0011322900960000005,
    "geom:area_square_m": 8353143.437172,
    "geom:bbox": "-2.843336,53.350551,-2.788767,53.394662",
    "geom:latitude": 53.37192239639006,
    "geom:longitude": -2.815067208108089,
    "iso:country": "GB",
    "lbl:latitude": 53.367621,
    "lbl:longitude": -2.827364,
    "lbl:max_zoom": 18,
    "mps:latitude": 53.366319,
    "mps:longitude": -2.819614,
    "mz:hierarchy_label": 1,
    "mz:is_current": -1,
    "mz:is_funky": 0,
    "mz:is_hard_boundary": 0,
    "mz:is_landuse_aoi": 0,
    "mz:is_official": 0,
    "mz:max_zoom": 18,
    "mz:min_zoom": 15,
    "mz:tier_locality": 4,
    "name:bel_x_preferred": [
      "Хэйлвуд"
    ],
    "name:ben_x_preferred": [
      "হেলউড"
    ],
    "name:ceb_x_preferred": [
      "Halewood"
    ],
    "name:cym_x_preferred": [
      "Halewood"
    ],
    "name:deu_x_preferred": [
      "Halewood"
    ],
    "name:eng_x_preferred": [
      "Halewood"
    ],
    "name:est_x_preferred": [
      "Halewood"
    ],
    "name:fas_x_preferred": [
      "هیلوود"
    ],
    "name:fra_x_preferred": [
      "Halewood"
    ],
    "name:gle_x_preferred": [
      "Halewood"
    ],
    "name:guj_x_preferred": [
      "હેલવુડ"
    ],
    "name:heb_x_preferred": [
      "הלווד"
    ],
    "name:ita_x_preferred": [
      "Halewood"
    ],
    "name:jpn_x_preferred": [
      "ヘイルウッド"
    ],
    "name:kan_x_preferred": [
      "ಹ್ಯಾಲ್ವುಡ್"
    ],
    "name:kor_x_preferred": [
      "헤일우드"
    ],
    "name:lit_x_preferred": [
      "Haleivudas"
    ],
    "name:lld_x_preferred": [
      "Halewood"
    ],
    "name:nld_x_preferred": [
      "Halewood"
    ],
    "name:nno_x_preferred": [
      "Halewood"
    ],
    "name:pol_x_preferred": [
      "Halewood"
    ],
    "name:por_x_preferred": [
      "Halewood"
    ],
    "name:ron_x_preferred": [
      "Halewood"
    ],
    "name:rus_x_preferred": [
      "Хейлвуд"
    ],
    "name:spa_x_preferred": [
      "Halewood"
    ],
    "name:swe_x_preferred": [
      "Halewood"
    ],
    "name:tam_x_preferred": [
      "ஹாலிவுட்"
    ],
    "name:tel_x_preferred": [
      "హేల్ వుడ్"
    ],
    "name:tur_x_preferred": [
      "Halewood"
    ],
    "name:urd_x_preferred": [
      "ہالیوود"
    ],
    "name:vol_x_preferred": [
      "Halewood"
    ],
    "name:zho_x_preferred": [
      "海爾伍德"
    ],
    "qs:gn_fcode": "PPL",
    "qs:gn_local": 0,
    "qs:gn_namadm1": "ENG",
    "qs:gn_name": "Halewood",
    "qs:local_max": 5855,
    "qs:local_sum": 84556,
    "qs:localhoods": 70,
    "qs:name": "Halewood",
    "qs:name_adm0": "United Kingdom",
    "qs:name_adm1": "England",
    "qs:name_adm2": "Merseyside",
    "qs:name_lau": "Knowsley Metropolitan Borough",
    "qs:name_local": "Liverpool",
    "qs:photo_max": 66,
    "qs:photo_sum": 177,
    "qs:placetype": "Suburb",
    "qs:quad_count": 22,
    "qs:woe_adm0": 23424975,
    "qs:woe_adm1": 24554868,
    "qs:woe_adm2": 12602161,
    "qs:woe_lau": 12695849,
    "qs:woe_local": 26734,
    "qs:woe_ver": "7.10.0",
    "src:geom": "quattroshapes",
    "src:geom_alt": [
      "quattroshapes_pg"
    ],
    "src:lbl_centroid": "yerbashapes",
    "src:population": "wikidata",
    "wd:latitude": 53.3599,
    "wd:longitude": -2.84,
    "wd:wordcount": 416,
    "wof:belongsto": [
      1880773063,
      102191581,
      1880762035,
      404441051,
      85633159,
      404227469,
      1360756679,
      136253055,
      1360698941
    ],
    "wof:breaches": [],
    "wof:concordances": {
      "gn:id": 2647637,
      "gp:id": 22167,
      "qs_pg:id": 1329225,
      "wd:id": "Q2198178",
      "wk:page": "Halewood"
    },
    "wof:country": "GB",
    "wof:created": 1765391052,
    "wof:geom_alt": [
      "quattroshapes_pg"
    ],
    "wof:geomhash": "c32980b89cfce305718e288bba29854a",
    "wof:hierarchy": [
      {
        "continent_id": 102191581,
        "country_id": 85633159,
        "county_id": 1360698941,
        "empire_id": 136253055,
        "localadmin_id": 404441051,
        "locality_id": 1360756679,
        "macrocounty_id": 1880762035,
        "macroregion_id": 404227469,
        "neighbourhood_id": 85787841,
        "region_id": 1880773063
      }
    ],
    "wof:id": 85787841,
    "wof:lang": [
      "eng"
    ],
    "wof:lastmodified": 1765391052,
    "wof:name": "Halewood",
    "wof:parent_id": 1360756679,
    "wof:placetype": "neighbourhood",
    "wof:population": 20416,
    "wof:population_rank": 7,
    "wof:repo": "whosonfirst-data-admin-gb",
    "wof:superseded_by": [],
    "wof:supersedes": [],
    "wof:tags": []
  },
  "bbox": [
    -2.843336,
    53.350551,
    -2.788767,
    53.394662
  ],
  "geometry": {"type":"Polygon","coordinates":[[[-2.789528,53.38114],[-2.790452,53.379411],[-2.791696,53.377895],[-2.792117,53.37755],[-2.79443,53.375999],[-2.794425,53.376003],[-2.79494,53.375728],[-2.796668,53.375204],[-2.796723,53.375187],[-2.797189,53.374619],[-2.798705,53.373375],[-2.800433,53.372451],[-2.802309,53.371882],[-2.80426,53.37169],[-2.805826,53.371844],[-2.805837,53.371845],[-2.805439,53.370533],[-2.805247,53.368582],[-2.805439,53.366631],[-2.805838,53.365314],[-2.805827,53.365315],[-2.809753,53.362026],[-2.809753,53.35383],[-2.809753,53.350551],[-2.8125,53.350551],[-2.817062,53.350551],[-2.817062,53.350551],[-2.817993,53.350551],[-2.817993,53.352111],[-2.819019,53.35383],[-2.82074,53.355066],[-2.824744,53.352191],[-2.828001,53.352191],[-2.828979,53.35383],[-2.828979,53.35383],[-2.828979,53.357109],[-2.834473,53.357109],[-2.834473,53.357109],[-2.834473,53.360387],[-2.834473,53.360387],[-2.835451,53.362026],[-2.838988,53.362026],[-2.839966,53.363665],[-2.839966,53.363665],[-2.841922,53.366943],[-2.842976,53.367826],[-2.843336,53.369034],[-2.841921,53.370221],[-2.839966,53.373498],[-2.839966,53.373498],[-2.839966,53.373498],[-2.838011,53.376775],[-2.834473,53.376775],[-2.83235,53.375588],[-2.830934,53.376775],[-2.828979,53.376775],[-2.828979,53.376775],[-2.823486,53.376775],[-2.823486,53.376775],[-2.821531,53.376775],[-2.817622,53.380051],[-2.815034,53.380051],[-2.813898,53.379119],[-2.813874,53.379099],[-2.814068,53.379739],[-2.814169,53.380761],[-2.814174,53.380757],[-2.811091,53.38851],[-2.805686,53.390323],[-2.800511,53.394662],[-2.791255,53.391558],[-2.791293,53.391546],[-2.790452,53.390522],[-2.789528,53.388793],[-2.788959,53.386917],[-2.788767,53.384967],[-2.788959,53.383016],[-2.789528,53.38114]]]}
}
