{
  "id": 85790339,
  "type": "Feature",
  "properties": {
    "edtf:cessation": "",
    "edtf:inception": "",
    "geom:area": 0.0005707476314999842,
    "geom:area_square_m": 4400521.219997,
    "geom:bbox": "0.081657,51.414809,0.126343,51.434994",
    "geom:latitude": 51.425559631434936,
    "geom:longitude": 0.10266929120033451,
    "gn:latitude": 51.42619,
    "gn:longitude": 0.1036,
    "gn:population": 10400,
    "iso:country": "GB",
    "lbl:latitude": 51.425279,
    "lbl:longitude": 0.099236,
    "lbl:max_zoom": 18,
    "mps:latitude": 51.423382,
    "mps:longitude": 0.100859,
    "mz:hierarchy_label": 1,
    "mz:is_current": 1,
    "mz:is_funky": 0,
    "mz:is_hard_boundary": 0,
    "mz:is_landuse_aoi": 0,
    "mz:is_official": 0,
    "mz:max_zoom": 18,
    "mz:min_zoom": 14,
    "mz:tier_locality": 7,
    "mz:tier_metro": 1,
    "name:azb_x_preferred": [
      "سیدکاپ"
    ],
    "name:bul_x_preferred": [
      "Сидкъп"
    ],
    "name:ceb_x_preferred": [
      "Sidcup"
    ],
    "name:ces_x_preferred": [
      "Sidcup"
    ],
    "name:dan_x_preferred": [
      "Sidcup"
    ],
    "name:deu_x_preferred": [
      "Sidcup"
    ],
    "name:eng_x_preferred": [
      "Sidcup"
    ],
    "name:fas_x_preferred": [
      "سیدکاپ"
    ],
    "name:fin_x_preferred": [
      "Sidcup"
    ],
    "name:fra_x_preferred": [
      "Sidcup"
    ],
    "name:gle_x_preferred": [
      "Sidcup"
    ],
    "name:heb_x_preferred": [
      "סידקאפ"
    ],
    "name:hun_x_preferred": [
      "Sidcup"
    ],
    "name:hye_x_preferred": [
      "Սիդքափ"
    ],
    "name:ita_x_preferred": [
      "Sidcup"
    ],
    "name:jpn_x_preferred": [
      "シドカップ"
    ],
    "name:nld_x_preferred": [
      "Sidcup"
    ],
    "name:nob_x_preferred": [
      "Sidcup"
    ],
    "name:pol_x_preferred": [
      "Sidcup"
    ],
    "name:rus_x_preferred": [
      "Сидкап"
    ],
    "name:spa_x_preferred": [
      "Sidcup"
    ],
    "name:swe_x_preferred": [
      "Sidcup"
    ],
    "name:urd_x_preferred": [
      "سڈکپ، لندن"
    ],
    "name:urd_x_variant": [
      "سڈکپ"
    ],
    "name:zho_x_preferred": [
      "席德卡普"
    ],
    "name:zho_x_variant": [
      "錫德卡普"
    ],
    "qs:gn_adm0_cc": "GB",
    "qs:gn_fcode": "PPL",
    "qs:gn_local": 2643743,
    "qs:gn_namadm1": "ENG",
    "qs:gn_name": "Sidcup",
    "qs:local_max": 40697,
    "qs:local_sum": 1675717,
    "qs:localhoods": 643,
    "qs:name": "Sidcup",
    "qs:name_adm0": "United Kingdom",
    "qs:name_adm1": "England",
    "qs:name_adm2": "Greater London",
    "qs:name_lau": "London Borough of Bexley",
    "qs:name_local": "London",
    "qs:photo_max": 196,
    "qs:photo_sum": 1816,
    "qs:placetype": "Suburb",
    "qs:quad_count": 100,
    "qs:woe_adm0": 23424975,
    "qs:woe_adm1": 24554868,
    "qs:woe_adm2": 23416974,
    "qs:woe_funk": "Grouping neighborhood",
    "qs:woe_lau": 12695822,
    "qs:woe_local": 44418,
    "qs:woe_ver": "7.10.0",
    "src:geom": "quattroshapes",
    "src:geom_alt": [
      "quattroshapes_pg"
    ],
    "src:lbl_centroid": "mz",
    "src:population": "wikidata",
    "wd:latitude": 51.4263,
    "wd:longitude": 0.1024,
    "wd:wordcount": 1919,
    "wof:belongsto": [
      1880762729,
      102191581,
      1880762179,
      85633159,
      404227469,
      101750367,
      136253055,
      1158857255,
      1880771825
    ],
    "wof:breaches": [],
    "wof:concordances": {
      "gn:id": 2637861,
      "gp:id": 34799,
      "qs_pg:id": 21594,
      "wd:id": "Q146705",
      "wk:page": "Sidcup"
    },
    "wof:country": "GB",
    "wof:created": 1765391174,
    "wof:geom_alt": [
      "quattroshapes_pg"
    ],
    "wof:geomhash": "fc481c129c8a8a9785df8b9c634a4cad",
    "wof:hierarchy": [
      {
        "borough_id": 1158857255,
        "continent_id": 102191581,
        "country_id": 85633159,
        "county_id": 1880771825,
        "empire_id": 136253055,
        "locality_id": 101750367,
        "macrocounty_id": 1880762179,
        "macroregion_id": 404227469,
        "neighbourhood_id": 85790339,
        "region_id": 1880762729
      }
    ],
    "wof:id": 85790339,
    "wof:lang": [
      "eng"
    ],
    "wof:lastmodified": 1765391174,
    "wof:name": "Sidcup",
    "wof:parent_id": 1158857255,
    "wof:placetype": "neighbourhood",
    "wof:population": 15400,
    "wof:population_rank": 6,
    "wof:repo": "whosonfirst-data-admin-gb",
    "wof:superseded_by": [],
    "wof:supersedes": [],
    "wof:tags": []
  },
  "bbox": [
    0.081657,
    51.414809,
    0.126343,
    51.434994
  ],
  "geometry": {"type":"Polygon","coordinates":[[[0.118217,51.433464],[0.118932,51.433082],[0.120124,51.433464],[0.120578,51.43361],[0.120849,51.433464],[0.12085,51.433464],[0.121122,51.433319],[0.121803,51.430039],[0.125389,51.430039],[0.126343,51.430039],[0.126343,51.426614],[0.126343,51.424902],[0.123596,51.424902],[0.12085,51.424902],[0.12085,51.423189],[0.119896,51.423189],[0.119896,51.423189],[0.115356,51.423189],[0.115356,51.421293],[0.115356,51.419764],[0.114403,51.419764],[0.114403,51.419764],[0.109863,51.419764],[0.108795,51.418051],[0.106392,51.418051],[0.105324,51.416338],[0.10437,51.414809],[0.101624,51.416277],[0.099592,51.415191],[0.098877,51.416338],[0.09613,51.416338],[0.093384,51.416338],[0.09243,51.416338],[0.09243,51.416338],[0.087891,51.416338],[0.087891,51.416338],[0.087891,51.419764],[0.087891,51.419764],[0.086823,51.421476],[0.083465,51.421476],[0.082397,51.423189],[0.082397,51.423189],[0.082397,51.426614],[0.082397,51.426614],[0.081739,51.42767],[0.081657,51.428327],[0.081739,51.428984],[0.082397,51.430039],[0.082397,51.430039],[0.087891,51.430039],[0.087891,51.431935],[0.087891,51.433464],[0.088844,51.433464],[0.088901,51.433555],[0.089808,51.433846],[0.090523,51.433464],[0.093384,51.433464],[0.093384,51.431935],[0.093555,51.431843],[0.094562,51.432382],[0.094688,51.432353],[0.097866,51.433373],[0.098877,51.431752],[0.099411,51.430896],[0.10109,51.430896],[0.101624,51.431752],[0.10437,51.431752],[0.10437,51.433464],[0.109863,51.433464],[0.114403,51.433464],[0.115356,51.434994],[0.118217,51.433464]]]}
}
