{
  "id": 85684441,
  "type": "Feature",
  "properties": {
    "edtf:cessation": "",
    "edtf:deprecated": "2017-12-20",
    "edtf:inception": "",
    "geom:area": 0.007320543359999887,
    "geom:area_square_m": 56243950.381703,
    "geom:bbox": "0.008844,51.543586,0.149538,51.628906",
    "geom:latitude": 51.58564250117954,
    "geom:longitude": 0.0759547368120131,
    "iso:country": "GB",
    "lbl:latitude": 51.57652,
    "lbl:longitude": 0.08434,
    "mps:latitude": 51.57652,
    "mps:longitude": 0.08434,
    "mz:hierarchy_label": 1,
    "mz:is_current": 0,
    "mz:is_funky": 1,
    "mz:max_zoom": 11,
    "mz:min_zoom": 11,
    "name:bel_x_preferred": [
      "Рэдбрыдж"
    ],
    "name:ben_x_preferred": [
      "রেডব্রিজ"
    ],
    "name:bul_x_preferred": [
      "Редбридге"
    ],
    "name:cat_x_preferred": [
      "Redbridge"
    ],
    "name:ces_x_preferred": [
      "Redbridge"
    ],
    "name:cym_x_preferred": [
      "Redbridge"
    ],
    "name:dan_x_preferred": [
      "Redbridge"
    ],
    "name:deu_x_preferred": [
      "Redbridge"
    ],
    "name:deu_x_variant": [
      "London Borough of Redbridge"
    ],
    "name:eng_x_preferred": [
      "Redbridge"
    ],
    "name:eus_x_preferred": [
      "Redbridge"
    ],
    "name:fas_x_preferred": [
      "منطقه ردبریج لندن"
    ],
    "name:fin_x_preferred": [
      "Redbridge"
    ],
    "name:fra_x_preferred": [
      "district londonien de Redbridge"
    ],
    "name:gle_x_preferred": [
      "London Borough of Redbridge"
    ],
    "name:guj_x_preferred": [
      "લંડન બોરો ઓફ રેડબ્રિજ"
    ],
    "name:heb_x_preferred": [
      "רדברידג'"
    ],
    "name:hin_x_preferred": [
      "रेडब्रिज बरो"
    ],
    "name:hun_x_preferred": [
      "Redbridge kerület"
    ],
    "name:isl_x_preferred": [
      "Redbridge"
    ],
    "name:ita_x_preferred": [
      "Redbridge"
    ],
    "name:jpn_x_preferred": [
      "レッドブリッジ・ロンドン特別区"
    ],
    "name:kan_x_preferred": [
      "ಲಂಡನ್ ಬರೋ ಆಫ್ ರೆಡ್ಬ್ರಿಡ್ಜ್"
    ],
    "name:kor_x_preferred": [
      "레드브리지 구"
    ],
    "name:lat_x_preferred": [
      "Redbridge"
    ],
    "name:nld_x_preferred": [
      "Redbridge"
    ],
    "name:nno_x_preferred": [
      "London Borough of Redbridge"
    ],
    "name:nob_x_preferred": [
      "Redbridge"
    ],
    "name:pnb_x_preferred": [
      "ریڈبرج"
    ],
    "name:pol_x_preferred": [
      "Redbridge"
    ],
    "name:por_x_preferred": [
      "Redbridge"
    ],
    "name:ron_x_preferred": [
      "Redbridge"
    ],
    "name:rus_x_preferred": [
      "Редбридж"
    ],
    "name:spa_x_preferred": [
      "Municipio de Redbridge"
    ],
    "name:srp_x_preferred": [
      "Редбриџ"
    ],
    "name:swe_x_preferred": [
      "London Borough of Redbridge"
    ],
    "name:tam_x_preferred": [
      "லண்டன்  பாரூக்ஹ்   ரெட்ப்பிரிட்ஜ்"
    ],
    "name:tel_x_preferred": [
      "లండన్ బోరో అఫ్ రెడ్ బ్రిడ్జ్"
    ],
    "name:ukr_x_preferred": [
      "Редбридж"
    ],
    "name:urd_x_preferred": [
      "ریڈبرج بورو"
    ],
    "name:vie_x_preferred": [
      "Khu Redbridge của Luân Đôn"
    ],
    "name:yid_x_preferred": [
      "לאנדאנער בארא פון רעדברידזש"
    ],
    "name:zho_x_preferred": [
      "雷德布里奇"
    ],
    "name:zho_x_variant": [
      "雷德布里奇區"
    ],
    "ne:abbrev": "Redbr'ge",
    "ne:adm0_a3": "GBR",
    "ne:adm0_label": "7",
    "ne:adm0_sr": "1",
    "ne:adm1_cod_1": "GBR-2074",
    "ne:adm1_code": "GBR-2074",
    "ne:admin": "United Kingdom",
    "ne:area_sqkm": "0.00000000000",
    "ne:check_me": "20",
    "ne:code_hasc": "GB.RB",
    "ne:code_local": "",
    "ne:datarank": "5",
    "ne:diss_me": "2074",
    "ne:featurecla": "Admin-1 scale rank",
    "ne:fips": "UK17",
    "ne:fips_alt": "UKK8",
    "ne:gadm_level": "2",
    "ne:geonunit": "England",
    "ne:gn_a1_code": "GB.",
    "ne:gn_id": "-2648110",
    "ne:gn_level": "-2",
    "ne:gn_name": "Greater London",
    "ne:gn_region": "",
    "ne:gns_adm1": "",
    "ne:gns_id": "6077627",
    "ne:gns_lang": "ind",
    "ne:gns_level": "1",
    "ne:gns_name": "Redbridge, London Borough of",
    "ne:gns_region": "UK35",
    "ne:gu_a3": "ENG",
    "ne:hasc_maybe": "",
    "ne:iso_3166_2": "GB-",
    "ne:iso_a2": "GB",
    "ne:labelrank": "9",
    "ne:latitude": "51.57320000000",
    "ne:longitude": "0.08523290000",
    "ne:mapcolor13": 3,
    "ne:mapcolor9": 6,
    "ne:name": "Redbridge",
    "ne:name_alt": "",
    "ne:name_len": 9,
    "ne:name_local": "",
    "ne:note": "",
    "ne:postal": "RB",
    "ne:provnum_ne": "20085",
    "ne:region": "Greater London",
    "ne:region_cod": "",
    "ne:region_sub": "Greater London",
    "ne:sameascity": "-99",
    "ne:scalerank": "8",
    "ne:sov_a3": "GB1",
    "ne:sub_code": "",
    "ne:type": "London Borough",
    "ne:type_en": "London Borough",
    "ne:wikipedia": "",
    "ne:woe_id": 12695835,
    "ne:woe_label": "",
    "ne:woe_name": "London Borough of Redbridge",
    "qs:a0": "United Kingdom",
    "qs:a0_lc": "GB00000000",
    "qs:a1": "Redbridge",
    "qs:a1_alt": "Redbridge",
    "qs:a1_lc": "GB12BC0000",
    "qs:a1r": "England",
    "qs:a1r_alt": "England",
    "qs:a1r_lc": "GB12000000",
    "qs:adm0": "United Kingdom",
    "qs:adm0_a3": "GBR",
    "qs:level": "adm1",
    "qs:source": "EuroGlobalMap",
    "qs:type": "London Borough",
    "src:geom": "quattroshapes",
    "src:geom_alt": [],
    "src:lbl:centroid": "mapshaper",
    "src:population": "wikidata",
    "unlc:subdivision": "GB-RDB",
    "wd:wordcount": 68,
    "wof:belongsto": [
      102191581,
      85633159,
      404227469
    ],
    "wof:breaches": [],
    "wof:concordances": {
      "fips:code": "UK17",
      "gn:id": -2648110,
      "gp:id": 12695835,
      "hasc:id": "GB.RB",
      "unlc:id": "GB-RDB",
      "wd:id": "Q208955"
    },
    "wof:country": "GB",
    "wof:created": 1765390946,
    "wof:geomhash": "c9cb20311f1bc5a9d8941a097b28fb87",
    "wof:hierarchy": [
      {
        "continent_id": 102191581,
        "country_id": 85633159,
        "macroregion_id": 404227469,
        "region_id": 85684441
      }
    ],
    "wof:id": 85684441,
    "wof:lastmodified": 1765390946,
    "wof:name": "Redbridge",
    "wof:parent_id": 404227469,
    "wof:placetype": "region",
    "wof:population": 310911,
    "wof:population_rank": 10,
    "wof:repo": "whosonfirst-data-admin-gb",
    "wof:shortcode": "RB",
    "wof:subdivision": "GB-RDB",
    "wof:superseded_by": [
      1158857291
    ],
    "wof:supersedes": [],
    "wof:tags": []
  },
  "bbox": [
    0.008844,
    51.543586,
    0.149538,
    51.628906
  ],
  "geometry": {"type":"Polygon","coordinates":[[[0.021859,51.62883],[0.026874,51.625908],[0.029123,51.62511],[0.030564,51.623291],[0.032822,51.622242],[0.040837,51.615738],[0.043746,51.616939],[0.053752,51.618278],[0.054432,51.617599],[0.054252,51.616718],[0.053471,51.61634],[0.052041,51.616806],[0.050217,51.61639],[0.048524,51.614979],[0.048135,51.613323],[0.048962,51.613571],[0.052672,51.612015],[0.06304,51.60691],[0.064051,51.607223],[0.066008,51.606319],[0.072873,51.604686],[0.07795,51.606727],[0.080078,51.606983],[0.084515,51.606357],[0.087186,51.604465],[0.092622,51.606193],[0.091915,51.608211],[0.092692,51.609474],[0.094876,51.610775],[0.092326,51.613571],[0.098109,51.615421],[0.100209,51.612724],[0.103456,51.613453],[0.103879,51.612549],[0.109673,51.61396],[0.116751,51.61692],[0.118648,51.615364],[0.119348,51.615368],[0.124333,51.617561],[0.12614,51.61964],[0.128921,51.620697],[0.129229,51.621441],[0.135852,51.623546],[0.138225,51.623543],[0.144466,51.616787],[0.145449,51.61465],[0.147449,51.612461],[0.148704,51.608658],[0.148613,51.604282],[0.149538,51.602878],[0.148205,51.599048],[0.146626,51.599449],[0.137479,51.593841],[0.129599,51.590057],[0.131082,51.587505],[0.126468,51.586704],[0.128105,51.583259],[0.127706,51.581634],[0.132633,51.581314],[0.133587,51.579963],[0.130909,51.579391],[0.131724,51.57708],[0.129303,51.576294],[0.129512,51.573875],[0.130009,51.573055],[0.130978,51.57344],[0.131627,51.571834],[0.129919,51.571598],[0.130526,51.57032],[0.129431,51.566532],[0.127735,51.566112],[0.125012,51.564228],[0.119101,51.563064],[0.118941,51.562729],[0.119819,51.562492],[0.117548,51.559162],[0.120556,51.55854],[0.119006,51.557346],[0.117201,51.557388],[0.11722,51.556892],[0.113397,51.557316],[0.112792,51.556518],[0.114809,51.555301],[0.112427,51.553509],[0.112422,51.552997],[0.111128,51.552467],[0.108489,51.552681],[0.108337,51.552055],[0.104638,51.549934],[0.093534,51.545791],[0.09241,51.548454],[0.092607,51.549606],[0.091544,51.548259],[0.086094,51.547371],[0.078006,51.544082],[0.076931,51.544613],[0.071864,51.543586],[0.068394,51.544414],[0.068783,51.547535],[0.067863,51.553058],[0.067013,51.553024],[0.066655,51.554725],[0.063656,51.557304],[0.060045,51.556514],[0.05719,51.558105],[0.056978,51.558696],[0.054531,51.559646],[0.054164,51.560856],[0.051433,51.56232],[0.050385,51.563987],[0.041995,51.561451],[0.042917,51.558372],[0.044127,51.557773],[0.046367,51.554813],[0.035412,51.555252],[0.032363,51.554588],[0.025408,51.554062],[0.025342,51.555546],[0.023829,51.555526],[0.023358,51.556823],[0.022641,51.556698],[0.022542,51.556164],[0.020407,51.556267],[0.017197,51.558796],[0.01482,51.559437],[0.014497,51.565601],[0.017816,51.565681],[0.019023,51.566505],[0.017733,51.569999],[0.019157,51.569916],[0.018965,51.57225],[0.018081,51.572017],[0.016525,51.572891],[0.017449,51.574409],[0.017479,51.577453],[0.015299,51.581707],[0.015568,51.583381],[0.013435,51.583786],[0.012039,51.592319],[0.012955,51.599239],[0.019517,51.607643],[0.019309,51.608223],[0.021258,51.610752],[0.021299,51.612274],[0.016319,51.616852],[0.008844,51.619079],[0.014566,51.618904],[0.014381,51.620304],[0.018594,51.622867],[0.021058,51.628906],[0.021859,51.62883]]]}
}
