{
  "id": 1310135033,
  "type": "Feature",
  "properties": {
    "edtf:cessation": "",
    "edtf:deprecated": "2019-01-11",
    "edtf:inception": "",
    "geom:area": 0,
    "geom:area_square_m": 0,
    "geom:bbox": "-2.083330,53.233330,-2.083330,53.233330",
    "geom:latitude": 53.23333,
    "geom:longitude": -2.08333,
    "gn:admin1_code": "ENG",
    "gn:admin2_code": "Z7",
    "gn:admin3_code": "00EQ124",
    "gn:asciiname": "Langley",
    "gn:country_code": "GB",
    "gn:dem": 242,
    "gn:feature_class": "P",
    "gn:feature_code": "PPL",
    "gn:geonameid": 2644921,
    "gn:latitude": 53.23333,
    "gn:longitude": -2.08333,
    "gn:modification_date": "2018-07-04",
    "gn:name": "Langley",
    "gn:population": 0,
    "gn:timezone": "Europe/London",
    "iso:country": "GB",
    "mz:hierarchy_label": 1,
    "mz:is_current": 0,
    "src:geom": "geonames",
    "src:population": "wikidata",
    "wof:belongsto": [
      1360698537,
      102191581,
      404455207,
      85633159,
      404227469,
      1360698929
    ],
    "wof:breaches": [],
    "wof:concordances": {
      "gn:id": 2644921
    },
    "wof:country": "GB",
    "wof:created": 1765388775,
    "wof:geomhash": "c6e05e9b83070979c7d7b5e72aa31b10",
    "wof:hierarchy": [
      {
        "continent_id": 102191581,
        "country_id": 85633159,
        "county_id": 1360698929,
        "localadmin_id": 404455207,
        "locality_id": 1310135033,
        "macroregion_id": 404227469,
        "region_id": 1360698537
      }
    ],
    "wof:id": 1310135033,
    "wof:lastmodified": 1765388775,
    "wof:name": "Langley",
    "wof:parent_id": 404455207,
    "wof:placetype": "locality",
    "wof:population": 554,
    "wof:population_rank": 2,
    "wof:repo": "whosonfirst-data-admin-gb",
    "wof:superseded_by": [
      1360808483
    ],
    "wof:supersedes": [],
    "wof:tags": []
  },
  "bbox": [
    -2.08333,
    53.23333,
    -2.08333,
    53.23333
  ],
  "geometry": {"type":"Point","coordinates":[-2.08333,53.23333]}
}
