{
  "id": 101877117,
  "type": "Feature",
  "properties": {
    "edtf:cessation": "",
    "edtf:inception": "",
    "geom:area": 0.0007569446760000042,
    "geom:area_square_m": 5252707.080124,
    "geom:bbox": "-4.027190,55.843269,-3.991043,55.877494",
    "geom:latitude": 55.862694405125026,
    "geom:longitude": -4.011603625009429,
    "gn:population": 35440,
    "iso:country": "GB",
    "lbl:latitude": 55.864026,
    "lbl:longitude": -4.011948,
    "lbl:max_zoom": 14,
    "lbl:min_zoom": 10,
    "mps:latitude": 55.864026,
    "mps:longitude": -4.011948,
    "mz:hierarchy_label": 1,
    "mz:is_current": 1,
    "mz:min_zoom": 9,
    "name:ara_x_preferred": [
      "أردري"
    ],
    "name:arz_x_preferred": [
      "اردرى"
    ],
    "name:ast_x_preferred": [
      "Airdrie"
    ],
    "name:azb_x_preferred": [
      "اردری"
    ],
    "name:aze_x_preferred": [
      "Erdri"
    ],
    "name:ben_x_preferred": [
      "এয়ারড্রি"
    ],
    "name:cat_x_preferred": [
      "Airdrie"
    ],
    "name:ceb_x_preferred": [
      "Airdrie"
    ],
    "name:ces_x_preferred": [
      "Airdrie"
    ],
    "name:cym_x_preferred": [
      "Airdrie"
    ],
    "name:dan_x_preferred": [
      "Airdrie"
    ],
    "name:deu_x_preferred": [
      "Airdrie"
    ],
    "name:eng_x_preferred": [
      "Airdrie"
    ],
    "name:est_x_preferred": [
      "Airdrie"
    ],
    "name:eus_x_preferred": [
      "Airdrie"
    ],
    "name:fas_x_preferred": [
      "اردری"
    ],
    "name:fra_x_preferred": [
      "Airdrie"
    ],
    "name:gla_x_preferred": [
      "An Àrd Ruigh"
    ],
    "name:gla_x_variant": [
      "Àrd Ruigh"
    ],
    "name:gle_x_preferred": [
      "An t-Árd Ruigh"
    ],
    "name:gle_x_variant": [
      "An t-Àrd-Ruigh"
    ],
    "name:guj_x_preferred": [
      "એરડ્રી"
    ],
    "name:heb_x_preferred": [
      "איידריי"
    ],
    "name:hye_x_preferred": [
      "Էյրդրի"
    ],
    "name:ita_x_preferred": [
      "Airdrie"
    ],
    "name:jpn_x_preferred": [
      "エアドリ"
    ],
    "name:kan_x_preferred": [
      "ಏರ್ಡ್ರೈ"
    ],
    "name:kor_x_preferred": [
      "에어드리"
    ],
    "name:lit_x_preferred": [
      "Erdris"
    ],
    "name:nld_x_preferred": [
      "Airdrie"
    ],
    "name:nno_x_preferred": [
      "Airdrie i North Lanarkshire"
    ],
    "name:nno_x_variant": [
      "Airdrie"
    ],
    "name:nob_x_preferred": [
      "Airdrie"
    ],
    "name:nor_x_preferred": [
      "Airdrie"
    ],
    "name:pol_x_preferred": [
      "Airdrie"
    ],
    "name:por_x_preferred": [
      "Airdrie"
    ],
    "name:rus_x_preferred": [
      "Эйрдри"
    ],
    "name:rus_x_variant": [
      "Эрдри"
    ],
    "name:sco_x_preferred": [
      "Airdrie"
    ],
    "name:spa_x_preferred": [
      "Airdrie"
    ],
    "name:swe_x_preferred": [
      "Airdrie"
    ],
    "name:tam_x_preferred": [
      "ஏர்டரில்"
    ],
    "name:tel_x_preferred": [
      "ఎయిర్ డ్రై"
    ],
    "name:ukr_x_preferred": [
      "Ейрдрі"
    ],
    "name:urd_x_preferred": [
      "ایردریی"
    ],
    "name:zho_x_preferred": [
      "埃爾德里"
    ],
    "qs:a0": "United Kingdom",
    "qs:a1": "*North Lanarkshire",
    "qs:a1_lc": "GB11QZ0000",
    "qs:a1r": "0Scotland",
    "qs:a1r_lc": "GB11000000",
    "qs:adm0": "United Kingdom",
    "qs:id": 0,
    "qs:la_lc": "*",
    "qs:level": "locality",
    "qs:loc": "Airdrie",
    "qs:loc_alt": "Airdrie",
    "qs:pop": 0,
    "qs:source": "RCustom EuroGlobalMap + UMZ Urban Polygons + Geonames + GeoPlanet",
    "qs:type": "buffered point disambiguated",
    "src:geom": "quattroshapes",
    "src:geom_alt": [
      "quattroshapes_pg"
    ],
    "src:lbl_centroid": "mapshaper",
    "src:population": "wikidata",
    "wd:latitude": 55.86,
    "wd:longitude": -3.98,
    "wd:wordcount": 5652,
    "wof:belongsto": [
      1880773061,
      102191581,
      85633159,
      1880762099,
      404227471,
      136253055,
      1360698949
    ],
    "wof:breaches": [],
    "wof:concordances": {
      "gn:id": 2657613,
      "gp:id": 10487,
      "qs_pg:id": 767967,
      "wd:id": "Q408536",
      "wk:page": "Airdrie, North Lanarkshire"
    },
    "wof:country": "GB",
    "wof:created": 1765385122,
    "wof:geom_alt": [
      "quattroshapes_pg"
    ],
    "wof:geomhash": "157031730c84986d4f41a1b6be390f83",
    "wof:hierarchy": [
      {
        "continent_id": 102191581,
        "country_id": 85633159,
        "county_id": 1360698949,
        "empire_id": 136253055,
        "locality_id": 101877117,
        "macrocounty_id": 1880762099,
        "macroregion_id": 404227471,
        "region_id": 1880773061
      }
    ],
    "wof:id": 101877117,
    "wof:lastmodified": 1765385122,
    "wof:name": "Airdrie",
    "wof:parent_id": 1360698949,
    "wof:placetype": "locality",
    "wof:population": 37410,
    "wof:population_rank": 7,
    "wof:repo": "whosonfirst-data-admin-gb",
    "wof:superseded_by": [],
    "wof:supersedes": [],
    "wof:tags": []
  },
  "bbox": [
    -4.02719,
    55.843269,
    -3.991043,
    55.877494
  ],
  "geometry": {"type":"Polygon","coordinates":[[[-3.991043,55.865493],[-4.018899,55.843269],[-4.0192,55.843475],[-4.019497,55.843686],[-4.01979,55.843904],[-4.020078,55.844127],[-4.020362,55.844356],[-4.020641,55.84459],[-4.020916,55.844829],[-4.021186,55.845074],[-4.021452,55.845324],[-4.021712,55.84558],[-4.021968,55.84584],[-4.022218,55.846105],[-4.022463,55.846375],[-4.022702,55.84665],[-4.022937,55.846929],[-4.023166,55.847213],[-4.023389,55.847502],[-4.023606,55.847794],[-4.023818,55.848091],[-4.024024,55.848392],[-4.024224,55.848697],[-4.024418,55.849005],[-4.024606,55.849318],[-4.024788,55.849634],[-4.024964,55.849953],[-4.025133,55.850276],[-4.025296,55.850602],[-4.025453,55.850932],[-4.025603,55.851264],[-4.025747,55.851599],[-4.025884,55.851937],[-4.026015,55.852277],[-4.026139,55.85262],[-4.026256,55.852966],[-4.026366,55.853313],[-4.02647,55.853663],[-4.026567,55.854014],[-4.026657,55.854368],[-4.02674,55.854723],[-4.026816,55.855079],[-4.026885,55.855437],[-4.026947,55.855797],[-4.027002,55.856157],[-4.02705,55.856518],[-4.027091,55.856881],[-4.027125,55.857244],[-4.027152,55.857607],[-4.027172,55.857972],[-4.027184,55.858336],[-4.02719,55.858701],[-4.027188,55.859065],[-4.027179,55.85943],[-4.027164,55.859794],[-4.027141,55.860158],[-4.027111,55.860521],[-4.027074,55.860884],[-4.027029,55.861246],[-4.026978,55.861607],[-4.02692,55.861967],[-4.026855,55.862326],[-4.026782,55.862683],[-4.026703,55.863039],[-4.026617,55.863393],[-4.026524,55.863746],[-4.026424,55.864097],[-4.026317,55.864445],[-4.026204,55.864792],[-4.026084,55.865136],[-4.025957,55.865478],[-4.025823,55.865817],[-4.025683,55.866154],[-4.025536,55.866488],[-4.025383,55.866819],[-4.025224,55.867146],[-4.025058,55.867471],[-4.024885,55.867792],[-4.024707,55.86811],[-4.024522,55.868425],[-4.024331,55.868736],[-4.024135,55.869042],[-4.023932,55.869346],[-4.023723,55.869645],[-4.023509,55.86994],[-4.023289,55.87023],[-4.023063,55.870517],[-4.022832,55.870798],[-4.022595,55.871076],[-4.022353,55.871348],[-4.022105,55.871616],[-4.021853,55.871879],[-4.021595,55.872137],[-4.021332,55.87239],[-4.021065,55.872638],[-4.020793,55.872881],[-4.020516,55.873118],[-4.020234,55.873349],[-4.019948,55.873576],[-4.019658,55.873796],[-4.019363,55.874011],[-4.019064,55.87422],[-4.018762,55.874423],[-4.018455,55.87462],[-4.018144,55.874812],[-4.01783,55.874997],[-4.017513,55.875176],[-4.017191,55.875349],[-4.016867,55.875515],[-4.016539,55.875675],[-4.016209,55.875829],[-4.015875,55.875976],[-4.015539,55.876117],[-4.0152,55.876251],[-4.014858,55.876378],[-4.014516,55.876498],[-4.014171,55.876611],[-4.013825,55.876718],[-4.013476,55.876818],[-4.013126,55.876911],[-4.012774,55.876998],[-4.01242,55.877077],[-4.012065,55.87715],[-4.011708,55.877216],[-4.01135,55.877275],[-4.010991,55.877326],[-4.010632,55.877371],[-4.010271,55.877409],[-4.00991,55.87744],[-4.009548,55.877464],[-4.009186,55.877481],[-4.008823,55.877491],[-4.008461,55.877494],[-4.008098,55.877489],[-4.007736,55.877478],[-4.007373,55.87746],[-4.007012,55.877434],[-4.006651,55.877402],[-4.00629,55.877363],[-4.00593,55.877317],[-4.005572,55.877263],[-4.005214,55.877203],[-4.004858,55.877136],[-4.004503,55.877062],[-4.004149,55.876981],[-4.003798,55.876893],[-4.003448,55.876799],[-4.003099,55.876697],[-4.002753,55.876589],[-4.002409,55.876474],[-4.002068,55.876353],[-4.001728,55.876225],[-4.001392,55.87609],[-4.001058,55.875949],[-4.000726,55.875802],[-4.000398,55.875648],[-4.000073,55.875488],[-3.999751,55.875321],[-3.999432,55.875148],[-3.999116,55.874969],[-3.998805,55.874784],[-3.998496,55.874593],[-3.998192,55.874397],[-3.997891,55.874194],[-3.997595,55.873985],[-3.997302,55.873771],[-3.997014,55.873551],[-3.99673,55.873325],[-3.99645,55.873094],[-3.996175,55.872858],[-3.995905,55.872616],[-3.99564,55.872369],[-3.995379,55.872117],[-3.995123,55.871861],[-3.994872,55.871599],[-3.994626,55.871332],[-3.994386,55.871061],[-3.994151,55.870785],[-3.993921,55.870504],[-3.993697,55.870219],[-3.993478,55.86993],[-3.993265,55.869636],[-3.993058,55.869339],[-3.992856,55.869037],[-3.992661,55.868732],[-3.992471,55.868423],[-3.992287,55.86811],[-3.99211,55.867794],[-3.991938,55.867475],[-3.991773,55.867152],[-3.991614,55.866826],[-3.991462,55.866497],[-3.991316,55.866165],[-3.991176,55.86583],[-3.991043,55.865493]]]}
}
