{
  "id": 1360807709,
  "type": "Feature",
  "properties": {
    "edtf:cessation": "",
    "edtf:inception": "",
    "geom:area": 0,
    "geom:area_square_m": 0,
    "geom:bbox": "0.000000,52.966670,0.000000,52.966670",
    "geom:latitude": 52.96666999999999,
    "geom:longitude": 0,
    "gn:admin1_code": "ENG",
    "gn:admin2_code": "H7",
    "gn:admin3_code": "32UB",
    "gn:admin4_code": "32UB006",
    "gn:asciiname": "Skirbeck",
    "gn:country_code": "GB",
    "gn:dem": 6,
    "gn:feature_class": "P",
    "gn:feature_code": "PPL",
    "gn:geonameid": 2637700,
    "gn:latitude": 52.96667,
    "gn:longitude": 0,
    "gn:modification_date": "2018-07-03",
    "gn:name": "Skirbeck",
    "gn:population": 0,
    "gn:timezone": "Europe/London",
    "iso:country": "GB",
    "lbl:bbox": "-0.005,52.96167,0.005,52.97167",
    "lbl:max_zoom": 18,
    "mz:hierarchy_label": 1,
    "mz:is_current": 1,
    "mz:min_zoom": 15,
    "name:cym_x_preferred": [
      "Skirbeck"
    ],
    "name:pol_x_preferred": [
      "Skirbeck"
    ],
    "src:geom": "geonames",
    "src:population": "wikidata",
    "wof:belongsto": [
      1880762701,
      102191581,
      1880762033,
      404436827,
      85633159,
      404227469,
      1226569607,
      136253055,
      1880771577
    ],
    "wof:breaches": [],
    "wof:concordances": {
      "gn:id": 2637700,
      "wk:page": "Skirbeck"
    },
    "wof:country": "GB",
    "wof:created": 1765390531,
    "wof:geomhash": "7c2e43fc354533c737c2f115095c7a54",
    "wof:hierarchy": [
      {
        "continent_id": 102191581,
        "country_id": 85633159,
        "county_id": 1880771577,
        "empire_id": 136253055,
        "localadmin_id": 404436827,
        "locality_id": 1226569607,
        "macrocounty_id": 1880762033,
        "macroregion_id": 404227469,
        "neighbourhood_id": 1360807709,
        "region_id": 1880762701
      }
    ],
    "wof:id": 1360807709,
    "wof:lastmodified": 1765390531,
    "wof:name": "Skirbeck",
    "wof:parent_id": 1226569607,
    "wof:placetype": "neighbourhood",
    "wof:population": 8272,
    "wof:population_rank": 5,
    "wof:repo": "whosonfirst-data-admin-gb",
    "wof:superseded_by": [],
    "wof:supersedes": [
      1276578851
    ],
    "wof:tags": []
  },
  "bbox": [
    0,
    52.96666999999999,
    0,
    52.96666999999999
  ],
  "geometry": {"type":"Point","coordinates":[0,52.96666999999999]}
}
