{
  "id": 101873537,
  "type": "Feature",
  "properties": {
    "edtf:cessation": "",
    "edtf:inception": "",
    "geom:area": 0,
    "geom:area_square_m": 0,
    "geom:bbox": "-4.555537,55.809679,-4.555537,55.809679",
    "geom:latitude": 55.809679,
    "geom:longitude": -4.555537,
    "iso:country": "GB",
    "lbl:bbox": "-4.575537,55.789679,-4.535537,55.829679",
    "lbl:latitude": 55.80968,
    "lbl:longitude": -4.555537,
    "lbl:max_zoom": 18,
    "lbl:min_zoom": 13.5,
    "mps:latitude": 55.80968,
    "mps:longitude": -4.555537,
    "mz:hierarchy_label": 1,
    "mz:is_current": 1,
    "mz:min_zoom": 12,
    "name:ceb_x_preferred": [
      "Howwood"
    ],
    "name:eng_x_preferred": [
      "Howwood"
    ],
    "name:eus_x_preferred": [
      "Howwood"
    ],
    "name:fas_x_preferred": [
      "هاوود"
    ],
    "name:fra_x_preferred": [
      "Howwood"
    ],
    "name:gla_x_preferred": [
      "Howwood"
    ],
    "name:gle_x_preferred": [
      "Coille an Dail"
    ],
    "name:ita_x_preferred": [
      "Howwood"
    ],
    "name:jpn_x_preferred": [
      "ハウウウッド"
    ],
    "name:nld_x_preferred": [
      "Howwood"
    ],
    "name:rus_x_preferred": [
      "Хоувуд"
    ],
    "name:sco_x_preferred": [
      "The Howewid"
    ],
    "name:spa_x_preferred": [
      "Howwood"
    ],
    "name:swe_x_preferred": [
      "Howwood"
    ],
    "qs:a0": "United Kingdom",
    "qs:a1": "*Renfrewshire",
    "qs:a1_lc": "GB11RC0000",
    "qs:a1r": "0Scotland",
    "qs:a1r_lc": "GB11000000",
    "qs:adm0": "United Kingdom",
    "qs:la_lc": "*",
    "qs:level": "locality",
    "qs:loc": "Howwood",
    "qs:loc_alt": "Howwood",
    "qs:pop": 0,
    "qs:source": "RCustom EuroGlobalMap + UMZ Urban Polygons + Geonames + GeoPlanet",
    "qs:type": "buffered point",
    "src:geom": "whosonfirst",
    "src:geom_alt": [
      "quattroshapes_pg",
      "quattroshapes"
    ],
    "src:geom_via": "quattroshapes",
    "src:lbl_centroid": "mapshaper",
    "src:population": "wikidata",
    "wd:latitude": 55.809,
    "wd:longitude": -4.558,
    "wd:wordcount": 284,
    "wof:belongsto": [
      1880773179,
      102191581,
      85633159,
      1880762039,
      404227471,
      136253055,
      1360699097
    ],
    "wof:breaches": [],
    "wof:concordances": {
      "gn:id": 2646480,
      "gp:id": 24063,
      "qs_pg:id": 551266,
      "wd:id": "Q974134",
      "wk:page": "Howwood"
    },
    "wof:country": "GB",
    "wof:created": 1765385072,
    "wof:geom_alt": [
      "quattroshapes_pg",
      "quattroshapes"
    ],
    "wof:geomhash": "fdd44d19a012e926d38fbd123bb973c2",
    "wof:hierarchy": [
      {
        "continent_id": 102191581,
        "country_id": 85633159,
        "county_id": 1360699097,
        "empire_id": 136253055,
        "locality_id": 101873537,
        "macrocounty_id": 1880762039,
        "macroregion_id": 404227471,
        "region_id": 1880773179
      }
    ],
    "wof:id": 101873537,
    "wof:lastmodified": 1765385072,
    "wof:name": "Howwood",
    "wof:parent_id": 1360699097,
    "wof:placetype": "locality",
    "wof:population": 1798,
    "wof:population_rank": 3,
    "wof:repo": "whosonfirst-data-admin-gb",
    "wof:superseded_by": [],
    "wof:supersedes": [],
    "wof:tags": []
  },
  "bbox": [
    -4.555537,
    55.809679,
    -4.555537,
    55.809679
  ],
  "geometry": {"type":"Point","coordinates":[-4.555537,55.809679]}
}
