{
  "id": 85683683,
  "type": "Feature",
  "properties": {
    "edtf:cessation": "",
    "edtf:deprecated": "2017-12-20",
    "edtf:inception": "",
    "geom:area": 0.0024690973419999895,
    "geom:area_square_m": 18984172.904923,
    "geom:bbox": "-0.104447,51.519813,-0.016436,51.577785",
    "geom:latitude": 51.55225363004709,
    "geom:longitude": -0.06337037854648198,
    "iso:country": "GB",
    "lbl:latitude": 51.553412,
    "lbl:longitude": -0.060384,
    "mps:latitude": 51.553412,
    "mps:longitude": -0.060384,
    "mz:hierarchy_label": 1,
    "mz:is_current": 0,
    "mz:is_funky": 1,
    "mz:max_zoom": 11,
    "mz:min_zoom": 11,
    "name:afr_x_preferred": [
      "London Borough of Hackney"
    ],
    "name:bel_x_preferred": [
      "Хакні"
    ],
    "name:bre_x_preferred": [
      "Hackney"
    ],
    "name:cat_x_preferred": [
      "Hackney"
    ],
    "name:ces_x_preferred": [
      "Hackney"
    ],
    "name:cym_x_preferred": [
      "Hackney"
    ],
    "name:dan_x_preferred": [
      "Hackney"
    ],
    "name:deu_x_preferred": [
      "Hackney"
    ],
    "name:deu_x_variant": [
      "London Borough of Hackney"
    ],
    "name:ell_x_preferred": [
      "Χάκνεϊ"
    ],
    "name:eng_x_preferred": [
      "Hackney"
    ],
    "name:epo_x_preferred": [
      "Hackney"
    ],
    "name:est_x_preferred": [
      "Hackney"
    ],
    "name:eus_x_preferred": [
      "Hackney"
    ],
    "name:fas_x_preferred": [
      "منطقه هکنی لندن"
    ],
    "name:fin_x_preferred": [
      "Hackney"
    ],
    "name:fra_x_preferred": [
      "Hackney"
    ],
    "name:fra_x_variant": [
      "district londonien de Hackney"
    ],
    "name:fry_x_preferred": [
      "Hackney"
    ],
    "name:gle_x_preferred": [
      "London Borough of Hackney"
    ],
    "name:glg_x_preferred": [
      "Hackney"
    ],
    "name:heb_x_preferred": [
      "האקני"
    ],
    "name:hin_x_preferred": [
      "हैकनी बरो"
    ],
    "name:hun_x_preferred": [
      "Hackney"
    ],
    "name:hye_x_preferred": [
      "Հակնի"
    ],
    "name:isl_x_preferred": [
      "Hackney"
    ],
    "name:ita_x_preferred": [
      "Borgo londinese di Hackney"
    ],
    "name:jpn_x_preferred": [
      "ハックニー"
    ],
    "name:kat_x_preferred": [
      "ჰაკნი"
    ],
    "name:kor_x_preferred": [
      "해크니"
    ],
    "name:lat_x_preferred": [
      "Hackney"
    ],
    "name:mkd_x_preferred": [
      "Хакни"
    ],
    "name:nld_x_preferred": [
      "Hackney"
    ],
    "name:nno_x_preferred": [
      "London Borough of Hackney"
    ],
    "name:nob_x_preferred": [
      "Hackney"
    ],
    "name:pnb_x_preferred": [
      "ہیکنی"
    ],
    "name:pol_x_preferred": [
      "Hackney"
    ],
    "name:por_x_preferred": [
      "Hackney"
    ],
    "name:ron_x_preferred": [
      "Hackney"
    ],
    "name:rus_x_preferred": [
      "Хакни"
    ],
    "name:sco_x_preferred": [
      "London Borough of Hackney"
    ],
    "name:slv_x_preferred": [
      "Hackney"
    ],
    "name:spa_x_preferred": [
      "Hackney"
    ],
    "name:srp_x_preferred": [
      "Лондоска општина Хекни"
    ],
    "name:swe_x_preferred": [
      "Hackney"
    ],
    "name:tgl_x_preferred": [
      "Hackney"
    ],
    "name:ukr_x_preferred": [
      "Гекні"
    ],
    "name:urd_x_preferred": [
      "ہیکنی بورو"
    ],
    "name:vie_x_preferred": [
      "Khu Hackney của Luân Đôn"
    ],
    "name:yid_x_preferred": [
      "לאנדאנער בארא פון האקני"
    ],
    "name:zho_x_preferred": [
      "哈克尼區"
    ],
    "ne:abbrev": "Hackney",
    "ne:adm0_a3": "GBR",
    "ne:adm0_label": "7",
    "ne:adm0_sr": "1",
    "ne:adm1_cod_1": "GBR-2765",
    "ne:adm1_code": "GBR-2765",
    "ne:admin": "United Kingdom",
    "ne:area_sqkm": "0.00000000000",
    "ne:check_me": "20",
    "ne:code_hasc": "GB.HK",
    "ne:code_local": "",
    "ne:datarank": "5",
    "ne:diss_me": "2765",
    "ne:featurecla": "Admin-1 scale rank",
    "ne:fips": "UK17",
    "ne:fips_alt": "UKE8",
    "ne:gadm_level": "2",
    "ne:geonunit": "England",
    "ne:gn_a1_code": "GB.",
    "ne:gn_id": "-2648110",
    "ne:gn_level": "-2",
    "ne:gn_name": "Greater London",
    "ne:gn_region": "",
    "ne:gns_adm1": "",
    "ne:gns_id": "6077590",
    "ne:gns_lang": "ind",
    "ne:gns_level": "1",
    "ne:gns_name": "Hackney, London Borough of",
    "ne:gns_region": "UK35",
    "ne:gu_a3": "ENG",
    "ne:hasc_maybe": "",
    "ne:iso_3166_2": "GB-",
    "ne:iso_a2": "GB",
    "ne:labelrank": "9",
    "ne:latitude": "51.55230000000",
    "ne:longitude": "-0.05234270000",
    "ne:mapcolor13": 3,
    "ne:mapcolor9": 6,
    "ne:name": "Hackney",
    "ne:name_alt": "",
    "ne:name_len": 7,
    "ne:name_local": "",
    "ne:note": "",
    "ne:postal": "HK",
    "ne:provnum_ne": "20036",
    "ne:region": "Greater London",
    "ne:region_cod": "",
    "ne:region_sub": "Greater London",
    "ne:sameascity": "-99",
    "ne:scalerank": "8",
    "ne:sov_a3": "GB1",
    "ne:sub_code": "",
    "ne:type": "London Borough",
    "ne:type_en": "London Borough",
    "ne:wikipedia": "",
    "ne:woe_id": 12695808,
    "ne:woe_label": "",
    "ne:woe_name": "London Borough of Hackney",
    "qs:a0": "United Kingdom",
    "qs:a0_lc": "GB00000000",
    "qs:a1": "Hackney",
    "qs:a1_alt": "Hackney",
    "qs:a1_lc": "GB12AM0000",
    "qs:a1r": "England",
    "qs:a1r_alt": "England",
    "qs:a1r_lc": "GB12000000",
    "qs:adm0": "United Kingdom",
    "qs:adm0_a3": "GBR",
    "qs:level": "adm1",
    "qs:source": "EuroGlobalMap",
    "qs:type": "London Borough",
    "src:geom": "quattroshapes",
    "src:geom_alt": [],
    "src:lbl:centroid": "mapshaper",
    "src:population": "wikidata",
    "unlc:subdivision": "GB-HCK",
    "wof:belongsto": [
      102191581,
      85633159,
      404227469
    ],
    "wof:breaches": [],
    "wof:concordances": {
      "fips:code": "UK17",
      "gn:id": -2648110,
      "gp:id": 12695808,
      "hasc:id": "GB.HK",
      "unlc:id": "GB-HCK",
      "wd:id": "Q205679"
    },
    "wof:country": "GB",
    "wof:created": 1765390919,
    "wof:geomhash": "9fa8b6c93b54c59b6aa6d7ae733aff0c",
    "wof:hierarchy": [
      {
        "continent_id": 102191581,
        "country_id": 85633159,
        "macroregion_id": 404227469,
        "region_id": 85683683
      }
    ],
    "wof:id": 85683683,
    "wof:lastmodified": 1765390919,
    "wof:name": "Hackney",
    "wof:parent_id": 404227469,
    "wof:placetype": "region",
    "wof:population": 261491,
    "wof:population_rank": 10,
    "wof:repo": "whosonfirst-data-admin-gb",
    "wof:shortcode": "HK",
    "wof:subdivision": "GB-HCK",
    "wof:superseded_by": [
      1158857273
    ],
    "wof:supersedes": [],
    "wof:tags": []
  },
  "bbox": [
    -0.104447,
    51.519813,
    -0.016436,
    51.577785
  ],
  "geometry": {"type":"Polygon","coordinates":[[[-0.017124,51.551708],[-0.019058,51.55162],[-0.016436,51.543277],[-0.019321,51.543541],[-0.025286,51.543216],[-0.029024,51.542282],[-0.029684,51.543094],[-0.033157,51.544643],[-0.037698,51.541794],[-0.037299,51.541229],[-0.040671,51.538101],[-0.044797,51.535804],[-0.04751,51.535526],[-0.050893,51.536457],[-0.05233,51.535911],[-0.052775,51.534885],[-0.055184,51.535084],[-0.059845,51.534157],[-0.062406,51.535515],[-0.062774,51.534633],[-0.062174,51.533245],[-0.064916,51.532898],[-0.065076,51.533218],[-0.066249,51.531223],[-0.072202,51.530838],[-0.074586,51.529789],[-0.077189,51.527294],[-0.076252,51.527145],[-0.076379,51.524284],[-0.075852,51.524318],[-0.075655,51.523586],[-0.076123,51.522152],[-0.078408,51.521507],[-0.080987,51.521953],[-0.081698,51.520756],[-0.083262,51.519813],[-0.085154,51.520332],[-0.08416,51.523899],[-0.085076,51.523922],[-0.08538,51.524509],[-0.084688,51.525413],[-0.084957,51.526203],[-0.087376,51.525955],[-0.088717,51.527443],[-0.095342,51.529194],[-0.09505,51.530052],[-0.09697,51.532982],[-0.086507,51.537399],[-0.083597,51.545063],[-0.083774,51.546604],[-0.076775,51.546077],[-0.076294,51.546421],[-0.076572,51.547931],[-0.079398,51.551662],[-0.08544,51.552162],[-0.090329,51.554424],[-0.090357,51.55767],[-0.091639,51.560222],[-0.095969,51.561226],[-0.098524,51.560837],[-0.104447,51.564705],[-0.096052,51.570698],[-0.097602,51.57365],[-0.087669,51.574436],[-0.080852,51.57566],[-0.076206,51.574863],[-0.075622,51.575557],[-0.071019,51.575683],[-0.061119,51.577785],[-0.058367,51.572525],[-0.056335,51.570793],[-0.054227,51.570194],[-0.053095,51.568573],[-0.051111,51.567722],[-0.046662,51.56438],[-0.04714,51.562645],[-0.04504,51.561756],[-0.042271,51.561386],[-0.039931,51.561779],[-0.038662,51.561165],[-0.036352,51.561504],[-0.033244,51.560619],[-0.030053,51.561359],[-0.025942,51.559948],[-0.024368,51.558761],[-0.02385,51.557323],[-0.018417,51.555111],[-0.017124,51.551708]]]}
}
