{
  "id": 85786701,
  "type": "Feature",
  "properties": {
    "edtf:cessation": "",
    "edtf:inception": "",
    "geom:area": 0.00017795171900001304,
    "geom:area_square_m": 1370879.443613,
    "geom:bbox": "-2.631940,51.455718,-2.606030,51.467697",
    "geom:latitude": 51.4615797516277,
    "geom:longitude": -2.616559675734397,
    "gn:latitude": 51.46111,
    "gn:longitude": -2.62,
    "iso:country": "GB",
    "lbl:latitude": 51.46266,
    "lbl:longitude": -2.617263,
    "lbl:max_zoom": 18,
    "mps:latitude": 51.461708,
    "mps:longitude": -2.614596,
    "mz:hierarchy_label": 1,
    "mz:is_current": -1,
    "mz:is_funky": 0,
    "mz:is_hard_boundary": 0,
    "mz:is_landuse_aoi": 0,
    "mz:is_official": 0,
    "mz:max_zoom": 18,
    "mz:min_zoom": 13,
    "mz:tier_locality": 4,
    "mz:tier_metro": 30,
    "name:ara_x_preferred": [
      "كليفتون"
    ],
    "name:bre_x_preferred": [
      "Clifton"
    ],
    "name:cat_x_preferred": [
      "Clifton"
    ],
    "name:cym_x_preferred": [
      "Clifton"
    ],
    "name:deu_x_preferred": [
      "Clifton"
    ],
    "name:eng_x_preferred": [
      "Clifton"
    ],
    "name:fra_x_preferred": [
      "Clifton"
    ],
    "name:gle_x_preferred": [
      "Clifton"
    ],
    "name:heb_x_preferred": [
      "קליפטון"
    ],
    "name:ita_x_preferred": [
      "Clifton"
    ],
    "name:jpn_x_preferred": [
      "クリフトン"
    ],
    "name:kat_x_preferred": [
      "კლიფტონი"
    ],
    "name:kor_x_preferred": [
      "클리프턴"
    ],
    "name:nld_x_preferred": [
      "Clifton"
    ],
    "name:nob_x_preferred": [
      "Clifton"
    ],
    "name:pol_x_preferred": [
      "Clifton"
    ],
    "name:rus_x_preferred": [
      "Клифтон"
    ],
    "name:sco_x_preferred": [
      "Clifton"
    ],
    "name:swe_x_preferred": [
      "Clifton"
    ],
    "name:urd_x_preferred": [
      "کلفٹن"
    ],
    "name:zho_x_preferred": [
      "克里夫顿"
    ],
    "name:zho_x_variant": [
      "克利夫頓"
    ],
    "qs:gn_adm0_cc": "GB",
    "qs:gn_fcode": "PPLX",
    "qs:gn_local": 2654675,
    "qs:gn_nam_loc": "Bristol, City of Bristol, England, GB",
    "qs:gn_namadm1": "ENG",
    "qs:gn_name": "Clifton",
    "qs:local_max": 8672,
    "qs:local_sum": 133678,
    "qs:localhoods": 87,
    "qs:name": "Clifton",
    "qs:name_adm0": "United Kingdom",
    "qs:name_adm1": "England",
    "qs:name_adm2": "City of Bristol",
    "qs:name_lau": "Bristol",
    "qs:name_local": "Bristol",
    "qs:photo_max": 1477,
    "qs:photo_sum": 5633,
    "qs:placetype": "Suburb",
    "qs:quad_count": 63,
    "qs:woe_adm0": 23424975,
    "qs:woe_adm1": 24554868,
    "qs:woe_adm2": 12602180,
    "qs:woe_lau": 12696137,
    "qs:woe_local": 13963,
    "qs:woe_ver": "7.10.0",
    "src:geom": "quattroshapes",
    "src:geom_alt": [
      "quattroshapes_pg"
    ],
    "src:lbl_centroid": "whosonfirst",
    "src:population": "wikidata",
    "wof:belongsto": [
      1880772883,
      102191581,
      85633159,
      1880762137,
      404227469,
      1175612699,
      136253055,
      1360698747
    ],
    "wof:breaches": [],
    "wof:concordances": {
      "gn:id": 2652843,
      "gp:id": 16311,
      "qs_pg:id": 898860,
      "wd:id": "Q2376216",
      "wk:page": "Clifton, Bristol"
    },
    "wof:country": "GB",
    "wof:created": 1765391001,
    "wof:geom_alt": [
      "quattroshapes_pg"
    ],
    "wof:geomhash": "1bd2675bea3c454fd2599f79c6f621b3",
    "wof:hierarchy": [
      {
        "continent_id": 102191581,
        "country_id": 85633159,
        "county_id": 1360698747,
        "empire_id": 136253055,
        "locality_id": 1175612699,
        "macrocounty_id": 1880762137,
        "macroregion_id": 404227469,
        "neighbourhood_id": 85786701,
        "region_id": 1880772883
      }
    ],
    "wof:id": 85786701,
    "wof:lang": [
      "eng"
    ],
    "wof:lastmodified": 1765391001,
    "wof:name": "Clifton",
    "wof:parent_id": 1175612699,
    "wof:placetype": "neighbourhood",
    "wof:population": 21818,
    "wof:population_rank": 7,
    "wof:repo": "whosonfirst-data-admin-gb",
    "wof:superseded_by": [],
    "wof:supersedes": [],
    "wof:tags": []
  },
  "bbox": [
    -2.63194,
    51.455718,
    -2.60603,
    51.467697
  ],
  "geometry": {"type":"Polygon","coordinates":[[[-2.608954,51.46513],[-2.608776,51.464275],[-2.609253,51.46351],[-2.609253,51.462564],[-2.609253,51.461617],[-2.60788,51.460883],[-2.606506,51.461617],[-2.60603,51.460852],[-2.606207,51.459997],[-2.60603,51.459141],[-2.606207,51.458285],[-2.606506,51.458285],[-2.607641,51.458285],[-2.60773,51.457858],[-2.60788,51.457858],[-2.608566,51.457858],[-2.608566,51.45743],[-2.608566,51.457415],[-2.609253,51.457047],[-2.609253,51.456574],[-2.609253,51.455718],[-2.60973,51.455718],[-2.611523,51.455718],[-2.612,51.455718],[-2.614746,51.455718],[-2.615223,51.455718],[-2.617493,51.455718],[-2.617493,51.45743],[-2.620239,51.45743],[-2.620239,51.459141],[-2.622986,51.459141],[-2.625732,51.459141],[-2.628479,51.459141],[-2.628479,51.460852],[-2.631226,51.460852],[-2.63194,51.462],[-2.631823,51.462564],[-2.631226,51.462564],[-2.628479,51.462564],[-2.626209,51.462564],[-2.626031,51.463419],[-2.625732,51.463419],[-2.624597,51.463419],[-2.624359,51.463802],[-2.624359,51.464275],[-2.624359,51.464305],[-2.623343,51.464849],[-2.622986,51.465422],[-2.622299,51.464761],[-2.621337,51.464452],[-2.620239,51.46504],[-2.620239,51.465986],[-2.617493,51.465986],[-2.617493,51.467697],[-2.614746,51.467697],[-2.612,51.467697],[-2.609253,51.467697],[-2.609253,51.466751],[-2.608776,51.465986],[-2.608954,51.46513]]]}
}
