{
  "id": 85789283,
  "type": "Feature",
  "properties": {
    "edtf:cessation": "",
    "edtf:inception": "",
    "geom:area": 0.0008416869280000069,
    "geom:area_square_m": 6501380.803636,
    "geom:bbox": "-0.030212,51.323746,0.010127,51.354631",
    "geom:latitude": 51.34212142194658,
    "geom:longitude": -0.009565509705964002,
    "gn:id": "",
    "iso:country": "GB",
    "lbl:latitude": 51.349546,
    "lbl:longitude": -0.01431,
    "lbl:max_zoom": 18,
    "mps:latitude": 51.343857,
    "mps:longitude": -0.011198,
    "mz:hierarchy_label": 1,
    "mz:is_current": -1,
    "mz:is_funky": 0,
    "mz:is_hard_boundary": 0,
    "mz:is_landuse_aoi": 0,
    "mz:is_official": 0,
    "mz:max_zoom": 18,
    "mz:min_zoom": 15,
    "mz:tier_locality": 7,
    "mz:tier_metro": 1,
    "name:ceb_x_preferred": [
      "New Addington"
    ],
    "name:deu_x_preferred": [
      "New Addington"
    ],
    "name:eng_x_preferred": [
      "New Addington"
    ],
    "name:fra_x_preferred": [
      "New Addington"
    ],
    "name:gle_x_preferred": [
      "New Addington"
    ],
    "name:pol_x_preferred": [
      "New Addington"
    ],
    "name:swe_x_preferred": [
      "New Addington"
    ],
    "name:urd_x_preferred": [
      "نیو ایڈینگٹن"
    ],
    "name:zho_x_preferred": [
      "新阿丁頓"
    ],
    "src:geom": "quattroshapes",
    "src:geom_alt": [
      "quattroshapes_pg"
    ],
    "src:lbl_centroid": "mz",
    "src:population": "wikidata",
    "wd:wordcount": 1877,
    "wof:belongsto": [
      1880762729,
      102191581,
      1880762179,
      85633159,
      404227469,
      101750367,
      136253055,
      1158857301,
      1880771825
    ],
    "wof:breaches": [],
    "wof:concordances": {
      "gp:id": 29872,
      "qs_pg:id": 1073622,
      "wd:id": "Q7005189"
    },
    "wof:country": "GB",
    "wof:created": 1765391122,
    "wof:geom_alt": [
      "quattroshapes_pg"
    ],
    "wof:geomhash": "33a42201c671e6fffaaea8dcc013c133",
    "wof:hierarchy": [
      {
        "borough_id": 1158857301,
        "continent_id": 102191581,
        "country_id": 85633159,
        "county_id": 1880771825,
        "empire_id": 136253055,
        "locality_id": 101750367,
        "macrocounty_id": 1880762179,
        "macroregion_id": 404227469,
        "neighbourhood_id": 85789283,
        "region_id": 1880762729
      }
    ],
    "wof:id": 85789283,
    "wof:lang": [
      "eng"
    ],
    "wof:lastmodified": 1765391122,
    "wof:name": "New Addington",
    "wof:parent_id": 1158857301,
    "wof:placetype": "neighbourhood",
    "wof:population": 10801,
    "wof:population_rank": 6,
    "wof:repo": "whosonfirst-data-admin-gb",
    "wof:superseded_by": [],
    "wof:supersedes": [],
    "wof:tags": []
  },
  "bbox": [
    -0.030212,
    51.323746,
    0.010127,
    51.354631
  ],
  "geometry": {"type":"Polygon","coordinates":[[[-0.010986,51.354631],[-0.010986,51.354631],[-0.008844,51.354631],[-0.008844,51.354631],[-0.007635,51.354631],[-0.005493,51.352916],[0,51.352916],[0.002142,51.354631],[0.005493,51.354631],[0.007504,51.353558],[0.010127,51.345158],[0.008591,51.344338],[0.006019,51.337476],[0.006233,51.33576],[0.00615,51.335096],[0.005493,51.334044],[0.005493,51.334044],[0.005493,51.330612],[0.005493,51.323746],[0.000471,51.323746],[-0.00054,51.325363],[-0.002005,51.330835],[-0.005493,51.333228],[-0.00824,51.3326],[-0.010986,51.333228],[-0.012298,51.332328],[-0.016479,51.332328],[-0.022744,51.327314],[-0.024719,51.328895],[-0.024719,51.336993],[-0.030212,51.34139],[-0.030212,51.344339],[-0.030212,51.34777],[-0.030212,51.350131],[-0.029277,51.351201],[-0.027466,51.351201],[-0.027466,51.351201],[-0.021973,51.351201],[-0.021973,51.354631],[-0.021973,51.354631],[-0.016479,51.354631],[-0.010986,51.354631]]]}
}
