{
  "id": 85788337,
  "type": "Feature",
  "properties": {
    "edtf:cessation": "",
    "edtf:inception": "",
    "geom:area": 0.00023586862700003848,
    "geom:area_square_m": 1812202.115806,
    "geom:bbox": "-0.131836,51.577070,-0.109863,51.593282",
    "geom:latitude": 51.58520702024141,
    "geom:longitude": -0.12125753069435422,
    "iso:country": "GB",
    "lbl:latitude": 51.585208,
    "lbl:longitude": -0.116153,
    "lbl:max_zoom": 18,
    "mps:latitude": 51.585385,
    "mps:longitude": -0.121467,
    "mz:hierarchy_label": 1,
    "mz:is_current": -1,
    "mz:is_funky": 0,
    "mz:is_hard_boundary": 0,
    "mz:is_landuse_aoi": 0,
    "mz:is_official": 0,
    "mz:max_zoom": 18,
    "mz:min_zoom": 13,
    "mz:tier_locality": 7,
    "mz:tier_metro": 1,
    "name:ast_x_preferred": [
      "Hornsey"
    ],
    "name:azb_x_preferred": [
      "هورنسی"
    ],
    "name:cym_x_preferred": [
      "Hornsey"
    ],
    "name:deu_x_preferred": [
      "Humberstone"
    ],
    "name:eng_x_preferred": [
      "Hornsey"
    ],
    "name:fas_x_preferred": [
      "هورنسی، لندن بزرگ"
    ],
    "name:fas_x_variant": [
      "هورنسی"
    ],
    "name:fra_x_preferred": [
      "Hornsey"
    ],
    "name:gle_x_preferred": [
      "Hornsey"
    ],
    "name:heb_x_preferred": [
      "הורנסי"
    ],
    "name:ita_x_preferred": [
      "Hornsey"
    ],
    "name:jpn_x_preferred": [
      "ホーンジー"
    ],
    "name:kat_x_preferred": [
      "ჰორნსი"
    ],
    "name:lld_x_preferred": [
      "Hornsey"
    ],
    "name:nld_x_preferred": [
      "Hornsey"
    ],
    "name:nob_x_preferred": [
      "Hornsey"
    ],
    "name:nor_x_preferred": [
      "Hornsey"
    ],
    "name:pol_x_preferred": [
      "Hornsey"
    ],
    "name:slv_x_preferred": [
      "Hornsey"
    ],
    "name:swe_x_preferred": [
      "Hornsey"
    ],
    "name:urd_x_preferred": [
      "ہورنسے"
    ],
    "name:zho_x_preferred": [
      "合恩賽"
    ],
    "name:zho_x_variant": [
      "合恩赛"
    ],
    "src:geom": "quattroshapes",
    "src:geom_alt": [
      "quattroshapes_pg"
    ],
    "src:lbl_centroid": "mz",
    "src:population": "wikidata",
    "wd:latitude": 51.587131,
    "wd:longitude": -0.12195,
    "wd:wordcount": 1355,
    "wof:belongsto": [
      1880762729,
      102191581,
      1880762179,
      85633159,
      404227469,
      101750367,
      136253055,
      1158857279,
      1880771825
    ],
    "wof:breaches": [],
    "wof:concordances": {
      "gn:id": 2646580,
      "gp:id": 23923,
      "qs_pg:id": 241759,
      "wd:id": "Q2454407",
      "wk:page": "Hornsey"
    },
    "wof:country": "GB",
    "wof:created": 1765391075,
    "wof:geom_alt": [
      "quattroshapes_pg"
    ],
    "wof:geomhash": "3592e591ac4fbde4200102eede389d07",
    "wof:hierarchy": [
      {
        "borough_id": 1158857279,
        "continent_id": 102191581,
        "country_id": 85633159,
        "county_id": 1880771825,
        "empire_id": 136253055,
        "locality_id": 101750367,
        "macrocounty_id": 1880762179,
        "macroregion_id": 404227469,
        "neighbourhood_id": 85788337,
        "region_id": 1880762729
      }
    ],
    "wof:id": 85788337,
    "wof:lang": [
      "eng"
    ],
    "wof:lastmodified": 1765391075,
    "wof:name": "Hornsey",
    "wof:parent_id": 1158857279,
    "wof:placetype": "neighbourhood",
    "wof:population": 12659,
    "wof:population_rank": 6,
    "wof:repo": "whosonfirst-data-admin-gb",
    "wof:superseded_by": [],
    "wof:supersedes": [],
    "wof:tags": []
  },
  "bbox": [
    -0.131836,
    51.57707,
    -0.109863,
    51.593282
  ],
  "geometry": {"type":"Polygon","coordinates":[[[-0.125867,51.592429],[-0.123596,51.592429],[-0.12085,51.592429],[-0.118103,51.592429],[-0.118103,51.590723],[-0.115356,51.590723],[-0.115356,51.589016],[-0.11261,51.589016],[-0.11261,51.588076],[-0.11261,51.58731],[-0.11261,51.585603],[-0.11261,51.584837],[-0.11261,51.583897],[-0.109863,51.583897],[-0.109863,51.58219],[-0.109863,51.580483],[-0.11261,51.580483],[-0.11261,51.578776],[-0.115356,51.578776],[-0.118103,51.578776],[-0.118103,51.57707],[-0.12085,51.57707],[-0.12085,51.578011],[-0.122223,51.578747],[-0.122937,51.578364],[-0.123308,51.578696],[-0.123358,51.578776],[-0.123596,51.578776],[-0.124969,51.578776],[-0.124969,51.579159],[-0.124969,51.579247],[-0.125207,51.57963],[-0.126343,51.57963],[-0.126642,51.57963],[-0.126819,51.580483],[-0.129089,51.580483],[-0.129089,51.58219],[-0.129089,51.583897],[-0.131836,51.583897],[-0.131836,51.585603],[-0.131836,51.58731],[-0.131836,51.58825],[-0.131836,51.589016],[-0.13136,51.589016],[-0.129089,51.589016],[-0.129089,51.590723],[-0.129089,51.591663],[-0.129089,51.592429],[-0.127716,51.592429],[-0.127716,51.593282],[-0.126343,51.593282],[-0.126044,51.593282],[-0.125867,51.592429]]]}
}
