{
  "id": 1326457697,
  "type": "Feature",
  "properties": {
    "edtf:cessation": "",
    "edtf:inception": "",
    "geom:area": 0,
    "geom:area_square_m": 0,
    "geom:bbox": "-6.616670,54.816670,-6.616670,54.816670",
    "geom:latitude": 54.81667,
    "geom:longitude": -6.61667,
    "gn:admin1_code": "NIR",
    "gn:admin2_code": "N09000009",
    "gn:asciiname": "Knockcloghrim",
    "gn:cc2": "GB",
    "gn:country_code": "GB",
    "gn:dem": 48,
    "gn:feature_class": "P",
    "gn:feature_code": "PPL",
    "gn:geonameid": 2645129,
    "gn:latitude": 54.81667,
    "gn:longitude": -6.61667,
    "gn:modification_date": "2016-12-04",
    "gn:name": "Knockcloghrim",
    "gn:population": 0,
    "gn:timezone": "Europe/London",
    "iso:country": "GB",
    "lbl:bbox": "-6.63667,54.79667,-6.59667,54.83667",
    "lbl:max_zoom": 18,
    "lbl:min_zoom": 13.5,
    "mz:hierarchy_label": 1,
    "mz:is_current": -1,
    "mz:min_zoom": 12,
    "name:ceb_x_preferred": [
      "Knockcloghrim"
    ],
    "name:eus_x_preferred": [
      "Knockloughrim"
    ],
    "name:fas_x_preferred": [
      "ناکلاگریم"
    ],
    "name:gla_x_preferred": [
      "Cnoc Clochdhroma"
    ],
    "name:gle_x_preferred": [
      "Cnoc Clochdhroma"
    ],
    "name:ita_x_preferred": [
      "Knockcloghrim"
    ],
    "name:msa_x_preferred": [
      "Knockcloghrim"
    ],
    "name:pli_x_preferred": [
      "क्नोच्क्क्लोघ्रिम"
    ],
    "name:spa_x_preferred": [
      "Knockcloghrim"
    ],
    "name:swe_x_preferred": [
      "Knockcloghrim"
    ],
    "src:geom": "geonames",
    "src:population": "wikidata",
    "wof:belongsto": [
      1360699235,
      102191581,
      85633159,
      1880762223,
      404227473,
      136253055,
      1880762263
    ],
    "wof:breaches": [],
    "wof:concordances": {
      "gn:id": 2645129,
      "wk:page": "Knockloughrim"
    },
    "wof:country": "GB",
    "wof:created": 1765388882,
    "wof:geomhash": "2a700545027ece5f862d004baa438e9b",
    "wof:hierarchy": [
      {
        "continent_id": 102191581,
        "country_id": 85633159,
        "county_id": 1880762263,
        "empire_id": 136253055,
        "locality_id": 1326457697,
        "macrocounty_id": 1880762223,
        "macroregion_id": 404227473,
        "region_id": 1360699235
      }
    ],
    "wof:id": 1326457697,
    "wof:lastmodified": 1765388882,
    "wof:name": "Knockcloghrim",
    "wof:parent_id": 1880762263,
    "wof:placetype": "locality",
    "wof:population": 186,
    "wof:population_rank": 1,
    "wof:repo": "whosonfirst-data-admin-gb",
    "wof:superseded_by": [],
    "wof:supersedes": [],
    "wof:tags": []
  },
  "bbox": [
    -6.61667,
    54.81667,
    -6.61667,
    54.81667
  ],
  "geometry": {"type":"Point","coordinates":[-6.61667,54.81667]}
}
