{
  "id": 1360806829,
  "type": "Feature",
  "properties": {
    "edtf:cessation": "",
    "edtf:inception": "",
    "geom:area": 0,
    "geom:area_square_m": 0,
    "geom:bbox": "1.366670,52.783330,1.366670,52.783330",
    "geom:latitude": 52.78333000000001,
    "geom:longitude": 1.36667,
    "gn:admin1_code": "ENG",
    "gn:admin2_code": "I9",
    "gn:admin3_code": "33UF",
    "gn:admin4_code": "33UF114",
    "gn:asciiname": "Swanton Abbot",
    "gn:country_code": "GB",
    "gn:dem": 20,
    "gn:feature_class": "P",
    "gn:feature_code": "PPL",
    "gn:geonameid": 2636430,
    "gn:latitude": 52.78333,
    "gn:longitude": 1.36667,
    "gn:modification_date": "2018-07-03",
    "gn:name": "Swanton Abbot",
    "gn:population": 0,
    "gn:timezone": "Europe/London",
    "iso:country": "GB",
    "lbl:bbox": "1.36167,52.77833,1.37167,52.78833",
    "lbl:max_zoom": 18,
    "mz:hierarchy_label": 1,
    "mz:is_current": 1,
    "mz:min_zoom": 15,
    "src:geom": "geonames",
    "src:population": "wikidata",
    "wof:belongsto": [
      1880762699,
      102191581,
      1880762037,
      404443859,
      85633159,
      404227469,
      1360758571,
      136253055,
      1880771711
    ],
    "wof:breaches": [],
    "wof:concordances": {
      "gn:id": 2636430
    },
    "wof:country": "GB",
    "wof:created": 1765390423,
    "wof:geomhash": "32d8d970ccafadd914354b569b2abe49",
    "wof:hierarchy": [
      {
        "continent_id": 102191581,
        "country_id": 85633159,
        "county_id": 1880771711,
        "empire_id": 136253055,
        "localadmin_id": 404443859,
        "locality_id": 1360758571,
        "macrocounty_id": 1880762037,
        "macroregion_id": 404227469,
        "neighbourhood_id": 1360806829,
        "region_id": 1880762699
      }
    ],
    "wof:id": 1360806829,
    "wof:lastmodified": 1765390423,
    "wof:name": "Swanton Abbot",
    "wof:parent_id": 1360758571,
    "wof:placetype": "neighbourhood",
    "wof:population": 414,
    "wof:population_rank": 2,
    "wof:repo": "whosonfirst-data-admin-gb",
    "wof:superseded_by": [],
    "wof:supersedes": [
      1242706709
    ],
    "wof:tags": []
  },
  "bbox": [
    1.36667,
    52.78333000000001,
    1.36667,
    52.78333000000001
  ],
  "geometry": {"type":"Point","coordinates":[1.36667,52.78333000000001]}
}
