{
  "id": 85787633,
  "type": "Feature",
  "properties": {
    "edtf:cessation": "",
    "edtf:inception": "",
    "geom:area": 0.0002625797740000004,
    "geom:area_square_m": 2018248.171638,
    "geom:bbox": "0.108911,51.555154,0.126343,51.575362",
    "geom:latitude": 51.565250894605704,
    "geom:longitude": 0.1180127813033311,
    "iso:country": "GB",
    "lbl:latitude": 51.56108,
    "lbl:longitude": 0.110331,
    "lbl:max_zoom": 18,
    "mps:latitude": 51.565119,
    "mps:longitude": 0.118013,
    "mz:hierarchy_label": 1,
    "mz:is_current": -1,
    "mz:is_funky": 0,
    "mz:is_hard_boundary": 0,
    "mz:is_landuse_aoi": 0,
    "mz:is_official": 0,
    "mz:max_zoom": 18,
    "mz:min_zoom": 14,
    "mz:tier_locality": 7,
    "mz:tier_metro": 1,
    "name:ara_x_preferred": [
      "غوودمايس"
    ],
    "name:bel_x_preferred": [
      "Гудмаес"
    ],
    "name:bul_x_preferred": [
      "Гудмейс"
    ],
    "name:cat_x_preferred": [
      "Goodmayes"
    ],
    "name:eng_x_preferred": [
      "Goodmayes"
    ],
    "name:eus_x_preferred": [
      "Goodmayes"
    ],
    "name:fra_x_preferred": [
      "Goodmayes"
    ],
    "name:gle_x_preferred": [
      "Goodmayes"
    ],
    "name:heb_x_preferred": [
      "גודמייס"
    ],
    "name:hin_x_preferred": [
      "गुडमेज़"
    ],
    "name:ita_x_preferred": [
      "Goodmayes"
    ],
    "name:nld_x_preferred": [
      "Goodmayes"
    ],
    "name:nob_x_preferred": [
      "Goodmayes"
    ],
    "name:pol_x_preferred": [
      "Goodmayes"
    ],
    "name:spa_x_preferred": [
      "Goodmayes"
    ],
    "name:swe_x_preferred": [
      "Goodmayes"
    ],
    "name:ukr_x_preferred": [
      "Гудмейс"
    ],
    "name:urd_x_preferred": [
      "گڈ مائمز"
    ],
    "name:zho_x_preferred": [
      "古德梅斯"
    ],
    "src:geom": "quattroshapes",
    "src:geom_alt": [
      "quattroshapes_pg"
    ],
    "src:lbl_centroid": "mz",
    "src:population": "wikidata",
    "wd:wordcount": 860,
    "wof:belongsto": [
      1880762729,
      102191581,
      1880762179,
      85633159,
      404227469,
      101750367,
      136253055,
      1158857291,
      1880771825
    ],
    "wof:breaches": [],
    "wof:concordances": {
      "gn:id": 2648330,
      "gp:id": 21343,
      "qs_pg:id": 1254538,
      "wd:id": "Q1942855",
      "wk:page": "Goodmayes"
    },
    "wof:country": "GB",
    "wof:created": 1765391045,
    "wof:geom_alt": [
      "quattroshapes_pg"
    ],
    "wof:geomhash": "ab42819d43fcb3fbc1a660ad9f85809e",
    "wof:hierarchy": [
      {
        "borough_id": 1158857291,
        "continent_id": 102191581,
        "country_id": 85633159,
        "county_id": 1880771825,
        "empire_id": 136253055,
        "locality_id": 101750367,
        "macrocounty_id": 1880762179,
        "macroregion_id": 404227469,
        "neighbourhood_id": 85787633,
        "region_id": 1880762729
      }
    ],
    "wof:id": 85787633,
    "wof:lang": [
      "eng"
    ],
    "wof:lastmodified": 1765391045,
    "wof:name": "Goodmayes",
    "wof:parent_id": 1158857291,
    "wof:placetype": "neighbourhood",
    "wof:population": 13069,
    "wof:population_rank": 6,
    "wof:repo": "whosonfirst-data-admin-gb",
    "wof:superseded_by": [],
    "wof:supersedes": [],
    "wof:tags": []
  },
  "bbox": [
    0.108911,
    51.555154,
    0.126343,
    51.575362
  ],
  "geometry": {"type":"Polygon","coordinates":[[[0.115356,51.556346],[0.114121,51.555154],[0.111401,51.55564],[0.110815,51.556582],[0.110761,51.557023],[0.109863,51.558466],[0.108911,51.559997],[0.109265,51.561705],[0.108911,51.563412],[0.108911,51.563412],[0.109265,51.56512],[0.108911,51.566827],[0.109863,51.568358],[0.109863,51.570241],[0.109863,51.570241],[0.115356,51.570241],[0.115356,51.573656],[0.115356,51.573656],[0.12085,51.573656],[0.12085,51.573656],[0.12191,51.575362],[0.126343,51.575362],[0.126343,51.573656],[0.126343,51.571773],[0.126343,51.570241],[0.126343,51.568534],[0.126343,51.566827],[0.126343,51.565296],[0.126343,51.563412],[0.126343,51.563412],[0.126343,51.559997],[0.126343,51.559997],[0.12085,51.559997],[0.12085,51.556582],[0.12085,51.556582],[0.115601,51.556582],[0.115356,51.556346]]]}
}
