{
  "id": 1260115555,
  "type": "Feature",
  "properties": {
    "edtf:cessation": "",
    "edtf:inception": "",
    "geom:area": 0,
    "geom:area_square_m": 0,
    "geom:bbox": "-4.150600,56.173180,-4.150600,56.173180",
    "geom:latitude": 56.17318,
    "geom:longitude": -4.1506,
    "gn:admin1_code": "SCT",
    "gn:admin2_code": "W6",
    "gn:asciiname": "Thornhill",
    "gn:country_code": "GB",
    "gn:dem": 41,
    "gn:feature_class": "P",
    "gn:feature_code": "PPL",
    "gn:geonameid": 2635980,
    "gn:latitude": 56.17318,
    "gn:longitude": -4.1506,
    "gn:modification_date": "2017-06-16",
    "gn:name": "Thornhill",
    "gn:population": 540,
    "gn:timezone": "Europe/London",
    "iso:country": "GB",
    "lbl:bbox": "-4.1706,56.15318,-4.1306,56.19318",
    "lbl:max_zoom": 17,
    "lbl:min_zoom": 12.5,
    "mz:hierarchy_label": 1,
    "mz:is_current": -1,
    "mz:min_zoom": 11,
    "name:eus_x_preferred": [
      "Thornhill"
    ],
    "name:spa_x_preferred": [
      "Thornhill"
    ],
    "name:swe_x_preferred": [
      "Thornhill"
    ],
    "src:geom": "geonames",
    "src:population": "wikidata",
    "wof:belongsto": [
      1880762131,
      1360699003
    ],
    "wof:breaches": [],
    "wof:concordances": {
      "gn:id": 2635980,
      "wk:page": "Thornhill%2C_Stirling"
    },
    "wof:country": "GB",
    "wof:created": 1765388514,
    "wof:geomhash": "d57c9977e8251ac4719915e0cfe6f947",
    "wof:hierarchy": [
      {
        "continent_id": -1,
        "country_id": -1,
        "county_id": 1360699003,
        "locality_id": 1260115555,
        "macrocounty_id": 1880762131,
        "region_id": -1
      }
    ],
    "wof:id": 1260115555,
    "wof:lastmodified": 1765388514,
    "wof:name": "Thornhill",
    "wof:parent_id": 1360699003,
    "wof:placetype": "locality",
    "wof:population": 530,
    "wof:population_rank": 2,
    "wof:repo": "whosonfirst-data-admin-gb",
    "wof:superseded_by": [],
    "wof:supersedes": [],
    "wof:tags": []
  },
  "bbox": [
    -4.1506,
    56.17318,
    -4.1506,
    56.17318
  ],
  "geometry": {"type":"Point","coordinates":[-4.1506,56.17318]}
}
