{
  "id": 1326558763,
  "type": "Feature",
  "properties": {
    "edtf:cessation": "",
    "edtf:inception": "",
    "geom:area": 0,
    "geom:area_square_m": 0,
    "geom:bbox": "-3.748530,55.980260,-3.748530,55.980260",
    "geom:latitude": 55.98026,
    "geom:longitude": -3.74853,
    "gn:admin1_code": "SCT",
    "gn:admin2_code": "U9",
    "gn:asciiname": "Reddingmuirhead",
    "gn:country_code": "GB",
    "gn:dem": 117,
    "gn:feature_class": "P",
    "gn:feature_code": "PPL",
    "gn:geonameid": 11592291,
    "gn:latitude": 55.98026,
    "gn:longitude": -3.74853,
    "gn:modification_date": "2017-06-14",
    "gn:name": "Reddingmuirhead",
    "gn:population": 1580,
    "gn:timezone": "Europe/London",
    "iso:country": "GB",
    "lbl:bbox": "-3.76853,55.96026,-3.72853,56.00026",
    "lbl:max_zoom": 16,
    "lbl:min_zoom": 12,
    "mz:hierarchy_label": 1,
    "mz:is_current": -1,
    "mz:min_zoom": 11,
    "name:eus_x_preferred": [
      "Reddingmuirhead"
    ],
    "name:gla_x_preferred": [
      "Reddingmuirhead"
    ],
    "name:spa_x_preferred": [
      "Reddingmuirhead"
    ],
    "src:geom": "geonames",
    "src:population": "wikidata",
    "wof:belongsto": [
      1880762131,
      1360698865
    ],
    "wof:breaches": [],
    "wof:concordances": {
      "gn:id": 11592291,
      "wk:page": "Reddingmuirhead"
    },
    "wof:country": "GB",
    "wof:created": 1765388888,
    "wof:geomhash": "4b59d463cd5da6ee9bedd66f064ed27c",
    "wof:hierarchy": [
      {
        "continent_id": -1,
        "country_id": -1,
        "county_id": 1360698865,
        "locality_id": 1326558763,
        "macrocounty_id": 1880762131,
        "region_id": -1
      }
    ],
    "wof:id": 1326558763,
    "wof:lastmodified": 1765388888,
    "wof:name": "Reddingmuirhead",
    "wof:parent_id": 1360698865,
    "wof:placetype": "locality",
    "wof:population": 2050,
    "wof:population_rank": 4,
    "wof:repo": "whosonfirst-data-admin-gb",
    "wof:superseded_by": [],
    "wof:supersedes": [],
    "wof:tags": []
  },
  "bbox": [
    -3.74853,
    55.98026,
    -3.74853,
    55.98026
  ],
  "geometry": {"type":"Point","coordinates":[-3.74853,55.98026]}
}
