{
  "id": 85786053,
  "type": "Feature",
  "properties": {
    "edtf:cessation": "",
    "edtf:inception": "",
    "geom:area": 0,
    "geom:area_square_m": 0,
    "geom:bbox": "-2.974753,53.327788,-2.974753,53.327788",
    "geom:latitude": 53.327788,
    "geom:longitude": -2.974753,
    "iso:country": "GB",
    "lbl:bbox": "-2.979753,53.322788,-2.969753,53.332788",
    "lbl:latitude": 53.327788,
    "lbl:longitude": -2.974753,
    "lbl:max_zoom": 18,
    "mps:latitude": 53.335831,
    "mps:longitude": -2.966015,
    "mz:hierarchy_label": 0,
    "mz:is_current": -1,
    "mz:is_funky": 0,
    "mz:is_hard_boundary": 0,
    "mz:is_landuse_aoi": 0,
    "mz:is_official": 0,
    "mz:max_zoom": 18,
    "mz:min_zoom": 13,
    "mz:tier_locality": 2,
    "name:ast_x_preferred": [
      "Bromborough"
    ],
    "name:ben_x_preferred": [
      "ব্রোমবরো"
    ],
    "name:bul_x_preferred": [
      "Бромбороугх"
    ],
    "name:cat_x_preferred": [
      "Bromborough"
    ],
    "name:ceb_x_preferred": [
      "Bromborough"
    ],
    "name:cym_x_preferred": [
      "Bromborough"
    ],
    "name:deu_x_preferred": [
      "Bromborough"
    ],
    "name:eng_x_preferred": [
      "Bromborough"
    ],
    "name:eng_x_variant": [
      "Brambourg",
      "Broombro"
    ],
    "name:est_x_preferred": [
      "Bromborough"
    ],
    "name:fas_x_preferred": [
      "برومبورو"
    ],
    "name:fra_x_preferred": [
      "Bromborough"
    ],
    "name:guj_x_preferred": [
      "બ્રોમબોરો"
    ],
    "name:ita_x_preferred": [
      "Bromborough"
    ],
    "name:jpn_x_preferred": [
      "ブロムバラ"
    ],
    "name:kan_x_preferred": [
      "ಬ್ರೊಮ್ಬರೋ"
    ],
    "name:kor_x_preferred": [
      "브롬보로"
    ],
    "name:lit_x_preferred": [
      "Bromboras"
    ],
    "name:lld_x_preferred": [
      "Bromborough"
    ],
    "name:nld_x_preferred": [
      "Bromborough"
    ],
    "name:nno_x_preferred": [
      "Bromborough"
    ],
    "name:nob_x_preferred": [
      "Bromborough"
    ],
    "name:pol_x_preferred": [
      "Bromborough"
    ],
    "name:por_x_preferred": [
      "Bromborough"
    ],
    "name:rus_x_preferred": [
      "Бромборо"
    ],
    "name:spa_x_preferred": [
      "Bromborough"
    ],
    "name:swe_x_preferred": [
      "Bromborough"
    ],
    "name:tam_x_preferred": [
      "ப்ரோம்பாரூக்ஹ்"
    ],
    "name:tel_x_preferred": [
      "బ్రోమ్బోరో"
    ],
    "name:urd_x_preferred": [
      "برومبورو"
    ],
    "name:zho_x_preferred": [
      "布兰博罗"
    ],
    "qs:gn_id": 0,
    "qs:gn_local": 0,
    "qs:id": 0,
    "qs:local_max": 2891,
    "qs:local_sum": 6453,
    "qs:localhoods": 5,
    "qs:name": "Bromborough",
    "qs:name_adm0": "United Kingdom",
    "qs:name_adm1": "England",
    "qs:name_adm2": "Merseyside",
    "qs:name_lau": "Wirral Metropolitan Borough",
    "qs:name_local": "Wirral Metropolitan Borough",
    "qs:photo_max": 498,
    "qs:photo_sum": 2095,
    "qs:placetype": "Suburb",
    "qs:quad_count": 77,
    "qs:woe_adm0": 23424975,
    "qs:woe_adm1": 24554868,
    "qs:woe_adm2": 12602161,
    "qs:woe_lau": 12695853,
    "qs:woe_local": 12695853,
    "qs:woe_ver": "7.10.0",
    "src:geom": "mz",
    "src:geom_alt": [
      "quattroshapes"
    ],
    "src:lbl_centroid": "yerbashapes",
    "src:population": "wikidata",
    "wd:latitude": 53.336,
    "wd:longitude": -2.978,
    "wd:wordcount": 950,
    "wof:belongsto": [
      1880773063,
      102191581,
      85633159,
      1880762035,
      404227469,
      101750549,
      136253055,
      1360699049
    ],
    "wof:breaches": [],
    "wof:concordances": {
      "gp:id": 14098,
      "wd:id": "Q2338272"
    },
    "wof:country": "GB",
    "wof:created": 1765390982,
    "wof:geom_alt": [
      "quattroshapes"
    ],
    "wof:geomhash": "8efa198798eeb4f9493383455d5d5d1a",
    "wof:hierarchy": [
      {
        "continent_id": 102191581,
        "country_id": 85633159,
        "county_id": 1360699049,
        "empire_id": 136253055,
        "locality_id": 101750549,
        "macrocounty_id": 1880762035,
        "macroregion_id": 404227469,
        "neighbourhood_id": 85786053,
        "region_id": 1880773063
      }
    ],
    "wof:id": 85786053,
    "wof:lang": [
      "eng"
    ],
    "wof:lastmodified": 1765390982,
    "wof:name": "Bromborough",
    "wof:parent_id": 101750549,
    "wof:placetype": "neighbourhood",
    "wof:population": 14850,
    "wof:population_rank": 6,
    "wof:repo": "whosonfirst-data-admin-gb",
    "wof:superseded_by": [],
    "wof:supersedes": [],
    "wof:tags": []
  },
  "bbox": [
    -2.974753,
    53.327788,
    -2.974753,
    53.327788
  ],
  "geometry": {"type":"Point","coordinates":[-2.974753,53.327788]}
}
