{
  "id": 1360809361,
  "type": "Feature",
  "properties": {
    "edtf:cessation": "",
    "edtf:inception": "",
    "geom:area": 0,
    "geom:area_square_m": 0,
    "geom:bbox": "-2.983330,54.883330,-2.983330,54.883330",
    "geom:latitude": 54.88333000000001,
    "geom:longitude": -2.98333,
    "gn:admin1_code": "ENG",
    "gn:admin2_code": "C9",
    "gn:admin3_code": "16UD",
    "gn:asciiname": "Belle Vue",
    "gn:country_code": "GB",
    "gn:dem": 56,
    "gn:feature_class": "P",
    "gn:feature_code": "PPL",
    "gn:geonameid": 2655960,
    "gn:latitude": 54.88333,
    "gn:longitude": -2.98333,
    "gn:modification_date": "2012-05-05",
    "gn:name": "Belle Vue",
    "gn:population": 0,
    "gn:timezone": "Europe/London",
    "iso:country": "GB",
    "lbl:bbox": "-2.98833,54.87833,-2.97833,54.88833",
    "lbl:max_zoom": 18,
    "mz:hierarchy_label": 1,
    "mz:is_current": 1,
    "mz:min_zoom": 15,
    "name:pol_x_preferred": [
      "Belle Vue"
    ],
    "src:geom": "geonames",
    "src:population": "wikidata",
    "wof:belongsto": [
      1880761989,
      101750619,
      1880773239
    ],
    "wof:breaches": [],
    "wof:concordances": {
      "gn:id": 2655960,
      "wk:page": "Belle_Vue%2C_Cumbria"
    },
    "wof:country": "GB",
    "wof:created": 1765390699,
    "wof:geomhash": "99819a3cd2fc5b9928fe56b7693d0daf",
    "wof:hierarchy": [
      {
        "continent_id": -1,
        "country_id": -1,
        "county_id": 1880773239,
        "locality_id": 101750619,
        "macrocounty_id": 1880761989,
        "neighbourhood_id": 1360809361,
        "region_id": -1
      }
    ],
    "wof:id": 1360809361,
    "wof:lastmodified": 1765390699,
    "wof:name": "Belle Vue",
    "wof:parent_id": 101750619,
    "wof:placetype": "neighbourhood",
    "wof:population": 6491,
    "wof:population_rank": 5,
    "wof:repo": "whosonfirst-data-admin-gb",
    "wof:superseded_by": [],
    "wof:supersedes": [
      1360014773
    ],
    "wof:tags": []
  },
  "bbox": [
    -2.98333,
    54.88333000000001,
    -2.98333,
    54.88333000000001
  ],
  "geometry": {"type":"Point","coordinates":[-2.98333,54.88333000000001]}
}
