{
  "id": 101750631,
  "type": "Feature",
  "properties": {
    "edtf:cessation": "",
    "edtf:inception": "",
    "geom:area": 0.004135947766499925,
    "geom:area_square_m": 28677128.085543,
    "geom:bbox": "-3.597784,55.856421,-3.479458,55.919829",
    "geom:latitude": 55.89313486106969,
    "geom:longitude": -3.5284167795839494,
    "gn:population": 53798,
    "iso:country": "GB",
    "lbl:latitude": 55.891517,
    "lbl:longitude": -3.519453,
    "lbl:max_zoom": 14,
    "lbl:min_zoom": 9.5,
    "mps:latitude": 55.891517,
    "mps:longitude": -3.519453,
    "mz:hierarchy_label": 1,
    "mz:is_current": 1,
    "mz:min_zoom": 8,
    "name:ara_x_preferred": [
      "ليفينغستون"
    ],
    "name:arz_x_preferred": [
      "ليفينجستين"
    ],
    "name:ast_x_preferred": [
      "Livingston"
    ],
    "name:aze_x_preferred": [
      "Livinqston"
    ],
    "name:ben_x_preferred": [
      "লিভিংস্টন"
    ],
    "name:bre_x_preferred": [
      "Baile Dhùnlèibhe"
    ],
    "name:cat_x_preferred": [
      "Livingston"
    ],
    "name:ceb_x_preferred": [
      "Livingston"
    ],
    "name:ces_x_preferred": [
      "Livingston"
    ],
    "name:cym_x_preferred": [
      "Livingston"
    ],
    "name:dan_x_preferred": [
      "Livingston"
    ],
    "name:deu_x_preferred": [
      "Livingston"
    ],
    "name:eng_x_preferred": [
      "Livingston"
    ],
    "name:epo_x_preferred": [
      "Livingston"
    ],
    "name:eus_x_preferred": [
      "Livingston"
    ],
    "name:fas_x_preferred": [
      "لیوینگستون، اسکاتلند"
    ],
    "name:fas_x_variant": [
      "لیوینگستون"
    ],
    "name:fin_x_preferred": [
      "Livingston"
    ],
    "name:fra_x_preferred": [
      "Livingston"
    ],
    "name:gla_x_preferred": [
      "Baile Lèibhinn"
    ],
    "name:gla_x_variant": [
      "Baile Dhunlèibhe"
    ],
    "name:gle_x_preferred": [
      "Baile Dhún Léibhe"
    ],
    "name:guj_x_preferred": [
      "લિવિંગસ્ટન"
    ],
    "name:hbs_x_preferred": [
      "Livingston"
    ],
    "name:heb_x_preferred": [
      "ליבינגסטון"
    ],
    "name:hye_x_preferred": [
      "Լիվինգստոն"
    ],
    "name:isl_x_preferred": [
      "Livingston"
    ],
    "name:ita_x_preferred": [
      "Livingston"
    ],
    "name:jpn_x_preferred": [
      "リヴィングストン"
    ],
    "name:kan_x_preferred": [
      "ಲಿವಿಂಗ್ಸ್ಟನ್"
    ],
    "name:kor_x_preferred": [
      "리빙스턴"
    ],
    "name:lit_x_preferred": [
      "Livingstonas"
    ],
    "name:nld_x_preferred": [
      "Livingston"
    ],
    "name:nno_x_preferred": [
      "Livingston i Skottland"
    ],
    "name:nob_x_preferred": [
      "Livingston"
    ],
    "name:nor_x_preferred": [
      "Livingston"
    ],
    "name:pnb_x_preferred": [
      "لونگسٹن"
    ],
    "name:pol_x_preferred": [
      "Livingston"
    ],
    "name:por_x_preferred": [
      "Livingston"
    ],
    "name:rus_x_preferred": [
      "Ливингстон"
    ],
    "name:sco_x_preferred": [
      "Leivinstoun"
    ],
    "name:slk_x_preferred": [
      "Livingston"
    ],
    "name:spa_x_preferred": [
      "Livingston"
    ],
    "name:srp_x_preferred": [
      "Ливингстон"
    ],
    "name:swe_x_preferred": [
      "Livingston"
    ],
    "name:tam_x_preferred": [
      "லிவிங்ஸ்டன்"
    ],
    "name:tat_x_preferred": [
      "Ливиңстон"
    ],
    "name:tel_x_preferred": [
      "లివింగ్టన్"
    ],
    "name:ukr_x_preferred": [
      "Лівінгстон"
    ],
    "name:urd_x_preferred": [
      "لیونگسٹن، مغربی لوتھیان"
    ],
    "name:urd_x_variant": [
      "لیونگسٹن"
    ],
    "name:zho_x_preferred": [
      "利文斯通"
    ],
    "name:zho_x_variant": [
      "利文斯頓"
    ],
    "qs:a0": "United Kingdom",
    "qs:a1": "*West Lothian",
    "qs:a1_lc": "GB11RH0000",
    "qs:a1r": "0Scotland",
    "qs:a1r_lc": "GB11000000",
    "qs:adm0": "United Kingdom",
    "qs:id": 0,
    "qs:la_lc": "*",
    "qs:level": "locality",
    "qs:loc": "Livingston",
    "qs:loc_alt": "Livington",
    "qs:pop": 0,
    "qs:source": "RCustom EuroGlobalMap + UMZ Urban Polygons + Geonames + GeoPlanet",
    "qs:type": "urban core",
    "src:geom": "quattroshapes",
    "src:geom_alt": [
      "quattroshapes_pg"
    ],
    "src:lbl_centroid": "mapshaper",
    "src:population": "wikidata",
    "wd:latitude": 55.8834,
    "wd:longitude": -3.5157,
    "wd:population": 50826,
    "wd:wordcount": 5083,
    "wof:belongsto": [
      1880773117,
      102191581,
      85633159,
      1880762081,
      404227471,
      136253055,
      1360699027
    ],
    "wof:breaches": [],
    "wof:concordances": {
      "gn:id": 2644204,
      "gp:id": 26740,
      "qs_pg:id": 213641,
      "wd:id": "Q848287",
      "wk:page": "Livingston, West Lothian"
    },
    "wof:concordances_alt": {
      "qs_pg:id": 351986
    },
    "wof:country": "GB",
    "wof:created": 1765384718,
    "wof:geom_alt": [
      "quattroshapes_pg"
    ],
    "wof:geomhash": "486ef2fca2c71528cdd372b88166c814",
    "wof:hierarchy": [
      {
        "continent_id": 102191581,
        "country_id": 85633159,
        "county_id": 1360699027,
        "empire_id": 136253055,
        "locality_id": 101750631,
        "macrocounty_id": 1880762081,
        "macroregion_id": 404227471,
        "region_id": 1880773117
      }
    ],
    "wof:id": 101750631,
    "wof:lastmodified": 1765384718,
    "wof:name": "Livingston",
    "wof:parent_id": 1360699027,
    "wof:placetype": "locality",
    "wof:population": 57030,
    "wof:population_rank": 8,
    "wof:repo": "whosonfirst-data-admin-gb",
    "wof:superseded_by": [],
    "wof:supersedes": [],
    "wof:tags": []
  },
  "bbox": [
    -3.597784,
    55.856421,
    -3.479458,
    55.919829
  ],
  "geometry": {"type":"Polygon","coordinates":[[[-3.525204,55.916947],[-3.518431,55.916489],[-3.505853,55.918945],[-3.498044,55.918888],[-3.500934,55.916766],[-3.499176,55.914128],[-3.490603,55.908723],[-3.487517,55.904845],[-3.486369,55.900704],[-3.480148,55.896072],[-3.479458,55.892479],[-3.481431,55.889043],[-3.481228,55.885796],[-3.489977,55.880725],[-3.487556,55.876744],[-3.487833,55.87502],[-3.495738,55.871293],[-3.497583,55.868689],[-3.500598,55.867284],[-3.507419,55.859835],[-3.514753,55.856421],[-3.51846,55.859307],[-3.520902,55.863712],[-3.532595,55.862455],[-3.538424,55.865011],[-3.531604,55.869284],[-3.534589,55.873145],[-3.540815,55.872194],[-3.542788,55.87679],[-3.55393,55.875075],[-3.560853,55.881304],[-3.563463,55.886709],[-3.569461,55.890076],[-3.568153,55.893146],[-3.576251,55.89596],[-3.584532,55.895105],[-3.597784,55.900439],[-3.588044,55.905386],[-3.577917,55.907607],[-3.568302,55.91198],[-3.552314,55.916487],[-3.545689,55.918692],[-3.526805,55.919829],[-3.525204,55.916947]]]}
}
