{
  "id": 85788439,
  "type": "Feature",
  "properties": {
    "edtf:cessation": "",
    "edtf:inception": "",
    "geom:area": 0.000035706695999976334,
    "geom:area_square_m": 274452.768863,
    "geom:bbox": "0.081445,51.558466,0.088843,51.564944",
    "geom:latitude": 51.56170495214998,
    "geom:longitude": 0.085144,
    "iso:country": "GB",
    "lbl:latitude": 51.555495,
    "lbl:longitude": 0.077317,
    "lbl:max_zoom": 18,
    "mps:latitude": 51.561705,
    "mps:longitude": 0.085144,
    "mz:hierarchy_label": 1,
    "mz:is_current": -1,
    "mz:is_funky": 0,
    "mz:is_hard_boundary": 0,
    "mz:is_landuse_aoi": 0,
    "mz:is_official": 0,
    "mz:max_zoom": 18,
    "mz:min_zoom": 14,
    "mz:tier_locality": 7,
    "mz:tier_metro": 1,
    "name:ara_x_preferred": [
      "إيلفورد"
    ],
    "name:arz_x_preferred": [
      "ايلفورد"
    ],
    "name:ast_x_preferred": [
      "Ilford"
    ],
    "name:azb_x_preferred": [
      "ایلفورد"
    ],
    "name:aze_x_preferred": [
      "İlford"
    ],
    "name:bar_x_preferred": [
      "Ilford"
    ],
    "name:bel_x_preferred": [
      "Ілфард"
    ],
    "name:ben_x_preferred": [
      "ইলফোর্ড"
    ],
    "name:cat_x_preferred": [
      "Ilford"
    ],
    "name:ces_x_preferred": [
      "Ilford"
    ],
    "name:cym_x_preferred": [
      "Ilford"
    ],
    "name:deu_x_preferred": [
      "Ilford"
    ],
    "name:ell_x_preferred": [
      "Ίλφορντ"
    ],
    "name:eng_x_preferred": [
      "Ilford"
    ],
    "name:fas_x_preferred": [
      "ایلفورد"
    ],
    "name:fin_x_preferred": [
      "Ilford"
    ],
    "name:fra_x_preferred": [
      "Ilford"
    ],
    "name:fry_x_preferred": [
      "Ilford"
    ],
    "name:gle_x_preferred": [
      "Ilford"
    ],
    "name:heb_x_preferred": [
      "אילפורד"
    ],
    "name:hin_x_preferred": [
      "इलफ़र्ड"
    ],
    "name:hye_x_preferred": [
      "Իլֆորդ"
    ],
    "name:ita_x_preferred": [
      "Ilford"
    ],
    "name:jpn_x_preferred": [
      "イルフォード"
    ],
    "name:kor_x_preferred": [
      "일퍼드"
    ],
    "name:lld_x_preferred": [
      "Ilford"
    ],
    "name:nld_x_preferred": [
      "Ilford"
    ],
    "name:nno_x_preferred": [
      "Ilford"
    ],
    "name:nob_x_preferred": [
      "Ilford"
    ],
    "name:nor_x_preferred": [
      "Ilford"
    ],
    "name:pol_x_preferred": [
      "Ilford"
    ],
    "name:rus_x_preferred": [
      "Илфорд"
    ],
    "name:slv_x_preferred": [
      "Ilford"
    ],
    "name:spa_x_preferred": [
      "Ilford"
    ],
    "name:swe_x_preferred": [
      "Ilford"
    ],
    "name:tgk_x_preferred": [
      "Илфурд"
    ],
    "name:ukr_x_preferred": [
      "Ілфорд"
    ],
    "name:urd_x_preferred": [
      "ایلفورد"
    ],
    "name:vie_x_preferred": [
      "Ilford"
    ],
    "name:yid_x_preferred": [
      "אילפארד"
    ],
    "name:zho_x_preferred": [
      "伊爾福德"
    ],
    "qs:gn_adm0_cc": "GB",
    "qs:gn_fcode": "PPLA3",
    "qs:gn_local": 2643743,
    "qs:gn_namadm1": "ENG",
    "qs:gn_name": "Ilford",
    "qs:local_max": 40697,
    "qs:local_sum": 1675717,
    "qs:localhoods": 643,
    "qs:name": "Ilford",
    "qs:name_adm0": "United Kingdom",
    "qs:name_adm1": "England",
    "qs:name_adm2": "Greater London",
    "qs:name_lau": "London Borough of Redbridge",
    "qs:name_local": "London",
    "qs:photo_max": 56,
    "qs:photo_sum": 140,
    "qs:placetype": "Suburb",
    "qs:quad_count": 8,
    "qs:woe_adm0": 23424975,
    "qs:woe_adm1": 24554868,
    "qs:woe_adm2": 23416974,
    "qs:woe_funk": "Grouping neighborhood",
    "qs:woe_lau": 12695835,
    "qs:woe_local": 44418,
    "qs:woe_ver": "7.10.0",
    "src:geom": "quattroshapes",
    "src:geom_alt": [
      "quattroshapes_pg"
    ],
    "src:lbl_centroid": "mz",
    "src:population": "wikidata",
    "wd:latitude": 51.558806,
    "wd:longitude": 0.085458,
    "wd:wordcount": 2352,
    "wof:belongsto": [
      1880762729,
      102191581,
      1880762179,
      85633159,
      404227469,
      101750367,
      136253055,
      1158857291,
      1880771825
    ],
    "wof:breaches": [],
    "wof:concordances": {
      "gn:id": 2646277,
      "gp:id": 24332,
      "qs_pg:id": 425810,
      "wd:id": "Q2297044",
      "wk:page": "Ilford"
    },
    "wof:country": "GB",
    "wof:created": 1765391079,
    "wof:geom_alt": [
      "quattroshapes_pg"
    ],
    "wof:geomhash": "352451b16b101ff9d7f4d62ed79cb4f2",
    "wof:hierarchy": [
      {
        "borough_id": 1158857291,
        "continent_id": 102191581,
        "country_id": 85633159,
        "county_id": 1880771825,
        "empire_id": 136253055,
        "locality_id": 101750367,
        "macrocounty_id": 1880762179,
        "macroregion_id": 404227469,
        "neighbourhood_id": 85788439,
        "region_id": 1880762729
      }
    ],
    "wof:id": 85788439,
    "wof:lang": [
      "eng"
    ],
    "wof:lastmodified": 1765391079,
    "wof:name": "Ilford",
    "wof:parent_id": 1158857291,
    "wof:placetype": "neighbourhood",
    "wof:population": 168168,
    "wof:population_rank": 9,
    "wof:repo": "whosonfirst-data-admin-gb",
    "wof:superseded_by": [],
    "wof:supersedes": [],
    "wof:tags": []
  },
  "bbox": [
    0.081445,
    51.558466,
    0.088843,
    51.564944
  ],
  "geometry": {"type":"Polygon","coordinates":[[[0.082397,51.564944],[0.085144,51.563471],[0.087891,51.564944],[0.088843,51.563412],[0.088489,51.561705],[0.088843,51.559997],[0.087891,51.558466],[0.085144,51.559939],[0.082397,51.558466],[0.081445,51.559997],[0.081799,51.561705],[0.081445,51.563412],[0.082397,51.564944]]]}
}
