{
  "id": 1360809327,
  "type": "Feature",
  "properties": {
    "edtf:cessation": "",
    "edtf:inception": "",
    "geom:area": 0,
    "geom:area_square_m": 0,
    "geom:bbox": "-1.116670,52.650000,-1.116670,52.650000",
    "geom:latitude": 52.65,
    "geom:longitude": -1.11667,
    "gn:admin1_code": "ENG",
    "gn:admin2_code": "H5",
    "gn:asciiname": "Belgrave",
    "gn:country_code": "GB",
    "gn:dem": 61,
    "gn:feature_class": "P",
    "gn:feature_code": "PPL",
    "gn:geonameid": 2655980,
    "gn:latitude": 52.65,
    "gn:longitude": -1.11667,
    "gn:modification_date": "2010-08-03",
    "gn:name": "Belgrave",
    "gn:population": 0,
    "gn:timezone": "Europe/London",
    "iso:country": "GB",
    "lbl:bbox": "-1.12167,52.645,-1.11167,52.655",
    "lbl:max_zoom": 18,
    "mz:hierarchy_label": 1,
    "mz:is_current": 1,
    "mz:min_zoom": 15,
    "name:deu_x_preferred": [
      "Belgrave"
    ],
    "name:gle_x_preferred": [
      "Belgrave"
    ],
    "name:pol_x_preferred": [
      "Belgrave"
    ],
    "src:geom": "geonames",
    "src:population": "wikidata",
    "wof:belongsto": [
      1880773085,
      102191581,
      85633159,
      1880762051,
      404227469,
      101750485,
      136253055,
      1360698995
    ],
    "wof:breaches": [],
    "wof:concordances": {
      "gn:id": 2655980,
      "wk:page": "Belgrave%2C_Leicester"
    },
    "wof:country": "GB",
    "wof:created": 1765390697,
    "wof:geomhash": "dcb6153fef7629d0680c42c4a6da14a9",
    "wof:hierarchy": [
      {
        "continent_id": 102191581,
        "country_id": 85633159,
        "county_id": 1360698995,
        "empire_id": 136253055,
        "locality_id": 101750485,
        "macrocounty_id": 1880762051,
        "macroregion_id": 404227469,
        "neighbourhood_id": 1360809327,
        "region_id": 1880773085
      }
    ],
    "wof:id": 1360809327,
    "wof:lastmodified": 1765390697,
    "wof:name": "Belgrave",
    "wof:parent_id": 101750485,
    "wof:placetype": "neighbourhood",
    "wof:population": 11558,
    "wof:population_rank": 6,
    "wof:repo": "whosonfirst-data-admin-gb",
    "wof:superseded_by": [],
    "wof:supersedes": [
      1344186505
    ],
    "wof:tags": []
  },
  "bbox": [
    -1.11667,
    52.65,
    -1.11667,
    52.65
  ],
  "geometry": {"type":"Point","coordinates":[-1.11667,52.65]}
}
