{
  "id": 101872727,
  "type": "Feature",
  "properties": {
    "edtf:cessation": "",
    "edtf:inception": "",
    "geom:area": 0,
    "geom:area_square_m": 0,
    "geom:bbox": "-4.434416,57.599864,-4.434416,57.599864",
    "geom:latitude": 57.599864,
    "geom:longitude": -4.434416,
    "iso:country": "GB",
    "lbl:bbox": "-4.454416,57.579864,-4.414416,57.619864",
    "lbl:latitude": 57.599864,
    "lbl:longitude": -4.434416,
    "lbl:max_zoom": 18,
    "lbl:min_zoom": 13.5,
    "mps:latitude": 57.599864,
    "mps:longitude": -4.434416,
    "mz:hierarchy_label": 1,
    "mz:is_current": 1,
    "mz:min_zoom": 12,
    "name:ast_x_preferred": [
      "Dingwall"
    ],
    "name:ben_x_preferred": [
      "ডিংওয়াল"
    ],
    "name:bul_x_preferred": [
      "Дингуол"
    ],
    "name:cat_x_preferred": [
      "Dingwall"
    ],
    "name:ceb_x_preferred": [
      "Dingwall"
    ],
    "name:cym_x_preferred": [
      "Dingwall"
    ],
    "name:deu_x_preferred": [
      "Dingwall"
    ],
    "name:eng_x_preferred": [
      "Dingwall"
    ],
    "name:eus_x_preferred": [
      "Dingwall"
    ],
    "name:fas_x_preferred": [
      "دینگوال"
    ],
    "name:fra_x_preferred": [
      "Dingwall"
    ],
    "name:gla_x_preferred": [
      "Inbhir Pheofharain"
    ],
    "name:gle_x_preferred": [
      "Inbhir Pheofharain"
    ],
    "name:guj_x_preferred": [
      "ડિંગવૉલ"
    ],
    "name:hbs_x_preferred": [
      "Dingwall"
    ],
    "name:ita_x_preferred": [
      "Dingwall"
    ],
    "name:jpn_x_preferred": [
      "Dingwall市"
    ],
    "name:kan_x_preferred": [
      "ಡಿಂಗ್ವಾಲ್"
    ],
    "name:kor_x_preferred": [
      "딩월"
    ],
    "name:lit_x_preferred": [
      "Dingvolas"
    ],
    "name:nld_x_preferred": [
      "Dingwall"
    ],
    "name:nno_x_preferred": [
      "Dingwall"
    ],
    "name:nob_x_preferred": [
      "Dingwall"
    ],
    "name:nor_x_preferred": [
      "Dingwall"
    ],
    "name:pol_x_preferred": [
      "Dingwall"
    ],
    "name:por_x_preferred": [
      "Dingwall"
    ],
    "name:rus_x_preferred": [
      "Дингуолл"
    ],
    "name:sco_x_preferred": [
      "Dingwal"
    ],
    "name:spa_x_preferred": [
      "Dingwall"
    ],
    "name:swe_x_preferred": [
      "Dingwall"
    ],
    "name:tam_x_preferred": [
      "டிங்கிவால்"
    ],
    "name:tel_x_preferred": [
      "డింగ్వాల్"
    ],
    "name:tur_x_preferred": [
      "Dingwall"
    ],
    "name:ukr_x_preferred": [
      "Дінгволл"
    ],
    "name:urd_x_preferred": [
      "دینجوال"
    ],
    "name:vie_x_preferred": [
      "Dingwall"
    ],
    "name:zho_x_preferred": [
      "丁沃尔"
    ],
    "qs:a0": "United Kingdom",
    "qs:a1": "*Highland",
    "qs:a1_lc": "GB11QT0000",
    "qs:a1r": "0Scotland",
    "qs:a1r_lc": "GB11000000",
    "qs:adm0": "United Kingdom",
    "qs:id": 0,
    "qs:la_lc": "*",
    "qs:level": "locality",
    "qs:loc": "Dingwall",
    "qs:loc_alt": "Dingwall",
    "qs:pop": 0,
    "qs:source": "RCustom EuroGlobalMap + UMZ Urban Polygons + Geonames + GeoPlanet",
    "qs:type": "buffered point",
    "src:geom": "whosonfirst",
    "src:geom_alt": [
      "quattroshapes_pg",
      "quattroshapes"
    ],
    "src:geom_via": "quattroshapes",
    "src:lbl_centroid": "mapshaper",
    "src:population": "wikidata",
    "wd:latitude": 57.597222,
    "wd:longitude": -4.427778,
    "wd:wordcount": 946,
    "wof:belongsto": [
      1880762005,
      1360699045
    ],
    "wof:breaches": [],
    "wof:concordances": {
      "fct:id": "0aa629ba-8f76-11e1-848f-cfd5bf3ef515",
      "gn:id": 2651245,
      "gp:id": 18206,
      "qs_pg:id": 219783,
      "wd:id": "Q1011416",
      "wk:page": "Dingwall"
    },
    "wof:country": "GB",
    "wof:created": 1765384910,
    "wof:geom_alt": [
      "quattroshapes_pg",
      "quattroshapes"
    ],
    "wof:geomhash": "f7248deda352a551c58bc74eb0d2272a",
    "wof:hierarchy": [
      {
        "continent_id": -1,
        "country_id": -1,
        "county_id": 1360699045,
        "locality_id": 101872727,
        "macrocounty_id": 1880762005,
        "region_id": -1
      }
    ],
    "wof:id": 101872727,
    "wof:lang": [
      "eng"
    ],
    "wof:lastmodified": 1765384910,
    "wof:name": "Dingwall",
    "wof:parent_id": 1360699045,
    "wof:placetype": "locality",
    "wof:population": 5470,
    "wof:population_rank": 5,
    "wof:repo": "whosonfirst-data-admin-gb",
    "wof:superseded_by": [],
    "wof:supersedes": [],
    "wof:tags": []
  },
  "bbox": [
    -4.434416,
    57.599864,
    -4.434416,
    57.599864
  ],
  "geometry": {"type":"Point","coordinates":[-4.434416,57.599864]}
}
