{
  "id": 85786059,
  "type": "Feature",
  "properties": {
    "edtf:cessation": "",
    "edtf:inception": "",
    "geom:area": 0.00030985558949997633,
    "geom:area_square_m": 2391176.244273,
    "geom:bbox": "0.023650,51.372731,0.051463,51.393498",
    "geom:latitude": 51.38418760371774,
    "geom:longitude": 0.039301739808407316,
    "gn:id": "",
    "iso:country": "GB",
    "lbl:latitude": 51.381961,
    "lbl:longitude": 0.044158,
    "lbl:max_zoom": 18,
    "mps:latitude": 51.385451,
    "mps:longitude": 0.039301,
    "mz:hierarchy_label": 1,
    "mz:is_current": -1,
    "mz:is_funky": 0,
    "mz:is_hard_boundary": 0,
    "mz:is_landuse_aoi": 0,
    "mz:is_official": 0,
    "mz:max_zoom": 18,
    "mz:min_zoom": 14,
    "mz:tier_locality": 7,
    "mz:tier_metro": 1,
    "name:eng_x_preferred": [
      "Bromley Common"
    ],
    "name:fra_x_preferred": [
      "Bromley Common"
    ],
    "name:gle_x_preferred": [
      "Bromley Common"
    ],
    "name:hin_x_preferred": [
      "ब्रॉमली कॉमन"
    ],
    "name:jpn_x_preferred": [
      "ブロムリーコモン"
    ],
    "name:nld_x_preferred": [
      "Bromley Common"
    ],
    "name:nob_x_preferred": [
      "Bromley Common"
    ],
    "name:nor_x_preferred": [
      "Bromley Common"
    ],
    "name:spa_x_preferred": [
      "Bromley Common"
    ],
    "name:urd_x_preferred": [
      "بروملی کومن، لندن"
    ],
    "name:urd_x_variant": [
      "بروملی کومن"
    ],
    "qs:gn_adm0_cc": "GB",
    "qs:gn_id": 0,
    "qs:gn_local": 2643743,
    "qs:local_max": 40697,
    "qs:local_sum": 1675717,
    "qs:localhoods": 643,
    "qs:name": "Bromley Common",
    "qs:name_adm0": "United Kingdom",
    "qs:name_adm1": "England",
    "qs:name_adm2": "Greater London",
    "qs:name_lau": "London Borough of Bromley",
    "qs:name_local": "London",
    "qs:photo_max": 1044,
    "qs:photo_sum": 6070,
    "qs:placetype": "Suburb",
    "qs:quad_count": 52,
    "qs:woe_adm0": 23424975,
    "qs:woe_adm1": 24554868,
    "qs:woe_adm2": 23416974,
    "qs:woe_funk": "Parented by a neighborhood",
    "qs:woe_lau": 12695824,
    "qs:woe_local": 44418,
    "qs:woe_ver": "7.10.0",
    "src:geom": "quattroshapes",
    "src:geom_alt": [
      "quattroshapes_pg"
    ],
    "src:lbl_centroid": "mz",
    "src:population": "wikidata",
    "wd:wordcount": 467,
    "wof:belongsto": [
      1880762729,
      102191581,
      1880762179,
      85633159,
      404227469,
      101750367,
      136253055,
      1158857297,
      1880771825
    ],
    "wof:breaches": [],
    "wof:concordances": {
      "gp:id": 14110,
      "qs_pg:id": 238269,
      "wd:id": "Q123380"
    },
    "wof:country": "GB",
    "wof:created": 1765390982,
    "wof:geom_alt": [
      "quattroshapes_pg"
    ],
    "wof:geomhash": "23d78380cbf406d085b90b3a4f556309",
    "wof:hierarchy": [
      {
        "borough_id": 1158857297,
        "continent_id": 102191581,
        "country_id": 85633159,
        "county_id": 1880771825,
        "empire_id": 136253055,
        "locality_id": 101750367,
        "macrocounty_id": 1880762179,
        "macroregion_id": 404227469,
        "neighbourhood_id": 85786059,
        "region_id": 1880762729
      }
    ],
    "wof:id": 85786059,
    "wof:lang": [
      "eng"
    ],
    "wof:lastmodified": 1765390982,
    "wof:name": "Bromley Common",
    "wof:parent_id": 1158857297,
    "wof:placetype": "neighbourhood",
    "wof:population": 15113,
    "wof:population_rank": 6,
    "wof:repo": "whosonfirst-data-admin-gb",
    "wof:superseded_by": [],
    "wof:supersedes": [],
    "wof:tags": []
  },
  "bbox": [
    0.02365,
    51.372731,
    0.051463,
    51.393498
  ],
  "geometry": {"type":"Polygon","coordinates":[[[0.037737,51.393498],[0.038452,51.392351],[0.038452,51.390637],[0.041199,51.390637],[0.042268,51.390637],[0.04317,51.389914],[0.043353,51.389872],[0.043945,51.388923],[0.043945,51.388923],[0.049438,51.388923],[0.049438,51.388923],[0.049438,51.385495],[0.049438,51.385495],[0.050508,51.383781],[0.049439,51.382067],[0.049438,51.382067],[0.049438,51.37887],[0.049679,51.378638],[0.051463,51.376924],[0.050393,51.375209],[0.049438,51.373681],[0.048845,51.372731],[0.046692,51.373223],[0.044538,51.372731],[0.043945,51.373681],[0.042991,51.375209],[0.038452,51.375209],[0.038452,51.375209],[0.038452,51.378638],[0.038452,51.378638],[0.037382,51.380352],[0.034029,51.380352],[0.032959,51.382067],[0.032959,51.382067],[0.031889,51.383781],[0.028776,51.383781],[0.02842,51.385495],[0.027466,51.385495],[0.027466,51.386445],[0.026093,51.387178],[0.026093,51.387209],[0.026093,51.388066],[0.024719,51.388066],[0.02442,51.388066],[0.024242,51.388923],[0.024004,51.39007],[0.02365,51.390637],[0.02365,51.390637],[0.024719,51.392351],[0.025254,51.393208],[0.026931,51.393208],[0.027466,51.392351],[0.030212,51.392351],[0.030747,51.391494],[0.032424,51.391494],[0.032959,51.392351],[0.033674,51.393498],[0.035706,51.392412],[0.037737,51.393498]]]}
}
