{
  "id": 85791723,
  "type": "Feature",
  "properties": {
    "edtf:cessation": "",
    "edtf:inception": "",
    "geom:area": 0.0008783390244999608,
    "geom:area_square_m": 6471088.768039,
    "geom:bbox": "-2.268677,53.417717,-2.213745,53.443825",
    "geom:latitude": 53.42894669181658,
    "geom:longitude": -2.2423070134352088,
    "gn:latitude": 53.43459,
    "gn:longitude": -2.23443,
    "iso:country": "GB",
    "lbl:latitude": 53.433802,
    "lbl:longitude": -2.231449,
    "lbl:max_zoom": 18,
    "mps:latitude": 53.430318,
    "mps:longitude": -2.24283,
    "mz:hierarchy_label": 1,
    "mz:is_current": -1,
    "mz:is_funky": 0,
    "mz:is_hard_boundary": 0,
    "mz:is_landuse_aoi": 0,
    "mz:is_official": 0,
    "mz:max_zoom": 18,
    "mz:min_zoom": 13,
    "mz:tier_locality": 4,
    "mz:tier_metro": 1,
    "name:ara_x_preferred": [
      "ويثنغتون"
    ],
    "name:arz_x_preferred": [
      "ويثنجتون"
    ],
    "name:bel_x_preferred": [
      "Уітынгтан"
    ],
    "name:cat_x_preferred": [
      "Withington"
    ],
    "name:eng_x_preferred": [
      "Withington"
    ],
    "name:fra_x_preferred": [
      "Withington"
    ],
    "name:gle_x_preferred": [
      "Withington"
    ],
    "name:heb_x_preferred": [
      "וייתנגטון"
    ],
    "name:jpn_x_preferred": [
      "ウィズィントン"
    ],
    "name:nld_x_preferred": [
      "Withington"
    ],
    "name:pol_x_preferred": [
      "Withington"
    ],
    "name:pol_x_variant": [
      "Woodmansterne"
    ],
    "name:rus_x_preferred": [
      "Уитингтон"
    ],
    "name:swe_x_preferred": [
      "Withington"
    ],
    "name:zho_x_preferred": [
      "威辛顿"
    ],
    "qs:gn_adm0_cc": "GB",
    "qs:gn_fcode": "PPLX",
    "qs:gn_local": 2643123,
    "qs:gn_namadm1": "ENG",
    "qs:gn_name": "Withington",
    "qs:local_max": 9270,
    "qs:local_sum": 123713,
    "qs:localhoods": 57,
    "qs:name": "Withington",
    "qs:name_adm0": "United Kingdom",
    "qs:name_adm1": "England",
    "qs:name_adm2": "Greater Manchester",
    "qs:name_lau": "Manchester City",
    "qs:name_local": "Manchester",
    "qs:photo_max": 210,
    "qs:photo_sum": 2896,
    "qs:placetype": "Suburb",
    "qs:quad_count": 115,
    "qs:woe_adm0": 23424975,
    "qs:woe_adm1": 24554868,
    "qs:woe_adm2": 12602158,
    "qs:woe_lau": 12695841,
    "qs:woe_local": 28218,
    "qs:woe_ver": "7.10.0",
    "src:geom": "quattroshapes",
    "src:geom_alt": [
      "quattroshapes_pg"
    ],
    "src:lbl_centroid": "mz",
    "src:population": "wikidata",
    "wd:wordcount": 3361,
    "wof:belongsto": [
      1880773095,
      102191581,
      85633159,
      1880762163,
      404227469,
      101750525,
      136253055,
      1360698893
    ],
    "wof:breaches": [],
    "wof:concordances": {
      "gn:id": 6691249,
      "gp:id": 40796,
      "qs_pg:id": 231873,
      "wd:id": "Q2363433",
      "wk:page": "Withington"
    },
    "wof:country": "GB",
    "wof:created": 1765391238,
    "wof:geom_alt": [
      "quattroshapes_pg"
    ],
    "wof:geomhash": "15990b0a4f8d57cc29be7e30236d9133",
    "wof:hierarchy": [
      {
        "continent_id": 102191581,
        "country_id": 85633159,
        "county_id": 1360698893,
        "empire_id": 136253055,
        "locality_id": 101750525,
        "macrocounty_id": 1880762163,
        "macroregion_id": 404227469,
        "neighbourhood_id": 85791723,
        "region_id": 1880773095
      }
    ],
    "wof:id": 85791723,
    "wof:lang": [
      "eng"
    ],
    "wof:lastmodified": 1765391238,
    "wof:name": "Withington",
    "wof:parent_id": 101750525,
    "wof:placetype": "neighbourhood",
    "wof:population": 13422,
    "wof:population_rank": 6,
    "wof:repo": "whosonfirst-data-admin-gb",
    "wof:superseded_by": [],
    "wof:supersedes": [],
    "wof:tags": []
  },
  "bbox": [
    -2.268677,
    53.417717,
    -2.213745,
    53.443825
  ],
  "geometry": {"type":"Polygon","coordinates":[[[-2.238464,53.442288],[-2.238464,53.442264],[-2.238464,53.440628],[-2.235718,53.440628],[-2.235112,53.440628],[-2.234788,53.438991],[-2.234344,53.438248],[-2.233015,53.438991],[-2.230756,53.440256],[-2.230225,53.439809],[-2.22925,53.438991],[-2.228453,53.438991],[-2.227478,53.437355],[-2.224731,53.437355],[-2.224731,53.435719],[-2.219238,53.435719],[-2.219238,53.432447],[-2.218541,53.431275],[-2.218633,53.43081],[-2.218308,53.429174],[-2.213745,53.429174],[-2.213745,53.429174],[-2.213745,53.425901],[-2.213745,53.425901],[-2.218308,53.425901],[-2.218633,53.424264],[-2.21854,53.423799],[-2.219238,53.422628],[-2.219936,53.421456],[-2.221985,53.422602],[-2.224731,53.421066],[-2.225662,53.422627],[-2.229294,53.422627],[-2.230225,53.421066],[-2.232971,53.422602],[-2.235718,53.421066],[-2.235718,53.420915],[-2.235718,53.419354],[-2.238509,53.419354],[-2.239207,53.418964],[-2.240258,53.419316],[-2.241211,53.417717],[-2.243958,53.417717],[-2.246704,53.417717],[-2.24768,53.417717],[-2.248655,53.418535],[-2.249451,53.418535],[-2.251402,53.417717],[-2.252152,53.417717],[-2.255079,53.419354],[-2.255739,53.419354],[-2.25574,53.419354],[-2.25769,53.419354],[-2.263184,53.419354],[-2.268677,53.419354],[-2.268677,53.419354],[-2.268677,53.421066],[-2.268677,53.422628],[-2.268677,53.425901],[-2.268677,53.427462],[-2.268677,53.429174],[-2.268677,53.429174],[-2.264114,53.429174],[-2.263789,53.43081],[-2.263184,53.43081],[-2.260437,53.43081],[-2.259695,53.432056],[-2.258532,53.432447],[-2.25769,53.432729],[-2.25769,53.434158],[-2.25769,53.435719],[-2.252478,53.435719],[-2.252197,53.436002],[-2.252197,53.43743],[-2.252197,53.438991],[-2.249451,53.438991],[-2.249451,53.440628],[-2.246704,53.440628],[-2.246704,53.442264],[-2.246704,53.443825],[-2.243958,53.442288],[-2.241211,53.443825],[-2.238464,53.442288]]]}
}
