{
  "id": 85791427,
  "type": "Feature",
  "properties": {
    "edtf:cessation": "",
    "edtf:inception": "",
    "geom:area": 0.00003713951850002761,
    "geom:area_square_m": 285497.213761,
    "geom:bbox": "-0.288391,51.556582,-0.278778,51.561705",
    "geom:latitude": 51.5591138007841,
    "geom:longitude": -0.28387976412190674,
    "gn:latitude": 51.55242,
    "gn:longitude": -0.29686,
    "iso:country": "GB",
    "lbl:latitude": 51.551494,
    "lbl:longitude": -0.293309,
    "lbl:max_zoom": 18,
    "mps:latitude": 51.559144,
    "mps:longitude": -0.283971,
    "mz:hierarchy_label": 1,
    "mz:is_current": -1,
    "mz:is_funky": 0,
    "mz:is_hard_boundary": 0,
    "mz:is_landuse_aoi": 0,
    "mz:is_official": 0,
    "mz:max_zoom": 18,
    "mz:min_zoom": 12,
    "mz:tier_locality": 7,
    "mz:tier_metro": 1,
    "name:ara_x_preferred": [
      "ويمبلي"
    ],
    "name:arz_x_preferred": [
      "ويمبلى"
    ],
    "name:ast_x_preferred": [
      "Wembley"
    ],
    "name:azb_x_preferred": [
      "ومبلی"
    ],
    "name:bel_x_preferred": [
      "Уэмблі"
    ],
    "name:bul_x_preferred": [
      "Уембли"
    ],
    "name:cat_x_preferred": [
      "Wembley"
    ],
    "name:ces_x_preferred": [
      "Wembley"
    ],
    "name:ckb_x_preferred": [
      "وێمبڵی"
    ],
    "name:cym_x_preferred": [
      "Wembley"
    ],
    "name:dan_x_preferred": [
      "Wembley"
    ],
    "name:deu_x_preferred": [
      "Wembley"
    ],
    "name:ell_x_preferred": [
      "Γουέμπλεϊ"
    ],
    "name:eng_x_preferred": [
      "Wembley"
    ],
    "name:est_x_preferred": [
      "Wembley"
    ],
    "name:fas_x_preferred": [
      "ومبلی"
    ],
    "name:fra_x_preferred": [
      "Wembley"
    ],
    "name:gle_x_preferred": [
      "Wembley"
    ],
    "name:heb_x_preferred": [
      "ומבלי"
    ],
    "name:hin_x_preferred": [
      "वेम्बली"
    ],
    "name:hye_x_preferred": [
      "Ուեմբլի"
    ],
    "name:ind_x_preferred": [
      "Wembley"
    ],
    "name:isl_x_preferred": [
      "Wembley"
    ],
    "name:ita_x_preferred": [
      "Wembley"
    ],
    "name:jpn_x_preferred": [
      "ウェンブリー"
    ],
    "name:kor_x_preferred": [
      "웸블리"
    ],
    "name:mkd_x_preferred": [
      "Вембли"
    ],
    "name:mlg_x_preferred": [
      "Wembley"
    ],
    "name:new_x_preferred": [
      "वेम्बली"
    ],
    "name:nld_x_preferred": [
      "Wembley"
    ],
    "name:nob_x_preferred": [
      "Wembley"
    ],
    "name:pol_x_preferred": [
      "Wembley"
    ],
    "name:por_x_preferred": [
      "Wembley"
    ],
    "name:rus_x_preferred": [
      "Уэмбли"
    ],
    "name:sco_x_preferred": [
      "Wembley"
    ],
    "name:slv_x_preferred": [
      "Wembley"
    ],
    "name:spa_x_preferred": [
      "Wembley"
    ],
    "name:swe_x_preferred": [
      "Wembley"
    ],
    "name:tat_x_preferred": [
      "Вембли"
    ],
    "name:ukr_x_preferred": [
      "Вемблі"
    ],
    "name:urd_x_preferred": [
      "ویمبلے"
    ],
    "name:yue_x_preferred": [
      "溫布萊"
    ],
    "name:zho_x_preferred": [
      "温布利"
    ],
    "qs:gn_adm0_cc": "GB",
    "qs:gn_fcode": "PPLA3",
    "qs:gn_local": 2643743,
    "qs:gn_namadm1": "ENG",
    "qs:gn_name": "Wembley",
    "qs:local_max": 40697,
    "qs:local_sum": 1675717,
    "qs:localhoods": 643,
    "qs:name": "Wembley",
    "qs:name_adm0": "United Kingdom",
    "qs:name_adm1": "England",
    "qs:name_adm2": "Greater London",
    "qs:name_lau": "London Borough of Brent",
    "qs:name_local": "London",
    "qs:photo_max": 1601,
    "qs:photo_sum": 2633,
    "qs:placetype": "Suburb",
    "qs:quad_count": 12,
    "qs:woe_adm0": 23424975,
    "qs:woe_adm1": 24554868,
    "qs:woe_adm2": 23416974,
    "qs:woe_funk": "Grouping neighborhood",
    "qs:woe_lau": 12695823,
    "qs:woe_local": 44418,
    "qs:woe_ver": "7.10.0",
    "src:geom": "quattroshapes",
    "src:geom_alt": [
      "quattroshapes_pg"
    ],
    "src:lbl_centroid": "mz",
    "src:population": "wikidata",
    "wof:belongsto": [
      1880762729,
      102191581,
      1880762179,
      85633159,
      404227469,
      101750367,
      136253055,
      1158857267,
      1880771825
    ],
    "wof:breaches": [],
    "wof:concordances": {
      "gn:id": 2634549,
      "gp:id": 39493,
      "qs_pg:id": 774764,
      "wd:id": "Q146858",
      "wk:page": "Wembley"
    },
    "wof:country": "GB",
    "wof:created": 1765391223,
    "wof:geom_alt": [
      "quattroshapes_pg"
    ],
    "wof:geomhash": "269f7dcbac111d6595045b85284aa373",
    "wof:hierarchy": [
      {
        "borough_id": 1158857267,
        "continent_id": 102191581,
        "country_id": 85633159,
        "county_id": 1880771825,
        "empire_id": 136253055,
        "locality_id": 101750367,
        "macrocounty_id": 1880762179,
        "macroregion_id": 404227469,
        "neighbourhood_id": 85791427,
        "region_id": 1880762729
      }
    ],
    "wof:id": 85791427,
    "wof:lang": [
      "eng"
    ],
    "wof:lastmodified": 1765391223,
    "wof:name": "Wembley",
    "wof:parent_id": 1158857267,
    "wof:placetype": "neighbourhood",
    "wof:population": 90045,
    "wof:population_rank": 8,
    "wof:repo": "whosonfirst-data-admin-gb",
    "wof:superseded_by": [],
    "wof:supersedes": [],
    "wof:tags": []
  },
  "bbox": [
    -0.288391,
    51.556582,
    -0.278778,
    51.561705
  ],
  "geometry": {"type":"Polygon","coordinates":[[[-0.285645,51.556582],[-0.286121,51.556582],[-0.288391,51.556582],[-0.288391,51.55829],[-0.287568,51.559614],[-0.286651,51.559909],[-0.286597,51.559997],[-0.286243,51.561705],[-0.285645,51.561705],[-0.283374,51.561705],[-0.282898,51.561705],[-0.280151,51.561705],[-0.280151,51.560939],[-0.280151,51.560763],[-0.278778,51.560027],[-0.278778,51.559997],[-0.278778,51.559526],[-0.278778,51.559144],[-0.280151,51.559144],[-0.280151,51.55829],[-0.281525,51.55829],[-0.281525,51.557436],[-0.281525,51.556582],[-0.282898,51.556582],[-0.284271,51.556582],[-0.285645,51.556582]]]}
}
