{
  "id": 85684151,
  "type": "Feature",
  "properties": {
    "edtf:cessation": "",
    "edtf:deprecated": "2017-12-20",
    "edtf:inception": "",
    "geom:area": 0.00759934461949995,
    "geom:area_square_m": 58569463.299872,
    "geom:bbox": "-0.392714,51.391441,-0.221673,51.489601",
    "geom:latitude": 51.44273753354977,
    "geom:longitude": -0.3121824233100605,
    "iso:country": "GB",
    "lbl:latitude": 51.454228,
    "lbl:longitude": -0.292154,
    "mps:latitude": 51.454228,
    "mps:longitude": -0.292154,
    "mz:hierarchy_label": 1,
    "mz:is_current": 0,
    "mz:is_funky": 1,
    "mz:max_zoom": 11,
    "mz:min_zoom": 11,
    "name:ara_x_preferred": [
      "ريتشموند، لندن"
    ],
    "name:bel_x_preferred": [
      "Рычманд-апан-Тэмс"
    ],
    "name:cat_x_preferred": [
      "Richmond upon Thames"
    ],
    "name:ces_x_preferred": [
      "Richmond"
    ],
    "name:cym_x_preferred": [
      "Richmond upon Thames"
    ],
    "name:dan_x_preferred": [
      "Richmond upon Thames"
    ],
    "name:deu_x_preferred": [
      "London Borough of Richmond upon Thames"
    ],
    "name:ell_x_preferred": [
      "Ρίτσμοντ"
    ],
    "name:eng_x_preferred": [
      "Richmond upon Thames"
    ],
    "name:epo_x_preferred": [
      "Richmond upon Thames"
    ],
    "name:eus_x_preferred": [
      "Richmond upon Thames"
    ],
    "name:fas_x_preferred": [
      "منطقه ریچموند آپون تیمز لندن"
    ],
    "name:fin_x_preferred": [
      "Richmond upon Thames"
    ],
    "name:fra_x_preferred": [
      "Richmond upon Thames"
    ],
    "name:gle_x_preferred": [
      "Buirg Londan Richmond ar Tamais"
    ],
    "name:heb_x_preferred": [
      "ריצ'מונד שעל התמזה"
    ],
    "name:hin_x_preferred": [
      "रिचमंड अपॉन टेम्स बरो"
    ],
    "name:hun_x_preferred": [
      "Richmond upon Thames kerület"
    ],
    "name:hye_x_preferred": [
      "Ռիչմոնդ ափոն Թեմզա"
    ],
    "name:isl_x_preferred": [
      "Richmond upon Thames"
    ],
    "name:ita_x_preferred": [
      "Borgo londinese di Richmond upon Thames"
    ],
    "name:jpn_x_preferred": [
      "リッチモンド・アポン・テムズ・ロンドン特別区"
    ],
    "name:kor_x_preferred": [
      "리치먼드어폰템스 구"
    ],
    "name:lat_x_preferred": [
      "Richmondia"
    ],
    "name:mar_x_preferred": [
      "रिचमंड अपॉन थेम्स"
    ],
    "name:mkd_x_preferred": [
      "Ричмонд на Темза"
    ],
    "name:nld_x_preferred": [
      "Richmond upon Thames"
    ],
    "name:nno_x_preferred": [
      "London Borough of Richmond upon Thames"
    ],
    "name:nob_x_preferred": [
      "Richmond upon Thames"
    ],
    "name:pol_x_preferred": [
      "London Borough of Richmond upon Thames"
    ],
    "name:por_x_preferred": [
      "Richmond upon Thames"
    ],
    "name:ron_x_preferred": [
      "Richmond upon Thames"
    ],
    "name:rus_x_preferred": [
      "Ричмонд-апон-Темс"
    ],
    "name:sco_x_preferred": [
      "Richmond upon Thames"
    ],
    "name:slv_x_preferred": [
      "Richmond upon Thames"
    ],
    "name:spa_x_preferred": [
      "Richmond upon Thames"
    ],
    "name:srp_x_preferred": [
      "Лондонска општина Ричмонд на Темзи"
    ],
    "name:swe_x_preferred": [
      "London Borough of Richmond upon Thames"
    ],
    "name:ukr_x_preferred": [
      "Річмонд-на-Темзі"
    ],
    "name:urd_x_preferred": [
      "رچمنڈ اپون تھیمز بورو"
    ],
    "name:yid_x_preferred": [
      "לאנדאנער בארא פון ריטשמאנד אויפן טעמז"
    ],
    "name:zho_x_preferred": [
      "泰晤士河畔列治文區"
    ],
    "ne:abbrev": "R u Tham",
    "ne:adm0_a3": "GBR",
    "ne:adm0_label": "7",
    "ne:adm0_sr": "1",
    "ne:adm1_cod_1": "GBR-2075",
    "ne:adm1_code": "GBR-2075",
    "ne:admin": "United Kingdom",
    "ne:area_sqkm": "0.00000000000",
    "ne:check_me": "20",
    "ne:code_hasc": "GB.RU",
    "ne:code_local": "",
    "ne:datarank": "5",
    "ne:diss_me": "2075",
    "ne:featurecla": "Admin-1 scale rank",
    "ne:fips": "UK17",
    "ne:fips_alt": "UKL1",
    "ne:gadm_level": "2",
    "ne:geonunit": "England",
    "ne:gn_a1_code": "GB.",
    "ne:gn_id": "-2648110",
    "ne:gn_level": "-2",
    "ne:gn_name": "Greater London",
    "ne:gn_region": "",
    "ne:gns_adm1": "",
    "ne:gns_id": "6077629",
    "ne:gns_lang": "ind",
    "ne:gns_level": "1",
    "ne:gns_name": "Richmond upon Thames, London Borough of",
    "ne:gns_region": "UK35",
    "ne:gu_a3": "ENG",
    "ne:hasc_maybe": "",
    "ne:iso_3166_2": "GB-",
    "ne:iso_a2": "GB",
    "ne:labelrank": "9",
    "ne:latitude": "51.40720000000",
    "ne:longitude": "-0.29854200000",
    "ne:mapcolor13": 3,
    "ne:mapcolor9": 6,
    "ne:name": "Richmond upon Thames",
    "ne:name_alt": "",
    "ne:name_len": 20,
    "ne:name_local": "",
    "ne:note": "",
    "ne:postal": "RU",
    "ne:provnum_ne": "3",
    "ne:region": "Greater London",
    "ne:region_cod": "",
    "ne:region_sub": "Greater London",
    "ne:sameascity": "-99",
    "ne:scalerank": "8",
    "ne:sov_a3": "GB1",
    "ne:sub_code": "",
    "ne:type": "London Borough",
    "ne:type_en": "London Borough",
    "ne:wikipedia": "",
    "ne:woe_id": 12695836,
    "ne:woe_label": "",
    "ne:woe_name": "London Borough of Richmond upon Thames",
    "qs:a0": "United Kingdom",
    "qs:a0_lc": "GB00000000",
    "qs:a1": "Richmond upon Thames",
    "qs:a1_alt": "Richmond upon Thames",
    "qs:a1_lc": "GB12BD0000",
    "qs:a1r": "England",
    "qs:a1r_alt": "England",
    "qs:a1r_lc": "GB12000000",
    "qs:adm0": "United Kingdom",
    "qs:adm0_a3": "GBR",
    "qs:level": "adm1",
    "qs:source": "EuroGlobalMap",
    "qs:type": "London Borough",
    "src:geom": "quattroshapes",
    "src:geom_alt": [],
    "src:lbl:centroid": "mapshaper",
    "src:population": "wikidata",
    "unlc:subdivision": "GB-RIC",
    "wof:belongsto": [
      102191581,
      85633159,
      404227469
    ],
    "wof:breaches": [],
    "wof:concordances": {
      "fips:code": "UK17",
      "gn:id": -2648110,
      "gp:id": 12695836,
      "hasc:id": "GB.RU",
      "unlc:id": "GB-RIC",
      "wd:id": "Q32515"
    },
    "wof:country": "GB",
    "wof:created": 1765390943,
    "wof:geomhash": "27e4b04f3bbaad031cefcc8988eb9e63",
    "wof:hierarchy": [
      {
        "continent_id": 102191581,
        "country_id": 85633159,
        "macroregion_id": 404227469,
        "region_id": 85684151
      }
    ],
    "wof:id": 85684151,
    "wof:lastmodified": 1765390943,
    "wof:name": "Richmond upon Thames",
    "wof:parent_id": 404227469,
    "wof:placetype": "region",
    "wof:population": 194894,
    "wof:population_rank": 9,
    "wof:repo": "whosonfirst-data-admin-gb",
    "wof:shortcode": "RU",
    "wof:subdivision": "GB-RIC",
    "wof:superseded_by": [
      1158857311
    ],
    "wof:supersedes": [],
    "wof:tags": []
  },
  "bbox": [
    -0.392714,
    51.391441,
    -0.221673,
    51.489601
  ],
  "geometry": {"type":"Polygon","coordinates":[[[-0.243383,51.487915],[-0.239777,51.489406],[-0.23451,51.489601],[-0.231214,51.488674],[-0.228653,51.486965],[-0.226909,51.485168],[-0.225668,51.482128],[-0.225332,51.476459],[-0.221673,51.472355],[-0.222829,51.471817],[-0.223668,51.47076],[-0.231432,51.472831],[-0.232635,51.472553],[-0.233388,51.468143],[-0.232771,51.466633],[-0.23359,51.466041],[-0.233146,51.463966],[-0.243916,51.465229],[-0.252856,51.465214],[-0.255961,51.463039],[-0.257963,51.4603],[-0.256737,51.459884],[-0.259054,51.454929],[-0.247267,51.449177],[-0.241587,51.443081],[-0.242615,51.441913],[-0.253976,51.437237],[-0.26992,51.430046],[-0.2804,51.421852],[-0.28656,51.42017],[-0.290643,51.428989],[-0.292914,51.428951],[-0.293385,51.426464],[-0.294829,51.426391],[-0.295407,51.427643],[-0.30156,51.431427],[-0.301685,51.430385],[-0.305777,51.431358],[-0.306783,51.430164],[-0.308491,51.430813],[-0.308042,51.431091],[-0.309702,51.432152],[-0.310604,51.432224],[-0.314411,51.428257],[-0.309203,51.425701],[-0.306479,51.422703],[-0.305972,51.42123],[-0.308441,51.413509],[-0.309038,51.409298],[-0.308838,51.401649],[-0.309596,51.400013],[-0.317662,51.393665],[-0.319798,51.392589],[-0.325932,51.391441],[-0.328636,51.392307],[-0.340601,51.403091],[-0.343752,51.403976],[-0.355074,51.409805],[-0.355321,51.410747],[-0.360654,51.412048],[-0.366138,51.411216],[-0.373115,51.408596],[-0.379392,51.407829],[-0.383315,51.408535],[-0.383742,51.410114],[-0.389142,51.410316],[-0.390258,51.414333],[-0.386087,51.414276],[-0.387659,51.419327],[-0.386607,51.420078],[-0.391307,51.422321],[-0.392714,51.423465],[-0.385461,51.420746],[-0.384056,51.422668],[-0.388068,51.427757],[-0.387091,51.428177],[-0.387929,51.428642],[-0.38288,51.432346],[-0.376156,51.435497],[-0.377877,51.436306],[-0.377835,51.436798],[-0.367043,51.441711],[-0.372837,51.443638],[-0.373896,51.443023],[-0.376036,51.443069],[-0.37709,51.442474],[-0.378187,51.442489],[-0.379573,51.443226],[-0.379734,51.444385],[-0.38621,51.446731],[-0.386262,51.4482],[-0.387533,51.449302],[-0.384511,51.449894],[-0.38373,51.449508],[-0.372995,51.457443],[-0.369561,51.456939],[-0.356374,51.458404],[-0.353535,51.458191],[-0.352549,51.456817],[-0.348653,51.456711],[-0.345623,51.457321],[-0.344976,51.45787],[-0.342622,51.458103],[-0.339735,51.459327],[-0.340573,51.457256],[-0.336926,51.454628],[-0.336248,51.455612],[-0.332973,51.455406],[-0.33031,51.457878],[-0.328354,51.45795],[-0.326853,51.457039],[-0.325512,51.458114],[-0.326832,51.461231],[-0.325348,51.463623],[-0.323393,51.465355],[-0.320731,51.465404],[-0.318616,51.47089],[-0.310465,51.473903],[-0.30657,51.475841],[-0.303009,51.479706],[-0.29982,51.482124],[-0.296317,51.485973],[-0.292058,51.487297],[-0.283932,51.48632],[-0.278615,51.483497],[-0.276502,51.481579],[-0.272789,51.475502],[-0.269864,51.473099],[-0.265088,51.471206],[-0.259722,51.470855],[-0.255424,51.471905],[-0.252522,51.474041],[-0.250728,51.477085],[-0.249729,51.48349],[-0.248126,51.485252],[-0.243383,51.487915]]]}
}
