{
  "id": 101872723,
  "type": "Feature",
  "properties": {
    "edtf:cessation": "",
    "edtf:inception": "",
    "geom:area": 0,
    "geom:area_square_m": 0,
    "geom:bbox": "-4.456006,57.516214,-4.456006,57.516214",
    "geom:latitude": 57.516214,
    "geom:longitude": -4.456006,
    "gn:population": 1807,
    "iso:country": "GB",
    "lbl:bbox": "-4.476006,57.496214,-4.436006,57.536214",
    "lbl:latitude": 57.516214,
    "lbl:longitude": -4.456006,
    "lbl:max_zoom": 16,
    "lbl:min_zoom": 12,
    "mps:latitude": 57.516214,
    "mps:longitude": -4.456006,
    "mz:hierarchy_label": 1,
    "mz:is_current": 1,
    "mz:min_zoom": 11,
    "name:ceb_x_preferred": [
      "Muir of Ord"
    ],
    "name:cym_x_preferred": [
      "Muir of Ord"
    ],
    "name:deu_x_preferred": [
      "Muir of Ord"
    ],
    "name:eng_x_preferred": [
      "Muir of Ord"
    ],
    "name:eus_x_preferred": [
      "Muir of Ord"
    ],
    "name:fra_x_preferred": [
      "Muir of Ord"
    ],
    "name:fry_x_preferred": [
      "Muir of Ord"
    ],
    "name:gla_x_preferred": [
      "Am Blàr Dubh"
    ],
    "name:gle_x_preferred": [
      "Am Blár Dubh"
    ],
    "name:gle_x_variant": [
      "Am Blàr Dubh"
    ],
    "name:ita_x_preferred": [
      "Muir of Ord"
    ],
    "name:nld_x_preferred": [
      "Muir of Ord"
    ],
    "name:nno_x_preferred": [
      "Muir of Ord"
    ],
    "name:nob_x_preferred": [
      "Muir of Ord"
    ],
    "name:nor_x_preferred": [
      "Muir of Ord"
    ],
    "name:sco_x_preferred": [
      "Muir o Ord"
    ],
    "name:spa_x_preferred": [
      "Muir of Ord"
    ],
    "name:swe_x_preferred": [
      "Muir of Ord"
    ],
    "name:zho_x_preferred": [
      "繆勒夫奧德"
    ],
    "qs:a0": "United Kingdom",
    "qs:a1": "*Highland",
    "qs:a1_lc": "GB11QT0000",
    "qs:a1r": "0Scotland",
    "qs:a1r_lc": "GB11000000",
    "qs:adm0": "United Kingdom",
    "qs:id": 0,
    "qs:la_lc": "*",
    "qs:level": "locality",
    "qs:loc": "Muir of Ord",
    "qs:loc_alt": "Muir of Ord",
    "qs:pop": 0,
    "qs:source": "RCustom EuroGlobalMap + UMZ Urban Polygons + Geonames + GeoPlanet",
    "qs:type": "buffered point",
    "src:geom": "whosonfirst",
    "src:geom_alt": [
      "quattroshapes_pg",
      "quattroshapes"
    ],
    "src:geom_via": "quattroshapes",
    "src:lbl_centroid": "mapshaper",
    "src:population": "wikidata",
    "wd:wordcount": 184,
    "wof:belongsto": [
      1880762005,
      1360699045
    ],
    "wof:breaches": [],
    "wof:concordances": {
      "fct:id": "0aa5f97c-8f76-11e1-848f-cfd5bf3ef515",
      "gn:id": 2640944,
      "gp:id": 31063,
      "qs_pg:id": 210927,
      "wd:id": "Q1011555",
      "wk:page": "Muir of Ord"
    },
    "wof:concordances_alt": {
      "qs_pg:id": 899454
    },
    "wof:country": "GB",
    "wof:created": 1765384910,
    "wof:geom_alt": [
      "quattroshapes",
      "quattroshapes_pg"
    ],
    "wof:geomhash": "75ff78b21ef659703edfe44a99380ffe",
    "wof:hierarchy": [
      {
        "continent_id": -1,
        "country_id": -1,
        "county_id": 1360699045,
        "locality_id": 101872723,
        "macrocounty_id": 1880762005,
        "region_id": -1
      }
    ],
    "wof:id": 101872723,
    "wof:lang": [
      "eng"
    ],
    "wof:lastmodified": 1765384910,
    "wof:name": "Muir of Ord",
    "wof:parent_id": 1360699045,
    "wof:placetype": "locality",
    "wof:population": 2690,
    "wof:population_rank": 4,
    "wof:repo": "whosonfirst-data-admin-gb",
    "wof:superseded_by": [],
    "wof:supersedes": [],
    "wof:tags": []
  },
  "bbox": [
    -4.456006,
    57.516214,
    -4.456006,
    57.516214
  ],
  "geometry": {"type":"Point","coordinates":[-4.456006,57.516214]}
}
