{
  "id": 85790893,
  "type": "Feature",
  "properties": {
    "edtf:cessation": "",
    "edtf:inception": "",
    "geom:area": 0.00040176072000002664,
    "geom:area_square_m": 3097832.00263,
    "geom:bbox": "-0.351562,51.414625,-0.317178,51.431752",
    "geom:latitude": 51.42264539372016,
    "geom:longitude": -0.33482528082227436,
    "iso:country": "GB",
    "lbl:latitude": 51.428008,
    "lbl:longitude": -0.333254,
    "lbl:max_zoom": 18,
    "mps:latitude": 51.422206,
    "mps:longitude": -0.334496,
    "mz:hierarchy_label": 1,
    "mz:is_current": -1,
    "mz:is_funky": 0,
    "mz:is_hard_boundary": 0,
    "mz:is_landuse_aoi": 0,
    "mz:is_official": 0,
    "mz:max_zoom": 18,
    "mz:min_zoom": 14,
    "mz:tier_locality": 7,
    "mz:tier_metro": 1,
    "name:ara_x_preferred": [
      "تدينغتون"
    ],
    "name:azb_x_preferred": [
      "تدینقتون"
    ],
    "name:bar_x_preferred": [
      "Teddington"
    ],
    "name:bul_x_preferred": [
      "Тедингтън"
    ],
    "name:cat_x_preferred": [
      "Teddington"
    ],
    "name:ceb_x_preferred": [
      "Teddington"
    ],
    "name:ces_x_preferred": [
      "Teddington"
    ],
    "name:cym_x_preferred": [
      "Teddington"
    ],
    "name:deu_x_preferred": [
      "Teddington"
    ],
    "name:eng_x_preferred": [
      "Teddington"
    ],
    "name:epo_x_preferred": [
      "Teddington"
    ],
    "name:eus_x_preferred": [
      "Teddington"
    ],
    "name:fas_x_preferred": [
      "تدینگتون"
    ],
    "name:fra_x_preferred": [
      "Teddington"
    ],
    "name:gle_x_preferred": [
      "Teddington"
    ],
    "name:heb_x_preferred": [
      "טדינגטון"
    ],
    "name:hin_x_preferred": [
      "टेडिंगटन"
    ],
    "name:hye_x_preferred": [
      "Թեդինգտոն"
    ],
    "name:ita_x_preferred": [
      "Teddington"
    ],
    "name:jpn_x_preferred": [
      "テディントン"
    ],
    "name:lld_x_preferred": [
      "Teddington"
    ],
    "name:ltz_x_preferred": [
      "Teddington"
    ],
    "name:new_x_preferred": [
      "टेडिंगटन"
    ],
    "name:nld_x_preferred": [
      "Teddington"
    ],
    "name:nob_x_preferred": [
      "Teddington"
    ],
    "name:nor_x_preferred": [
      "Teddington"
    ],
    "name:oci_x_preferred": [
      "Teddington"
    ],
    "name:pol_x_preferred": [
      "Teddington"
    ],
    "name:por_x_preferred": [
      "Teddington"
    ],
    "name:rus_x_preferred": [
      "Теддингтон"
    ],
    "name:slv_x_preferred": [
      "Teddington"
    ],
    "name:spa_x_preferred": [
      "Teddington"
    ],
    "name:swe_x_preferred": [
      "Teddington"
    ],
    "name:ukr_x_preferred": [
      "Теддінгтон"
    ],
    "name:urd_x_preferred": [
      "ٹیڈینگٹن"
    ],
    "name:zho_x_preferred": [
      "泰丁敦"
    ],
    "name:zho_x_variant": [
      "特丁顿"
    ],
    "qs:gn_adm0_cc": "GB",
    "qs:gn_fcode": "PPL",
    "qs:gn_local": 2643743,
    "qs:gn_namadm1": "ENG",
    "qs:gn_name": "Teddington",
    "qs:local_max": 40697,
    "qs:local_sum": 1675717,
    "qs:localhoods": 643,
    "qs:name": "Teddington",
    "qs:name_adm0": "United Kingdom",
    "qs:name_adm1": "England",
    "qs:name_adm2": "Greater London",
    "qs:name_lau": "London Borough of Richmond upon Thames",
    "qs:name_local": "London",
    "qs:photo_max": 392,
    "qs:photo_sum": 3519,
    "qs:placetype": "Suburb",
    "qs:quad_count": 89,
    "qs:woe_adm0": 23424975,
    "qs:woe_adm1": 24554868,
    "qs:woe_adm2": 23416974,
    "qs:woe_funk": "Grouping neighborhood",
    "qs:woe_lau": 12695836,
    "qs:woe_local": 44418,
    "qs:woe_ver": "7.10.0",
    "src:geom": "quattroshapes",
    "src:geom_alt": [
      "quattroshapes_pg"
    ],
    "src:lbl_centroid": "mz",
    "src:population": "wikidata",
    "wd:latitude": 51.4242,
    "wd:longitude": -0.3321,
    "wd:wordcount": 2481,
    "wof:belongsto": [
      1880762729,
      102191581,
      1880762179,
      85633159,
      404227469,
      101750367,
      136253055,
      1158857311,
      1880771825
    ],
    "wof:breaches": [],
    "wof:concordances": {
      "gn:id": 2636147,
      "gp:id": 37054,
      "qs_pg:id": 1091502,
      "wd:id": "Q2281721",
      "wk:page": "Teddington"
    },
    "wof:country": "GB",
    "wof:created": 1765391201,
    "wof:geom_alt": [
      "quattroshapes_pg"
    ],
    "wof:geomhash": "2ba37df9b4cbf650dff2b08954303216",
    "wof:hierarchy": [
      {
        "borough_id": 1158857311,
        "continent_id": 102191581,
        "country_id": 85633159,
        "county_id": 1880771825,
        "empire_id": 136253055,
        "locality_id": 101750367,
        "macrocounty_id": 1880762179,
        "macroregion_id": 404227469,
        "neighbourhood_id": 85790893,
        "region_id": 1880762729
      }
    ],
    "wof:id": 85790893,
    "wof:lang": [
      "eng"
    ],
    "wof:lastmodified": 1765391201,
    "wof:name": "Teddington",
    "wof:parent_id": 1158857311,
    "wof:placetype": "neighbourhood",
    "wof:population": 10562,
    "wof:population_rank": 6,
    "wof:repo": "whosonfirst-data-admin-gb",
    "wof:superseded_by": [],
    "wof:supersedes": [],
    "wof:tags": []
  },
  "bbox": [
    -0.351562,
    51.414625,
    -0.317178,
    51.431752
  ],
  "geometry": {"type":"Polygon","coordinates":[[[-0.32959,51.430039],[-0.329056,51.429183],[-0.327498,51.429183],[-0.327286,51.429329],[-0.326843,51.430039],[-0.324573,51.430039],[-0.324097,51.430039],[-0.324097,51.428901],[-0.323739,51.428327],[-0.32135,51.428327],[-0.32135,51.427562],[-0.32135,51.426614],[-0.318604,51.426614],[-0.317178,51.424328],[-0.318362,51.423189],[-0.318604,51.422957],[-0.318604,51.421293],[-0.318604,51.419764],[-0.319557,51.419764],[-0.319557,51.419764],[-0.323143,51.419764],[-0.323499,51.418051],[-0.326366,51.418051],[-0.326544,51.417195],[-0.326843,51.417195],[-0.328217,51.417195],[-0.328217,51.416338],[-0.328217,51.416307],[-0.32959,51.415573],[-0.32959,51.41539],[-0.32959,51.414625],[-0.332336,51.414625],[-0.332813,51.414625],[-0.334606,51.414625],[-0.335083,51.414625],[-0.33783,51.414625],[-0.340576,51.414625],[-0.341053,51.414625],[-0.343323,51.414625],[-0.343323,51.416338],[-0.346069,51.416338],[-0.348816,51.416338],[-0.348816,51.418051],[-0.351562,51.418051],[-0.351562,51.419764],[-0.351562,51.421477],[-0.348816,51.421477],[-0.348816,51.423189],[-0.348816,51.424902],[-0.348816,51.426614],[-0.348816,51.426676],[-0.346785,51.427762],[-0.346667,51.428327],[-0.346069,51.428327],[-0.343323,51.428327],[-0.340576,51.428327],[-0.340576,51.430039],[-0.33783,51.430039],[-0.337296,51.430896],[-0.335617,51.430896],[-0.335083,51.431752],[-0.332336,51.431752],[-0.332336,51.430039],[-0.32959,51.430039]]]}
}
