{
  "id": 101873671,
  "type": "Feature",
  "properties": {
    "edtf:cessation": "",
    "edtf:inception": "",
    "geom:area": 0,
    "geom:area_square_m": 0,
    "geom:bbox": "-3.979359,57.972659,-3.979359,57.972659",
    "geom:latitude": 57.972659,
    "geom:longitude": -3.979359,
    "iso:country": "GB",
    "lbl:bbox": "-3.999359,57.952659,-3.959359,57.992659",
    "lbl:latitude": 57.972659,
    "lbl:longitude": -3.979359,
    "lbl:max_zoom": 18,
    "lbl:min_zoom": 13.5,
    "mps:latitude": 57.972659,
    "mps:longitude": -3.979359,
    "mz:hierarchy_label": 1,
    "mz:is_current": 1,
    "mz:min_zoom": 12,
    "name:bul_x_preferred": [
      "Голспие"
    ],
    "name:cat_x_preferred": [
      "Golspie"
    ],
    "name:ceb_x_preferred": [
      "Golspie"
    ],
    "name:cym_x_preferred": [
      "Golspie"
    ],
    "name:deu_x_preferred": [
      "Golspie"
    ],
    "name:eng_x_preferred": [
      "Golspie"
    ],
    "name:eus_x_preferred": [
      "Golspie"
    ],
    "name:fra_x_preferred": [
      "Golspie"
    ],
    "name:gla_x_preferred": [
      "Goillspidh"
    ],
    "name:gle_x_preferred": [
      "Goillspidh"
    ],
    "name:ita_x_preferred": [
      "Golspie"
    ],
    "name:jpn_x_preferred": [
      "ゴルスピー"
    ],
    "name:nld_x_preferred": [
      "Golspie"
    ],
    "name:nno_x_preferred": [
      "Golspie"
    ],
    "name:nob_x_preferred": [
      "Golspie"
    ],
    "name:nor_x_preferred": [
      "Golspie"
    ],
    "name:sco_x_preferred": [
      "Golspie"
    ],
    "name:spa_x_preferred": [
      "Golspie"
    ],
    "name:swe_x_preferred": [
      "Golspie"
    ],
    "name:zho_x_preferred": [
      "高尔丝"
    ],
    "qs:a0": "United Kingdom",
    "qs:a1": "*Highland",
    "qs:a1_lc": "GB11QT0000",
    "qs:a1r": "0Scotland",
    "qs:a1r_lc": "GB11000000",
    "qs:adm0": "United Kingdom",
    "qs:id": 0,
    "qs:la_lc": "*",
    "qs:level": "locality",
    "qs:loc": "Golspie",
    "qs:loc_alt": "Golspie",
    "qs:pop": 0,
    "qs:source": "RCustom EuroGlobalMap + UMZ Urban Polygons + Geonames + GeoPlanet",
    "qs:type": "buffered point",
    "src:geom": "whosonfirst",
    "src:geom_alt": [
      "quattroshapes_pg",
      "quattroshapes"
    ],
    "src:geom_via": "quattroshapes",
    "src:lbl_centroid": "mapshaper",
    "src:population": "wikidata",
    "wd:wordcount": 574,
    "wof:belongsto": [
      1880773131,
      102191581,
      85633159,
      1880762005,
      404227471,
      136253055,
      1360699045
    ],
    "wof:breaches": [],
    "wof:concordances": {
      "fct:id": "0aa5ebda-8f76-11e1-848f-cfd5bf3ef515",
      "gn:id": 2648341,
      "gp:id": 21328,
      "qs_pg:id": 217676,
      "wd:id": "Q1020232",
      "wk:page": "Golspie"
    },
    "wof:country": "GB",
    "wof:created": 1765385082,
    "wof:geom_alt": [
      "quattroshapes_pg",
      "quattroshapes"
    ],
    "wof:geomhash": "2ab6e6f77a6a47065cd6a464a5179485",
    "wof:hierarchy": [
      {
        "continent_id": 102191581,
        "country_id": 85633159,
        "county_id": 1360699045,
        "empire_id": 136253055,
        "locality_id": 101873671,
        "macrocounty_id": 1880762005,
        "macroregion_id": 404227471,
        "region_id": 1880773131
      }
    ],
    "wof:id": 101873671,
    "wof:lang": [
      "eng"
    ],
    "wof:lastmodified": 1765385082,
    "wof:name": "Golspie",
    "wof:parent_id": 1360699045,
    "wof:placetype": "locality",
    "wof:population": 1350,
    "wof:population_rank": 3,
    "wof:repo": "whosonfirst-data-admin-gb",
    "wof:superseded_by": [],
    "wof:supersedes": [],
    "wof:tags": []
  },
  "bbox": [
    -3.979359,
    57.972659,
    -3.979359,
    57.972659
  ],
  "geometry": {"type":"Point","coordinates":[-3.979359,57.972659]}
}
