{
  "id": 1360790967,
  "type": "Feature",
  "properties": {
    "edtf:cessation": "",
    "edtf:inception": "",
    "geom:area": 0,
    "geom:area_square_m": 0,
    "geom:bbox": "-1.218843,53.033765,-1.218843,53.033765",
    "geom:latitude": 53.033765,
    "geom:longitude": -1.218843,
    "gn:id": 2646459,
    "iso:country": "GB",
    "lbl:bbox": "-1.223843,53.028765,-1.213843,53.038765",
    "lbl:latitude": 53.033763,
    "lbl:longitude": -1.218843,
    "lbl:max_zoom": 18,
    "mps:latitude": 53.033763,
    "mps:longitude": -1.218843,
    "mz:hierarchy_label": 1,
    "mz:is_current": 1,
    "mz:min_zoom": 15,
    "name:ast_x_preferred": [
      "Hucknall"
    ],
    "name:bul_x_preferred": [
      "Хъкнал"
    ],
    "name:ceb_x_preferred": [
      "Hucknall"
    ],
    "name:cym_x_preferred": [
      "Hucknall"
    ],
    "name:deu_x_preferred": [
      "Hucknall"
    ],
    "name:eng_x_historical": [
      "Hucknall Torkard"
    ],
    "name:eng_x_preferred": [
      "Hucknall"
    ],
    "name:eng_x_variant": [
      "Hucknall Torkard"
    ],
    "name:fas_x_preferred": [
      "هاکنال"
    ],
    "name:fin_x_preferred": [
      "Hucknall"
    ],
    "name:fra_x_preferred": [
      "Hucknall"
    ],
    "name:gle_x_preferred": [
      "Hucknall"
    ],
    "name:ita_x_preferred": [
      "Hucknall"
    ],
    "name:jpn_x_preferred": [
      "ハックナル"
    ],
    "name:kat_x_preferred": [
      "ჰაკნელი"
    ],
    "name:lld_x_preferred": [
      "Hucknall"
    ],
    "name:nld_x_preferred": [
      "Hucknall"
    ],
    "name:nno_x_preferred": [
      "Hucknall"
    ],
    "name:nob_x_preferred": [
      "Hucknall"
    ],
    "name:pol_x_preferred": [
      "Hucknall"
    ],
    "name:ron_x_preferred": [
      "Hucknall"
    ],
    "name:rus_x_preferred": [
      "Хакнелл"
    ],
    "name:swe_x_preferred": [
      "Hucknall"
    ],
    "name:urd_x_preferred": [
      "ہکنال"
    ],
    "name:vie_x_preferred": [
      "Hucknall"
    ],
    "name:vol_x_preferred": [
      "Hucknall"
    ],
    "name:zho_x_preferred": [
      "哈克諾"
    ],
    "qs:a0": "United Kingdom",
    "qs:a1": "*Nottinghamshire",
    "qs:a1_lc": "GB12370000",
    "qs:a1r": "0England",
    "qs:a1r_lc": "GB12000000",
    "qs:adm0": "United Kingdom",
    "qs:la_lc": "*",
    "qs:level": "locality",
    "qs:loc": "Hucknall",
    "qs:loc_alt": "Hucknall",
    "qs:pop": 0,
    "qs:source": "RCustom EuroGlobalMap + UMZ Urban Polygons + Geonames + GeoPlanet",
    "qs:type": "buffered point",
    "src:geom": "whosonfirst",
    "src:geom_alt": [
      "quattroshapes_pg",
      "quattroshapes"
    ],
    "src:geom_via": "quattroshapes",
    "src:lbl_centroid": "mapshaper",
    "src:population": "wikidata",
    "wd:latitude": 53.0339,
    "wd:longitude": -1.2013,
    "wd:wordcount": 3828,
    "wof:belongsto": [
      1880762689,
      102191581,
      85633159,
      1880762077,
      404227469,
      1125832373,
      136253055,
      1880771601
    ],
    "wof:breaches": [],
    "wof:concordances": {
      "gn:id": 2646460,
      "gp:id": 24080,
      "qs_pg:id": 453791,
      "wd:id": "Q1633759",
      "wk:page": "Hucknall"
    },
    "wof:country": "GB",
    "wof:created": 1765389444,
    "wof:geomhash": "f2af80f83dc6573b8bccc7b14cd0d874",
    "wof:hierarchy": [
      {
        "continent_id": 102191581,
        "country_id": 85633159,
        "county_id": 1880771601,
        "empire_id": 136253055,
        "locality_id": 1125832373,
        "macrocounty_id": 1880762077,
        "macroregion_id": 404227469,
        "neighbourhood_id": 1360790967,
        "region_id": 1880762689
      }
    ],
    "wof:id": 1360790967,
    "wof:lastmodified": 1765389444,
    "wof:name": "Hucknall",
    "wof:parent_id": 1125832373,
    "wof:placetype": "neighbourhood",
    "wof:population": 35849,
    "wof:population_rank": 7,
    "wof:repo": "whosonfirst-data-admin-gb",
    "wof:superseded_by": [],
    "wof:supersedes": [
      101871933
    ],
    "wof:tags": []
  },
  "bbox": [
    -1.218843,
    53.033765,
    -1.218843,
    53.033765
  ],
  "geometry": {"type":"Point","coordinates":[-1.218843,53.033765]}
}
