{
  "id": 101872615,
  "type": "Feature",
  "properties": {
    "edtf:cessation": "",
    "edtf:inception": "",
    "geom:area": 0,
    "geom:area_square_m": 0,
    "geom:bbox": "-4.927036,55.951809,-4.927036,55.951809",
    "geom:latitude": 55.951809,
    "geom:longitude": -4.927036,
    "iso:country": "GB",
    "lbl:bbox": "-4.947036,55.931809,-4.907036,55.971809",
    "lbl:latitude": 55.951809,
    "lbl:longitude": -4.927036,
    "lbl:max_zoom": 18,
    "lbl:min_zoom": 13.5,
    "mps:latitude": 55.951809,
    "mps:longitude": -4.927036,
    "mz:hierarchy_label": 1,
    "mz:is_current": 1,
    "mz:min_zoom": 12,
    "name:ast_x_preferred": [
      "Dunoon"
    ],
    "name:ben_x_preferred": [
      "ডুনুন"
    ],
    "name:ceb_x_preferred": [
      "Dunoon"
    ],
    "name:cym_x_preferred": [
      "Dunoon"
    ],
    "name:deu_x_preferred": [
      "Dunoon"
    ],
    "name:eng_x_preferred": [
      "Dunoon"
    ],
    "name:eus_x_preferred": [
      "Dunoon"
    ],
    "name:fas_x_preferred": [
      "دانون"
    ],
    "name:fra_x_preferred": [
      "Dunoon"
    ],
    "name:gla_x_preferred": [
      "Dùn Omhain"
    ],
    "name:gle_x_preferred": [
      "Dún Omhain"
    ],
    "name:gle_x_variant": [
      "Dùn Omhain"
    ],
    "name:guj_x_preferred": [
      "ડુનૂન"
    ],
    "name:heb_x_preferred": [
      "דונון"
    ],
    "name:ita_x_preferred": [
      "Dunoon"
    ],
    "name:jpn_x_preferred": [
      "ダンウーン"
    ],
    "name:kan_x_preferred": [
      "ಡನೂನ್"
    ],
    "name:kor_x_preferred": [
      "더넌"
    ],
    "name:lit_x_preferred": [
      "Danunas"
    ],
    "name:nld_x_preferred": [
      "Dunoon"
    ],
    "name:nob_x_preferred": [
      "Dunoon"
    ],
    "name:pol_x_preferred": [
      "Dunoon"
    ],
    "name:por_x_preferred": [
      "Dunoon"
    ],
    "name:rus_x_preferred": [
      "Данун"
    ],
    "name:sco_x_preferred": [
      "Dunoon"
    ],
    "name:sco_x_variant": [
      "Dunuin"
    ],
    "name:spa_x_preferred": [
      "Dunoon"
    ],
    "name:swe_x_preferred": [
      "Dunoon"
    ],
    "name:tam_x_preferred": [
      "டாநூன்"
    ],
    "name:tel_x_preferred": [
      "డునూన్"
    ],
    "name:urd_x_preferred": [
      "دونون"
    ],
    "name:zho_x_preferred": [
      "都倫"
    ],
    "qs:a0": "United Kingdom",
    "qs:a1": "*Argyll and Bute",
    "qs:a1_lc": "GB11QD0000",
    "qs:a1r": "0Scotland",
    "qs:a1r_lc": "GB11000000",
    "qs:adm0": "United Kingdom",
    "qs:id": 0,
    "qs:la_lc": "*",
    "qs:level": "locality",
    "qs:loc": "Dunoon",
    "qs:loc_alt": "Dunoon",
    "qs:pop": 0,
    "qs:source": "RCustom EuroGlobalMap + UMZ Urban Polygons + Geonames + GeoPlanet",
    "qs:type": "buffered point",
    "src:geom": "whosonfirst",
    "src:geom_alt": [
      "quattroshapes_pg",
      "quattroshapes"
    ],
    "src:geom_via": "quattroshapes",
    "src:lbl_centroid": "mapshaper",
    "src:population": "wikidata",
    "wd:latitude": 55.947,
    "wd:longitude": -4.923,
    "wd:wordcount": 2879,
    "wof:belongsto": [
      1880772977,
      102191581,
      85633159,
      1880762047,
      404227471,
      136253055,
      1360698863
    ],
    "wof:breaches": [],
    "wof:concordances": {
      "gn:id": 2650681,
      "gp:id": 18697,
      "qs_pg:id": 1276409,
      "wd:id": "Q1020251",
      "wk:page": "Dunoon"
    },
    "wof:country": "GB",
    "wof:created": 1765384902,
    "wof:geom_alt": [
      "quattroshapes_pg",
      "quattroshapes"
    ],
    "wof:geomhash": "1dce291070a0007be8ab1bcc9aee5e4d",
    "wof:hierarchy": [
      {
        "continent_id": 102191581,
        "country_id": 85633159,
        "county_id": 1360698863,
        "empire_id": 136253055,
        "locality_id": 101872615,
        "macrocounty_id": 1880762047,
        "macroregion_id": 404227471,
        "region_id": 1880772977
      }
    ],
    "wof:id": 101872615,
    "wof:lastmodified": 1765384902,
    "wof:name": "Dunoon",
    "wof:parent_id": 1360698863,
    "wof:placetype": "locality",
    "wof:population": 7830,
    "wof:population_rank": 5,
    "wof:repo": "whosonfirst-data-admin-gb",
    "wof:superseded_by": [],
    "wof:supersedes": [],
    "wof:tags": []
  },
  "bbox": [
    -4.927036,
    55.951809,
    -4.927036,
    55.951809
  ],
  "geometry": {"type":"Point","coordinates":[-4.927036,55.951809]}
}
