{
  "id": 1360713471,
  "type": "Feature",
  "properties": {
    "edtf:cessation": "",
    "edtf:inception": "",
    "geom:area": 0,
    "geom:area_square_m": 0,
    "geom:bbox": "-3.846630,51.714170,-3.846630,51.714170",
    "geom:latitude": 51.71417,
    "geom:longitude": -3.84663,
    "gn:admin1_code": "WLS",
    "gn:admin2_code": "Y5",
    "gn:admin3_code": "00NZ008",
    "gn:asciiname": "Alltwen",
    "gn:country_code": "GB",
    "gn:dem": 71,
    "gn:feature_class": "P",
    "gn:feature_code": "PPL",
    "gn:geonameid": 2657458,
    "gn:latitude": 51.71417,
    "gn:longitude": -3.84663,
    "gn:modification_date": "2011-03-03",
    "gn:name": "Alltwen",
    "gn:population": 0,
    "gn:timezone": "Europe/London",
    "iso:country": "GB",
    "lbl:bbox": "-3.85163,51.70917,-3.84163,51.71917",
    "lbl:max_zoom": 18,
    "mz:hierarchy_label": 1,
    "mz:is_current": -1,
    "mz:min_zoom": 15,
    "name:cym_x_preferred": [
      "Alltwen"
    ],
    "name:eus_x_preferred": [
      "Alltwen"
    ],
    "src:geom": "geonames",
    "src:population": "wikidata",
    "wof:belongsto": [
      1880773177,
      102191581,
      1880762113,
      404435719,
      85633159,
      404227475,
      1209750809,
      136253055,
      1360698825
    ],
    "wof:breaches": [],
    "wof:concordances": {
      "gn:id": 2657458,
      "wk:page": "Alltwen"
    },
    "wof:country": "GB",
    "wof:created": 1765389278,
    "wof:geomhash": "39730d97ca1c982a11e535a75f230ad2",
    "wof:hierarchy": [
      {
        "continent_id": 102191581,
        "country_id": 85633159,
        "county_id": 1360698825,
        "empire_id": 136253055,
        "localadmin_id": 404435719,
        "locality_id": 1209750809,
        "macrocounty_id": 1880762113,
        "macroregion_id": 404227475,
        "neighbourhood_id": 1360713471,
        "region_id": 1880773177
      }
    ],
    "wof:id": 1360713471,
    "wof:lastmodified": 1765389278,
    "wof:name": "Alltwen",
    "wof:parent_id": 1209750809,
    "wof:placetype": "neighbourhood",
    "wof:population": 2327,
    "wof:population_rank": 4,
    "wof:repo": "whosonfirst-data-admin-gb",
    "wof:superseded_by": [],
    "wof:supersedes": [
      1327059283
    ],
    "wof:tags": []
  },
  "bbox": [
    -3.84663,
    51.71417,
    -3.84663,
    51.71417
  ],
  "geometry": {"type":"Point","coordinates":[-3.84663,51.71417]}
}
