{
  "id": 85785955,
  "type": "Feature",
  "properties": {
    "edtf:cessation": "",
    "edtf:inception": "",
    "geom:area": 0.00003529696350003722,
    "geom:area_square_m": 271798.518792,
    "geom:bbox": "-0.318604,51.483093,-0.307617,51.488224",
    "geom:latitude": 51.486013803442155,
    "geom:longitude": -0.3129889813032167,
    "gn:latitude": 51.48619,
    "gn:longitude": -0.3083,
    "gn:population": 10750,
    "iso:country": "GB",
    "lbl:latitude": 51.489129,
    "lbl:longitude": -0.307382,
    "lbl:max_zoom": 18,
    "mps:latitude": 51.485659,
    "mps:longitude": -0.312544,
    "mz:hierarchy_label": 1,
    "mz:is_current": 1,
    "mz:is_funky": 0,
    "mz:is_hard_boundary": 0,
    "mz:is_landuse_aoi": 0,
    "mz:is_official": 0,
    "mz:max_zoom": 18,
    "mz:min_zoom": 14,
    "mz:tier_locality": 7,
    "mz:tier_metro": 1,
    "name:ara_x_preferred": [
      "برينتفورد"
    ],
    "name:azb_x_preferred": [
      "برنتفورد"
    ],
    "name:bul_x_preferred": [
      "Брентфорд"
    ],
    "name:cat_x_preferred": [
      "Brentford"
    ],
    "name:ceb_x_preferred": [
      "Brentford"
    ],
    "name:cym_x_preferred": [
      "Brentford"
    ],
    "name:deu_x_preferred": [
      "Brentford"
    ],
    "name:ell_x_preferred": [
      "Μπρέντφορντ"
    ],
    "name:eng_x_preferred": [
      "Brentford"
    ],
    "name:eus_x_preferred": [
      "Brentford"
    ],
    "name:fas_x_preferred": [
      "برنتفورد"
    ],
    "name:fra_x_preferred": [
      "Brentford"
    ],
    "name:fry_x_preferred": [
      "Brentford"
    ],
    "name:gle_x_preferred": [
      "Brentford"
    ],
    "name:heb_x_preferred": [
      "ברנטפורד"
    ],
    "name:hin_x_preferred": [
      "ब्रेंटफ़र्ड"
    ],
    "name:ind_x_preferred": [
      "Brentford"
    ],
    "name:ita_x_preferred": [
      "Brentford"
    ],
    "name:jpn_x_preferred": [
      "ブレントフォード"
    ],
    "name:kat_x_preferred": [
      "ბრენტფორდი"
    ],
    "name:kor_x_preferred": [
      "브렌트퍼드"
    ],
    "name:lld_x_preferred": [
      "Brentford"
    ],
    "name:new_x_preferred": [
      "ब्रेंटफर्ड"
    ],
    "name:nld_x_preferred": [
      "Brentford"
    ],
    "name:nno_x_preferred": [
      "Brentford"
    ],
    "name:nob_x_preferred": [
      "Brentford"
    ],
    "name:pol_x_preferred": [
      "Brentford"
    ],
    "name:ron_x_preferred": [
      "Brentford"
    ],
    "name:rus_x_preferred": [
      "Брентфорд"
    ],
    "name:spa_x_preferred": [
      "Brentford"
    ],
    "name:swe_x_preferred": [
      "Brentford"
    ],
    "name:tgk_x_preferred": [
      "Брентфурд"
    ],
    "name:ukr_x_preferred": [
      "Брентфорд"
    ],
    "name:urd_x_preferred": [
      "برینٹفرڈ"
    ],
    "name:vie_x_preferred": [
      "Brentford"
    ],
    "name:yue_x_preferred": [
      "賓福特"
    ],
    "name:zho_x_preferred": [
      "賓福特"
    ],
    "qs:gn_adm0_cc": "GB",
    "qs:gn_fcode": "PPL",
    "qs:gn_local": 2643743,
    "qs:gn_namadm1": "ENG",
    "qs:gn_name": "Brentford",
    "qs:local_max": 40697,
    "qs:local_sum": 1675717,
    "qs:localhoods": 643,
    "qs:name": "Brentford",
    "qs:name_adm0": "United Kingdom",
    "qs:name_adm1": "England",
    "qs:name_adm2": "Greater London",
    "qs:name_lau": "London Borough of Hounslow",
    "qs:name_local": "London",
    "qs:photo_max": 477,
    "qs:photo_sum": 3335,
    "qs:placetype": "Suburb",
    "qs:quad_count": 85,
    "qs:woe_adm0": 23424975,
    "qs:woe_adm1": 24554868,
    "qs:woe_adm2": 23416974,
    "qs:woe_funk": "Grouping neighborhood",
    "qs:woe_lau": 12695832,
    "qs:woe_local": 44418,
    "qs:woe_ver": "7.10.0",
    "reversegeo:latitude": 51.485659,
    "reversegeo:longitude": -0.312544,
    "src:geom": "mz",
    "src:geom_alt": [
      "quattroshapes_pg",
      "quattroshapes"
    ],
    "src:lbl_centroid": "mz",
    "src:population": "wikidata",
    "wd:wordcount": 3408,
    "wof:belongsto": [
      1880762729,
      102191581,
      1880762179,
      85633159,
      404227469,
      101750367,
      136253055,
      1158857259,
      1880771825
    ],
    "wof:breaches": [
      85792265
    ],
    "wof:concordances": {
      "gn:id": 2654787,
      "gp:id": 13777,
      "qs_pg:id": 239679,
      "wd:id": "Q1013528",
      "wk:page": "Brentford"
    },
    "wof:country": "GB",
    "wof:created": 1765390979,
    "wof:geom_alt": [
      "quattroshapes_pg",
      "quattroshapes"
    ],
    "wof:geomhash": "ed8e2a00e3144f39330c55e3fa13ce04",
    "wof:hierarchy": [
      {
        "borough_id": 1158857259,
        "continent_id": 102191581,
        "country_id": 85633159,
        "county_id": 1880771825,
        "empire_id": 136253055,
        "locality_id": 101750367,
        "macrocounty_id": 1880762179,
        "macroregion_id": 404227469,
        "neighbourhood_id": 85785955,
        "region_id": 1880762729
      }
    ],
    "wof:id": 85785955,
    "wof:lang": [
      "eng"
    ],
    "wof:lastmodified": 1765390979,
    "wof:name": "Brentford",
    "wof:parent_id": 1158857259,
    "wof:placetype": "neighbourhood",
    "wof:population": 16571,
    "wof:population_rank": 6,
    "wof:repo": "whosonfirst-data-admin-gb",
    "wof:superseded_by": [],
    "wof:supersedes": [],
    "wof:tags": []
  },
  "bbox": [
    -0.318604,
    51.483093,
    -0.307617,
    51.488224
  ],
  "geometry": {"type":"MultiPolygon","coordinates":[[[[-0.31311,51.483093],[-0.313708,51.483093],[-0.313825,51.483656],[-0.315857,51.484744],[-0.315857,51.484804],[-0.315857,51.486514],[-0.318127,51.486514],[-0.318604,51.486514],[-0.318604,51.487279],[-0.318604,51.488224],[-0.315857,51.488224],[-0.31311,51.488224],[-0.310364,51.488224],[-0.310364,51.486514],[-0.307617,51.486514],[-0.307617,51.484804],[-0.310364,51.484804],[-0.310364,51.483093],[-0.31311,51.483093]]]]}
}
