{
  "id": 1360800033,
  "type": "Feature",
  "properties": {
    "edtf:cessation": "",
    "edtf:inception": "",
    "geom:area": 0,
    "geom:area_square_m": 0,
    "geom:bbox": "-4.828780,50.593090,-4.828780,50.593090",
    "geom:latitude": 50.59309,
    "geom:longitude": -4.82878,
    "gn:country": "GB",
    "gn:fcode": "PPL",
    "gn:population": 0,
    "iso:country": "GB",
    "lbl:bbox": "-4.83378,50.58809,-4.82378,50.59809",
    "lbl:latitude": 50.59309,
    "lbl:longitude": -4.82878,
    "lbl:max_zoom": 18,
    "mz:hierarchy_label": 1,
    "mz:is_current": 1,
    "mz:min_zoom": 15,
    "mz:note": "Quattroshapes Point Gazetteer import 20170519",
    "name:ara_x_preferred": [
      "بورت ايساك"
    ],
    "name:arz_x_preferred": [
      "بورت ايساك"
    ],
    "name:cor_x_preferred": [
      "Porthysek"
    ],
    "name:cym_x_preferred": [
      "Port Isaac"
    ],
    "name:cym_x_variant": [
      "Porthysek"
    ],
    "name:dan_x_preferred": [
      "Port Isaac"
    ],
    "name:deu_x_preferred": [
      "Port Isaac"
    ],
    "name:eng_x_preferred": [
      "Port Isaac"
    ],
    "name:est_x_preferred": [
      "Port Isaac"
    ],
    "name:eus_x_preferred": [
      "Port Isaac"
    ],
    "name:fas_x_preferred": [
      "پورت آیساک"
    ],
    "name:fra_x_preferred": [
      "Port Isaac"
    ],
    "name:gle_x_preferred": [
      "Port Isaac"
    ],
    "name:heb_x_preferred": [
      "פורט איזאק"
    ],
    "name:ita_x_preferred": [
      "Port Isaac"
    ],
    "name:jpn_x_preferred": [
      "ポートアイザック"
    ],
    "name:kan_x_preferred": [
      "New Ollerton"
    ],
    "name:kat_x_preferred": [
      "პორტ-ისააკი"
    ],
    "name:lat_x_preferred": [
      "Port Isaac"
    ],
    "name:nld_x_preferred": [
      "Port Isaac"
    ],
    "name:pol_x_preferred": [
      "Port Isaac"
    ],
    "name:swe_x_preferred": [
      "Port Isaac"
    ],
    "qs_pg:aaroncc": "GB",
    "qs_pg:gn_country": "GB",
    "qs_pg:gn_fcode": "PPL",
    "qs_pg:gn_id": 2640040,
    "qs_pg:gn_pop": 0,
    "qs_pg:name": "Port Isaac",
    "qs_pg:name_adm0": "United Kingdom",
    "qs_pg:name_adm1": "England",
    "qs_pg:photos": 3074,
    "qs_pg:photos_1k": 623,
    "qs_pg:photos_9k": 14,
    "qs_pg:photos_9r": 11,
    "qs_pg:photos_all": 3074,
    "qs_pg:photos_sr": 20,
    "qs_pg:pop_sr": 0,
    "qs_pg:qs_id": 1249545,
    "qs_pg:qs_pg_placetype": "locality",
    "qs_pg:qs_pg_placetype_gp": "Town",
    "qs_pg:woe_adm0": 23424975,
    "qs_pg:woe_id": 32366,
    "src:geom": "qs_pg",
    "src:lbl_centroid": "qs_pg",
    "src:population": "wikidata",
    "woe:adm0_id": 23424975,
    "woe:name_adm0": "United Kingdom",
    "woe:name_adm1": "England",
    "woe:placetype": "Town",
    "wof:belongsto": [
      1880773165,
      102191581,
      1880762119,
      404446775,
      85633159,
      404227469,
      1360754285,
      136253055,
      1360699085
    ],
    "wof:breaches": [],
    "wof:concordances": {
      "gn:id": 2640040,
      "gp:id": 32366,
      "qs_pg:id": 1249545,
      "wd:id": "Q1020317"
    },
    "wof:country": "GB",
    "wof:created": 1497297742,
    "wof:geomhash": "3102fc633a867d0fe8dbeb33062fe075",
    "wof:hierarchy": [
      {
        "continent_id": 102191581,
        "country_id": 85633159,
        "county_id": 1360699085,
        "empire_id": 136253055,
        "localadmin_id": 404446775,
        "locality_id": 1360754285,
        "macrocounty_id": 1880762119,
        "macroregion_id": 404227469,
        "neighbourhood_id": 1360800033,
        "region_id": 1880773165
      }
    ],
    "wof:id": 1360800033,
    "wof:lastmodified": 1765390016,
    "wof:name": "Port Isaac",
    "wof:parent_id": 1360754285,
    "wof:placetype": "neighbourhood",
    "wof:population": 721,
    "wof:population_rank": 2,
    "wof:repo": "whosonfirst-data-admin-gb",
    "wof:superseded_by": [],
    "wof:supersedes": [
      1125959471
    ],
    "wof:tags": []
  },
  "bbox": [
    -4.82878,
    50.59309,
    -4.82878,
    50.59309
  ],
  "geometry": {"type":"Point","coordinates":[-4.82878,50.59309]}
}
