{
  "id": 101872571,
  "type": "Feature",
  "properties": {
    "edtf:cessation": "",
    "edtf:inception": "",
    "geom:area": 0,
    "geom:area_square_m": 0,
    "geom:bbox": "-3.213677,56.201962,-3.213677,56.201962",
    "geom:latitude": 56.201962,
    "geom:longitude": -3.213677,
    "gn:population": 3092,
    "iso:country": "GB",
    "lbl:bbox": "-3.233677,56.181962,-3.193677,56.221962",
    "lbl:latitude": 56.201963,
    "lbl:longitude": -3.213677,
    "lbl:max_zoom": 15,
    "lbl:min_zoom": 11.5,
    "mps:latitude": 56.201963,
    "mps:longitude": -3.213677,
    "mz:hierarchy_label": 1,
    "mz:is_current": 1,
    "mz:min_zoom": 11,
    "name:ara_x_preferred": [
      "لزلي"
    ],
    "name:arz_x_preferred": [
      "لزلى"
    ],
    "name:ceb_x_preferred": [
      "Leslie"
    ],
    "name:eng_x_preferred": [
      "Leslie"
    ],
    "name:eus_x_preferred": [
      "Leslie"
    ],
    "name:fas_x_preferred": [
      "لزلی"
    ],
    "name:fra_x_preferred": [
      "Leslie"
    ],
    "name:heb_x_preferred": [
      "לסלי"
    ],
    "name:ita_x_preferred": [
      "Leslie"
    ],
    "name:jpn_x_preferred": [
      "レスリー"
    ],
    "name:nld_x_preferred": [
      "Leslie"
    ],
    "name:rus_x_preferred": [
      "Лесли"
    ],
    "name:sco_x_preferred": [
      "Leslie"
    ],
    "name:spa_x_preferred": [
      "Leslie"
    ],
    "name:swe_x_preferred": [
      "Leslie"
    ],
    "name:zho_x_preferred": [
      "里斯莱"
    ],
    "qs:a0": "United Kingdom",
    "qs:a1": "*Fife",
    "qs:a1_lc": "GB11QR0000",
    "qs:a1r": "0Scotland",
    "qs:a1r_lc": "GB11000000",
    "qs:adm0": "United Kingdom",
    "qs:id": 0,
    "qs:la_lc": "*",
    "qs:level": "locality",
    "qs:loc": "Leslie",
    "qs:loc_alt": "Leslie",
    "qs:pop": 0,
    "qs:source": "RCustom EuroGlobalMap + UMZ Urban Polygons + Geonames + GeoPlanet",
    "qs:type": "buffered point",
    "src:geom": "whosonfirst",
    "src:geom_alt": [
      "quattroshapes_pg",
      "quattroshapes"
    ],
    "src:geom_via": "quattroshapes",
    "src:lbl_centroid": "mapshaper",
    "src:population": "wikidata",
    "wd:latitude": 56.202,
    "wd:longitude": -3.21145,
    "wd:wordcount": 680,
    "wof:belongsto": [
      1880762125,
      1360699123
    ],
    "wof:breaches": [],
    "wof:concordances": {
      "fct:id": "0aa5eef0-8f76-11e1-848f-cfd5bf3ef515",
      "gn:id": 2644603,
      "gp:id": 26134,
      "qs_pg:id": 245149,
      "wd:id": "Q3830902",
      "wk:page": "Leslie, Fife"
    },
    "wof:country": "GB",
    "wof:created": 1765384898,
    "wof:geom_alt": [
      "quattroshapes_pg",
      "quattroshapes"
    ],
    "wof:geomhash": "d1f9be01fcdb6cc20245ffdb8f54cdd2",
    "wof:hierarchy": [
      {
        "continent_id": -1,
        "country_id": -1,
        "county_id": 1360699123,
        "locality_id": 101872571,
        "macrocounty_id": 1880762125,
        "region_id": -1
      }
    ],
    "wof:id": 101872571,
    "wof:lang": [
      "eng"
    ],
    "wof:lastmodified": 1765384898,
    "wof:name": "Leslie",
    "wof:parent_id": 1360699123,
    "wof:placetype": "locality",
    "wof:population": 3060,
    "wof:population_rank": 4,
    "wof:repo": "whosonfirst-data-admin-gb",
    "wof:superseded_by": [],
    "wof:supersedes": [],
    "wof:tags": []
  },
  "bbox": [
    -3.213677,
    56.201962,
    -3.213677,
    56.201962
  ],
  "geometry": {"type":"Point","coordinates":[-3.213677,56.201962]}
}
