{
  "id": 101872587,
  "type": "Feature",
  "properties": {
    "edtf:cessation": "",
    "edtf:inception": "",
    "geom:area": 0,
    "geom:area_square_m": 0,
    "geom:bbox": "-3.945717,56.154717,-3.945717,56.154717",
    "geom:latitude": 56.154717,
    "geom:longitude": -3.945717,
    "gn:population": 5073,
    "iso:country": "GB",
    "lbl:bbox": "-3.965717,56.134717,-3.925717,56.174717",
    "lbl:latitude": 56.154717,
    "lbl:longitude": -3.945717,
    "lbl:max_zoom": 15,
    "lbl:min_zoom": 11,
    "mps:latitude": 56.154717,
    "mps:longitude": -3.945717,
    "mz:hierarchy_label": 1,
    "mz:is_current": 1,
    "mz:min_zoom": 11,
    "name:ara_x_preferred": [
      "جسر ألن"
    ],
    "name:arz_x_preferred": [
      "جسر الن"
    ],
    "name:ast_x_preferred": [
      "Bridge of Allan"
    ],
    "name:ceb_x_preferred": [
      "Bridge of Allan"
    ],
    "name:cym_x_preferred": [
      "Bridge of Allan"
    ],
    "name:deu_x_preferred": [
      "Bridge of Allan"
    ],
    "name:eng_x_preferred": [
      "Bridge of Allan"
    ],
    "name:eus_x_preferred": [
      "Bridge of Allan"
    ],
    "name:fas_x_preferred": [
      "بریج آو الن"
    ],
    "name:fra_x_preferred": [
      "Bridge of Allan"
    ],
    "name:gla_x_preferred": [
      "Drochaid Alain"
    ],
    "name:gle_x_preferred": [
      "Drochaid Alain"
    ],
    "name:glg_x_preferred": [
      "Bridge of Allan"
    ],
    "name:heb_x_preferred": [
      "בריג אלן"
    ],
    "name:ita_x_preferred": [
      "Bridge of Allan"
    ],
    "name:nld_x_preferred": [
      "Bridge of Allan"
    ],
    "name:pol_x_preferred": [
      "Bridge of Allan"
    ],
    "name:sco_x_preferred": [
      "Brig Allan"
    ],
    "name:spa_x_preferred": [
      "Bridge of Allan"
    ],
    "name:swe_x_preferred": [
      "Bridge of Allan"
    ],
    "name:zho_x_preferred": [
      "布里哲夫亚伦"
    ],
    "qs:a0": "United Kingdom",
    "qs:a1": "*Stirling",
    "qs:a1_lc": "GB11RG0000",
    "qs:a1r": "0Scotland",
    "qs:a1r_lc": "GB11000000",
    "qs:adm0": "United Kingdom",
    "qs:id": 0,
    "qs:la_lc": "*",
    "qs:level": "locality",
    "qs:loc": "Bridge of Allan",
    "qs:loc_alt": "Bridge of Allan",
    "qs:pop": 0,
    "qs:source": "RCustom EuroGlobalMap + UMZ Urban Polygons + Geonames + GeoPlanet",
    "qs:type": "buffered point",
    "src:geom": "whosonfirst",
    "src:geom_alt": [
      "quattroshapes_pg",
      "quattroshapes"
    ],
    "src:geom_via": "quattroshapes",
    "src:lbl_centroid": "mapshaper",
    "src:population": "wikidata",
    "wd:latitude": 56.1549,
    "wd:longitude": -3.94152,
    "wd:wordcount": 1006,
    "wof:belongsto": [
      1880762131,
      1360699003
    ],
    "wof:breaches": [],
    "wof:concordances": {
      "gn:id": 2654747,
      "gp:id": 13831,
      "qs_pg:id": 424129,
      "wd:id": "Q187892",
      "wk:page": "Bridge of Allan"
    },
    "wof:country": "GB",
    "wof:created": 1765384899,
    "wof:geom_alt": [
      "quattroshapes_pg",
      "quattroshapes"
    ],
    "wof:geomhash": "54b87f3b5ef0de4c1c5db82dcfed5ba7",
    "wof:hierarchy": [
      {
        "continent_id": -1,
        "country_id": -1,
        "county_id": 1360699003,
        "locality_id": 101872587,
        "macrocounty_id": 1880762131,
        "region_id": -1
      }
    ],
    "wof:id": 101872587,
    "wof:lastmodified": 1765384899,
    "wof:name": "Bridge of Allan",
    "wof:parent_id": 1360699003,
    "wof:placetype": "locality",
    "wof:population": 5380,
    "wof:population_rank": 5,
    "wof:repo": "whosonfirst-data-admin-gb",
    "wof:superseded_by": [],
    "wof:supersedes": [],
    "wof:tags": []
  },
  "bbox": [
    -3.945717,
    56.154717,
    -3.945717,
    56.154717
  ],
  "geometry": {"type":"Point","coordinates":[-3.945717,56.154717]}
}
