{
  "id": 1260212575,
  "type": "Feature",
  "properties": {
    "edtf:cessation": "",
    "edtf:deprecated": "",
    "edtf:inception": "",
    "geom:area": 0,
    "geom:area_square_m": 0,
    "geom:bbox": "-0.284230,51.411870,-0.284230,51.411870",
    "geom:latitude": 51.41187,
    "geom:longitude": -0.28423,
    "gn:admin1_code": "ENG",
    "gn:admin2_code": "GLA",
    "gn:admin3_code": "G7",
    "gn:asciiname": "Norbiton",
    "gn:country_code": "GB",
    "gn:dem": 18,
    "gn:feature_class": "P",
    "gn:feature_code": "PPL",
    "gn:geonameid": 9409273,
    "gn:latitude": 51.41187,
    "gn:longitude": -0.28423,
    "gn:modification_date": "2014-08-27",
    "gn:name": "Norbiton",
    "gn:population": 0,
    "gn:timezone": "Europe/London",
    "iso:country": "GB",
    "mz:hierarchy_label": 1,
    "mz:is_current": 1,
    "src:geom": "geonames",
    "src:population": "wikidata",
    "wof:belongsto": [
      102191581,
      85633159,
      1360698645,
      404227469
    ],
    "wof:breaches": [],
    "wof:concordances": {
      "gn:id": 9409273,
      "wk:page": "Norbiton"
    },
    "wof:country": "GB",
    "wof:created": 1765388520,
    "wof:geomhash": "b6de7b91cec41462ed141b31d53d4ec6",
    "wof:hierarchy": [
      {
        "continent_id": 102191581,
        "country_id": 85633159,
        "locality_id": 1260212575,
        "macroregion_id": 404227469,
        "region_id": 1360698645
      }
    ],
    "wof:id": 1260212575,
    "wof:lastmodified": 1765388520,
    "wof:name": "Norbiton",
    "wof:parent_id": 1360698645,
    "wof:placetype": "locality",
    "wof:population": 10107,
    "wof:population_rank": 6,
    "wof:repo": "whosonfirst-data-admin-gb",
    "wof:superseded_by": [],
    "wof:supersedes": [],
    "wof:tags": []
  },
  "bbox": [
    -0.28423,
    51.41187,
    -0.28423,
    51.41187
  ],
  "geometry": {"type":"Point","coordinates":[-0.28423,51.41187]}
}
