{
  "id": 85860005,
  "type": "Feature",
  "properties": {
    "edtf:cessation": "",
    "edtf:inception": "",
    "geom:area": 0.0004029168675000152,
    "geom:area_square_m": 3107108.933488,
    "geom:bbox": "0.005493,51.406059,0.040474,51.426614",
    "geom:latitude": 51.416612420127166,
    "geom:longitude": 0.023807181089485936,
    "gn:id": "",
    "iso:country": "GB",
    "lbl:latitude": 51.414746,
    "lbl:longitude": 0.013189,
    "lbl:max_zoom": 18,
    "mps:latitude": 51.418907,
    "mps:longitude": 0.022613,
    "mz:hierarchy_label": 1,
    "mz:is_current": 1,
    "mz:is_funky": 0,
    "mz:is_hard_boundary": 0,
    "mz:is_landuse_aoi": 0,
    "mz:is_official": 0,
    "mz:max_zoom": 18,
    "mz:min_zoom": 15,
    "mz:tier_locality": 7,
    "mz:tier_metro": 1,
    "name:ara_x_preferred": [
      "بلايستو"
    ],
    "name:arz_x_preferred": [
      "بلايستو"
    ],
    "name:ast_x_preferred": [
      "Plaistow"
    ],
    "name:cat_x_preferred": [
      "Plaistow"
    ],
    "name:eng_x_preferred": [
      "Plaistow"
    ],
    "name:epo_x_preferred": [
      "Plaistow"
    ],
    "name:fra_x_preferred": [
      "Plaistow"
    ],
    "name:gle_x_preferred": [
      "Plaistow"
    ],
    "name:heb_x_preferred": [
      "פלייסטו"
    ],
    "name:ita_x_preferred": [
      "Plaistow"
    ],
    "name:jpn_x_preferred": [
      "プレイストー"
    ],
    "name:lld_x_preferred": [
      "Plaistow"
    ],
    "name:nld_x_preferred": [
      "Plaistow"
    ],
    "name:nno_x_preferred": [
      "Plaistow"
    ],
    "name:nob_x_preferred": [
      "Plaistow"
    ],
    "name:pol_x_preferred": [
      "Plaistow"
    ],
    "name:rus_x_preferred": [
      "Пластоу"
    ],
    "name:spa_x_preferred": [
      "Plaistow"
    ],
    "name:swe_x_preferred": [
      "Chislehurst West"
    ],
    "name:swe_x_variant": [
      "Plaistow"
    ],
    "name:urd_x_preferred": [
      "پلیسٹو"
    ],
    "name:zho_x_preferred": [
      "普拉斯托"
    ],
    "reversegeo:latitude": 51.418907,
    "reversegeo:longitude": 0.022613,
    "src:geom": "mz",
    "src:geom_alt": [
      "quattroshapes_pg",
      "quattroshapes"
    ],
    "src:lbl_centroid": "mz",
    "src:population": "wikidata",
    "wof:belongsto": [
      1880762729,
      102191581,
      1880762179,
      85633159,
      404227469,
      101750367,
      136253055,
      1158857297,
      1880771825
    ],
    "wof:breaches": [],
    "wof:concordances": {
      "fct:id": "0ab44d42-8f76-11e1-848f-cfd5bf3ef515",
      "gn:id": 8128646,
      "gp:id": 20089327,
      "qs_pg:id": 1252414,
      "wd:id": "Q2407244",
      "wk:page": "Plaistow, Newham"
    },
    "wof:country": "GB",
    "wof:created": 1765391312,
    "wof:geom_alt": [
      "quattroshapes",
      "quattroshapes_pg"
    ],
    "wof:geomhash": "4d852e8fae3c3d89d30a5c0542c79a02",
    "wof:hierarchy": [
      {
        "borough_id": 1158857297,
        "continent_id": 102191581,
        "country_id": 85633159,
        "county_id": 1880771825,
        "empire_id": 136253055,
        "locality_id": 101750367,
        "macrocounty_id": 1880762179,
        "macroregion_id": 404227469,
        "neighbourhood_id": 85860005,
        "region_id": 1880762729
      }
    ],
    "wof:id": 85860005,
    "wof:lang": [
      "eng"
    ],
    "wof:lastmodified": 1765391312,
    "wof:name": "Plaistow",
    "wof:parent_id": 1158857297,
    "wof:placetype": "neighbourhood",
    "wof:population": 31874,
    "wof:population_rank": 7,
    "wof:repo": "whosonfirst-data-admin-gb",
    "wof:superseded_by": [],
    "wof:supersedes": [],
    "wof:tags": []
  },
  "bbox": [
    0.005493,
    51.406059,
    0.040474,
    51.426614
  ],
  "geometry": {"type":"MultiPolygon","coordinates":[[[[0.027466,51.423189],[0.027466,51.423189],[0.029468,51.419978],[0.032072,51.421767],[0.032959,51.421293],[0.03582,51.419764],[0.037794,51.418709],[0.037712,51.418051],[0.037926,51.416338],[0.037186,51.414362],[0.038452,51.413144],[0.038694,51.412912],[0.040474,51.411199],[0.039406,51.409486],[0.038452,51.407957],[0.03786,51.407008],[0.037675,51.40705],[0.035706,51.408629],[0.032959,51.408629],[0.032959,51.406059],[0.032005,51.406059],[0.032005,51.406059],[0.027466,51.406059],[0.027466,51.406059],[0.027466,51.407957],[0.026512,51.409486],[0.026455,51.409578],[0.025549,51.409868],[0.024719,51.411199],[0.021375,51.411199],[0.021019,51.412912],[0.016721,51.412912],[0.016479,51.41268],[0.015755,51.412912],[0.014563,51.413294],[0.013848,51.412912],[0.010986,51.411383],[0.010033,51.412912],[0.005735,51.412912],[0.005735,51.412912],[0.005493,51.412912],[0.005493,51.413144],[0.005493,51.416338],[0.005493,51.417745],[0.005608,51.418051],[0.009677,51.418051],[0.010099,51.418341],[0.010986,51.419764],[0.010986,51.419764],[0.010986,51.42166],[0.010986,51.423189],[0.013847,51.423189],[0.014562,51.423572],[0.015754,51.423189],[0.016479,51.423189],[0.016479,51.426421],[0.016873,51.426614],[0.021973,51.426614],[0.027466,51.426614],[0.027466,51.426614],[0.027466,51.423189]]]]}
}
