{
  "id": 1360809335,
  "type": "Feature",
  "properties": {
    "edtf:cessation": "",
    "edtf:inception": "",
    "geom:area": 0,
    "geom:area_square_m": 0,
    "geom:bbox": "-0.333330,53.300000,-0.333330,53.300000",
    "geom:latitude": 53.3,
    "geom:longitude": -0.33333,
    "gn:admin1_code": "ENG",
    "gn:admin2_code": "H7",
    "gn:admin3_code": "32UH",
    "gn:admin4_code": "32UH079",
    "gn:asciiname": "Holton",
    "gn:country_code": "GB",
    "gn:dem": 18,
    "gn:feature_class": "P",
    "gn:feature_code": "PPL",
    "gn:geonameid": 2646697,
    "gn:latitude": 53.3,
    "gn:longitude": -0.33333,
    "gn:modification_date": "2018-07-03",
    "gn:name": "Holton",
    "gn:population": 0,
    "gn:timezone": "Europe/London",
    "iso:country": "GB",
    "lbl:bbox": "-0.33833,53.295,-0.32833,53.305",
    "lbl:max_zoom": 18,
    "mz:hierarchy_label": 1,
    "mz:is_current": 1,
    "mz:min_zoom": 15,
    "name:cat_x_preferred": [
      "Holton"
    ],
    "name:ceb_x_preferred": [
      "Holton"
    ],
    "name:deu_x_preferred": [
      "Holton"
    ],
    "name:fra_x_preferred": [
      "Holton"
    ],
    "name:ita_x_preferred": [
      "Holton"
    ],
    "name:nld_x_preferred": [
      "Holton"
    ],
    "name:pol_x_preferred": [
      "Holton"
    ],
    "name:srp_x_preferred": [
      "Холтон"
    ],
    "name:swe_x_preferred": [
      "Holton"
    ],
    "name:ukr_x_preferred": [
      "Голтон"
    ],
    "name:vol_x_preferred": [
      "Holton"
    ],
    "src:geom": "geonames",
    "src:population": "wikidata",
    "wof:belongsto": [
      1880762701,
      102191581,
      1880762033,
      404447135,
      85633159,
      404227469,
      1360754855,
      136253055,
      1880771569
    ],
    "wof:breaches": [],
    "wof:concordances": {
      "gn:id": 2646697
    },
    "wof:country": "GB",
    "wof:created": 1765390697,
    "wof:geomhash": "1cde40469ed53ffc3cdc8d36dd99d020",
    "wof:hierarchy": [
      {
        "continent_id": 102191581,
        "country_id": 85633159,
        "county_id": 1880771569,
        "empire_id": 136253055,
        "localadmin_id": 404447135,
        "locality_id": 1360754855,
        "macrocounty_id": 1880762033,
        "macroregion_id": 404227469,
        "neighbourhood_id": 1360809335,
        "region_id": 1880762701
      }
    ],
    "wof:id": 1360809335,
    "wof:lastmodified": 1765390697,
    "wof:name": "Holton",
    "wof:parent_id": 1360754855,
    "wof:placetype": "neighbourhood",
    "wof:population": 146,
    "wof:population_rank": 1,
    "wof:repo": "whosonfirst-data-admin-gb",
    "wof:superseded_by": [],
    "wof:supersedes": [
      1344192711
    ],
    "wof:tags": []
  },
  "bbox": [
    -0.33333,
    53.3,
    -0.33333,
    53.3
  ],
  "geometry": {"type":"Point","coordinates":[-0.33333,53.3]}
}
