{
  "id": 85791497,
  "type": "Feature",
  "properties": {
    "edtf:cessation": "",
    "edtf:inception": "",
    "geom:area": 0.0003139889529999709,
    "geom:area_square_m": 2415234.304632,
    "geom:bbox": "-0.002747,51.522416,0.021973,51.540356",
    "geom:latitude": 51.53168876529884,
    "geom:longitude": 0.008222321508791638,
    "gn:latitude": 51.53333,
    "gn:longitude": 0.01667,
    "iso:country": "GB",
    "lbl:latitude": 51.53384,
    "lbl:longitude": 0.020767,
    "lbl:max_zoom": 18,
    "mps:latitude": 51.531386,
    "mps:longitude": 0.007221,
    "mz:hierarchy_label": 1,
    "mz:is_current": -1,
    "mz:is_funky": 0,
    "mz:is_hard_boundary": 0,
    "mz:is_landuse_aoi": 0,
    "mz:is_official": 0,
    "mz:max_zoom": 18,
    "mz:min_zoom": 14,
    "mz:tier_locality": 7,
    "mz:tier_metro": 1,
    "name:ara_x_preferred": [
      "وستهام"
    ],
    "name:arz_x_preferred": [
      "ويست هام"
    ],
    "name:azb_x_preferred": [
      "وستهام"
    ],
    "name:aze_x_preferred": [
      "Vest Hem"
    ],
    "name:bel_x_preferred": [
      "Уэст-Хэм"
    ],
    "name:cat_x_preferred": [
      "West Ham"
    ],
    "name:cym_x_preferred": [
      "West Ham"
    ],
    "name:dan_x_preferred": [
      "West Ham"
    ],
    "name:deu_x_preferred": [
      "West Ham"
    ],
    "name:eng_x_preferred": [
      "West Ham"
    ],
    "name:eng_x_variant": [
      "W Ham",
      "Westham"
    ],
    "name:fas_x_preferred": [
      "وستهام"
    ],
    "name:fas_x_variant": [
      "وست هام"
    ],
    "name:fra_x_preferred": [
      "West Ham"
    ],
    "name:gle_x_preferred": [
      "West Ham"
    ],
    "name:heb_x_preferred": [
      "וסט האם"
    ],
    "name:hun_x_preferred": [
      "West Ham"
    ],
    "name:isl_x_preferred": [
      "West Ham"
    ],
    "name:ita_x_preferred": [
      "West Ham"
    ],
    "name:jpn_x_preferred": [
      "ウェスト・ハム"
    ],
    "name:jpn_x_variant": [
      "ウェストハム"
    ],
    "name:kor_x_preferred": [
      "웨스트햄"
    ],
    "name:nld_x_preferred": [
      "West Ham"
    ],
    "name:nno_x_preferred": [
      "West Ham"
    ],
    "name:nob_x_preferred": [
      "West Ham"
    ],
    "name:nor_x_preferred": [
      "West Ham"
    ],
    "name:pol_x_preferred": [
      "West Ham"
    ],
    "name:ron_x_preferred": [
      "West Ham"
    ],
    "name:rus_x_preferred": [
      "Вест Хэм"
    ],
    "name:spa_x_preferred": [
      "West Ham"
    ],
    "name:swe_x_preferred": [
      "West Ham"
    ],
    "name:ukr_x_preferred": [
      "Вест Гем"
    ],
    "name:urd_x_preferred": [
      "مغربی ہیم"
    ],
    "name:vie_x_preferred": [
      "West Ham"
    ],
    "name:yue_x_preferred": [
      "韋斯咸"
    ],
    "name:zho_x_preferred": [
      "西漢姆"
    ],
    "name:zho_yue_x_preferred": [
      "韋斯咸"
    ],
    "qs:gn_adm0_cc": "GB",
    "qs:gn_fcode": "PPL",
    "qs:gn_local": 2643743,
    "qs:gn_namadm1": "ENG",
    "qs:gn_name": "West Ham",
    "qs:local_max": 40697,
    "qs:local_sum": 1675717,
    "qs:localhoods": 643,
    "qs:name": "West Ham",
    "qs:name_adm0": "United Kingdom",
    "qs:name_adm1": "England",
    "qs:name_adm2": "Greater London",
    "qs:name_lau": "London Borough of Newham",
    "qs:name_local": "London",
    "qs:photo_max": 563,
    "qs:photo_sum": 5337,
    "qs:placetype": "Suburb",
    "qs:quad_count": 107,
    "qs:woe_adm0": 23424975,
    "qs:woe_adm1": 24554868,
    "qs:woe_adm2": 23416974,
    "qs:woe_lau": 12695815,
    "qs:woe_local": 44418,
    "qs:woe_ver": "7.10.0",
    "src:geom": "quattroshapes",
    "src:geom_alt": [
      "quattroshapes_pg"
    ],
    "src:lbl_centroid": "mz",
    "src:population": "wikidata",
    "wd:wordcount": 875,
    "wof:belongsto": [
      1880762729,
      102191581,
      1880762179,
      85633159,
      404227469,
      101750367,
      136253055,
      1158857293,
      1880771825
    ],
    "wof:breaches": [],
    "wof:concordances": {
      "gn:id": 2634403,
      "gp:id": 39660,
      "qs_pg:id": 1315096,
      "wd:id": "Q939617",
      "wk:page": "West Ham"
    },
    "wof:country": "GB",
    "wof:created": 1765391227,
    "wof:geom_alt": [
      "quattroshapes_pg"
    ],
    "wof:geomhash": "349a0faf4d02e6642ac667898efca9c0",
    "wof:hierarchy": [
      {
        "borough_id": 1158857293,
        "continent_id": 102191581,
        "country_id": 85633159,
        "county_id": 1880771825,
        "empire_id": 136253055,
        "locality_id": 101750367,
        "macrocounty_id": 1880762179,
        "macroregion_id": 404227469,
        "neighbourhood_id": 85791497,
        "region_id": 1880762729
      }
    ],
    "wof:id": 85791497,
    "wof:lang": [
      "eng"
    ],
    "wof:lastmodified": 1765391227,
    "wof:name": "West Ham",
    "wof:parent_id": 1158857293,
    "wof:placetype": "neighbourhood",
    "wof:population": 15551,
    "wof:population_rank": 6,
    "wof:repo": "whosonfirst-data-admin-gb",
    "wof:superseded_by": [],
    "wof:supersedes": [],
    "wof:tags": []
  },
  "bbox": [
    -0.002747,
    51.522416,
    0.021973,
    51.540356
  ],
  "geometry": {"type":"Polygon","coordinates":[[[0.007709,51.540356],[0.00824,51.539502],[0.010986,51.539502],[0.011939,51.539502],[0.016479,51.539502],[0.016479,51.536086],[0.021973,51.536086],[0.021973,51.535231],[0.021973,51.532669],[0.021973,51.53096],[0.019702,51.53096],[0.019226,51.530195],[0.019226,51.529251],[0.016479,51.529251],[0.016479,51.527543],[0.013733,51.527543],[0.013733,51.525834],[0.013733,51.525774],[0.010986,51.524303],[0.010986,51.522416],[0.010986,51.522416],[0.006922,51.522416],[0.006922,51.522416],[0.005493,51.522416],[0.005493,51.524125],[0.005128,51.524125],[0.005036,51.524096],[0.004945,51.524125],[0.002747,51.524125],[0,51.524125],[-0.000476,51.524125],[-0.002747,51.524125],[-0.002747,51.525834],[-0.002747,51.527543],[-0.002747,51.528486],[-0.002747,51.529251],[-0.002747,51.53096],[-0.002747,51.531725],[-0.002747,51.532669],[-0.002747,51.534377],[-0.002747,51.536086],[0,51.536086],[0,51.537028],[0,51.537794],[0.000476,51.537794],[0.002747,51.537794],[0.002747,51.538737],[0.002747,51.539502],[0.003223,51.539502],[0.005493,51.539502],[0.006024,51.540356],[0.007709,51.540356]]]}
}
