{
  "id": 101872573,
  "type": "Feature",
  "properties": {
    "edtf:cessation": "",
    "edtf:inception": "",
    "geom:area": 0,
    "geom:area_square_m": 0,
    "geom:bbox": "-3.129666,56.201949,-3.129666,56.201949",
    "geom:latitude": 56.201949,
    "geom:longitude": -3.129666,
    "gn:population": 2309,
    "iso:country": "GB",
    "lbl:bbox": "-3.149666,56.181949,-3.109666,56.221949",
    "lbl:latitude": 56.20195,
    "lbl:longitude": -3.129666,
    "lbl:max_zoom": 15,
    "lbl:min_zoom": 11.5,
    "mps:latitude": 56.20195,
    "mps:longitude": -3.129666,
    "mz:hierarchy_label": 1,
    "mz:is_current": 1,
    "mz:min_zoom": 11,
    "name:ast_x_preferred": [
      "Markinch"
    ],
    "name:bul_x_preferred": [
      "Маркинч"
    ],
    "name:ceb_x_preferred": [
      "Markinch"
    ],
    "name:cym_x_preferred": [
      "Markinch"
    ],
    "name:deu_x_preferred": [
      "Markinch"
    ],
    "name:eng_x_preferred": [
      "Markinch"
    ],
    "name:eus_x_preferred": [
      "Markinch"
    ],
    "name:fas_x_preferred": [
      "مارکینچ"
    ],
    "name:fra_x_preferred": [
      "Markinch"
    ],
    "name:gla_x_preferred": [
      "Marc-Innis"
    ],
    "name:gla_x_variant": [
      "Marg Innis",
      "Marc Innis"
    ],
    "name:gle_x_preferred": [
      "Marc Innis"
    ],
    "name:ita_x_preferred": [
      "Markinch"
    ],
    "name:jpn_x_preferred": [
      "マーキンチ"
    ],
    "name:nld_x_preferred": [
      "Markinch"
    ],
    "name:sco_x_preferred": [
      "Merkinch"
    ],
    "name:sco_x_variant": [
      "Mairkinch"
    ],
    "name:spa_x_preferred": [
      "Markinch"
    ],
    "name:swe_x_preferred": [
      "Markinch"
    ],
    "name:zho_x_preferred": [
      "马尔金奇"
    ],
    "qs:a0": "United Kingdom",
    "qs:a1": "*Fife",
    "qs:a1_lc": "GB11QR0000",
    "qs:a1r": "0Scotland",
    "qs:a1r_lc": "GB11000000",
    "qs:adm0": "United Kingdom",
    "qs:id": 0,
    "qs:la_lc": "*",
    "qs:level": "locality",
    "qs:loc": "Markinch",
    "qs:loc_alt": "Markinch",
    "qs:pop": 0,
    "qs:source": "RCustom EuroGlobalMap + UMZ Urban Polygons + Geonames + GeoPlanet",
    "qs:type": "buffered point",
    "src:geom": "whosonfirst",
    "src:geom_alt": [
      "quattroshapes_pg",
      "quattroshapes"
    ],
    "src:geom_via": "quattroshapes",
    "src:lbl_centroid": "mapshaper",
    "src:population": "wikidata",
    "wd:latitude": 56.2026,
    "wd:longitude": -3.13504,
    "wd:wordcount": 1214,
    "wof:belongsto": [
      1880762125,
      1360699123
    ],
    "wof:breaches": [],
    "wof:concordances": {
      "fct:id": "0aa612b8-8f76-11e1-848f-cfd5bf3ef515",
      "gn:id": 2643016,
      "gp:id": 28357,
      "qs_pg:id": 899355,
      "wd:id": "Q3849623",
      "wk:page": "Markinch"
    },
    "wof:country": "GB",
    "wof:created": 1765384898,
    "wof:geom_alt": [
      "quattroshapes_pg",
      "quattroshapes"
    ],
    "wof:geomhash": "da41fc5ec330472f6b98e201a804b5f5",
    "wof:hierarchy": [
      {
        "continent_id": -1,
        "country_id": -1,
        "county_id": 1360699123,
        "locality_id": 101872573,
        "macrocounty_id": 1880762125,
        "region_id": -1
      }
    ],
    "wof:id": 101872573,
    "wof:lang": [
      "eng"
    ],
    "wof:lastmodified": 1765384898,
    "wof:name": "Markinch",
    "wof:parent_id": 1360699123,
    "wof:placetype": "locality",
    "wof:population": 2420,
    "wof:population_rank": 4,
    "wof:repo": "whosonfirst-data-admin-gb",
    "wof:superseded_by": [],
    "wof:supersedes": [],
    "wof:tags": []
  },
  "bbox": [
    -3.129666,
    56.201949,
    -3.129666,
    56.201949
  ],
  "geometry": {"type":"Point","coordinates":[-3.129666,56.201949]}
}
