{
  "id": 1126038657,
  "type": "Feature",
  "properties": {
    "edtf:cessation": "",
    "edtf:inception": "",
    "geom:area": 0,
    "geom:area_square_m": 0,
    "geom:bbox": "-4.485980,55.833270,-4.485980,55.833270",
    "geom:latitude": 55.83327,
    "geom:longitude": -4.48598,
    "gn:country": "GB",
    "gn:fcode": "PPL",
    "gn:population": 5142,
    "iso:country": "GB",
    "lbl:bbox": "-4.50598,55.81327,-4.46598,55.85327",
    "lbl:latitude": 55.83327,
    "lbl:longitude": -4.48598,
    "lbl:max_zoom": 15,
    "lbl:min_zoom": 11,
    "mz:hierarchy_label": 1,
    "mz:is_current": 1,
    "mz:min_zoom": 11,
    "mz:note": "Quattroshapes Point Gazetteer import 20170519",
    "name:bul_x_preferred": [
      "Елдърсли"
    ],
    "name:ceb_x_preferred": [
      "Elderslie"
    ],
    "name:ces_x_preferred": [
      "Elderslie"
    ],
    "name:cym_x_preferred": [
      "Elderslie"
    ],
    "name:deu_x_preferred": [
      "Elderslie"
    ],
    "name:eng_x_preferred": [
      "Elderslie"
    ],
    "name:eus_x_preferred": [
      "Elderslie"
    ],
    "name:fas_x_preferred": [
      "الدرزلی"
    ],
    "name:fra_x_preferred": [
      "Elderslie"
    ],
    "name:gla_x_preferred": [
      "Ach na Feàrna"
    ],
    "name:gle_x_preferred": [
      "Ach na Feárna"
    ],
    "name:heb_x_preferred": [
      "אלדרסייל"
    ],
    "name:ita_x_preferred": [
      "Elderslie"
    ],
    "name:jpn_x_preferred": [
      "エルダスリー"
    ],
    "name:mlg_x_preferred": [
      "Elderslie"
    ],
    "name:nld_x_preferred": [
      "Elderslie"
    ],
    "name:nno_x_preferred": [
      "Elderslie"
    ],
    "name:nob_x_preferred": [
      "Elderslie"
    ],
    "name:rus_x_preferred": [
      "Элдерсли"
    ],
    "name:sco_x_preferred": [
      "Elderslie"
    ],
    "name:slv_x_preferred": [
      "Elderslie"
    ],
    "name:spa_x_preferred": [
      "Elderslie"
    ],
    "name:swe_x_preferred": [
      "Elderslie"
    ],
    "name:tgl_x_preferred": [
      "Elderslie"
    ],
    "name:ukr_x_preferred": [
      "Елдерслі"
    ],
    "name:zho_x_preferred": [
      "埃尔德斯利"
    ],
    "qs_pg:aaroncc": "GB",
    "qs_pg:gn_country": "GB",
    "qs_pg:gn_fcode": "PPL",
    "qs_pg:gn_id": 2650128,
    "qs_pg:gn_pop": 5142,
    "qs_pg:name": "Elderslie",
    "qs_pg:name_adm0": "United Kingdom",
    "qs_pg:name_adm1": "Scotland",
    "qs_pg:photos": 145,
    "qs_pg:photos_1k": 29,
    "qs_pg:photos_9k": 1,
    "qs_pg:photos_9r": 3,
    "qs_pg:photos_all": 145,
    "qs_pg:photos_sr": 3,
    "qs_pg:pop_sr": 5,
    "qs_pg:qs_id": 1287241,
    "qs_pg:qs_pg_placetype": "locality",
    "qs_pg:qs_pg_placetype_gp": "Town",
    "qs_pg:woe_adm0": 23424975,
    "qs_pg:woe_id": 19439,
    "src:geom": "qs_pg",
    "src:lbl_centroid": "qs_pg",
    "src:population": "wikidata",
    "woe:adm0_id": 23424975,
    "woe:name_adm0": "United Kingdom",
    "woe:name_adm1": "Scotland",
    "woe:placetype": "Town",
    "wof:belongsto": [
      1880773179,
      102191581,
      85633159,
      1880762039,
      404227471,
      136253055,
      1360699097
    ],
    "wof:breaches": [],
    "wof:concordances": {
      "gn:id": 2650128,
      "gp:id": 19439,
      "qs_pg:id": 1287241,
      "wd:id": "Q950200"
    },
    "wof:country": "GB",
    "wof:created": 1497301972,
    "wof:geomhash": "96fc5d827e010781b7502542e6880307",
    "wof:hierarchy": [
      {
        "continent_id": 102191581,
        "country_id": 85633159,
        "county_id": 1360699097,
        "empire_id": 136253055,
        "locality_id": 1126038657,
        "macrocounty_id": 1880762039,
        "macroregion_id": 404227471,
        "region_id": 1880773179
      }
    ],
    "wof:id": 1126038657,
    "wof:lastmodified": 1765387825,
    "wof:name": "Elderslie",
    "wof:parent_id": 1360699097,
    "wof:placetype": "locality",
    "wof:population": 5330,
    "wof:population_rank": 5,
    "wof:repo": "whosonfirst-data-admin-gb",
    "wof:superseded_by": [],
    "wof:supersedes": [],
    "wof:tags": []
  },
  "bbox": [
    -4.48598,
    55.83327,
    -4.48598,
    55.83327
  ],
  "geometry": {"type":"Point","coordinates":[-4.48598,55.83327]}
}
