{
  "id": 1326658921,
  "type": "Feature",
  "properties": {
    "edtf:cessation": "",
    "edtf:inception": "",
    "geom:area": 0,
    "geom:area_square_m": 0,
    "geom:bbox": "-2.416670,56.816670,-2.416670,56.816670",
    "geom:latitude": 56.81667,
    "geom:longitude": -2.41667,
    "gn:admin1_code": "SCT",
    "gn:admin2_code": "T6",
    "gn:asciiname": "Garvock",
    "gn:country_code": "GB",
    "gn:dem": 208,
    "gn:feature_class": "P",
    "gn:feature_code": "PPL",
    "gn:geonameid": 2648792,
    "gn:latitude": 56.81667,
    "gn:longitude": -2.41667,
    "gn:modification_date": "2004-10-08",
    "gn:name": "Garvock",
    "gn:population": 0,
    "gn:timezone": "Europe/London",
    "iso:country": "GB",
    "lbl:bbox": "-2.43667,56.79667,-2.39667,56.83667",
    "lbl:max_zoom": 18,
    "lbl:min_zoom": 13.5,
    "mz:hierarchy_label": 1,
    "mz:is_current": -1,
    "mz:min_zoom": 12,
    "src:geom": "geonames",
    "src:population": "wikidata",
    "wof:belongsto": [
      1880773121,
      102191581,
      85633159,
      1880762109,
      404227471,
      136253055,
      1360699031
    ],
    "wof:breaches": [],
    "wof:concordances": {
      "gn:id": 2648792
    },
    "wof:country": "GB",
    "wof:created": 1765388899,
    "wof:geomhash": "805866946099f3b7745bb14f6ad44fb4",
    "wof:hierarchy": [
      {
        "continent_id": 102191581,
        "country_id": 85633159,
        "county_id": 1360699031,
        "empire_id": 136253055,
        "locality_id": 1326658921,
        "macrocounty_id": 1880762109,
        "macroregion_id": 404227471,
        "region_id": 1880773121
      }
    ],
    "wof:id": 1326658921,
    "wof:lastmodified": 1765388899,
    "wof:name": "Garvock",
    "wof:parent_id": 1360699031,
    "wof:placetype": "locality",
    "wof:population": 304,
    "wof:population_rank": 2,
    "wof:repo": "whosonfirst-data-admin-gb",
    "wof:superseded_by": [],
    "wof:supersedes": [],
    "wof:tags": []
  },
  "bbox": [
    -2.41667,
    56.81667,
    -2.41667,
    56.81667
  ],
  "geometry": {"type":"Point","coordinates":[-2.41667,56.81667]}
}
