{
  "id": 1360793399,
  "type": "Feature",
  "properties": {
    "edtf:cessation": "",
    "edtf:inception": "",
    "geom:area": 0,
    "geom:area_square_m": 0,
    "geom:bbox": "-0.502485,51.373086,-0.502485,51.373086",
    "geom:latitude": 51.373086,
    "geom:longitude": -0.502485,
    "gn:country": null,
    "iso:country": "GB",
    "lbl:bbox": "-0.507485,51.368086,-0.497485,51.378086",
    "lbl:latitude": 51.373086,
    "lbl:longitude": -0.502485,
    "lbl:max_zoom": 18,
    "mz:hierarchy_label": 1,
    "mz:is_current": 1,
    "mz:min_zoom": 15,
    "mz:note": "Quattroshapes Point Gazetteer import 20170519",
    "name:ast_x_preferred": [
      "Addlestone"
    ],
    "name:azb_x_preferred": [
      "ادلستن"
    ],
    "name:bul_x_preferred": [
      "Адлестоне"
    ],
    "name:ceb_x_preferred": [
      "Addlestone"
    ],
    "name:cym_x_preferred": [
      "Addlestone"
    ],
    "name:deu_x_preferred": [
      "Addlestone"
    ],
    "name:eng_x_preferred": [
      "Addlestone"
    ],
    "name:fas_x_preferred": [
      "ادلستن"
    ],
    "name:fra_x_preferred": [
      "Addlestone"
    ],
    "name:fry_x_preferred": [
      "Addlestone"
    ],
    "name:gle_x_preferred": [
      "Addlestone"
    ],
    "name:heb_x_preferred": [
      "אדלסטון"
    ],
    "name:ita_x_preferred": [
      "Addlestone"
    ],
    "name:jpn_x_preferred": [
      "アドルストーン"
    ],
    "name:kor_x_preferred": [
      "애들스톤"
    ],
    "name:nan_x_preferred": [
      "Addlestone"
    ],
    "name:nld_x_preferred": [
      "Addlestone"
    ],
    "name:nno_x_preferred": [
      "Addlestone"
    ],
    "name:nob_x_preferred": [
      "Addlestone"
    ],
    "name:pol_x_preferred": [
      "Addlestone"
    ],
    "name:ron_x_preferred": [
      "Addlestone"
    ],
    "name:spa_x_preferred": [
      "Addlestone"
    ],
    "name:swe_x_preferred": [
      "Addlestone"
    ],
    "name:zho_x_preferred": [
      "阿德爾斯通"
    ],
    "qs_pg:aaroncc": "GB",
    "qs_pg:gn_country": null,
    "qs_pg:name": "Addlestone",
    "qs_pg:name_adm0": "United Kingdom",
    "qs_pg:name_adm1": "England",
    "qs_pg:photos": 847,
    "qs_pg:photos_1k": 172,
    "qs_pg:photos_9k": 22,
    "qs_pg:photos_9r": 14,
    "qs_pg:photos_all": 4949,
    "qs_pg:photos_sr": 9,
    "qs_pg:pop_sr": 0,
    "qs_pg:qs_id": 219180,
    "qs_pg:qs_pg_placetype": "locality",
    "qs_pg:qs_pg_placetype_gp": "Town",
    "qs_pg:woe_adm0": 23424975,
    "qs_pg:woe_id": 10413,
    "src:geom": "qs_pg",
    "src:lbl_centroid": "qs_pg",
    "src:population": "wikidata",
    "woe:adm0_id": 23424975,
    "woe:name_adm0": "United Kingdom",
    "woe:name_adm1": "England",
    "woe:placetype": "Town",
    "wof:belongsto": [
      1360817277,
      1880761993,
      1126051547,
      1880771655
    ],
    "wof:breaches": [],
    "wof:concordances": {
      "gp:id": 10413,
      "qs_pg:id": 219180,
      "wd:id": "Q353307"
    },
    "wof:country": "GB",
    "wof:created": 1497291560,
    "wof:geomhash": "fa275c61cf3c8b9cf3c11ee5db583d0a",
    "wof:hierarchy": [
      {
        "continent_id": -1,
        "country_id": -1,
        "county_id": 1880771655,
        "localadmin_id": 1360817277,
        "locality_id": 1126051547,
        "macrocounty_id": 1880761993,
        "neighbourhood_id": 1360793399,
        "region_id": -1
      }
    ],
    "wof:id": 1360793399,
    "wof:lastmodified": 1765389591,
    "wof:name": "Addlestone",
    "wof:parent_id": 1126051547,
    "wof:placetype": "neighbourhood",
    "wof:population": 15883,
    "wof:population_rank": 6,
    "wof:repo": "whosonfirst-data-admin-gb",
    "wof:superseded_by": [],
    "wof:supersedes": [
      1125808527
    ],
    "wof:tags": []
  },
  "bbox": [
    -0.502485,
    51.373086,
    -0.502485,
    51.373086
  ],
  "geometry": {"type":"Point","coordinates":[-0.502485,51.373086]}
}
