{
  "id": 1360714883,
  "type": "Feature",
  "properties": {
    "edtf:cessation": "",
    "edtf:inception": "",
    "geom:area": 0,
    "geom:area_square_m": 0,
    "geom:bbox": "-4.022150,52.464870,-4.022150,52.464870",
    "geom:latitude": 52.46487,
    "geom:longitude": -4.02215,
    "gn:admin1_code": "WLS",
    "gn:admin2_code": "X6",
    "gn:admin3_code": "00NQ012",
    "gn:asciiname": "Henry E Robbins Jr",
    "gn:country_code": "GB",
    "gn:dem": 50,
    "gn:feature_class": "P",
    "gn:feature_code": "PPL",
    "gn:geonameid": 11593329,
    "gn:latitude": 52.46487,
    "gn:longitude": -4.02215,
    "gn:modification_date": "2017-06-22",
    "gn:name": "Henry E Robbins Jr",
    "gn:population": 0,
    "gn:timezone": "Europe/London",
    "iso:country": "GB",
    "lbl:bbox": "-4.02715,52.45987,-4.01715,52.46987",
    "lbl:max_zoom": 18,
    "mz:hierarchy_label": 1,
    "mz:is_current": -1,
    "mz:min_zoom": 15,
    "src:geom": "geonames",
    "src:population": "wikidata",
    "wof:belongsto": [
      1880772913,
      102191581,
      1880762181,
      404436799,
      85633159,
      404227475,
      1360711697,
      136253055,
      1360699113
    ],
    "wof:breaches": [],
    "wof:concordances": {
      "gn:id": 11593329
    },
    "wof:country": "GB",
    "wof:created": 1765389367,
    "wof:geomhash": "90ffbd673989bc9f6521f4c202f227db",
    "wof:hierarchy": [
      {
        "continent_id": 102191581,
        "country_id": 85633159,
        "county_id": 1360699113,
        "empire_id": 136253055,
        "localadmin_id": 404436799,
        "locality_id": 1360711697,
        "macrocounty_id": 1880762181,
        "macroregion_id": 404227475,
        "neighbourhood_id": 1360714883,
        "region_id": 1880772913
      }
    ],
    "wof:id": 1360714883,
    "wof:lastmodified": 1765389367,
    "wof:name": "Henry E Robbins Jr",
    "wof:parent_id": 1360711697,
    "wof:placetype": "neighbourhood",
    "wof:population": 679,
    "wof:population_rank": 2,
    "wof:repo": "whosonfirst-data-admin-gb",
    "wof:superseded_by": [],
    "wof:supersedes": [
      1259410301
    ],
    "wof:tags": []
  },
  "bbox": [
    -4.02215,
    52.46487,
    -4.02215,
    52.46487
  ],
  "geometry": {"type":"Point","coordinates":[-4.02215,52.46487]}
}
