{
  "id": 101872597,
  "type": "Feature",
  "properties": {
    "edtf:cessation": "",
    "edtf:inception": "",
    "geom:area": 0,
    "geom:area_square_m": 0,
    "geom:bbox": "-4.051337,56.189661,-4.051337,56.189661",
    "geom:latitude": 56.189661,
    "geom:longitude": -4.051337,
    "iso:country": "GB",
    "lbl:bbox": "-4.071337,56.169661,-4.031337,56.209661",
    "lbl:latitude": 56.189661,
    "lbl:longitude": -4.051336,
    "lbl:max_zoom": 18,
    "lbl:min_zoom": 13.5,
    "mps:latitude": 56.189661,
    "mps:longitude": -4.051336,
    "mz:hierarchy_label": 1,
    "mz:is_current": 1,
    "mz:min_zoom": 12,
    "name:ast_x_preferred": [
      "Doune"
    ],
    "name:bul_x_preferred": [
      "Доуне"
    ],
    "name:ceb_x_preferred": [
      "Doune"
    ],
    "name:cym_x_preferred": [
      "Doune"
    ],
    "name:deu_x_preferred": [
      "Doune"
    ],
    "name:eng_x_preferred": [
      "Doune"
    ],
    "name:eus_x_preferred": [
      "Doune"
    ],
    "name:fas_x_preferred": [
      "دون"
    ],
    "name:fra_x_preferred": [
      "Doune"
    ],
    "name:gla_x_preferred": [
      "An Dùn"
    ],
    "name:gle_x_preferred": [
      "An Dún"
    ],
    "name:gle_x_variant": [
      "An Dùn"
    ],
    "name:glg_x_preferred": [
      "Doune"
    ],
    "name:heb_x_preferred": [
      "דונה"
    ],
    "name:ita_x_preferred": [
      "Doune"
    ],
    "name:jpn_x_preferred": [
      "ドゥーン"
    ],
    "name:nds_x_preferred": [
      "Doune"
    ],
    "name:nld_x_preferred": [
      "Doune"
    ],
    "name:pol_x_preferred": [
      "Doune"
    ],
    "name:sco_x_preferred": [
      "Doune"
    ],
    "name:spa_x_preferred": [
      "Doune"
    ],
    "name:swe_x_preferred": [
      "Doune"
    ],
    "name:zho_x_preferred": [
      "杜恩"
    ],
    "qs:a0": "United Kingdom",
    "qs:a1": "*Stirling",
    "qs:a1_lc": "GB11RG0000",
    "qs:a1r": "0Scotland",
    "qs:a1r_lc": "GB11000000",
    "qs:adm0": "United Kingdom",
    "qs:id": 0,
    "qs:la_lc": "*",
    "qs:level": "locality",
    "qs:loc": "Doune",
    "qs:loc_alt": "Doune",
    "qs:pop": 0,
    "qs:source": "RCustom EuroGlobalMap + UMZ Urban Polygons + Geonames + GeoPlanet",
    "qs:type": "buffered point",
    "src:geom": "whosonfirst",
    "src:geom_alt": [
      "quattroshapes_pg",
      "quattroshapes"
    ],
    "src:geom_via": "quattroshapes",
    "src:lbl_centroid": "mapshaper",
    "src:population": "wikidata",
    "wd:latitude": 56.19,
    "wd:longitude": -4.053,
    "wd:wordcount": 849,
    "wof:belongsto": [
      1880762131,
      1360699003
    ],
    "wof:breaches": [],
    "wof:concordances": {
      "gn:id": 2651060,
      "gp:id": 28835952,
      "qs_pg:id": 210797,
      "wd:id": "Q1014524",
      "wk:page": "Doune"
    },
    "wof:concordances_alt": {
      "qs_pg:id": 239371
    },
    "wof:country": "GB",
    "wof:created": 1765384900,
    "wof:geom_alt": [
      "quattroshapes_pg",
      "quattroshapes"
    ],
    "wof:geomhash": "29ff53164dd9ba603d141e0b647bcd7b",
    "wof:hierarchy": [
      {
        "continent_id": -1,
        "country_id": -1,
        "county_id": 1360699003,
        "locality_id": 101872597,
        "macrocounty_id": 1880762131,
        "region_id": -1
      }
    ],
    "wof:id": 101872597,
    "wof:lastmodified": 1765384900,
    "wof:name": "Doune",
    "wof:parent_id": 1360699003,
    "wof:placetype": "locality",
    "wof:population": 2150,
    "wof:population_rank": 4,
    "wof:repo": "whosonfirst-data-admin-gb",
    "wof:superseded_by": [],
    "wof:supersedes": [],
    "wof:tags": []
  },
  "bbox": [
    -4.051337,
    56.189661,
    -4.051337,
    56.189661
  ],
  "geometry": {"type":"Point","coordinates":[-4.051337,56.189661]}
}
