{
  "id": 101873635,
  "type": "Feature",
  "properties": {
    "edtf:cessation": "",
    "edtf:inception": "",
    "geom:area": 0,
    "geom:area_square_m": 0,
    "geom:bbox": "-3.320025,57.648020,-3.320025,57.648020",
    "geom:latitude": 57.64802,
    "geom:longitude": -3.320025,
    "iso:country": "GB",
    "lbl:bbox": "-3.340025,57.62802,-3.300025,57.66802",
    "lbl:latitude": 57.648022,
    "lbl:longitude": -3.320025,
    "lbl:max_zoom": 18,
    "lbl:min_zoom": 13.5,
    "mps:latitude": 57.648022,
    "mps:longitude": -3.320025,
    "mz:hierarchy_label": 1,
    "mz:is_current": 1,
    "mz:min_zoom": 12,
    "name:ara_x_preferred": [
      "إلغين"
    ],
    "name:arz_x_preferred": [
      "الجين"
    ],
    "name:ast_x_preferred": [
      "Elgin"
    ],
    "name:azb_x_preferred": [
      "القین"
    ],
    "name:aze_x_preferred": [
      "Elqin"
    ],
    "name:ben_x_preferred": [
      "এল্গিন শহর"
    ],
    "name:bre_x_preferred": [
      "Eilginn"
    ],
    "name:bul_x_preferred": [
      "Елгин"
    ],
    "name:cat_x_preferred": [
      "Elgin"
    ],
    "name:ceb_x_preferred": [
      "Elgin"
    ],
    "name:ces_x_preferred": [
      "Elgin"
    ],
    "name:cym_x_preferred": [
      "Elgin"
    ],
    "name:dan_x_preferred": [
      "Elgin"
    ],
    "name:deu_x_preferred": [
      "Elgin"
    ],
    "name:eng_x_preferred": [
      "Elgin"
    ],
    "name:epo_x_preferred": [
      "Elgin"
    ],
    "name:eus_x_preferred": [
      "Elgin"
    ],
    "name:fas_x_preferred": [
      "الگین"
    ],
    "name:fin_x_preferred": [
      "Elgin"
    ],
    "name:fra_x_preferred": [
      "Elgin"
    ],
    "name:gla_x_preferred": [
      "Eilginn"
    ],
    "name:gle_x_preferred": [
      "Eilginn"
    ],
    "name:guj_x_preferred": [
      "એલ્ગિન"
    ],
    "name:hbs_x_preferred": [
      "Elgin"
    ],
    "name:heb_x_preferred": [
      "אלגין"
    ],
    "name:ita_x_preferred": [
      "Elgin"
    ],
    "name:jpn_x_preferred": [
      "エルギン"
    ],
    "name:kan_x_preferred": [
      "ಎಲ್ಗಿನ್"
    ],
    "name:kaz_x_preferred": [
      "Элгин"
    ],
    "name:kor_x_preferred": [
      "엘긴"
    ],
    "name:lit_x_preferred": [
      "Elgin Sitis"
    ],
    "name:nld_x_preferred": [
      "Elgin"
    ],
    "name:nno_x_preferred": [
      "Elgin"
    ],
    "name:nob_x_preferred": [
      "Elgin"
    ],
    "name:nor_x_preferred": [
      "Elgin"
    ],
    "name:pol_x_preferred": [
      "Elgin"
    ],
    "name:por_x_preferred": [
      "Elgin"
    ],
    "name:rus_x_preferred": [
      "Элгин"
    ],
    "name:sco_x_preferred": [
      "Elgin"
    ],
    "name:spa_x_preferred": [
      "Elgin"
    ],
    "name:swe_x_preferred": [
      "Elgin"
    ],
    "name:szl_x_preferred": [
      "Elgin"
    ],
    "name:tam_x_preferred": [
      "எல்ஜின்"
    ],
    "name:tel_x_preferred": [
      "ఎలిగిన్"
    ],
    "name:ukr_x_preferred": [
      "Елгін"
    ],
    "name:urd_x_preferred": [
      "یلجین"
    ],
    "name:zho_x_preferred": [
      "埃爾金"
    ],
    "qs:a0": "United Kingdom",
    "qs:a1": "*Moray",
    "qs:a1_lc": "GB11QX0000",
    "qs:a1r": "0Scotland",
    "qs:a1r_lc": "GB11000000",
    "qs:adm0": "United Kingdom",
    "qs:id": 0,
    "qs:la_lc": "*",
    "qs:level": "locality",
    "qs:loc": "Elgin",
    "qs:loc_alt": "Elgin",
    "qs:pop": 0,
    "qs:source": "RCustom EuroGlobalMap + UMZ Urban Polygons + Geonames + GeoPlanet",
    "qs:type": "buffered point",
    "src:geom": "whosonfirst",
    "src:geom_alt": [
      "quattroshapes_pg",
      "quattroshapes"
    ],
    "src:geom_via": "quattroshapes",
    "src:lbl_centroid": "mapshaper",
    "src:population": "wikidata",
    "wd:latitude": 57.646389,
    "wd:longitude": -3.315278,
    "wd:wordcount": 4953,
    "wof:belongsto": [
      1880772981,
      102191581,
      85633159,
      1880762111,
      404227471,
      136253055,
      1360698869
    ],
    "wof:breaches": [],
    "wof:concordances": {
      "gn:id": 2650122,
      "gp:id": 19450,
      "qs_pg:id": 279037,
      "wd:id": "Q841074",
      "wk:page": "Elgin, Moray"
    },
    "wof:concordances_alt": {
      "qs_pg:id": 1056952
    },
    "wof:country": "GB",
    "wof:created": 1765385079,
    "wof:geom_alt": [
      "quattroshapes_pg",
      "quattroshapes"
    ],
    "wof:geomhash": "7b41e385cd9bf90ba1e0ae6d332f42d2",
    "wof:hierarchy": [
      {
        "continent_id": 102191581,
        "country_id": 85633159,
        "county_id": 1360698869,
        "empire_id": 136253055,
        "locality_id": 101873635,
        "macrocounty_id": 1880762111,
        "macroregion_id": 404227471,
        "region_id": 1880772981
      }
    ],
    "wof:id": 101873635,
    "wof:lastmodified": 1765385079,
    "wof:name": "Elgin",
    "wof:parent_id": 1360698869,
    "wof:placetype": "locality",
    "wof:population": 24760,
    "wof:population_rank": 7,
    "wof:repo": "whosonfirst-data-admin-gb",
    "wof:superseded_by": [],
    "wof:supersedes": [],
    "wof:tags": []
  },
  "bbox": [
    -3.320025,
    57.64802,
    -3.320025,
    57.64802
  ],
  "geometry": {"type":"Point","coordinates":[-3.320025,57.64802]}
}
