{
  "id": 1360808931,
  "type": "Feature",
  "properties": {
    "edtf:cessation": "",
    "edtf:inception": "",
    "geom:area": 0,
    "geom:area_square_m": 0,
    "geom:bbox": "1.379340,52.405740,1.379340,52.405740",
    "geom:latitude": 52.40574,
    "geom:longitude": 1.37934,
    "gn:admin1_code": "ENG",
    "gn:admin2_code": "N5",
    "gn:admin3_code": "42UH",
    "gn:admin4_code": "42UH033",
    "gn:asciiname": "Saint Cross",
    "gn:country_code": "GB",
    "gn:dem": 27,
    "gn:feature_class": "P",
    "gn:feature_code": "PPL",
    "gn:geonameid": 2638824,
    "gn:latitude": 52.40574,
    "gn:longitude": 1.37934,
    "gn:modification_date": "2018-07-03",
    "gn:name": "Saint Cross",
    "gn:population": 0,
    "gn:timezone": "Europe/London",
    "iso:country": "GB",
    "lbl:bbox": "1.37434,52.40074,1.38434,52.41074",
    "lbl:max_zoom": 18,
    "mz:hierarchy_label": 1,
    "mz:is_current": 1,
    "mz:min_zoom": 15,
    "src:geom": "geonames",
    "src:population": "wikidata",
    "wof:belongsto": [
      404449373,
      1880762001,
      1360753547,
      1880771635
    ],
    "wof:breaches": [],
    "wof:concordances": {
      "gn:id": 2638824
    },
    "wof:country": "GB",
    "wof:created": 1765390659,
    "wof:geomhash": "109f2d4fa8dd28290f77cf9c9f581f6c",
    "wof:hierarchy": [
      {
        "continent_id": -1,
        "country_id": -1,
        "county_id": 1880771635,
        "localadmin_id": 404449373,
        "locality_id": 1360753547,
        "macrocounty_id": 1880762001,
        "neighbourhood_id": 1360808931,
        "region_id": -1
      }
    ],
    "wof:id": 1360808931,
    "wof:lastmodified": 1765390659,
    "wof:name": "Saint Cross",
    "wof:parent_id": 1360753547,
    "wof:placetype": "neighbourhood",
    "wof:population": 90,
    "wof:population_rank": 1,
    "wof:repo": "whosonfirst-data-admin-gb",
    "wof:superseded_by": [],
    "wof:supersedes": [
      1327362581
    ],
    "wof:tags": []
  },
  "bbox": [
    1.37934,
    52.40574,
    1.37934,
    52.40574
  ],
  "geometry": {"type":"Point","coordinates":[1.37934,52.40574]}
}
