{
  "id": 85790477,
  "type": "Feature",
  "properties": {
    "edtf:cessation": "",
    "edtf:inception": "",
    "geom:area": 0.0003348225375000055,
    "geom:area_square_m": 2569760.630135,
    "geom:bbox": "-0.137329,51.623688,-0.109281,51.641885",
    "geom:latitude": 51.63270061880741,
    "geom:longitude": -0.12516684723619362,
    "gn:latitude": 51.61667,
    "gn:longitude": -0.1,
    "iso:country": "GB",
    "lbl:latitude": 51.63169,
    "lbl:longitude": -0.13208,
    "lbl:max_zoom": 18,
    "mps:latitude": 51.631624,
    "mps:longitude": -0.126302,
    "mz:hierarchy_label": 1,
    "mz:is_current": -1,
    "mz:is_funky": 0,
    "mz:is_hard_boundary": 0,
    "mz:is_landuse_aoi": 0,
    "mz:is_official": 0,
    "mz:max_zoom": 18,
    "mz:min_zoom": 14,
    "mz:tier_locality": 7,
    "mz:tier_metro": 1,
    "name:arz_x_preferred": [
      "ساوثجيت"
    ],
    "name:azb_x_preferred": [
      "ساوتقیت"
    ],
    "name:bel_x_preferred": [
      "Саўтгейт"
    ],
    "name:cat_x_preferred": [
      "Southgate"
    ],
    "name:cym_x_preferred": [
      "Southgate"
    ],
    "name:deu_x_preferred": [
      "Southgate"
    ],
    "name:ell_x_preferred": [
      "Σάουθγκεϊτ"
    ],
    "name:eng_x_preferred": [
      "Southgate"
    ],
    "name:epo_x_preferred": [
      "Sudpordego"
    ],
    "name:eus_x_preferred": [
      "Southgate"
    ],
    "name:fas_x_preferred": [
      "ساوت‌گیت، لندن"
    ],
    "name:fas_x_variant": [
      "ساوت‌گیت"
    ],
    "name:fin_x_preferred": [
      "Southgate"
    ],
    "name:fra_x_preferred": [
      "Southgate"
    ],
    "name:gle_x_preferred": [
      "Southgate"
    ],
    "name:glg_x_preferred": [
      "Southgate"
    ],
    "name:heb_x_preferred": [
      "סאות'גייט"
    ],
    "name:hye_x_preferred": [
      "Սաութգեյթ"
    ],
    "name:ita_x_preferred": [
      "Southgate"
    ],
    "name:jpn_x_preferred": [
      "サウスゲイト"
    ],
    "name:nld_x_preferred": [
      "Southgate"
    ],
    "name:nob_x_preferred": [
      "Southgate"
    ],
    "name:pol_x_preferred": [
      "Southgate"
    ],
    "name:por_x_preferred": [
      "Southgate"
    ],
    "name:ron_x_preferred": [
      "Southgate"
    ],
    "name:rus_x_preferred": [
      "Саутгейт"
    ],
    "name:slv_x_preferred": [
      "Southgate"
    ],
    "name:spa_x_preferred": [
      "Southgate"
    ],
    "name:swe_x_preferred": [
      "Southgate"
    ],
    "name:tgl_x_preferred": [
      "Southgate"
    ],
    "name:urd_x_preferred": [
      "ساؤتھ گیٹ، لندن"
    ],
    "name:urd_x_variant": [
      "ساؤتھ گیٹ"
    ],
    "name:zho_x_preferred": [
      "索斯蓋特"
    ],
    "name:zho_x_variant": [
      "绍斯盖特"
    ],
    "src:geom": "quattroshapes",
    "src:geom_alt": [
      "quattroshapes_pg"
    ],
    "src:lbl_centroid": "mz",
    "src:population": "wikidata",
    "wof:belongsto": [
      1880762729,
      102191581,
      1880762179,
      85633159,
      404227469,
      101750367,
      136253055,
      1158857285,
      1880771825
    ],
    "wof:breaches": [],
    "wof:concordances": {
      "gn:id": 2637418,
      "gp:id": 35388,
      "qs_pg:id": 1258997,
      "wd:id": "Q2678895",
      "wk:page": "Southgate, London"
    },
    "wof:country": "GB",
    "wof:created": 1765391183,
    "wof:geom_alt": [
      "quattroshapes_pg"
    ],
    "wof:geomhash": "079f0623f015688d299b791ee35d2038",
    "wof:hierarchy": [
      {
        "borough_id": 1158857285,
        "continent_id": 102191581,
        "country_id": 85633159,
        "county_id": 1880771825,
        "empire_id": 136253055,
        "locality_id": 101750367,
        "macrocounty_id": 1880762179,
        "macroregion_id": 404227469,
        "neighbourhood_id": 85790477,
        "region_id": 1880762729
      }
    ],
    "wof:id": 85790477,
    "wof:lang": [
      "eng"
    ],
    "wof:lastmodified": 1765391183,
    "wof:name": "Southgate",
    "wof:parent_id": 1158857285,
    "wof:placetype": "neighbourhood",
    "wof:population": 14454,
    "wof:population_rank": 6,
    "wof:repo": "whosonfirst-data-admin-gb",
    "wof:superseded_by": [],
    "wof:supersedes": [],
    "wof:tags": []
  },
  "bbox": [
    -0.137329,
    51.623688,
    -0.109281,
    51.641885
  ],
  "geometry": {"type":"Polygon","coordinates":[[[-0.114405,51.628247],[-0.114758,51.626543],[-0.118103,51.626543],[-0.119161,51.626543],[-0.119581,51.626204],[-0.119749,51.625664],[-0.120604,51.624837],[-0.12085,51.6246],[-0.121587,51.624837],[-0.122775,51.62522],[-0.123489,51.624837],[-0.125629,51.623688],[-0.126343,51.624837],[-0.129089,51.624837],[-0.131836,51.624837],[-0.132787,51.624837],[-0.132787,51.624837],[-0.137329,51.624837],[-0.137329,51.624837],[-0.137329,51.628247],[-0.137329,51.628248],[-0.137329,51.631657],[-0.137329,51.631657],[-0.137329,51.635067],[-0.137329,51.635067],[-0.137329,51.638476],[-0.137329,51.638476],[-0.131836,51.638476],[-0.126343,51.638476],[-0.12085,51.638476],[-0.12085,51.641885],[-0.12085,51.641885],[-0.115356,51.641885],[-0.109863,51.641885],[-0.109863,51.640353],[-0.109281,51.639414],[-0.109863,51.638476],[-0.109863,51.638476],[-0.115356,51.638476],[-0.115356,51.636599],[-0.115356,51.635067],[-0.115356,51.631657],[-0.114643,51.630508],[-0.114758,51.629952],[-0.114405,51.628248],[-0.114405,51.628247]]]}
}
