{
  "id": 1360800861,
  "type": "Feature",
  "properties": {
    "edtf:cessation": "",
    "edtf:inception": "",
    "geom:area": 0,
    "geom:area_square_m": 0,
    "geom:bbox": "-0.816590,52.062460,-0.816590,52.062460",
    "geom:latitude": 52.06246,
    "geom:longitude": -0.81659,
    "gn:country": "GB",
    "gn:fcode": "PPL",
    "gn:population": 0,
    "iso:country": "GB",
    "lbl:bbox": "-0.82159,52.05746,-0.81159,52.06746",
    "lbl:latitude": 52.06246,
    "lbl:longitude": -0.81659,
    "lbl:max_zoom": 18,
    "mz:hierarchy_label": 1,
    "mz:is_current": 1,
    "mz:min_zoom": 15,
    "mz:note": "Quattroshapes Point Gazetteer import 20170519",
    "name:ast_x_preferred": [
      "Wolverton"
    ],
    "name:ben_x_preferred": [
      "উলভার্টন"
    ],
    "name:deu_x_preferred": [
      "Wolverton"
    ],
    "name:eng_x_preferred": [
      "Wolverton"
    ],
    "name:fas_x_preferred": [
      "ولورتون"
    ],
    "name:fra_x_preferred": [
      "Wolverton"
    ],
    "name:gle_x_preferred": [
      "Wolverton"
    ],
    "name:guj_x_preferred": [
      "વોલ્વરર્ટન"
    ],
    "name:ita_x_preferred": [
      "Wolverton"
    ],
    "name:jpn_x_preferred": [
      "ウォルヴァートン"
    ],
    "name:kan_x_preferred": [
      "ವೊಲ್ವರ್ಟನ್"
    ],
    "name:kor_x_preferred": [
      "울버턴"
    ],
    "name:lit_x_preferred": [
      "Volvertonas"
    ],
    "name:nld_x_preferred": [
      "Wolverton"
    ],
    "name:nno_x_preferred": [
      "Wolverton"
    ],
    "name:nob_x_preferred": [
      "Wolverton"
    ],
    "name:pol_x_preferred": [
      "Wolverton"
    ],
    "name:por_x_preferred": [
      "Wolverton"
    ],
    "name:rus_x_preferred": [
      "Уолвертон"
    ],
    "name:spa_x_preferred": [
      "Wolverton"
    ],
    "name:tam_x_preferred": [
      "ஒலவேர்ட்டோன்"
    ],
    "name:tel_x_preferred": [
      "వోల్వెర్టన్"
    ],
    "name:urd_x_preferred": [
      "وولویرٹن"
    ],
    "name:zho_x_preferred": [
      "沃佛頓"
    ],
    "qs_pg:aaroncc": "GB",
    "qs_pg:gn_country": "GB",
    "qs_pg:gn_fcode": "PPL",
    "qs_pg:gn_id": 2633688,
    "qs_pg:gn_pop": 0,
    "qs_pg:name": "Wolverton",
    "qs_pg:name_adm0": "United Kingdom",
    "qs_pg:name_adm1": "England",
    "qs_pg:photos": 425,
    "qs_pg:photos_1k": 86,
    "qs_pg:photos_9k": 2,
    "qs_pg:photos_9r": 5,
    "qs_pg:photos_all": 425,
    "qs_pg:photos_sr": 6,
    "qs_pg:pop_sr": 0,
    "qs_pg:qs_id": 1315500,
    "qs_pg:qs_pg_placetype": "locality",
    "qs_pg:qs_pg_placetype_gp": "Town",
    "qs_pg:woe_adm0": 23424975,
    "qs_pg:woe_id": 40864,
    "src:geom": "qs_pg",
    "src:lbl_centroid": "qs_pg",
    "src:population": "wikidata",
    "woe:adm0_id": 23424975,
    "woe:name_adm0": "United Kingdom",
    "woe:name_adm1": "England",
    "woe:placetype": "Town",
    "wof:belongsto": [
      1880773087,
      102191581,
      1880762141,
      404436227,
      85633159,
      404227469,
      1360758367,
      136253055,
      1360698913
    ],
    "wof:breaches": [],
    "wof:concordances": {
      "gn:id": 2633688,
      "gp:id": 40864,
      "qs_pg:id": 1315500,
      "wd:id": "Q276274"
    },
    "wof:country": "GB",
    "wof:created": 1497298309,
    "wof:geomhash": "9a3558ab484cb0c1faa55a997d15123a",
    "wof:hierarchy": [
      {
        "continent_id": 102191581,
        "country_id": 85633159,
        "county_id": 1360698913,
        "empire_id": 136253055,
        "localadmin_id": 404436227,
        "locality_id": 1360758367,
        "macrocounty_id": 1880762141,
        "macroregion_id": 404227469,
        "neighbourhood_id": 1360800861,
        "region_id": 1880773087
      }
    ],
    "wof:id": 1360800861,
    "wof:lastmodified": 1765390069,
    "wof:name": "Wolverton",
    "wof:parent_id": 1360758367,
    "wof:placetype": "neighbourhood",
    "wof:population": 12492,
    "wof:population_rank": 6,
    "wof:repo": "whosonfirst-data-admin-gb",
    "wof:superseded_by": [],
    "wof:supersedes": [
      1125974973
    ],
    "wof:tags": []
  },
  "bbox": [
    -0.81659,
    52.06246,
    -0.81659,
    52.06246
  ],
  "geometry": {"type":"Point","coordinates":[-0.81659,52.06246]}
}
