{
  "id": 1260315237,
  "type": "Feature",
  "properties": {
    "edtf:cessation": "",
    "edtf:inception": "",
    "geom:area": 0,
    "geom:area_square_m": 0,
    "geom:bbox": "-4.441780,57.574200,-4.441780,57.574200",
    "geom:latitude": 57.5742,
    "geom:longitude": -4.44178,
    "gn:admin1_code": "SCT",
    "gn:admin2_code": "V3",
    "gn:asciiname": "Maryburgh",
    "gn:country_code": "GB",
    "gn:dem": 21,
    "gn:feature_class": "P",
    "gn:feature_code": "PPL",
    "gn:geonameid": 11592278,
    "gn:latitude": 57.5742,
    "gn:longitude": -4.44178,
    "gn:modification_date": "2017-06-14",
    "gn:name": "Maryburgh",
    "gn:population": 1180,
    "gn:timezone": "Europe/London",
    "iso:country": "GB",
    "lbl:bbox": "-4.46178,57.5542,-4.42178,57.5942",
    "lbl:max_zoom": 16,
    "lbl:min_zoom": 12,
    "mz:hierarchy_label": 1,
    "mz:is_current": -1,
    "mz:min_zoom": 11,
    "name:gle_x_preferred": [
      "Baile Máirí"
    ],
    "name:spa_x_preferred": [
      "Maryburgh"
    ],
    "src:geom": "geonames",
    "src:population": "wikidata",
    "wof:belongsto": [
      1880762005,
      1360699045
    ],
    "wof:breaches": [],
    "wof:concordances": {
      "gn:id": 11592278,
      "wk:page": "Maryburgh"
    },
    "wof:country": "GB",
    "wof:created": 1765388530,
    "wof:geomhash": "f6bec43093ca31cc6ceaa334697ffe23",
    "wof:hierarchy": [
      {
        "continent_id": -1,
        "country_id": -1,
        "county_id": 1360699045,
        "locality_id": 1260315237,
        "macrocounty_id": 1880762005,
        "region_id": -1
      }
    ],
    "wof:id": 1260315237,
    "wof:lastmodified": 1765388530,
    "wof:name": "Maryburgh",
    "wof:parent_id": 1360699045,
    "wof:placetype": "locality",
    "wof:population": 1150,
    "wof:population_rank": 3,
    "wof:repo": "whosonfirst-data-admin-gb",
    "wof:superseded_by": [],
    "wof:supersedes": [],
    "wof:tags": []
  },
  "bbox": [
    -4.44178,
    57.5742,
    -4.44178,
    57.5742
  ],
  "geometry": {"type":"Point","coordinates":[-4.44178,57.5742]}
}
