{
  "id": 85786309,
  "type": "Feature",
  "properties": {
    "edtf:cessation": "",
    "edtf:inception": "",
    "geom:area": 0.0007036967460000039,
    "geom:area_square_m": 5297105.916039,
    "geom:bbox": "-1.779785,52.491143,-1.734080,52.511206",
    "geom:latitude": 52.500695913647284,
    "geom:longitude": -1.7565365912211426,
    "gn:latitude": 52.50185,
    "gn:longitude": -1.78259,
    "iso:country": "GB",
    "lbl:latitude": 52.50652,
    "lbl:longitude": -1.781117,
    "lbl:max_zoom": 18,
    "mps:latitude": 52.50132,
    "mps:longitude": -1.756535,
    "mz:hierarchy_label": 1,
    "mz:is_current": -1,
    "mz:is_funky": 0,
    "mz:is_hard_boundary": 0,
    "mz:is_landuse_aoi": 0,
    "mz:is_official": 0,
    "mz:max_zoom": 18,
    "mz:min_zoom": 13,
    "mz:tier_locality": 4,
    "name:ben_x_preferred": [
      "কাসল ব্রোমিচ"
    ],
    "name:ceb_x_preferred": [
      "Castle Bromwich"
    ],
    "name:deu_x_preferred": [
      "Castle Bromwich"
    ],
    "name:eng_x_preferred": [
      "Castle Bromwich"
    ],
    "name:fra_x_preferred": [
      "Castle Bromwich"
    ],
    "name:gle_x_preferred": [
      "Castle Bromwich"
    ],
    "name:guj_x_preferred": [
      "કેસલ બ્રોમવિચ"
    ],
    "name:jpn_x_preferred": [
      "キャッスル・ブロムウィッチ"
    ],
    "name:kan_x_preferred": [
      "ಕ್ಯಾಸಲ್ ಬ್ರೊಮ್ವಿಚ್"
    ],
    "name:kor_x_preferred": [
      "캐슬 브롬부비치"
    ],
    "name:lit_x_preferred": [
      "Casl Brumvičas"
    ],
    "name:nan_x_preferred": [
      "Castle Bromwich"
    ],
    "name:nld_x_preferred": [
      "Castle Bromwich"
    ],
    "name:pol_x_preferred": [
      "Castle Bromwich"
    ],
    "name:por_x_preferred": [
      "Castle Bromwich"
    ],
    "name:rus_x_preferred": [
      "Касл-Бромвич"
    ],
    "name:spa_x_preferred": [
      "Castle Bromwich"
    ],
    "name:swe_x_preferred": [
      "Castle Bromwich"
    ],
    "name:tam_x_preferred": [
      "காஸ்ட்லே ப்ரோம்விச்"
    ],
    "name:tel_x_preferred": [
      "కోట బ్రోమ్విచ్"
    ],
    "name:urd_x_preferred": [
      "کاسل برومویچ"
    ],
    "qs:gn_adm0_cc": "GB",
    "qs:gn_fcode": "PPL",
    "qs:gn_local": 2655604,
    "qs:gn_nam_loc": "preston bisset",
    "qs:gn_namadm1": "ENG",
    "qs:gn_name": "Castle Bromwich",
    "qs:local_max": 6560,
    "qs:local_sum": 113815,
    "qs:localhoods": 71,
    "qs:name": "Castle Bromwich",
    "qs:name_adm0": "United Kingdom",
    "qs:name_adm1": "England",
    "qs:name_adm2": "West Midlands",
    "qs:name_lau": "Solihull Metropolitan Borough",
    "qs:name_local": "Birmingham",
    "qs:photo_max": 63,
    "qs:photo_sum": 230,
    "qs:placetype": "Suburb",
    "qs:quad_count": 24,
    "qs:woe_adm0": 23424975,
    "qs:woe_adm1": 24554868,
    "qs:woe_adm2": 12602191,
    "qs:woe_lau": 12695867,
    "qs:woe_local": 12723,
    "qs:woe_ver": "7.10.0",
    "src:geom": "quattroshapes",
    "src:geom_alt": [
      "quattroshapes_pg"
    ],
    "src:lbl_centroid": "yerbashapes",
    "src:population": "wikidata",
    "wd:wordcount": 4111,
    "wof:belongsto": [
      404439285,
      1880762069,
      1360755311,
      1360699057
    ],
    "wof:breaches": [],
    "wof:concordances": {
      "gn:id": 2653608,
      "gp:id": 15333,
      "qs_pg:id": 219431,
      "wd:id": "Q4776329",
      "wk:page": "Castle Bromwich"
    },
    "wof:country": "GB",
    "wof:created": 1765390991,
    "wof:geom_alt": [
      "quattroshapes_pg"
    ],
    "wof:geomhash": "0ac46bb82dfbb41bf04ffd0324984987",
    "wof:hierarchy": [
      {
        "continent_id": -1,
        "country_id": -1,
        "county_id": 1360699057,
        "localadmin_id": 404439285,
        "locality_id": 1360755311,
        "macrocounty_id": 1880762069,
        "neighbourhood_id": 85786309,
        "region_id": -1
      }
    ],
    "wof:id": 85786309,
    "wof:lang": [
      "eng"
    ],
    "wof:lastmodified": 1765390991,
    "wof:name": "Castle Bromwich",
    "wof:parent_id": 1360755311,
    "wof:placetype": "neighbourhood",
    "wof:population": 11463,
    "wof:population_rank": 6,
    "wof:repo": "whosonfirst-data-admin-gb",
    "wof:superseded_by": [],
    "wof:supersedes": [],
    "wof:tags": []
  },
  "bbox": [
    -1.779785,
    52.491143,
    -1.73408,
    52.511206
  ],
  "geometry": {"type":"Polygon","coordinates":[[[-1.746826,52.511206],[-1.740722,52.506191],[-1.739676,52.505619],[-1.739681,52.505616],[-1.739573,52.50452],[-1.739681,52.50342],[-1.739677,52.503418],[-1.738524,52.502802],[-1.737009,52.501558],[-1.735765,52.500043],[-1.734841,52.498314],[-1.734272,52.496438],[-1.73408,52.494487],[-1.734272,52.492536],[-1.734695,52.491143],[-1.746826,52.491143],[-1.751039,52.491143],[-1.754073,52.493279],[-1.755066,52.49313],[-1.756059,52.493279],[-1.759093,52.491143],[-1.763306,52.491143],[-1.767378,52.494487],[-1.768799,52.494487],[-1.774292,52.494487],[-1.777039,52.495615],[-1.777039,52.498336],[-1.779785,52.502848],[-1.779785,52.502848],[-1.779785,52.506191],[-1.779785,52.506191],[-1.775233,52.506191],[-1.774292,52.507737],[-1.774292,52.509535],[-1.774292,52.509535],[-1.774292,52.509535],[-1.773275,52.511206],[-1.769816,52.511206],[-1.768799,52.509535],[-1.768799,52.509535],[-1.763306,52.509535],[-1.757812,52.509535],[-1.757024,52.509535],[-1.755066,52.510178],[-1.753108,52.509535],[-1.752319,52.509535],[-1.752057,52.509535],[-1.750361,52.511206],[-1.746826,52.511206]]]}
}
