{
  "id": 1360806699,
  "type": "Feature",
  "properties": {
    "edtf:cessation": "",
    "edtf:inception": "",
    "geom:area": 0,
    "geom:area_square_m": 0,
    "geom:bbox": "-2.150000,52.400000,-2.150000,52.400000",
    "geom:latitude": 52.4,
    "geom:longitude": -2.15,
    "gn:admin1_code": "ENG",
    "gn:admin2_code": "Q4",
    "gn:admin3_code": "47UG",
    "gn:admin4_code": "47UG002",
    "gn:asciiname": "Broome",
    "gn:country_code": "GB",
    "gn:dem": 111,
    "gn:feature_class": "P",
    "gn:feature_code": "PPL",
    "gn:geonameid": 2654556,
    "gn:latitude": 52.4,
    "gn:longitude": -2.15,
    "gn:modification_date": "2018-07-03",
    "gn:name": "Broome",
    "gn:population": 0,
    "gn:timezone": "Europe/London",
    "iso:country": "GB",
    "lbl:bbox": "-2.155,52.395,-2.145,52.405",
    "lbl:max_zoom": 18,
    "mz:hierarchy_label": 1,
    "mz:is_current": 1,
    "mz:min_zoom": 15,
    "name:cat_x_preferred": [
      "Broome"
    ],
    "name:ceb_x_preferred": [
      "Broome"
    ],
    "name:cym_x_preferred": [
      "Broome"
    ],
    "name:deu_x_preferred": [
      "Broome"
    ],
    "name:fra_x_preferred": [
      "Broome"
    ],
    "name:ita_x_preferred": [
      "Broome"
    ],
    "name:nld_x_preferred": [
      "Broome"
    ],
    "name:pol_x_preferred": [
      "Broome"
    ],
    "name:por_x_preferred": [
      "Broome"
    ],
    "name:rus_x_preferred": [
      "Брум"
    ],
    "name:swe_x_preferred": [
      "Broome"
    ],
    "src:geom": "geonames",
    "src:population": "wikidata",
    "wof:belongsto": [
      1880762691,
      102191581,
      1880762019,
      404442217,
      85633159,
      404227469,
      1360213873,
      136253055,
      1880771699
    ],
    "wof:breaches": [],
    "wof:concordances": {
      "gn:id": 2654556
    },
    "wof:country": "GB",
    "wof:created": 1765390411,
    "wof:geomhash": "ebccf4e44b46e9523e99a5fcb4fc3625",
    "wof:hierarchy": [
      {
        "continent_id": 102191581,
        "country_id": 85633159,
        "county_id": 1880771699,
        "empire_id": 136253055,
        "localadmin_id": 404442217,
        "locality_id": 1360213873,
        "macrocounty_id": 1880762019,
        "macroregion_id": 404227469,
        "neighbourhood_id": 1360806699,
        "region_id": 1880762691
      }
    ],
    "wof:id": 1360806699,
    "wof:lastmodified": 1765390411,
    "wof:name": "Broome",
    "wof:parent_id": 1360213873,
    "wof:placetype": "neighbourhood",
    "wof:population": 357,
    "wof:population_rank": 2,
    "wof:repo": "whosonfirst-data-admin-gb",
    "wof:superseded_by": [],
    "wof:supersedes": [
      1226570119
    ],
    "wof:tags": []
  },
  "bbox": [
    -2.15,
    52.4,
    -2.15,
    52.4
  ],
  "geometry": {"type":"Point","coordinates":[-2.15,52.4]}
}
