{
  "id": 1360791087,
  "type": "Feature",
  "properties": {
    "edtf:cessation": "",
    "edtf:inception": "",
    "geom:area": 0,
    "geom:area_square_m": 0,
    "geom:bbox": "-3.383228,54.860581,-3.383228,54.860581",
    "geom:latitude": 54.860581,
    "geom:longitude": -3.383228,
    "gn:population": 2997,
    "iso:country": "GB",
    "lbl:bbox": "-3.388228,54.855581,-3.378228,54.865581",
    "lbl:latitude": 54.860582,
    "lbl:longitude": -3.383228,
    "lbl:max_zoom": 18,
    "mps:latitude": 54.860582,
    "mps:longitude": -3.383228,
    "mz:hierarchy_label": 1,
    "mz:is_current": 1,
    "mz:min_zoom": 15,
    "name:ast_x_preferred": [
      "Silloth"
    ],
    "name:azb_x_preferred": [
      "سیلوث"
    ],
    "name:bul_x_preferred": [
      "Силотх"
    ],
    "name:ceb_x_preferred": [
      "Silloth"
    ],
    "name:cym_x_preferred": [
      "Silloth"
    ],
    "name:eng_x_preferred": [
      "Silloth"
    ],
    "name:fas_x_preferred": [
      "سیلوث"
    ],
    "name:fra_x_preferred": [
      "Silloth"
    ],
    "name:gle_x_preferred": [
      "Silloth"
    ],
    "name:ita_x_preferred": [
      "Silloth"
    ],
    "name:lld_x_preferred": [
      "Silloth"
    ],
    "name:nan_x_preferred": [
      "Silloth"
    ],
    "name:nld_x_preferred": [
      "Silloth"
    ],
    "name:pol_x_preferred": [
      "Silloth"
    ],
    "name:spa_x_preferred": [
      "Silloth"
    ],
    "name:swe_x_preferred": [
      "Silloth"
    ],
    "name:vol_x_preferred": [
      "Silloth"
    ],
    "name:zho_x_preferred": [
      "錫洛斯港"
    ],
    "qs:a0": "United Kingdom",
    "qs:a1": "*Cumbria",
    "qs:a1_lc": "GB12160000",
    "qs:a1r": "0England",
    "qs:a1r_lc": "GB12000000",
    "qs:adm0": "United Kingdom",
    "qs:la_lc": "*",
    "qs:level": "locality",
    "qs:loc": "Silloth",
    "qs:loc_alt": "Silloth",
    "qs:pop": 0,
    "qs:source": "RCustom EuroGlobalMap + UMZ Urban Polygons + Geonames + GeoPlanet",
    "qs:type": "buffered point",
    "src:geom": "whosonfirst",
    "src:geom_alt": [
      "quattroshapes_pg",
      "quattroshapes"
    ],
    "src:geom_via": "quattroshapes",
    "src:lbl_centroid": "mapshaper",
    "src:population": "wikidata",
    "wd:latitude": 54.869,
    "wd:longitude": -3.381,
    "wd:wordcount": 1913,
    "wof:belongsto": [
      404434361,
      1880761989,
      1360755677,
      1880773239
    ],
    "wof:breaches": [],
    "wof:concordances": {
      "gn:id": 2637836,
      "gp:id": 34829,
      "qs_pg:id": 974920,
      "wd:id": "Q2570578",
      "wk:page": "Silloth"
    },
    "wof:country": "GB",
    "wof:created": 1765389453,
    "wof:geomhash": "65217a459defb869abf193f39031eadd",
    "wof:hierarchy": [
      {
        "continent_id": -1,
        "country_id": -1,
        "county_id": 1880773239,
        "localadmin_id": 404434361,
        "locality_id": 1360755677,
        "macrocounty_id": 1880761989,
        "neighbourhood_id": 1360791087,
        "region_id": -1
      }
    ],
    "wof:id": 1360791087,
    "wof:lastmodified": 1765389453,
    "wof:name": "Silloth",
    "wof:parent_id": 1360755677,
    "wof:placetype": "neighbourhood",
    "wof:population": 2749,
    "wof:population_rank": 4,
    "wof:repo": "whosonfirst-data-admin-gb",
    "wof:superseded_by": [],
    "wof:supersedes": [
      101872347
    ],
    "wof:tags": []
  },
  "bbox": [
    -3.383228,
    54.860581,
    -3.383228,
    54.860581
  ],
  "geometry": {"type":"Point","coordinates":[-3.383228,54.860581]}
}
