{
  "id": 1125884521,
  "type": "Feature",
  "properties": {
    "edtf:cessation": "",
    "edtf:inception": "",
    "geom:area": 0,
    "geom:area_square_m": 0,
    "geom:bbox": "-5.200000,55.700000,-5.200000,55.700000",
    "geom:latitude": 55.7,
    "geom:longitude": -5.2,
    "gn:country": "GB",
    "gn:fcode": "PPL",
    "gn:population": 0,
    "iso:country": "GB",
    "lbl:bbox": "-5.22,55.68,-5.18,55.72",
    "lbl:latitude": 55.7,
    "lbl:longitude": -5.2,
    "lbl:max_zoom": 18,
    "lbl:min_zoom": 13.5,
    "mz:hierarchy_label": 1,
    "mz:is_current": 1,
    "mz:min_zoom": 12,
    "mz:note": "Quattroshapes Point Gazetteer import 20170519",
    "name:bul_x_preferred": [
      "Лочранза"
    ],
    "name:cat_x_preferred": [
      "Lochranza"
    ],
    "name:ceb_x_preferred": [
      "Lochranza"
    ],
    "name:deu_x_preferred": [
      "Lochranza"
    ],
    "name:eng_x_preferred": [
      "Lochranza"
    ],
    "name:eus_x_preferred": [
      "Lochranza"
    ],
    "name:fas_x_preferred": [
      "لاکرانزا"
    ],
    "name:fra_x_preferred": [
      "Lochranza"
    ],
    "name:gla_x_preferred": [
      "Loch Raonasa"
    ],
    "name:gle_x_preferred": [
      "Loch Raonasa"
    ],
    "name:heb_x_preferred": [
      "לוכרנזה"
    ],
    "name:ita_x_preferred": [
      "Lochranza"
    ],
    "name:jpn_x_preferred": [
      "ロホランザ"
    ],
    "name:nld_x_preferred": [
      "Lochranza"
    ],
    "name:ron_x_preferred": [
      "Lochranza"
    ],
    "name:swe_x_preferred": [
      "Lochranza"
    ],
    "qs_pg:aaroncc": "GB",
    "qs_pg:gn_country": "GB",
    "qs_pg:gn_fcode": "PPL",
    "qs_pg:gn_id": 2643806,
    "qs_pg:gn_pop": 0,
    "qs_pg:name": "Lochranza",
    "qs_pg:name_adm0": "United Kingdom",
    "qs_pg:name_adm1": "Scotland",
    "qs_pg:photos": 2337,
    "qs_pg:photos_1k": 474,
    "qs_pg:photos_9k": 10,
    "qs_pg:photos_9r": 10,
    "qs_pg:photos_all": 2337,
    "qs_pg:photos_sr": 17,
    "qs_pg:pop_sr": 0,
    "qs_pg:qs_id": 899792,
    "qs_pg:qs_pg_placetype": "locality",
    "qs_pg:qs_pg_placetype_gp": "Town",
    "qs_pg:woe_adm0": 23424975,
    "qs_pg:woe_id": 27251,
    "src:geom": "qs_pg",
    "src:lbl_centroid": "qs_pg",
    "src:population": "wikidata",
    "woe:adm0_id": 23424975,
    "woe:name_adm0": "United Kingdom",
    "woe:name_adm1": "Scotland",
    "woe:placetype": "Town",
    "wof:belongsto": [
      1880772907,
      102191581,
      85633159,
      1880762041,
      404227471,
      136253055,
      1360698855
    ],
    "wof:breaches": [],
    "wof:concordances": {
      "gn:id": 2643806,
      "gp:id": 27251,
      "qs_pg:id": 899792,
      "wd:id": "Q667705"
    },
    "wof:country": "GB",
    "wof:created": 1497295008,
    "wof:geomhash": "030bfa7ef42b4af0fb3700091741ce41",
    "wof:hierarchy": [
      {
        "continent_id": 102191581,
        "country_id": 85633159,
        "county_id": 1360698855,
        "empire_id": 136253055,
        "locality_id": 1125884521,
        "macrocounty_id": 1880762041,
        "macroregion_id": 404227471,
        "region_id": 1880772907
      }
    ],
    "wof:id": 1125884521,
    "wof:lastmodified": 1765386262,
    "wof:name": "Lochranza",
    "wof:parent_id": 1360698855,
    "wof:placetype": "locality",
    "wof:population": 251,
    "wof:population_rank": 2,
    "wof:repo": "whosonfirst-data-admin-gb",
    "wof:superseded_by": [],
    "wof:supersedes": [],
    "wof:tags": []
  },
  "bbox": [
    -5.2,
    55.7,
    -5.2,
    55.7
  ],
  "geometry": {"type":"Point","coordinates":[-5.2,55.7]}
}
