{
  "id": 1360791015,
  "type": "Feature",
  "properties": {
    "edtf:cessation": "",
    "edtf:inception": "",
    "geom:area": 0,
    "geom:area_square_m": 0,
    "geom:bbox": "-3.083328,53.323409,-3.083328,53.323409",
    "geom:latitude": 53.323409,
    "geom:longitude": -3.083328,
    "iso:country": "GB",
    "lbl:bbox": "-3.088328,53.318409,-3.078328,53.328409",
    "lbl:latitude": 53.32341,
    "lbl:longitude": -3.083328,
    "lbl:max_zoom": 18,
    "mps:latitude": 53.32341,
    "mps:longitude": -3.083328,
    "mz:hierarchy_label": 1,
    "mz:is_current": 1,
    "mz:min_zoom": 15,
    "name:ast_x_preferred": [
      "Heswall"
    ],
    "name:ben_x_preferred": [
      "হেসওয়াল"
    ],
    "name:ceb_x_preferred": [
      "Heswall"
    ],
    "name:ces_x_preferred": [
      "Heswall"
    ],
    "name:cym_x_preferred": [
      "Heswall"
    ],
    "name:deu_x_preferred": [
      "Heswall"
    ],
    "name:eng_x_preferred": [
      "Heswall"
    ],
    "name:est_x_preferred": [
      "Heswall"
    ],
    "name:fas_x_preferred": [
      "هزوال"
    ],
    "name:fra_x_preferred": [
      "Heswall"
    ],
    "name:gle_x_preferred": [
      "Heswall"
    ],
    "name:guj_x_preferred": [
      "હેસ્વોલ"
    ],
    "name:heb_x_preferred": [
      "הסוול"
    ],
    "name:ita_x_preferred": [
      "Heswall"
    ],
    "name:jpn_x_preferred": [
      "ヘズウォ―ル"
    ],
    "name:kan_x_preferred": [
      "ಹೆಸ್ವಾಲ್"
    ],
    "name:kor_x_preferred": [
      "허스웰"
    ],
    "name:lat_x_preferred": [
      "Heswall"
    ],
    "name:lit_x_preferred": [
      "Hesvolis"
    ],
    "name:lld_x_preferred": [
      "Heswall"
    ],
    "name:nld_x_preferred": [
      "Heswall"
    ],
    "name:nno_x_preferred": [
      "Heswall"
    ],
    "name:pol_x_preferred": [
      "Heswall"
    ],
    "name:por_x_preferred": [
      "Heswall"
    ],
    "name:ron_x_preferred": [
      "Heswall"
    ],
    "name:rus_x_preferred": [
      "Хесвол"
    ],
    "name:spa_x_preferred": [
      "Heswall"
    ],
    "name:swe_x_preferred": [
      "Heswall"
    ],
    "name:tam_x_preferred": [
      "ஹேஸ்வால்"
    ],
    "name:tel_x_preferred": [
      "హెస్వాల్"
    ],
    "name:tur_x_preferred": [
      "Heswall"
    ],
    "name:urd_x_preferred": [
      "ہیسوال"
    ],
    "name:vol_x_preferred": [
      "Heswall"
    ],
    "qs:a0": "United Kingdom",
    "qs:a1": "*Wirral",
    "qs:a1_lc": "GB12CB0000",
    "qs:a1r": "0England",
    "qs:a1r_lc": "GB12000000",
    "qs:adm0": "United Kingdom",
    "qs:la_lc": "*",
    "qs:level": "locality",
    "qs:loc": "Heswall",
    "qs:loc_alt": "Heswall",
    "qs:pop": 0,
    "qs:source": "RCustom EuroGlobalMap + UMZ Urban Polygons + Geonames + GeoPlanet",
    "qs:type": "buffered point",
    "src:geom": "whosonfirst",
    "src:geom_alt": [
      "quattroshapes_pg",
      "quattroshapes"
    ],
    "src:geom_via": "quattroshapes",
    "src:lbl_centroid": "mapshaper",
    "src:population": "wikidata",
    "wd:latitude": 53.328,
    "wd:longitude": -3.099,
    "wd:wordcount": 1207,
    "wof:belongsto": [
      1880773063,
      102191581,
      85633159,
      1880762035,
      404227469,
      101750549,
      136253055,
      1360699049
    ],
    "wof:breaches": [],
    "wof:concordances": {
      "gn:id": 2647026,
      "gp:id": 23116,
      "qs_pg:id": 229984,
      "wd:id": "Q674669",
      "wk:page": "Heswall"
    },
    "wof:country": "GB",
    "wof:created": 1765389447,
    "wof:geomhash": "4a7f704642312fcd4d2bc2acea628fb6",
    "wof:hierarchy": [
      {
        "continent_id": 102191581,
        "country_id": 85633159,
        "county_id": 1360699049,
        "empire_id": 136253055,
        "locality_id": 101750549,
        "macrocounty_id": 1880762035,
        "macroregion_id": 404227469,
        "neighbourhood_id": 1360791015,
        "region_id": 1880773063
      }
    ],
    "wof:id": 1360791015,
    "wof:lastmodified": 1765389447,
    "wof:name": "Heswall",
    "wof:parent_id": 101750549,
    "wof:placetype": "neighbourhood",
    "wof:population": 29075,
    "wof:population_rank": 7,
    "wof:repo": "whosonfirst-data-admin-gb",
    "wof:superseded_by": [],
    "wof:supersedes": [
      101872157
    ],
    "wof:tags": []
  },
  "bbox": [
    -3.083328,
    53.323409,
    -3.083328,
    53.323409
  ],
  "geometry": {"type":"Point","coordinates":[-3.083328,53.323409]}
}
