{
  "id": 85785331,
  "type": "Feature",
  "properties": {
    "edtf:cessation": "",
    "edtf:inception": "",
    "geom:area": 0.00013818464700000337,
    "geom:area_square_m": 1017132.599113,
    "geom:bbox": "-2.221985,53.460664,-2.202759,53.474970",
    "geom:latitude": 53.46798598120868,
    "geom:longitude": -2.212100185426812,
    "gn:id": "",
    "iso:country": "GB",
    "lbl:latitude": 53.470265,
    "lbl:longitude": -2.216392,
    "lbl:max_zoom": 18,
    "mps:latitude": 53.469517,
    "mps:longitude": -2.210644,
    "mz:hierarchy_label": 1,
    "mz:is_current": -1,
    "mz:is_funky": 0,
    "mz:is_hard_boundary": 0,
    "mz:is_landuse_aoi": 0,
    "mz:is_official": 0,
    "mz:max_zoom": 18,
    "mz:min_zoom": 14,
    "mz:tier_locality": 4,
    "mz:tier_metro": 1,
    "name:ast_x_preferred": [
      "Ardwick"
    ],
    "name:cym_x_preferred": [
      "Ardwick"
    ],
    "name:eng_x_preferred": [
      "Ardwick"
    ],
    "name:fas_x_preferred": [
      "آردویک"
    ],
    "name:fra_x_preferred": [
      "Ardwick"
    ],
    "name:gle_x_preferred": [
      "Ardwick"
    ],
    "name:ind_x_preferred": [
      "Ardwick"
    ],
    "name:lld_x_preferred": [
      "Ardwick"
    ],
    "name:nld_x_preferred": [
      "Ardwick"
    ],
    "name:nob_x_preferred": [
      "Ardwick"
    ],
    "name:nor_x_preferred": [
      "Ardwick"
    ],
    "name:pol_x_preferred": [
      "Ardwick"
    ],
    "name:swe_x_preferred": [
      "Ardwick"
    ],
    "name:swe_x_variant": [
      "Armley"
    ],
    "name:zho_x_preferred": [
      "阿德威克"
    ],
    "qs:gn_adm0_cc": "GB",
    "qs:gn_id": 0,
    "qs:gn_local": 2643123,
    "qs:local_max": 9270,
    "qs:local_sum": 123713,
    "qs:localhoods": 57,
    "qs:name": "Ardwick",
    "qs:name_adm0": "United Kingdom",
    "qs:name_adm1": "England",
    "qs:name_adm2": "Greater Manchester",
    "qs:name_lau": "Manchester City",
    "qs:name_local": "Manchester",
    "qs:photo_max": 65,
    "qs:photo_sum": 414,
    "qs:placetype": "Suburb",
    "qs:quad_count": 18,
    "qs:woe_adm0": 23424975,
    "qs:woe_adm1": 24554868,
    "qs:woe_adm2": 12602158,
    "qs:woe_lau": 12695841,
    "qs:woe_local": 28218,
    "qs:woe_ver": "7.10.0",
    "src:geom": "quattroshapes",
    "src:geom_alt": [
      "quattroshapes_pg"
    ],
    "src:lbl_centroid": "mz",
    "src:population": "wikidata",
    "wd:latitude": 53.4692,
    "wd:longitude": -2.21861,
    "wd:wordcount": 1338,
    "wof:belongsto": [
      1880773095,
      102191581,
      85633159,
      1880762163,
      404227469,
      101750525,
      136253055,
      1360698893
    ],
    "wof:breaches": [],
    "wof:concordances": {
      "gp:id": 11001,
      "qs_pg:id": 1027856,
      "wd:id": "Q2860767"
    },
    "wof:country": "GB",
    "wof:created": 1765390955,
    "wof:geom_alt": [
      "quattroshapes_pg"
    ],
    "wof:geomhash": "3d734af3742c8fc728144533375fb365",
    "wof:hierarchy": [
      {
        "continent_id": 102191581,
        "country_id": 85633159,
        "county_id": 1360698893,
        "empire_id": 136253055,
        "locality_id": 101750525,
        "macrocounty_id": 1880762163,
        "macroregion_id": 404227469,
        "neighbourhood_id": 85785331,
        "region_id": 1880773095
      }
    ],
    "wof:id": 85785331,
    "wof:lang": [
      "eng"
    ],
    "wof:lastmodified": 1765390955,
    "wof:name": "Ardwick",
    "wof:parent_id": 101750525,
    "wof:placetype": "neighbourhood",
    "wof:population": 19250,
    "wof:population_rank": 6,
    "wof:repo": "whosonfirst-data-admin-gb",
    "wof:superseded_by": [],
    "wof:supersedes": [],
    "wof:tags": []
  },
  "bbox": [
    -2.221985,
    53.460664,
    -2.202759,
    53.47497
  ],
  "geometry": {"type":"Polygon","coordinates":[[[-2.208252,53.473263],[-2.207322,53.4717],[-2.202759,53.4717],[-2.202759,53.4717],[-2.202759,53.469993],[-2.202759,53.468431],[-2.205505,53.468431],[-2.205505,53.466796],[-2.205505,53.465161],[-2.205992,53.464343],[-2.208252,53.464343],[-2.208784,53.463896],[-2.211042,53.465161],[-2.211739,53.465551],[-2.212902,53.465161],[-2.213745,53.464877],[-2.213745,53.463453],[-2.213745,53.46189],[-2.216027,53.46189],[-2.216165,53.461195],[-2.216354,53.461073],[-2.216492,53.461073],[-2.217865,53.461073],[-2.217951,53.460928],[-2.21836,53.460664],[-2.219238,53.460664],[-2.21946,53.460664],[-2.219703,53.46189],[-2.221985,53.46189],[-2.221985,53.463526],[-2.219238,53.463526],[-2.219238,53.465161],[-2.219238,53.468431],[-2.216492,53.468431],[-2.216492,53.470066],[-2.216492,53.4717],[-2.213745,53.4717],[-2.213745,53.47497],[-2.208252,53.47497],[-2.208252,53.473408],[-2.208252,53.473263]]]}
}
