{
  "id": 420782345,
  "type": "Feature",
  "properties": {
    "edtf:cessation": "",
    "edtf:inception": "",
    "geom:area": 0,
    "geom:area_square_m": 0,
    "geom:bbox": "-2.070752,52.566381,-2.070752,52.566381",
    "geom:latitude": 52.566381,
    "geom:longitude": -2.070752,
    "iso:country": "GB",
    "lbl:bbox": "-2.07575195956,52.5613807991,-2.06575195956,52.5713807991",
    "lbl:latitude": 52.566381,
    "lbl:longitude": -2.070752,
    "lbl:max_zoom": 18,
    "mz:hierarchy_label": 1,
    "mz:is_current": -1,
    "mz:is_funky": 0,
    "mz:is_hard_boundary": 0,
    "mz:is_landuse_aoi": 0,
    "mz:is_official": 0,
    "mz:max_zoom": 18,
    "mz:min_zoom": 13,
    "mz:note": "Quattroshapes Point Gazetteer import 20170519",
    "mz:tier_locality": 0,
    "name:ara_x_preferred": [
      "بيلستون"
    ],
    "name:arz_x_preferred": [
      "بيلستين"
    ],
    "name:ast_x_preferred": [
      "Bilston"
    ],
    "name:azb_x_preferred": [
      "بیلستون"
    ],
    "name:bul_x_preferred": [
      "Билстон"
    ],
    "name:ceb_x_preferred": [
      "Bilston"
    ],
    "name:cym_x_preferred": [
      "Bilston"
    ],
    "name:deu_x_preferred": [
      "Bilston"
    ],
    "name:ell_x_preferred": [
      "Μπίλστον"
    ],
    "name:eng_x_preferred": [
      "Bilston"
    ],
    "name:fas_x_preferred": [
      "بیلستون"
    ],
    "name:fra_x_preferred": [
      "Bilston"
    ],
    "name:gle_x_preferred": [
      "Bilston"
    ],
    "name:heb_x_preferred": [
      "בילסטון"
    ],
    "name:ita_x_preferred": [
      "Bilston"
    ],
    "name:jpn_x_preferred": [
      "ビルストン"
    ],
    "name:lld_x_preferred": [
      "Bilston"
    ],
    "name:nld_x_preferred": [
      "Bilston"
    ],
    "name:nno_x_preferred": [
      "Bilston"
    ],
    "name:pol_x_preferred": [
      "Bilston"
    ],
    "name:ron_x_preferred": [
      "Bilston"
    ],
    "name:spa_x_preferred": [
      "Bilston"
    ],
    "name:swe_x_preferred": [
      "Bilston"
    ],
    "name:zho_x_preferred": [
      "比爾斯通"
    ],
    "name:zho_x_variant": [
      "比尔斯通"
    ],
    "qs_pg:aaroncc": "GB",
    "qs_pg:name": "Bilston",
    "qs_pg:name_adm0": "United Kingdom",
    "qs_pg:name_adm1": "England",
    "qs_pg:photos": 493,
    "qs_pg:photos_1k": 100,
    "qs_pg:photos_9k": 14,
    "qs_pg:photos_9r": 11,
    "qs_pg:photos_all": 3241,
    "qs_pg:photos_sr": 7,
    "qs_pg:pop_sr": 0,
    "qs_pg:qs_id": 1073345,
    "qs_pg:qs_pg_placetype": "locality",
    "qs_pg:qs_pg_placetype_gp": "Town",
    "qs_pg:woe_adm0": 23424975,
    "qs_pg:woe_id": 12637,
    "src:geom": "unknown",
    "src:lbl_centroid": "qs_pg",
    "src:population": "wikidata",
    "wd:latitude": 52.56605,
    "wd:longitude": -2.072811,
    "wd:wordcount": 3012,
    "woe:adm0_id": 23424975,
    "woe:name_adm0": "United Kingdom",
    "woe:name_adm1": "England",
    "woe:placetype": "Town",
    "wof:belongsto": [
      102191581,
      85633159,
      1880762069,
      404227469,
      1126027181,
      136253055,
      1360698737,
      1880773161
    ],
    "wof:breaches": [],
    "wof:concordances": {
      "gp:id": 12637,
      "qs_pg:id": 1073345,
      "wd:id": "Q1015967"
    },
    "wof:country": "GB",
    "wof:created": 1458871838,
    "wof:geomhash": "0e954ee9b7381638fe472204336964df",
    "wof:hierarchy": [
      {
        "continent_id": 102191581,
        "country_id": 85633159,
        "county_id": 1360698737,
        "empire_id": 136253055,
        "locality_id": 1126027181,
        "macrocounty_id": 1880762069,
        "macroregion_id": 404227469,
        "neighbourhood_id": 420782345,
        "region_id": 1880773161
      }
    ],
    "wof:id": 420782345,
    "wof:lastmodified": 1765390910,
    "wof:name": "Bilston",
    "wof:parent_id": 1126027181,
    "wof:placetype": "neighbourhood",
    "wof:population": 25576,
    "wof:population_rank": 7,
    "wof:repo": "whosonfirst-data-admin-gb",
    "wof:superseded_by": [],
    "wof:supersedes": [
      1360805559
    ],
    "wof:tags": []
  },
  "bbox": [
    -2.070752,
    52.566381,
    -2.070752,
    52.566381
  ],
  "geometry": {"type":"Point","coordinates":[-2.070752,52.566381]}
}
