{
  "id": 101872551,
  "type": "Feature",
  "properties": {
    "edtf:cessation": "",
    "edtf:inception": "",
    "geom:area": 0,
    "geom:area_square_m": 0,
    "geom:bbox": "-3.008565,56.319909,-3.008565,56.319909",
    "geom:latitude": 56.319909,
    "geom:longitude": -3.008565,
    "iso:country": "GB",
    "lbl:bbox": "-3.028565,56.299909,-2.988565,56.339909",
    "lbl:latitude": 56.319909,
    "lbl:longitude": -3.008564,
    "lbl:max_zoom": 18,
    "lbl:min_zoom": 13.5,
    "mps:latitude": 56.319909,
    "mps:longitude": -3.008564,
    "mz:hierarchy_label": 1,
    "mz:is_current": 1,
    "mz:min_zoom": 12,
    "name:ast_x_preferred": [
      "Cupar"
    ],
    "name:ben_x_preferred": [
      "কুপার"
    ],
    "name:ceb_x_preferred": [
      "Cupar"
    ],
    "name:ces_x_preferred": [
      "Cupar"
    ],
    "name:cym_x_preferred": [
      "Cupar"
    ],
    "name:dan_x_preferred": [
      "Cupar"
    ],
    "name:deu_x_preferred": [
      "Cupar"
    ],
    "name:eng_x_preferred": [
      "Cupar"
    ],
    "name:eus_x_preferred": [
      "Cupar"
    ],
    "name:fao_x_preferred": [
      "Cupar"
    ],
    "name:fas_x_preferred": [
      "کوپار"
    ],
    "name:fra_x_preferred": [
      "Cupar"
    ],
    "name:gla_x_preferred": [
      "Cupar Fìobha"
    ],
    "name:gle_x_preferred": [
      "Cúbar"
    ],
    "name:gle_x_variant": [
      "Cùbar"
    ],
    "name:guj_x_preferred": [
      "કુપર"
    ],
    "name:isl_x_preferred": [
      "Cupar"
    ],
    "name:ita_x_preferred": [
      "Cupar"
    ],
    "name:jpn_x_preferred": [
      "カッパ―"
    ],
    "name:kal_x_preferred": [
      "Cupar"
    ],
    "name:kan_x_preferred": [
      "ಕ್ಯೂಪಾರ್"
    ],
    "name:kor_x_preferred": [
      "쿠퍼"
    ],
    "name:lit_x_preferred": [
      "Kuparas"
    ],
    "name:nld_x_preferred": [
      "Cupar"
    ],
    "name:nno_x_preferred": [
      "Cupar"
    ],
    "name:nob_x_preferred": [
      "Cupar"
    ],
    "name:nor_x_preferred": [
      "Cupar"
    ],
    "name:pol_x_preferred": [
      "Cupar"
    ],
    "name:por_x_preferred": [
      "Cupar"
    ],
    "name:rus_x_preferred": [
      "Купар"
    ],
    "name:sco_x_preferred": [
      "Cupar"
    ],
    "name:slv_x_preferred": [
      "Cupar"
    ],
    "name:spa_x_preferred": [
      "Cupar"
    ],
    "name:swe_x_preferred": [
      "Cupar"
    ],
    "name:tam_x_preferred": [
      "கப்பற்"
    ],
    "name:tel_x_preferred": [
      "క్యూపర్"
    ],
    "name:urd_x_preferred": [
      "کوپار"
    ],
    "name:zho_x_preferred": [
      "庫珀"
    ],
    "qs:a0": "United Kingdom",
    "qs:a1": "*Fife",
    "qs:a1_lc": "GB11QR0000",
    "qs:a1r": "0Scotland",
    "qs:a1r_lc": "GB11000000",
    "qs:adm0": "United Kingdom",
    "qs:id": 0,
    "qs:la_lc": "*",
    "qs:level": "locality",
    "qs:loc": "Cupar",
    "qs:loc_alt": "Cupar",
    "qs:pop": 0,
    "qs:source": "RCustom EuroGlobalMap + UMZ Urban Polygons + Geonames + GeoPlanet",
    "qs:type": "buffered point",
    "src:geom": "whosonfirst",
    "src:geom_alt": [
      "quattroshapes_pg",
      "quattroshapes"
    ],
    "src:geom_via": "quattroshapes",
    "src:lbl_centroid": "mapshaper",
    "src:population": "wikidata",
    "wd:latitude": 56.3194,
    "wd:longitude": -3.01155,
    "wd:wordcount": 2587,
    "wof:belongsto": [
      1880762125,
      1360699123
    ],
    "wof:breaches": [],
    "wof:concordances": {
      "fct:id": "0aa61f92-8f76-11e1-848f-cfd5bf3ef515",
      "gn:id": 2651698,
      "gp:id": 17665,
      "qs_pg:id": 453600,
      "wd:id": "Q1012047",
      "wk:page": "Cupar"
    },
    "wof:country": "GB",
    "wof:created": 1765384897,
    "wof:geom_alt": [
      "quattroshapes",
      "quattroshapes_pg"
    ],
    "wof:geomhash": "915c442e673d6f48c389a0f7ca3e0c78",
    "wof:hierarchy": [
      {
        "continent_id": -1,
        "country_id": -1,
        "county_id": 1360699123,
        "locality_id": 101872551,
        "macrocounty_id": 1880762125,
        "region_id": -1
      }
    ],
    "wof:id": 101872551,
    "wof:lang": [
      "eng"
    ],
    "wof:lastmodified": 1765384897,
    "wof:name": "Cupar",
    "wof:parent_id": 1360699123,
    "wof:placetype": "locality",
    "wof:population": 9020,
    "wof:population_rank": 5,
    "wof:repo": "whosonfirst-data-admin-gb",
    "wof:superseded_by": [],
    "wof:supersedes": [],
    "wof:tags": []
  },
  "bbox": [
    -3.008565,
    56.319909,
    -3.008565,
    56.319909
  ],
  "geometry": {"type":"Point","coordinates":[-3.008565,56.319909]}
}
