{
  "id": 1326565151,
  "type": "Feature",
  "properties": {
    "edtf:cessation": "",
    "edtf:inception": "",
    "geom:area": 0,
    "geom:area_square_m": 0,
    "geom:bbox": "-2.644100,55.573010,-2.644100,55.573010",
    "geom:latitude": 55.57301,
    "geom:longitude": -2.6441,
    "gn:admin1_code": "SCT",
    "gn:admin2_code": "T9",
    "gn:asciiname": "Saint Boswells",
    "gn:country_code": "GB",
    "gn:dem": 96,
    "gn:feature_class": "P",
    "gn:feature_code": "PPL",
    "gn:geonameid": 2638848,
    "gn:latitude": 55.57301,
    "gn:longitude": -2.6441,
    "gn:modification_date": "2017-06-12",
    "gn:name": "Saint Boswells",
    "gn:population": 1400,
    "gn:timezone": "Europe/London",
    "iso:country": "GB",
    "lbl:bbox": "-2.6641,55.55301,-2.6241,55.59301",
    "lbl:max_zoom": 16,
    "lbl:min_zoom": 12,
    "mz:hierarchy_label": 1,
    "mz:is_current": -1,
    "mz:min_zoom": 11,
    "src:geom": "geonames",
    "src:population": "wikidata",
    "wof:belongsto": [
      1880773105,
      102191581,
      85633159,
      1880761991,
      404227471,
      1360699015
    ],
    "wof:breaches": [],
    "wof:concordances": {
      "gn:id": 2638848
    },
    "wof:country": "GB",
    "wof:created": 1765388895,
    "wof:geomhash": "42d9a5d56500a83b4a041467b75f68ef",
    "wof:hierarchy": [
      {
        "continent_id": 102191581,
        "country_id": 85633159,
        "county_id": 1360699015,
        "locality_id": 1326565151,
        "macrocounty_id": 1880761991,
        "macroregion_id": 404227471,
        "region_id": 1880773105
      }
    ],
    "wof:id": 1326565151,
    "wof:lastmodified": 1765388895,
    "wof:name": "Saint Boswells",
    "wof:parent_id": 1360699015,
    "wof:placetype": "locality",
    "wof:population": 1470,
    "wof:population_rank": 3,
    "wof:repo": "whosonfirst-data-admin-gb",
    "wof:superseded_by": [],
    "wof:supersedes": [],
    "wof:tags": []
  },
  "bbox": [
    -2.6441,
    55.57301,
    -2.6441,
    55.57301
  ],
  "geometry": {"type":"Point","coordinates":[-2.6441,55.57301]}
}
