{
  "id": 101873483,
  "type": "Feature",
  "properties": {
    "edtf:cessation": "",
    "edtf:inception": "",
    "geom:area": 0,
    "geom:area_square_m": 0,
    "geom:bbox": "-3.061137,55.620219,-3.061137,55.620219",
    "geom:latitude": 55.620219,
    "geom:longitude": -3.061137,
    "iso:country": "GB",
    "lbl:bbox": "-3.081137,55.600219,-3.041137,55.640219",
    "lbl:latitude": 55.620219,
    "lbl:longitude": -3.061136,
    "lbl:max_zoom": 18,
    "lbl:min_zoom": 13.5,
    "mps:latitude": 55.620219,
    "mps:longitude": -3.061136,
    "mz:hierarchy_label": 1,
    "mz:is_current": 1,
    "mz:min_zoom": 12,
    "name:ast_x_preferred": [
      "Innerleithen"
    ],
    "name:bul_x_preferred": [
      "Инерлеитхен"
    ],
    "name:ceb_x_preferred": [
      "Innerleithen"
    ],
    "name:cym_x_preferred": [
      "Innerleithen"
    ],
    "name:deu_x_preferred": [
      "Innerleithen"
    ],
    "name:eng_x_preferred": [
      "Innerleithen"
    ],
    "name:eus_x_preferred": [
      "Innerleithen"
    ],
    "name:fas_x_preferred": [
      "اینرلیتن"
    ],
    "name:fra_x_preferred": [
      "Innerleithen"
    ],
    "name:gla_x_preferred": [
      "Inbhir Liathain"
    ],
    "name:gle_x_preferred": [
      "Inbhir Leitheann"
    ],
    "name:heb_x_preferred": [
      "אינרליית'ן"
    ],
    "name:ita_x_preferred": [
      "Innerleithen"
    ],
    "name:nld_x_preferred": [
      "Innerleithen"
    ],
    "name:sco_x_preferred": [
      "Innerleithen"
    ],
    "name:sco_x_variant": [
      "Henderleithen"
    ],
    "name:spa_x_preferred": [
      "Innerleithen"
    ],
    "name:swe_x_preferred": [
      "Innerleithen"
    ],
    "name:zho_x_preferred": [
      "因纳利森"
    ],
    "qs:a0": "United Kingdom",
    "qs:a1": "*Scottish Borders",
    "qs:a1_lc": "GB11QE0000",
    "qs:a1r": "0Scotland",
    "qs:a1r_lc": "GB11000000",
    "qs:adm0": "United Kingdom",
    "qs:id": 0,
    "qs:la_lc": "*",
    "qs:level": "locality",
    "qs:loc": "Innerleithen",
    "qs:loc_alt": "Innerleithen",
    "qs:pop": 0,
    "qs:source": "RCustom EuroGlobalMap + UMZ Urban Polygons + Geonames + GeoPlanet",
    "qs:type": "buffered point",
    "src:geom": "whosonfirst",
    "src:geom_alt": [
      "quattroshapes_pg",
      "quattroshapes"
    ],
    "src:geom_via": "quattroshapes",
    "src:lbl_centroid": "mapshaper",
    "src:population": "wikidata",
    "wd:latitude": 55.6184,
    "wd:longitude": -3.05901,
    "wd:wordcount": 1291,
    "wof:belongsto": [
      1880761991,
      1360699015
    ],
    "wof:breaches": [],
    "wof:concordances": {
      "fct:id": "0aa61cb8-8f76-11e1-848f-cfd5bf3ef515",
      "gn:id": 2646172,
      "gp:id": 24430,
      "qs_pg:id": 899243,
      "wd:id": "Q1010316",
      "wk:page": "Innerleithen"
    },
    "wof:country": "GB",
    "wof:created": 1765385068,
    "wof:geom_alt": [
      "quattroshapes_pg",
      "quattroshapes"
    ],
    "wof:geomhash": "1870a2449e23d7f085fa49ed6676cec0",
    "wof:hierarchy": [
      {
        "continent_id": -1,
        "country_id": -1,
        "county_id": 1360699015,
        "locality_id": 101873483,
        "macrocounty_id": 1880761991,
        "region_id": -1
      }
    ],
    "wof:id": 101873483,
    "wof:lang": [
      "eng"
    ],
    "wof:lastmodified": 1765385068,
    "wof:name": "Innerleithen",
    "wof:parent_id": 1360699015,
    "wof:placetype": "locality",
    "wof:population": 3110,
    "wof:population_rank": 4,
    "wof:repo": "whosonfirst-data-admin-gb",
    "wof:superseded_by": [],
    "wof:supersedes": [],
    "wof:tags": []
  },
  "bbox": [
    -3.061137,
    55.620219,
    -3.061137,
    55.620219
  ],
  "geometry": {"type":"Point","coordinates":[-3.061137,55.620219]}
}
