{
  "id": 1360713707,
  "type": "Feature",
  "properties": {
    "edtf:cessation": "",
    "edtf:inception": "",
    "geom:area": 0,
    "geom:area_square_m": 0,
    "geom:bbox": "-3.318986,51.617803,-3.318986,51.617803",
    "geom:latitude": 51.617803,
    "geom:longitude": -3.318986,
    "gn:country": null,
    "iso:country": "GB",
    "lbl:bbox": "-3.323986,51.612803,-3.313986,51.622803",
    "lbl:latitude": 51.617803,
    "lbl:longitude": -3.318986,
    "lbl:max_zoom": 18,
    "mz:hierarchy_label": 1,
    "mz:is_current": 1,
    "mz:min_zoom": 15,
    "mz:note": "Quattroshapes Point Gazetteer import 20170519",
    "name:bre_x_preferred": [
      "Cilfynydd"
    ],
    "name:cat_x_preferred": [
      "Cilfynydd"
    ],
    "name:ces_x_preferred": [
      "Cilfynydd"
    ],
    "name:cym_x_preferred": [
      "Cilfynydd"
    ],
    "name:deu_x_preferred": [
      "Cilfynydd"
    ],
    "name:eng_x_preferred": [
      "Cilfynydd"
    ],
    "name:eus_x_preferred": [
      "Cilfynydd"
    ],
    "name:fra_x_preferred": [
      "Cilfynydd"
    ],
    "name:gla_x_preferred": [
      "Cilfynydd"
    ],
    "name:gle_x_preferred": [
      "Cilfynydd"
    ],
    "name:heb_x_preferred": [
      "קילפיניד"
    ],
    "name:nld_x_preferred": [
      "Cilfynydd"
    ],
    "name:sco_x_preferred": [
      "Cilfynydd"
    ],
    "name:slk_x_preferred": [
      "Cilfynydd"
    ],
    "qs_pg:aaroncc": "GB",
    "qs_pg:gn_country": null,
    "qs_pg:name": "Cilfynydd",
    "qs_pg:name_adm0": "United Kingdom",
    "qs_pg:name_adm1": "Wales",
    "qs_pg:photos": 329,
    "qs_pg:photos_1k": 67,
    "qs_pg:photos_9k": 1,
    "qs_pg:photos_9r": 5,
    "qs_pg:photos_all": 329,
    "qs_pg:photos_sr": 5,
    "qs_pg:pop_sr": 0,
    "qs_pg:qs_id": 1079395,
    "qs_pg:qs_pg_placetype": "locality",
    "qs_pg:qs_pg_placetype_gp": "Town",
    "qs_pg:woe_adm0": 23424975,
    "qs_pg:woe_id": 16102,
    "src:geom": "qs_pg",
    "src:lbl_centroid": "qs_pg",
    "src:population": "wikidata",
    "woe:adm0_id": 23424975,
    "woe:name_adm0": "United Kingdom",
    "woe:name_adm1": "Wales",
    "woe:placetype": "Town",
    "wof:belongsto": [
      1880773115,
      102191581,
      1880762185,
      404441965,
      85633159,
      404227475,
      101852813,
      136253055,
      1360699025
    ],
    "wof:breaches": [],
    "wof:concordances": {
      "gp:id": 16102,
      "qs_pg:id": 1079395,
      "wd:id": "Q5119940"
    },
    "wof:country": "GB",
    "wof:created": 1497290567,
    "wof:geomhash": "45b04c72a600fba3a61c4234bcdacc74",
    "wof:hierarchy": [
      {
        "continent_id": 102191581,
        "country_id": 85633159,
        "county_id": 1360699025,
        "empire_id": 136253055,
        "localadmin_id": 404441965,
        "locality_id": 101852813,
        "macrocounty_id": 1880762185,
        "macroregion_id": 404227475,
        "neighbourhood_id": 1360713707,
        "region_id": 1880773115
      }
    ],
    "wof:id": 1360713707,
    "wof:lastmodified": 1765389293,
    "wof:name": "Cilfynydd",
    "wof:parent_id": 101852813,
    "wof:placetype": "neighbourhood",
    "wof:population": 2855,
    "wof:population_rank": 4,
    "wof:repo": "whosonfirst-data-admin-gb",
    "wof:superseded_by": [],
    "wof:supersedes": [
      1125783103
    ],
    "wof:tags": []
  },
  "bbox": [
    -3.318986,
    51.617803,
    -3.318986,
    51.617803
  ],
  "geometry": {"type":"Point","coordinates":[-3.318986,51.617803]}
}
