{
  "id": 85792895,
  "type": "Feature",
  "properties": {
    "edtf:cessation": "",
    "edtf:inception": "",
    "geom:area": 0.0007215153839999453,
    "geom:area_square_m": 5270222.716398,
    "geom:bbox": "-1.632428,53.780433,-1.587524,53.803895",
    "geom:latitude": 53.79150348169733,
    "geom:longitude": -1.6102308850049598,
    "gn:latitude": 53.499,
    "gn:longitude": -2.38079,
    "iso:country": "GB",
    "lbl:latitude": 53.790848,
    "lbl:longitude": -1.584108,
    "lbl:max_zoom": 18,
    "mps:latitude": 53.792538,
    "mps:longitude": -1.608413,
    "mz:hierarchy_label": 1,
    "mz:is_current": -1,
    "mz:is_funky": 0,
    "mz:is_hard_boundary": 0,
    "mz:is_landuse_aoi": 0,
    "mz:is_official": 0,
    "mz:max_zoom": 18,
    "mz:min_zoom": 13,
    "mz:tier_locality": 4,
    "mz:tier_metro": 30,
    "name:ben_x_preferred": [
      "ওর্সলে"
    ],
    "name:cat_x_preferred": [
      "Worsley"
    ],
    "name:cym_x_preferred": [
      "Worsley"
    ],
    "name:deu_x_preferred": [
      "Worsley"
    ],
    "name:ell_x_preferred": [
      "Γουόρσλεϊ"
    ],
    "name:eng_x_preferred": [
      "Wortley"
    ],
    "name:eng_x_variant": [
      "Worsley"
    ],
    "name:fas_x_preferred": [
      "وزلی"
    ],
    "name:fra_x_preferred": [
      "Worsley"
    ],
    "name:gle_x_preferred": [
      "Worsley"
    ],
    "name:glg_x_preferred": [
      "Worsley"
    ],
    "name:guj_x_preferred": [
      "વર્સ્લી"
    ],
    "name:ita_x_preferred": [
      "Worsley"
    ],
    "name:jpn_x_preferred": [
      "ワースリー"
    ],
    "name:kan_x_preferred": [
      "ವರ್ಸ್ಲೆ"
    ],
    "name:kor_x_preferred": [
      "워슬리"
    ],
    "name:lit_x_preferred": [
      "Vorslis"
    ],
    "name:ltz_x_preferred": [
      "Worsley"
    ],
    "name:nld_x_preferred": [
      "Worsley"
    ],
    "name:pol_x_preferred": [
      "Worsley"
    ],
    "name:por_x_preferred": [
      "Worsley"
    ],
    "name:rus_x_preferred": [
      "Уорсли"
    ],
    "name:spa_x_preferred": [
      "Worsley"
    ],
    "name:swe_x_preferred": [
      "Worsley"
    ],
    "name:tam_x_preferred": [
      "ஒர்சலே"
    ],
    "name:tel_x_preferred": [
      "వర్స్లి"
    ],
    "name:urd_x_preferred": [
      "ورسلے"
    ],
    "name:zho_x_preferred": [
      "沃斯利"
    ],
    "qs:gn_adm0_cc": "GB",
    "qs:gn_fcode": "PPL",
    "qs:gn_local": 2644688,
    "qs:gn_nam_loc": "Leeds",
    "qs:gn_namadm1": "ENG",
    "qs:gn_name": "Worsley",
    "qs:local_max": 6349,
    "qs:local_sum": 80165,
    "qs:localhoods": 52,
    "qs:name": "Wortley",
    "qs:name_adm0": "United Kingdom",
    "qs:name_adm1": "England",
    "qs:name_adm2": "West Yorkshire",
    "qs:name_lau": "Leeds City",
    "qs:name_local": "Leeds",
    "qs:photo_max": 46,
    "qs:photo_sum": 467,
    "qs:placetype": "Suburb",
    "qs:quad_count": 45,
    "qs:woe_adm0": 23424975,
    "qs:woe_adm1": 24554868,
    "qs:woe_adm2": 12602197,
    "qs:woe_lau": 12695873,
    "qs:woe_local": 26042,
    "qs:woe_ver": "7.10.0",
    "src:geom": "quattroshapes",
    "src:geom_alt": [
      "quattroshapes_pg"
    ],
    "src:lbl_centroid": "mz",
    "src:population": "wikidata",
    "wof:belongsto": [
      1880773017,
      102191581,
      85633159,
      1880762059,
      404227469,
      101750579,
      136253055,
      1360698749
    ],
    "wof:breaches": [],
    "wof:concordances": {
      "gn:id": 2633529,
      "gp:id": 43825,
      "qs_pg:id": 1057207,
      "wd:id": "Q1617033",
      "wk:page": "Worsley"
    },
    "wof:country": "GB",
    "wof:created": 1765391287,
    "wof:geom_alt": [
      "quattroshapes_pg"
    ],
    "wof:geomhash": "5515de75006ba53eca9a67e328cc863e",
    "wof:hierarchy": [
      {
        "continent_id": 102191581,
        "country_id": 85633159,
        "county_id": 1360698749,
        "empire_id": 136253055,
        "locality_id": 101750579,
        "macrocounty_id": 1880762059,
        "macroregion_id": 404227469,
        "neighbourhood_id": 85792895,
        "region_id": 1880773017
      }
    ],
    "wof:id": 85792895,
    "wof:lang": [
      "eng"
    ],
    "wof:lastmodified": 1765391287,
    "wof:name": "Wortley",
    "wof:parent_id": 101750579,
    "wof:placetype": "neighbourhood",
    "wof:population": 10090,
    "wof:population_rank": 6,
    "wof:repo": "whosonfirst-data-admin-gb",
    "wof:superseded_by": [],
    "wof:supersedes": [],
    "wof:tags": []
  },
  "bbox": [
    -1.632428,
    53.780433,
    -1.587524,
    53.803895
  ],
  "geometry": {"type":"Polygon","coordinates":[[[-1.595764,53.799029],[-1.595764,53.797406],[-1.595764,53.795784],[-1.596722,53.794162],[-1.596722,53.794162],[-1.595764,53.792539],[-1.593018,53.792539],[-1.592411,53.792539],[-1.592091,53.790917],[-1.587524,53.790917],[-1.587524,53.790917],[-1.587524,53.787672],[-1.587524,53.787672],[-1.587524,53.784426],[-1.587524,53.784426],[-1.593018,53.784426],[-1.598511,53.784426],[-1.598511,53.782749],[-1.598511,53.781181],[-1.599437,53.781181],[-1.599437,53.781181],[-1.604004,53.781181],[-1.60921,53.781181],[-1.60921,53.781181],[-1.609497,53.781181],[-1.609497,53.781472],[-1.610588,53.78258],[-1.612244,53.782269],[-1.61499,53.782785],[-1.619159,53.780433],[-1.620654,53.781277],[-1.625977,53.780458],[-1.627542,53.781181],[-1.626903,53.784426],[-1.626583,53.786049],[-1.626903,53.787672],[-1.63147,53.787672],[-1.63147,53.787672],[-1.63147,53.790917],[-1.63147,53.790917],[-1.632428,53.792539],[-1.63147,53.794162],[-1.63147,53.794162],[-1.63147,53.794162],[-1.63038,53.796007],[-1.629766,53.796123],[-1.62628,53.794675],[-1.625977,53.79514],[-1.625977,53.797406],[-1.624497,53.797406],[-1.6241,53.798015],[-1.623612,53.798697],[-1.62323,53.798789],[-1.620978,53.798244],[-1.620483,53.799083],[-1.620483,53.800651],[-1.61499,53.800651],[-1.61499,53.803895],[-1.61499,53.803895],[-1.609497,53.803895],[-1.604004,53.803895],[-1.599437,53.803895],[-1.598511,53.803895],[-1.598511,53.800651],[-1.595764,53.800651],[-1.595764,53.799029]]]}
}
