{
  "id": 101872429,
  "type": "Feature",
  "properties": {
    "edtf:cessation": "",
    "edtf:inception": "",
    "geom:area": 0,
    "geom:area_square_m": 0,
    "geom:bbox": "-4.450825,55.601126,-4.450825,55.601126",
    "geom:latitude": 55.601126,
    "geom:longitude": -4.450825,
    "iso:country": "GB",
    "lbl:bbox": "-4.470825,55.581126,-4.430825,55.621126",
    "lbl:latitude": 55.601126,
    "lbl:longitude": -4.450825,
    "lbl:max_zoom": 18,
    "lbl:min_zoom": 13.5,
    "mps:latitude": 55.601126,
    "mps:longitude": -4.450825,
    "mz:hierarchy_label": 1,
    "mz:is_current": 1,
    "mz:min_zoom": 12,
    "name:cym_x_preferred": [
      "Hurlford"
    ],
    "name:deu_x_preferred": [
      "Hurlford"
    ],
    "name:eng_x_preferred": [
      "Hurlford"
    ],
    "name:eus_x_preferred": [
      "Hurlford"
    ],
    "name:fra_x_preferred": [
      "Hurlford"
    ],
    "name:gla_x_preferred": [
      "Àth Cliath"
    ],
    "name:gle_x_preferred": [
      "Áth Cliath"
    ],
    "name:gle_x_variant": [
      "Àth Cliath"
    ],
    "name:hrv_x_preferred": [
      "Hurlford"
    ],
    "name:ita_x_preferred": [
      "Hurlford"
    ],
    "name:nld_x_preferred": [
      "Hurlford"
    ],
    "name:nno_x_preferred": [
      "Hurlford"
    ],
    "name:nob_x_preferred": [
      "Hurlford"
    ],
    "name:spa_x_preferred": [
      "Hurlford"
    ],
    "name:ukr_x_preferred": [
      "Герлфорд"
    ],
    "name:urd_x_preferred": [
      "ہورلفورڈ"
    ],
    "name:zho_x_preferred": [
      "伊爾克利"
    ],
    "qs:a0": "United Kingdom",
    "qs:a1": "*East Ayrshire",
    "qs:a1_lc": "GB11QK0000",
    "qs:a1r": "0Scotland",
    "qs:a1r_lc": "GB11000000",
    "qs:adm0": "United Kingdom",
    "qs:id": 0,
    "qs:la_lc": "*",
    "qs:level": "locality",
    "qs:loc": "Hurlford",
    "qs:loc_alt": "Hurlford",
    "qs:pop": 0,
    "qs:source": "RCustom EuroGlobalMap + UMZ Urban Polygons + Geonames + GeoPlanet",
    "qs:type": "buffered point",
    "src:geom": "whosonfirst",
    "src:geom_alt": [
      "quattroshapes_pg",
      "quattroshapes"
    ],
    "src:geom_via": "quattroshapes",
    "src:lbl_centroid": "mapshaper",
    "src:population": "wikidata",
    "wd:latitude": 55.5985,
    "wd:longitude": -4.45205,
    "wd:wordcount": 987,
    "wof:belongsto": [
      1880772907,
      102191581,
      85633159,
      1880762041,
      404227471,
      136253055,
      1360698779
    ],
    "wof:breaches": [],
    "wof:concordances": {
      "gn:id": 2646367,
      "gp:id": 24199,
      "qs_pg:id": 500369,
      "wd:id": "Q5946704",
      "wk:page": "Hurlford"
    },
    "wof:country": "GB",
    "wof:created": 1765384887,
    "wof:geom_alt": [
      "quattroshapes",
      "quattroshapes_pg"
    ],
    "wof:geomhash": "db081295d76412c8590b885f6fa93272",
    "wof:hierarchy": [
      {
        "continent_id": 102191581,
        "country_id": 85633159,
        "county_id": 1360698779,
        "empire_id": 136253055,
        "locality_id": 101872429,
        "macrocounty_id": 1880762041,
        "macroregion_id": 404227471,
        "region_id": 1880772907
      }
    ],
    "wof:id": 101872429,
    "wof:lastmodified": 1765384887,
    "wof:name": "Hurlford",
    "wof:parent_id": 1360698779,
    "wof:placetype": "locality",
    "wof:population": 4620,
    "wof:population_rank": 4,
    "wof:repo": "whosonfirst-data-admin-gb",
    "wof:superseded_by": [],
    "wof:supersedes": [],
    "wof:tags": []
  },
  "bbox": [
    -4.450825,
    55.601126,
    -4.450825,
    55.601126
  ],
  "geometry": {"type":"Point","coordinates":[-4.450825,55.601126]}
}
