{
  "id": 85787927,
  "type": "Feature",
  "properties": {
    "edtf:cessation": "",
    "edtf:inception": "",
    "geom:area": 0.00017202620399999735,
    "geom:area_square_m": 1321738.446108,
    "geom:bbox": "-0.113086,51.576216,-0.098163,51.592429",
    "geom:latitude": 51.58468700710618,
    "geom:longitude": -0.10498504293609787,
    "gn:id": "",
    "iso:country": "GB",
    "lbl:latitude": 51.582128,
    "lbl:longitude": -0.103486,
    "lbl:max_zoom": 18,
    "mps:latitude": 51.584888,
    "mps:longitude": -0.104381,
    "mz:hierarchy_label": 1,
    "mz:is_current": -1,
    "mz:is_funky": 0,
    "mz:is_hard_boundary": 0,
    "mz:is_landuse_aoi": 0,
    "mz:is_official": 0,
    "mz:max_zoom": 18,
    "mz:min_zoom": 14,
    "mz:tier_locality": 7,
    "mz:tier_metro": 1,
    "name:azb_x_preferred": [
      "هرینقی"
    ],
    "name:ben_x_preferred": [
      "হেরিঙ্গে"
    ],
    "name:bul_x_preferred": [
      "Харингай"
    ],
    "name:ceb_x_preferred": [
      "Harringay"
    ],
    "name:deu_x_preferred": [
      "Harringay"
    ],
    "name:eng_x_preferred": [
      "Harringay"
    ],
    "name:eng_x_variant": [
      "Haringay"
    ],
    "name:eus_x_preferred": [
      "Harringay"
    ],
    "name:fas_x_preferred": [
      "هرینگی"
    ],
    "name:fra_x_preferred": [
      "Harringay"
    ],
    "name:gle_x_preferred": [
      "Harringay"
    ],
    "name:guj_x_preferred": [
      "હેરીંગે"
    ],
    "name:ita_x_preferred": [
      "Harringay"
    ],
    "name:jpn_x_preferred": [
      "ハリンゲイ"
    ],
    "name:kan_x_preferred": [
      "ಹ್ಯಾರಿಂಗೇ"
    ],
    "name:kor_x_preferred": [
      "해링게이"
    ],
    "name:nld_x_preferred": [
      "Harringay"
    ],
    "name:nob_x_preferred": [
      "Haringey"
    ],
    "name:pol_x_preferred": [
      "Harringay"
    ],
    "name:por_x_preferred": [
      "Harringay"
    ],
    "name:rus_x_preferred": [
      "Харрингэй"
    ],
    "name:spa_x_preferred": [
      "Haringey"
    ],
    "name:swe_x_preferred": [
      "Harringay"
    ],
    "name:tam_x_preferred": [
      "ஹாரிங்காய்"
    ],
    "name:tel_x_preferred": [
      "హారింగే"
    ],
    "name:urd_x_preferred": [
      "ہارینگے"
    ],
    "name:zho_x_preferred": [
      "哈林蓋"
    ],
    "src:geom": "quattroshapes",
    "src:geom_alt": [
      "quattroshapes_pg"
    ],
    "src:lbl_centroid": "mz",
    "src:population": "wikidata",
    "wd:wordcount": 2846,
    "wof:belongsto": [
      1880762729,
      102191581,
      1880762179,
      85633159,
      404227469,
      101750367,
      136253055,
      1158857279,
      1880771825
    ],
    "wof:breaches": [],
    "wof:concordances": {
      "gp:id": 22448,
      "qs_pg:id": 451763,
      "wd:id": "Q952515"
    },
    "wof:country": "GB",
    "wof:created": 1765391056,
    "wof:geom_alt": [
      "quattroshapes_pg"
    ],
    "wof:geomhash": "37a8fdaa134f2b2d83a0c82e5575ac2a",
    "wof:hierarchy": [
      {
        "borough_id": 1158857279,
        "continent_id": 102191581,
        "country_id": 85633159,
        "county_id": 1880771825,
        "empire_id": 136253055,
        "locality_id": 101750367,
        "macrocounty_id": 1880762179,
        "macroregion_id": 404227469,
        "neighbourhood_id": 85787927,
        "region_id": 1880762729
      }
    ],
    "wof:id": 85787927,
    "wof:lang": [
      "eng"
    ],
    "wof:lastmodified": 1765391056,
    "wof:name": "Harringay",
    "wof:parent_id": 1158857279,
    "wof:placetype": "neighbourhood",
    "wof:population": 22627,
    "wof:population_rank": 7,
    "wof:repo": "whosonfirst-data-admin-gb",
    "wof:superseded_by": [],
    "wof:supersedes": [],
    "wof:tags": []
  },
  "bbox": [
    -0.113086,
    51.576216,
    -0.098163,
    51.592429
  ],
  "geometry": {"type":"Polygon","coordinates":[[[-0.098401,51.580483],[-0.098877,51.579717],[-0.10025,51.580454],[-0.101267,51.579909],[-0.101324,51.57963],[-0.101148,51.578776],[-0.101624,51.578011],[-0.101624,51.57707],[-0.103656,51.57707],[-0.104013,51.576495],[-0.104071,51.576216],[-0.10437,51.576216],[-0.105743,51.576216],[-0.107117,51.576216],[-0.107416,51.576216],[-0.107593,51.57707],[-0.109863,51.57707],[-0.109863,51.578776],[-0.109863,51.580483],[-0.109863,51.58219],[-0.109863,51.583897],[-0.11261,51.583897],[-0.11261,51.584837],[-0.113086,51.585603],[-0.112909,51.586456],[-0.113086,51.58731],[-0.11261,51.588076],[-0.11261,51.589016],[-0.109863,51.589016],[-0.109863,51.590723],[-0.107117,51.590723],[-0.105084,51.590723],[-0.10437,51.591872],[-0.10437,51.592429],[-0.101624,51.592429],[-0.098877,51.592429],[-0.098279,51.592429],[-0.098163,51.591871],[-0.098877,51.590723],[-0.098877,51.589016],[-0.098877,51.58731],[-0.098877,51.585603],[-0.098877,51.583897],[-0.098877,51.582956],[-0.098401,51.58219],[-0.098401,51.58219],[-0.098578,51.581337],[-0.098401,51.580483]]]}
}
