{
  "id": 1360790745,
  "type": "Feature",
  "properties": {
    "edtf:cessation": "",
    "edtf:inception": "",
    "geom:area": 0,
    "geom:area_square_m": 0,
    "geom:bbox": "-1.621657,51.255151,-1.621657,51.255151",
    "geom:latitude": 51.255151,
    "geom:longitude": -1.621657,
    "iso:country": "GB",
    "lbl:bbox": "-1.626657,51.250151,-1.616657,51.260151",
    "lbl:latitude": 51.255152,
    "lbl:longitude": -1.621657,
    "lbl:max_zoom": 18,
    "mps:latitude": 51.255152,
    "mps:longitude": -1.621657,
    "mz:hierarchy_label": 1,
    "mz:is_current": 1,
    "mz:min_zoom": 15,
    "name:azb_x_preferred": [
      "لاجرشال"
    ],
    "name:ceb_x_preferred": [
      "Ludgershall"
    ],
    "name:cym_x_preferred": [
      "Ludgershall"
    ],
    "name:eng_x_preferred": [
      "Ludgershall"
    ],
    "name:fas_x_preferred": [
      "لاجرشال، ویلتشر"
    ],
    "name:fas_x_variant": [
      "لاجرشال"
    ],
    "name:fra_x_preferred": [
      "Ludgershall"
    ],
    "name:gle_x_preferred": [
      "Ludgershall"
    ],
    "name:ita_x_preferred": [
      "Ludgershall"
    ],
    "name:jpn_x_preferred": [
      "ブリッジスデン"
    ],
    "name:lat_x_preferred": [
      "Ludgershall"
    ],
    "name:lld_x_preferred": [
      "Ludgershall"
    ],
    "name:nan_x_preferred": [
      "Ludgershall"
    ],
    "name:nld_x_preferred": [
      "Ludgershall"
    ],
    "name:pol_x_preferred": [
      "Ludgershall"
    ],
    "name:spa_x_preferred": [
      "Ludgershall"
    ],
    "name:swe_x_preferred": [
      "Ludgershall"
    ],
    "name:tur_x_preferred": [
      "Ludgershall"
    ],
    "name:und_x_variant": [
      "Lugershall"
    ],
    "name:zho_x_preferred": [
      "勒格舍爾"
    ],
    "qs:a0": "United Kingdom",
    "qs:a1": "*Wiltshire",
    "qs:a1_lc": "GB12HY0000",
    "qs:a1r": "0England",
    "qs:a1r_lc": "GB12000000",
    "qs:adm0": "United Kingdom",
    "qs:la_lc": "*",
    "qs:level": "locality",
    "qs:loc": "Ludgershall",
    "qs:loc_alt": "Ludgershall",
    "qs:pop": 0,
    "qs:source": "RCustom EuroGlobalMap + UMZ Urban Polygons + Geonames + GeoPlanet",
    "qs:type": "buffered point",
    "src:geom": "whosonfirst",
    "src:geom_alt": [
      "quattroshapes_pg",
      "quattroshapes"
    ],
    "src:geom_via": "quattroshapes",
    "src:lbl_centroid": "mapshaper",
    "src:population": "wikidata",
    "wd:wordcount": 67,
    "wof:belongsto": [
      1880773035,
      102191581,
      1880762017,
      404447475,
      85633159,
      404227469,
      1360320647,
      136253055,
      1360698937
    ],
    "wof:breaches": [],
    "wof:concordances": {
      "gn:id": 2643428,
      "gp:id": 27926,
      "qs_pg:id": 386234,
      "wd:id": "Q643318"
    },
    "wof:concordances_alt": {
      "qs_pg:id": 992123
    },
    "wof:country": "GB",
    "wof:created": 1765389425,
    "wof:geomhash": "873b707d571f65b383dab84b1936786e",
    "wof:hierarchy": [
      {
        "continent_id": 102191581,
        "country_id": 85633159,
        "county_id": 1360698937,
        "empire_id": 136253055,
        "localadmin_id": 404447475,
        "locality_id": 1360320647,
        "macrocounty_id": 1880762017,
        "macroregion_id": 404227469,
        "neighbourhood_id": 1360790745,
        "region_id": 1880773035
      }
    ],
    "wof:id": 1360790745,
    "wof:lastmodified": 1765389425,
    "wof:name": "Ludgershall",
    "wof:parent_id": 1360320647,
    "wof:placetype": "neighbourhood",
    "wof:population": 5477,
    "wof:population_rank": 5,
    "wof:repo": "whosonfirst-data-admin-gb",
    "wof:superseded_by": [],
    "wof:supersedes": [
      101852741
    ],
    "wof:tags": []
  },
  "bbox": [
    -1.621657,
    51.255151,
    -1.621657,
    51.255151
  ],
  "geometry": {"type":"Point","coordinates":[-1.621657,51.255151]}
}
