{
  "id": 85861059,
  "type": "Feature",
  "properties": {
    "edtf:cessation": "",
    "edtf:inception": "",
    "geom:area": 0,
    "geom:area_square_m": 0,
    "geom:bbox": "-3.894979,51.700092,-3.894979,51.700092",
    "geom:latitude": 51.700092,
    "geom:longitude": -3.894979,
    "gn:population": 32756,
    "iso:country": "GB",
    "lbl:bbox": "-3.899979,51.695092,-3.889979,51.705092",
    "lbl:latitude": 51.700092,
    "lbl:longitude": -3.894979,
    "lbl:max_zoom": 18,
    "mps:latitude": 51.703203,
    "mps:longitude": -3.876406,
    "mz:hierarchy_label": 0,
    "mz:is_current": -1,
    "mz:is_funky": 0,
    "mz:is_hard_boundary": 0,
    "mz:is_landuse_aoi": 0,
    "mz:is_official": 0,
    "mz:max_zoom": 18,
    "mz:min_zoom": 14,
    "mz:tier_locality": 3,
    "name:ara_x_preferred": [
      "أبردير"
    ],
    "name:ast_x_preferred": [
      "Aberdâr"
    ],
    "name:ben_x_preferred": [
      "এবারডেয়ার"
    ],
    "name:bre_x_preferred": [
      "Aberdâr"
    ],
    "name:bul_x_preferred": [
      "Абърдеър"
    ],
    "name:cat_x_preferred": [
      "Aberdâr"
    ],
    "name:ceb_x_preferred": [
      "Aberdare"
    ],
    "name:ces_x_preferred": [
      "Aberdare"
    ],
    "name:cor_x_preferred": [
      "Aberdâr"
    ],
    "name:cym_x_preferred": [
      "Aberdâr"
    ],
    "name:dan_x_preferred": [
      "Aberdare"
    ],
    "name:deu_x_preferred": [
      "Aberdare"
    ],
    "name:ell_x_preferred": [
      "Άμπερντεϊρ"
    ],
    "name:eng_x_preferred": [
      "Faerdre"
    ],
    "name:eng_x_variant": [
      "Aberdare"
    ],
    "name:eus_x_preferred": [
      "Aberdare"
    ],
    "name:fas_x_preferred": [
      "ابردیر"
    ],
    "name:fra_x_preferred": [
      "Aberdare"
    ],
    "name:gla_x_preferred": [
      "Aberdâr"
    ],
    "name:gle_x_preferred": [
      "Aberdâr"
    ],
    "name:glg_x_preferred": [
      "Aberdare - Aberdâr"
    ],
    "name:glg_x_variant": [
      "Aberdare"
    ],
    "name:guj_x_preferred": [
      "અબેરડેર"
    ],
    "name:heb_x_preferred": [
      "אברדייר"
    ],
    "name:ind_x_preferred": [
      "Aberdare"
    ],
    "name:ita_x_preferred": [
      "Aberdare"
    ],
    "name:jpn_x_preferred": [
      "アバーデア"
    ],
    "name:kan_x_preferred": [
      "ಅಬರ್ಡೇರ್"
    ],
    "name:kor_x_preferred": [
      "애버데어"
    ],
    "name:lit_x_preferred": [
      "Aberderas"
    ],
    "name:nld_x_preferred": [
      "Aberdare"
    ],
    "name:nob_x_preferred": [
      "Aberdare"
    ],
    "name:nor_x_preferred": [
      "Aberdare"
    ],
    "name:pol_x_preferred": [
      "Aberdare"
    ],
    "name:por_x_preferred": [
      "Aberdare"
    ],
    "name:rus_x_preferred": [
      "Абердэйр"
    ],
    "name:rus_x_variant": [
      "Абердэр"
    ],
    "name:sco_x_preferred": [
      "Aberdare"
    ],
    "name:spa_x_preferred": [
      "Aberdare"
    ],
    "name:swe_x_preferred": [
      "Aberdare"
    ],
    "name:szl_x_preferred": [
      "Aberdare"
    ],
    "name:tam_x_preferred": [
      "அபேர்டார்"
    ],
    "name:tel_x_preferred": [
      "అబేర్డరే"
    ],
    "name:ukr_x_preferred": [
      "Абердер"
    ],
    "name:urd_x_preferred": [
      "ابیرداری"
    ],
    "name:zho_x_preferred": [
      "阿伯代爾"
    ],
    "qs:gn_adm0_cc": "GB",
    "qs:gn_fcode": "PPL",
    "qs:gn_local": 2636432,
    "qs:gn_nam_loc": "Swansea, Wales, GB",
    "qs:gn_namadm1": "WLS",
    "qs:gn_name": "Aberdare",
    "qs:local_max": 5058,
    "qs:local_sum": 16167,
    "qs:localhoods": 17,
    "qs:name": "Faerdre",
    "qs:name_adm0": "United Kingdom",
    "qs:name_adm1": "Wales",
    "qs:name_adm2": "Swansea City and County",
    "qs:name_lau": "Swansea City and County",
    "qs:name_local": "Swansea",
    "qs:photo_max": 161,
    "qs:photo_sum": 515,
    "qs:placetype": "Suburb",
    "qs:quad_count": 58,
    "qs:woe_adm0": 23424975,
    "qs:woe_adm1": 12578049,
    "qs:woe_adm2": 12602229,
    "qs:woe_lau": 12696131,
    "qs:woe_local": 36758,
    "qs:woe_ver": "7.10.0",
    "src:geom": "mz",
    "src:geom_alt": [
      "quattroshapes_pg",
      "quattroshapes"
    ],
    "src:lbl_centroid": "yerbashapes",
    "src:population": "wikidata",
    "wof:belongsto": [
      1880773189,
      102191581,
      1880762173,
      404431395,
      85633159,
      404227475,
      1125780959,
      136253055,
      1360699109
    ],
    "wof:breaches": [],
    "wof:concordances": {
      "gn:id": 2657835,
      "gp:id": 20092497,
      "qs_pg:id": 467957,
      "wd:id": "Q319369",
      "wk:page": "Aberdare"
    },
    "wof:country": "GB",
    "wof:created": 1765391345,
    "wof:geom_alt": [
      "quattroshapes",
      "quattroshapes_pg"
    ],
    "wof:geomhash": "02cddef9b8a03bb960fbaa698bb84b6c",
    "wof:hierarchy": [
      {
        "continent_id": 102191581,
        "country_id": 85633159,
        "county_id": 1360699109,
        "empire_id": 136253055,
        "localadmin_id": 404431395,
        "locality_id": 1125780959,
        "macrocounty_id": 1880762173,
        "macroregion_id": 404227475,
        "neighbourhood_id": 85861059,
        "region_id": 1880773189
      }
    ],
    "wof:id": 85861059,
    "wof:lang": [
      "eng"
    ],
    "wof:lastmodified": 1765391345,
    "wof:name": "Faerdre",
    "wof:parent_id": 1125780959,
    "wof:placetype": "neighbourhood",
    "wof:population": 14506,
    "wof:population_rank": 6,
    "wof:repo": "whosonfirst-data-admin-gb",
    "wof:superseded_by": [],
    "wof:supersedes": [],
    "wof:tags": []
  },
  "bbox": [
    -3.894979,
    51.700092,
    -3.894979,
    51.700092
  ],
  "geometry": {"type":"Point","coordinates":[-3.894979,51.700092]}
}
