{
  "id": 1276688283,
  "type": "Feature",
  "properties": {
    "edtf:cessation": "",
    "edtf:inception": "",
    "geom:area": 0,
    "geom:area_square_m": 0,
    "geom:bbox": "-7.216670,54.466670,-7.216670,54.466670",
    "geom:latitude": 54.46666999999999,
    "geom:longitude": -7.21667,
    "gn:admin1_code": "NIR",
    "gn:admin2_code": "N09000006",
    "gn:asciiname": "Eskragh",
    "gn:cc2": "GB",
    "gn:country_code": "GB",
    "gn:dem": 133,
    "gn:feature_class": "P",
    "gn:feature_code": "PPL",
    "gn:geonameid": 2649895,
    "gn:latitude": 54.46667,
    "gn:longitude": -7.21667,
    "gn:modification_date": "2016-12-04",
    "gn:name": "Eskragh",
    "gn:population": 0,
    "gn:timezone": "Europe/London",
    "iso:country": "GB",
    "lbl:bbox": "-7.23667,54.44667,-7.19667,54.48667",
    "lbl:max_zoom": 18,
    "lbl:min_zoom": 13.5,
    "mz:hierarchy_label": 1,
    "mz:is_current": -1,
    "mz:min_zoom": 12,
    "name:ceb_x_preferred": [
      "Eskragh"
    ],
    "name:eus_x_preferred": [
      "Eskra"
    ],
    "name:gle_x_preferred": [
      "Eiscreach"
    ],
    "name:msa_x_preferred": [
      "Eskra"
    ],
    "name:swe_x_preferred": [
      "Eskragh"
    ],
    "src:geom": "geonames",
    "src:population": "wikidata",
    "wof:belongsto": [
      1360699235,
      102191581,
      85633159,
      1880762231,
      404227473,
      136253055,
      1880762257
    ],
    "wof:breaches": [],
    "wof:concordances": {
      "gn:id": 2649895,
      "wk:page": "Eskra"
    },
    "wof:country": "GB",
    "wof:created": 1765388593,
    "wof:geomhash": "d4f2f194d3476122db4ac58fdd6c3c86",
    "wof:hierarchy": [
      {
        "continent_id": 102191581,
        "country_id": 85633159,
        "county_id": 1880762257,
        "empire_id": 136253055,
        "locality_id": 1276688283,
        "macrocounty_id": 1880762231,
        "macroregion_id": 404227473,
        "region_id": 1360699235
      }
    ],
    "wof:id": 1276688283,
    "wof:lastmodified": 1765388593,
    "wof:name": "Eskragh",
    "wof:parent_id": 1880762257,
    "wof:placetype": "locality",
    "wof:population": 815,
    "wof:population_rank": 2,
    "wof:repo": "whosonfirst-data-admin-gb",
    "wof:superseded_by": [],
    "wof:supersedes": [],
    "wof:tags": []
  },
  "bbox": [
    -7.21667,
    54.46666999999999,
    -7.21667,
    54.46666999999999
  ],
  "geometry": {"type":"Point","coordinates":[-7.21667,54.46666999999999]}
}
