{
  "id": 1360806027,
  "type": "Feature",
  "properties": {
    "edtf:cessation": "",
    "edtf:deprecated": "2024-01-19",
    "edtf:inception": "",
    "edtf:superseded": "2024-01-19",
    "geom:area": 0,
    "geom:area_square_m": 0,
    "geom:bbox": "-2.350000,53.500000,-2.350000,53.500000",
    "geom:latitude": 53.5,
    "geom:longitude": -2.35,
    "gn:admin1_code": "ENG",
    "gn:admin2_code": "I2",
    "gn:asciiname": "Swinton",
    "gn:country_code": "GB",
    "gn:dem": 46,
    "gn:feature_class": "P",
    "gn:feature_code": "PPL",
    "gn:geonameid": 2636373,
    "gn:latitude": 53.5,
    "gn:longitude": -2.35,
    "gn:modification_date": "2013-12-11",
    "gn:name": "Swinton",
    "gn:population": 20000,
    "gn:timezone": "Europe/London",
    "iso:country": "GB",
    "lbl:bbox": "-2.355,53.495,-2.345,53.505",
    "lbl:max_zoom": 18,
    "mz:hierarchy_label": 1,
    "mz:is_current": 0,
    "mz:min_zoom": 15,
    "name:ceb_x_preferred": [
      "Swinton"
    ],
    "name:fas_x_preferred": [
      "سوین‌تون"
    ],
    "name:fra_x_preferred": [
      "Swinton"
    ],
    "name:gle_x_preferred": [
      "Swinton"
    ],
    "name:ita_x_preferred": [
      "Swinton"
    ],
    "name:pol_x_preferred": [
      "Swinton"
    ],
    "name:ron_x_preferred": [
      "Swinton"
    ],
    "name:spa_x_preferred": [
      "Swinton"
    ],
    "name:swe_x_preferred": [
      "Swinton"
    ],
    "src:geom": "geonames",
    "src:population": "wikidata",
    "wof:belongsto": [
      102191581,
      85633159,
      1880762163,
      404227469,
      1175612693,
      136253055,
      1360699005,
      1880773095
    ],
    "wof:breaches": [],
    "wof:concordances": {
      "gn:id": 2636373,
      "wk:page": "Swinton,_Greater_Manchester"
    },
    "wof:country": "GB",
    "wof:created": 1765390345,
    "wof:geomhash": "2ccd9582e9835ade450542e51c5b2c40",
    "wof:hierarchy": [
      {
        "continent_id": 102191581,
        "country_id": 85633159,
        "county_id": 1360699005,
        "empire_id": 136253055,
        "locality_id": 1175612693,
        "macrocounty_id": 1880762163,
        "macroregion_id": 404227469,
        "neighbourhood_id": 1360806027,
        "region_id": 1880773095
      }
    ],
    "wof:id": 1360806027,
    "wof:lastmodified": 1765390345,
    "wof:name": "Swinton",
    "wof:parent_id": 1175612693,
    "wof:placetype": "neighbourhood",
    "wof:population": 22931,
    "wof:population_rank": 7,
    "wof:repo": "whosonfirst-data-admin-gb",
    "wof:superseded_by": [
      85790867
    ],
    "wof:supersedes": [
      1193045017
    ],
    "wof:tags": []
  },
  "bbox": [
    -2.35,
    53.5,
    -2.35,
    53.5
  ],
  "geometry": {"type":"Point","coordinates":[-2.35,53.5]}
}
