{
  "id": 101872473,
  "type": "Feature",
  "properties": {
    "edtf:cessation": "",
    "edtf:inception": "",
    "geom:area": 0,
    "geom:area_square_m": 0,
    "geom:bbox": "-3.684048,55.866491,-3.684048,55.866491",
    "geom:latitude": 55.866491,
    "geom:longitude": -3.684048,
    "gn:population": 10137,
    "iso:country": "GB",
    "lbl:bbox": "-3.704048,55.846491,-3.664048,55.886491",
    "lbl:latitude": 55.866491,
    "lbl:longitude": -3.684048,
    "lbl:max_zoom": 15,
    "lbl:min_zoom": 10.5,
    "mps:latitude": 55.866491,
    "mps:longitude": -3.684048,
    "mz:hierarchy_label": 1,
    "mz:is_current": 1,
    "mz:min_zoom": 10,
    "name:ara_x_preferred": [
      "وايتبرن"
    ],
    "name:arz_x_preferred": [
      "وايتبرن"
    ],
    "name:ast_x_preferred": [
      "Whitburn"
    ],
    "name:ben_x_preferred": [
      "হুইটবার্ন"
    ],
    "name:ceb_x_preferred": [
      "Whitburn"
    ],
    "name:cym_x_preferred": [
      "Whitburn"
    ],
    "name:deu_x_preferred": [
      "Whitburn"
    ],
    "name:eng_x_preferred": [
      "Whitburn"
    ],
    "name:eus_x_preferred": [
      "Whitburn"
    ],
    "name:fas_x_preferred": [
      "ویتبرن"
    ],
    "name:fra_x_preferred": [
      "Whitburn"
    ],
    "name:gla_x_preferred": [
      "Am Fionn Allt"
    ],
    "name:gle_x_preferred": [
      "Am Fionn Allt"
    ],
    "name:guj_x_preferred": [
      "વ્હિટબર્ન"
    ],
    "name:hye_x_preferred": [
      "Ուիթբըրն"
    ],
    "name:ita_x_preferred": [
      "Whitburn"
    ],
    "name:jpn_x_preferred": [
      "ウィットバーン"
    ],
    "name:kan_x_preferred": [
      "ವಿಟ್ಬರ್ನ್"
    ],
    "name:kor_x_preferred": [
      "화이트번"
    ],
    "name:lit_x_preferred": [
      "Vitbernas"
    ],
    "name:nld_x_preferred": [
      "Whitburn"
    ],
    "name:pol_x_preferred": [
      "Whitburn"
    ],
    "name:por_x_preferred": [
      "Whitburn"
    ],
    "name:rus_x_preferred": [
      "Уитберн"
    ],
    "name:sco_x_preferred": [
      "Whitburn"
    ],
    "name:spa_x_preferred": [
      "Whitburn"
    ],
    "name:swe_x_preferred": [
      "Whitburn"
    ],
    "name:tam_x_preferred": [
      "வ்ய்ட்பரண்"
    ],
    "name:tel_x_preferred": [
      "విట్బర్న్"
    ],
    "name:ukr_x_preferred": [
      "Вітберн"
    ],
    "name:urd_x_preferred": [
      "وہیتبورن"
    ],
    "name:zho_x_preferred": [
      "惠特本"
    ],
    "qs:a0": "United Kingdom",
    "qs:a1": "*West Lothian",
    "qs:a1_lc": "GB11RH0000",
    "qs:a1r": "0Scotland",
    "qs:a1r_lc": "GB11000000",
    "qs:adm0": "United Kingdom",
    "qs:la_lc": "*",
    "qs:level": "locality",
    "qs:loc": "Whitburn",
    "qs:loc_alt": "Whitburn",
    "qs:pop": 0,
    "qs:source": "RCustom EuroGlobalMap + UMZ Urban Polygons + Geonames + GeoPlanet",
    "qs:type": "buffered point",
    "src:geom": "whosonfirst",
    "src:geom_alt": [
      "quattroshapes_pg",
      "quattroshapes"
    ],
    "src:geom_via": "quattroshapes",
    "src:lbl_centroid": "mapshaper",
    "src:population": "wikidata",
    "wd:latitude": 55.8621,
    "wd:longitude": -3.68719,
    "wd:wordcount": 960,
    "wof:belongsto": [
      1880773117,
      102191581,
      85633159,
      1880762081,
      404227471,
      136253055,
      1360699027
    ],
    "wof:breaches": [],
    "wof:concordances": {
      "gn:id": 2634137,
      "gp:id": 40188,
      "qs_pg:id": 1165474,
      "wd:id": "Q840684",
      "wk:page": "Whitburn, West Lothian"
    },
    "wof:country": "GB",
    "wof:created": 1765384890,
    "wof:geom_alt": [
      "quattroshapes",
      "quattroshapes_pg"
    ],
    "wof:geomhash": "e44ba8f873e97fa4f71c698df9e16268",
    "wof:hierarchy": [
      {
        "continent_id": 102191581,
        "country_id": 85633159,
        "county_id": 1360699027,
        "empire_id": 136253055,
        "locality_id": 101872473,
        "macrocounty_id": 1880762081,
        "macroregion_id": 404227471,
        "region_id": 1880773117
      }
    ],
    "wof:id": 101872473,
    "wof:lastmodified": 1765384890,
    "wof:name": "Whitburn",
    "wof:parent_id": 1360699027,
    "wof:placetype": "locality",
    "wof:population": 10860,
    "wof:population_rank": 6,
    "wof:repo": "whosonfirst-data-admin-gb",
    "wof:superseded_by": [],
    "wof:supersedes": [],
    "wof:tags": []
  },
  "bbox": [
    -3.684048,
    55.866491,
    -3.684048,
    55.866491
  ],
  "geometry": {"type":"Point","coordinates":[-3.684048,55.866491]}
}
