{
  "id": 85684003,
  "type": "Feature",
  "properties": {
    "edtf:cessation": "",
    "edtf:deprecated": "2017-12-20",
    "edtf:inception": "",
    "geom:area": 0.005610281829500061,
    "geom:area_square_m": 43129478.358768,
    "geom:bbox": "-0.335526,51.527652,-0.191422,51.600372",
    "geom:latitude": 51.55854453725613,
    "geom:longitude": -0.26779397035028807,
    "iso:country": "GB",
    "lbl:latitude": 51.560765,
    "lbl:longitude": -0.272728,
    "mps:latitude": 51.560765,
    "mps:longitude": -0.272728,
    "mz:hierarchy_label": 1,
    "mz:is_current": 0,
    "mz:is_funky": 1,
    "mz:max_zoom": 11,
    "mz:min_zoom": 11,
    "name:aze_x_preferred": [
      "Brent borosu"
    ],
    "name:bel_x_preferred": [
      "Брэнт"
    ],
    "name:ben_x_preferred": [
      "বেন্ট"
    ],
    "name:cat_x_preferred": [
      "Brent"
    ],
    "name:ces_x_preferred": [
      "Brent"
    ],
    "name:cym_x_preferred": [
      "Brent"
    ],
    "name:dan_x_preferred": [
      "Brent"
    ],
    "name:deu_x_preferred": [
      "Brent"
    ],
    "name:deu_x_variant": [
      "London Borough of Brent"
    ],
    "name:eng_x_preferred": [
      "Brent"
    ],
    "name:est_x_preferred": [
      "Brenti linnaosa"
    ],
    "name:eus_x_preferred": [
      "Brent"
    ],
    "name:fas_x_preferred": [
      "منطقه برنت لندن"
    ],
    "name:fin_x_preferred": [
      "Brent"
    ],
    "name:fra_x_preferred": [
      "district londonien de Brent"
    ],
    "name:gle_x_preferred": [
      "Buirg Londan Brent"
    ],
    "name:guj_x_preferred": [
      "લંડન બોરો ઓફ બ્રેન્ટ"
    ],
    "name:heb_x_preferred": [
      "ברנט"
    ],
    "name:hin_x_preferred": [
      "ब्रेंट बरो"
    ],
    "name:hun_x_preferred": [
      "Brent kerület"
    ],
    "name:isl_x_preferred": [
      "Brent"
    ],
    "name:ita_x_preferred": [
      "Borgo londinese di Brent"
    ],
    "name:jpn_x_preferred": [
      "ブレント・ロンドン特別区"
    ],
    "name:kan_x_preferred": [
      "ಲಂಡನ್ ಬರೋ ಆಫ್ ಬ್ರೆಂಟ್"
    ],
    "name:kor_x_preferred": [
      "브렌트 구"
    ],
    "name:lat_x_preferred": [
      "Brent"
    ],
    "name:mkd_x_preferred": [
      "Брент"
    ],
    "name:nld_x_preferred": [
      "Brent"
    ],
    "name:nno_x_preferred": [
      "London Borough of Brent"
    ],
    "name:nob_x_preferred": [
      "Brent"
    ],
    "name:pol_x_preferred": [
      "London Borough of Brent"
    ],
    "name:por_x_preferred": [
      "Brent"
    ],
    "name:ron_x_preferred": [
      "Brent"
    ],
    "name:rus_x_preferred": [
      "Брент"
    ],
    "name:sco_x_preferred": [
      "Lunnon Burgh o Brent"
    ],
    "name:slv_x_preferred": [
      "London Borough of Brent"
    ],
    "name:spa_x_preferred": [
      "Brent"
    ],
    "name:srp_x_preferred": [
      "Лондонска општина Брент"
    ],
    "name:swe_x_preferred": [
      "London Borough of Brent"
    ],
    "name:tam_x_preferred": [
      "லண்டன்  பாரூக்ஹ்  ஆப்  ப்ரெண்ட்"
    ],
    "name:tel_x_preferred": [
      "లండన్ బోరోగ్ అఫ్ బ్రెంట్"
    ],
    "name:ukr_x_preferred": [
      "Брент"
    ],
    "name:urd_x_preferred": [
      "برینٹ بورو"
    ],
    "name:vie_x_preferred": [
      "Khu Brent của Luân Đôn"
    ],
    "name:yid_x_preferred": [
      "לאנדאנער בארא פון ברענט"
    ],
    "name:zho_x_preferred": [
      "布倫特區"
    ],
    "ne:abbrev": "Brent",
    "ne:adm0_a3": "GBR",
    "ne:adm0_label": "7",
    "ne:adm0_sr": "1",
    "ne:adm1_cod_1": "GBR-2062",
    "ne:adm1_code": "GBR-2062",
    "ne:admin": "United Kingdom",
    "ne:area_sqkm": "0.00000000000",
    "ne:check_me": "20",
    "ne:code_hasc": "GB.BE",
    "ne:code_local": "",
    "ne:datarank": "5",
    "ne:diss_me": "2062",
    "ne:featurecla": "Admin-1 scale rank",
    "ne:fips": "UK17",
    "ne:fips_alt": "UKB5",
    "ne:gadm_level": "2",
    "ne:geonunit": "England",
    "ne:gn_a1_code": "GB.",
    "ne:gn_id": "-2648110",
    "ne:gn_level": "-2",
    "ne:gn_name": "Greater London",
    "ne:gn_region": "",
    "ne:gns_adm1": "",
    "ne:gns_id": "6077574",
    "ne:gns_lang": "ind",
    "ne:gns_level": "1",
    "ne:gns_name": "Brent, London Borough of",
    "ne:gns_region": "UK35",
    "ne:gu_a3": "ENG",
    "ne:hasc_maybe": "",
    "ne:iso_3166_2": "GB-",
    "ne:iso_a2": "GB",
    "ne:labelrank": "9",
    "ne:latitude": "51.55780000000",
    "ne:longitude": "-0.25226600000",
    "ne:mapcolor13": 3,
    "ne:mapcolor9": 6,
    "ne:name": "Brent",
    "ne:name_alt": "",
    "ne:name_len": 5,
    "ne:name_local": "",
    "ne:note": "",
    "ne:postal": "BE",
    "ne:provnum_ne": "20054",
    "ne:region": "Greater London",
    "ne:region_cod": "",
    "ne:region_sub": "Greater London",
    "ne:sameascity": "-99",
    "ne:scalerank": "8",
    "ne:sov_a3": "GB1",
    "ne:sub_code": "",
    "ne:type": "London Borough",
    "ne:type_en": "London Borough",
    "ne:wikipedia": "",
    "ne:woe_id": 12695823,
    "ne:woe_label": "",
    "ne:woe_name": "London Borough of Brent",
    "qs:a0": "United Kingdom",
    "qs:a0_lc": "GB00000000",
    "qs:a1": "Brent",
    "qs:a1_alt": "Brent",
    "qs:a1_lc": "GB12AE0000",
    "qs:a1r": "England",
    "qs:a1r_alt": "England",
    "qs:a1r_lc": "GB12000000",
    "qs:adm0": "United Kingdom",
    "qs:adm0_a3": "GBR",
    "qs:level": "adm1",
    "qs:source": "EuroGlobalMap",
    "qs:type": "London Borough",
    "src:geom": "quattroshapes",
    "src:geom_alt": [],
    "src:lbl:centroid": "mapshaper",
    "src:population": "wikidata",
    "unlc:subdivision": "GB-BEN",
    "wof:belongsto": [
      102191581,
      85633159,
      404227469
    ],
    "wof:breaches": [],
    "wof:concordances": {
      "fips:code": "UK17",
      "gn:id": -2648110,
      "gp:id": 12695823,
      "hasc:id": "GB.BE",
      "unlc:id": "GB-BEN",
      "wd:id": "Q207201"
    },
    "wof:country": "GB",
    "wof:created": 1765390924,
    "wof:geomhash": "be2fda8854681b6ba0d7a977369565c9",
    "wof:hierarchy": [
      {
        "continent_id": 102191581,
        "country_id": 85633159,
        "macroregion_id": 404227469,
        "region_id": 85684003
      }
    ],
    "wof:id": 85684003,
    "wof:lastmodified": 1765390924,
    "wof:name": "Brent",
    "wof:parent_id": 404227469,
    "wof:placetype": "region",
    "wof:population": 341221,
    "wof:population_rank": 10,
    "wof:repo": "whosonfirst-data-admin-gb",
    "wof:shortcode": "BE",
    "wof:subdivision": "GB-BEN",
    "wof:superseded_by": [
      1158857267
    ],
    "wof:supersedes": [],
    "wof:tags": []
  },
  "bbox": [
    -0.335526,
    51.527652,
    -0.191422,
    51.600372
  ],
  "geometry": {"type":"Polygon","coordinates":[[[-0.213401,51.555149],[-0.191422,51.536289],[-0.192974,51.533989],[-0.192497,51.532627],[-0.196508,51.527652],[-0.197738,51.5279],[-0.198237,51.530445],[-0.201636,51.532631],[-0.202931,51.532902],[-0.207408,51.532863],[-0.215147,51.531387],[-0.215968,51.527927],[-0.223541,51.529937],[-0.227634,51.529926],[-0.228443,51.530353],[-0.231334,51.53109],[-0.234398,51.532692],[-0.23729,51.532017],[-0.24317,51.531776],[-0.246335,51.532799],[-0.247098,51.533443],[-0.250713,51.534183],[-0.251081,51.533893],[-0.255609,51.533985],[-0.256392,51.534935],[-0.257749,51.535335],[-0.264794,51.532184],[-0.264817,51.531639],[-0.266551,51.530514],[-0.268962,51.529735],[-0.271401,51.529945],[-0.280419,51.528404],[-0.285643,51.529194],[-0.289329,51.531666],[-0.283979,51.533516],[-0.283479,51.532818],[-0.281562,51.533245],[-0.281093,51.532634],[-0.27899,51.533317],[-0.277821,51.53503],[-0.282504,51.538627],[-0.286693,51.536754],[-0.293235,51.534969],[-0.29653,51.53524],[-0.299498,51.533252],[-0.302672,51.531982],[-0.307442,51.533066],[-0.306198,51.534229],[-0.305908,51.539428],[-0.304667,51.53986],[-0.308517,51.543239],[-0.308038,51.544456],[-0.3089,51.545242],[-0.307103,51.545353],[-0.311436,51.547558],[-0.312539,51.549152],[-0.326964,51.555011],[-0.335526,51.556583],[-0.33485,51.557831],[-0.33392,51.557708],[-0.333864,51.558872],[-0.331271,51.561573],[-0.329629,51.562393],[-0.328191,51.562511],[-0.32861,51.565944],[-0.329588,51.566211],[-0.329687,51.567085],[-0.325015,51.568256],[-0.322095,51.569652],[-0.324682,51.573173],[-0.326613,51.578773],[-0.320648,51.580253],[-0.313016,51.584263],[-0.306782,51.586544],[-0.302002,51.58728],[-0.282446,51.585075],[-0.283304,51.588882],[-0.284594,51.591007],[-0.286332,51.59217],[-0.290301,51.593601],[-0.285737,51.594749],[-0.285421,51.595287],[-0.276456,51.596515],[-0.276916,51.596893],[-0.272942,51.598373],[-0.271148,51.598289],[-0.267096,51.600372],[-0.253012,51.588897],[-0.248224,51.584362],[-0.251607,51.583458],[-0.254274,51.581585],[-0.254553,51.579487],[-0.251295,51.573135],[-0.252991,51.572632],[-0.252661,51.571647],[-0.249515,51.568977],[-0.248466,51.568496],[-0.246523,51.568966],[-0.245949,51.570957],[-0.246674,51.571518],[-0.246005,51.572174],[-0.245033,51.571907],[-0.242344,51.572822],[-0.241334,51.57267],[-0.241013,51.572098],[-0.239956,51.572391],[-0.239937,51.572098],[-0.23778,51.571876],[-0.237329,51.572418],[-0.236494,51.572441],[-0.234003,51.571731],[-0.233382,51.571979],[-0.222329,51.563293],[-0.213401,51.555149]]]}
}
