{
  "id": 1360806725,
  "type": "Feature",
  "properties": {
    "edtf:cessation": "",
    "edtf:inception": "",
    "geom:area": 0,
    "geom:area_square_m": 0,
    "geom:bbox": "-4.000870,50.401930,-4.000870,50.401930",
    "geom:latitude": 50.40193,
    "geom:longitude": -4.00087,
    "gn:admin1_code": "ENG",
    "gn:admin2_code": "D4",
    "gn:admin3_code": "18UG",
    "gn:admin4_code": "18UG048",
    "gn:asciiname": "Sparkwell Village",
    "gn:country_code": "GB",
    "gn:dem": 131,
    "gn:feature_class": "P",
    "gn:feature_code": "PPL",
    "gn:geonameid": 11072011,
    "gn:latitude": 50.40193,
    "gn:longitude": -4.00087,
    "gn:modification_date": "2016-02-19",
    "gn:name": "Sparkwell Village",
    "gn:population": 0,
    "gn:timezone": "Europe/London",
    "iso:country": "GB",
    "lbl:bbox": "-4.00587,50.39693,-3.99587,50.40693",
    "lbl:max_zoom": 18,
    "mz:hierarchy_label": 1,
    "mz:is_current": 1,
    "mz:min_zoom": 15,
    "src:geom": "geonames",
    "src:population": "wikidata",
    "wof:belongsto": [
      1880762683,
      102191581,
      1880762149,
      404435975,
      85633159,
      404227469,
      1360758095,
      136253055,
      1880771713
    ],
    "wof:breaches": [],
    "wof:concordances": {
      "gn:id": 11072011
    },
    "wof:country": "GB",
    "wof:created": 1765390413,
    "wof:geomhash": "65e1869cb61f6f85aca93e74d47f9556",
    "wof:hierarchy": [
      {
        "continent_id": 102191581,
        "country_id": 85633159,
        "county_id": 1880771713,
        "empire_id": 136253055,
        "localadmin_id": 404435975,
        "locality_id": 1360758095,
        "macrocounty_id": 1880762149,
        "macroregion_id": 404227469,
        "neighbourhood_id": 1360806725,
        "region_id": 1880762683
      }
    ],
    "wof:id": 1360806725,
    "wof:lastmodified": 1765390413,
    "wof:name": "Sparkwell Village",
    "wof:parent_id": 1360758095,
    "wof:placetype": "neighbourhood",
    "wof:population": 1425,
    "wof:population_rank": 3,
    "wof:repo": "whosonfirst-data-admin-gb",
    "wof:superseded_by": [],
    "wof:supersedes": [
      1226674879
    ],
    "wof:tags": []
  },
  "bbox": [
    -4.00087,
    50.40193,
    -4.00087,
    50.40193
  ],
  "geometry": {"type":"Point","coordinates":[-4.00087,50.40193]}
}
