{
  "id": 1293030165,
  "type": "Feature",
  "properties": {
    "edtf:cessation": "",
    "edtf:deprecated": "",
    "edtf:inception": "",
    "geom:area": 0,
    "geom:area_square_m": 0,
    "geom:bbox": "-0.049610,51.377620,-0.049610,51.377620",
    "geom:latitude": 51.37762,
    "geom:longitude": -0.04961,
    "gn:admin1_code": "ENG",
    "gn:admin2_code": "GLA",
    "gn:admin3_code": "C8",
    "gn:asciiname": "Shirley",
    "gn:country_code": "GB",
    "gn:dem": 67,
    "gn:feature_class": "P",
    "gn:feature_code": "PPL",
    "gn:geonameid": 2637935,
    "gn:latitude": 51.37762,
    "gn:longitude": -0.04961,
    "gn:modification_date": "2011-02-05",
    "gn:name": "Shirley",
    "gn:population": 0,
    "gn:timezone": "Europe/London",
    "iso:country": "GB",
    "mz:hierarchy_label": 1,
    "mz:is_current": 1,
    "src:geom": "geonames",
    "src:population": "wikidata",
    "wof:belongsto": [
      102191581,
      85633159,
      1360698645,
      404227469
    ],
    "wof:breaches": [],
    "wof:concordances": {
      "gn:id": 2637935,
      "wk:page": "Shirley%2C_London"
    },
    "wof:country": "GB",
    "wof:created": 1765388643,
    "wof:geomhash": "e95b33c768b83fd635b50d6f89d945fb",
    "wof:hierarchy": [
      {
        "continent_id": 102191581,
        "country_id": 85633159,
        "locality_id": 1293030165,
        "macroregion_id": 404227469,
        "region_id": 1360698645
      }
    ],
    "wof:id": 1293030165,
    "wof:lastmodified": 1765388643,
    "wof:name": "Shirley",
    "wof:parent_id": 1360698645,
    "wof:placetype": "locality",
    "wof:population": 14296,
    "wof:population_rank": 6,
    "wof:repo": "whosonfirst-data-admin-gb",
    "wof:superseded_by": [],
    "wof:supersedes": [],
    "wof:tags": []
  },
  "bbox": [
    -0.04961,
    51.37762,
    -0.04961,
    51.37762
  ],
  "geometry": {"type":"Point","coordinates":[-0.04961,51.37762]}
}
