{
  "id": 85787873,
  "type": "Feature",
  "properties": {
    "edtf:cessation": "",
    "edtf:inception": "",
    "geom:area": 0.0005440935339999688,
    "geom:area_square_m": 4195972.080815,
    "geom:bbox": "-0.396881,51.402174,-0.348816,51.424902",
    "geom:latitude": 51.41471192020473,
    "geom:longitude": -0.37241726089862276,
    "iso:country": "GB",
    "lbl:latitude": 51.415076,
    "lbl:longitude": -0.366424,
    "lbl:max_zoom": 18,
    "mps:latitude": 51.414624,
    "mps:longitude": -0.372778,
    "mz:hierarchy_label": 1,
    "mz:is_current": -1,
    "mz:is_funky": 0,
    "mz:is_hard_boundary": 0,
    "mz:is_landuse_aoi": 0,
    "mz:is_official": 0,
    "mz:max_zoom": 18,
    "mz:min_zoom": 14,
    "mz:tier_locality": 7,
    "mz:tier_metro": 1,
    "name:ara_x_preferred": [
      "هامبتون"
    ],
    "name:ceb_x_preferred": [
      "Hampton"
    ],
    "name:cym_x_preferred": [
      "Hampton"
    ],
    "name:deu_x_preferred": [
      "Hampton"
    ],
    "name:eng_x_preferred": [
      "Hampton"
    ],
    "name:fas_x_preferred": [
      "همپتون"
    ],
    "name:fin_x_preferred": [
      "Hampton"
    ],
    "name:fra_x_preferred": [
      "Hampton"
    ],
    "name:gle_x_preferred": [
      "Hampton"
    ],
    "name:heb_x_preferred": [
      "המפטון"
    ],
    "name:hun_x_preferred": [
      "Hampton"
    ],
    "name:hye_x_preferred": [
      "Հեմփթոն"
    ],
    "name:ita_x_preferred": [
      "Hampton"
    ],
    "name:jpn_x_preferred": [
      "ハンプトン"
    ],
    "name:kor_x_preferred": [
      "햄프턴"
    ],
    "name:lat_x_preferred": [
      "Hantona"
    ],
    "name:nld_x_preferred": [
      "Hampton"
    ],
    "name:nob_x_preferred": [
      "Hampton"
    ],
    "name:pol_x_preferred": [
      "Hampton"
    ],
    "name:rus_x_preferred": [
      "Хэмптон"
    ],
    "name:slv_x_preferred": [
      "Hampton"
    ],
    "name:swe_x_preferred": [
      "Hampton"
    ],
    "name:urd_x_preferred": [
      "ہیمپٹن"
    ],
    "name:vol_x_preferred": [
      "Halfway"
    ],
    "name:zho_x_preferred": [
      "安普敦"
    ],
    "name:zho_x_variant": [
      "漢普頓"
    ],
    "qs:gn_adm0_cc": "GB",
    "qs:gn_fcode": "PPL",
    "qs:gn_local": 2643743,
    "qs:gn_namadm1": "ENG",
    "qs:gn_name": "Hampton",
    "qs:local_max": 40697,
    "qs:local_sum": 1675717,
    "qs:localhoods": 643,
    "qs:name": "Hampton",
    "qs:name_adm0": "United Kingdom",
    "qs:name_adm1": "England",
    "qs:name_adm2": "Greater London",
    "qs:name_lau": "London Borough of Richmond upon Thames",
    "qs:name_local": "London",
    "qs:photo_max": 335,
    "qs:photo_sum": 1935,
    "qs:placetype": "Suburb",
    "qs:quad_count": 68,
    "qs:woe_adm0": 23424975,
    "qs:woe_adm1": 24554868,
    "qs:woe_adm2": 23416974,
    "qs:woe_funk": "Grouping neighborhood",
    "qs:woe_lau": 12695836,
    "qs:woe_local": 44418,
    "qs:woe_ver": "7.10.0",
    "src:geom": "quattroshapes",
    "src:geom_alt": [
      "quattroshapes_pg"
    ],
    "src:lbl_centroid": "mz",
    "src:population": "wikidata",
    "wof:belongsto": [
      1880762729,
      102191581,
      1880762179,
      85633159,
      404227469,
      101750367,
      136253055,
      1158857311,
      1880771825
    ],
    "wof:breaches": [],
    "wof:concordances": {
      "gn:id": 2647550,
      "gp:id": 22295,
      "qs_pg:id": 424446,
      "wd:id": "Q766353",
      "wk:page": "Hampton, London"
    },
    "wof:country": "GB",
    "wof:created": 1765391053,
    "wof:geom_alt": [
      "quattroshapes_pg"
    ],
    "wof:geomhash": "1e09d6d3bb4becc81ee30ebd408250de",
    "wof:hierarchy": [
      {
        "borough_id": 1158857311,
        "continent_id": 102191581,
        "country_id": 85633159,
        "county_id": 1880771825,
        "empire_id": 136253055,
        "locality_id": 101750367,
        "macrocounty_id": 1880762179,
        "macroregion_id": 404227469,
        "neighbourhood_id": 85787873,
        "region_id": 1880762729
      }
    ],
    "wof:id": 85787873,
    "wof:lang": [
      "eng"
    ],
    "wof:lastmodified": 1765391053,
    "wof:name": "Hampton",
    "wof:parent_id": 1158857311,
    "wof:placetype": "neighbourhood",
    "wof:population": 20000,
    "wof:population_rank": 7,
    "wof:repo": "whosonfirst-data-admin-gb",
    "wof:superseded_by": [],
    "wof:supersedes": [],
    "wof:tags": []
  },
  "bbox": [
    -0.396881,
    51.402174,
    -0.348816,
    51.424902
  ],
  "geometry": {"type":"Polygon","coordinates":[[[-0.376282,51.424902],[-0.375748,51.424046],[-0.373535,51.424046],[-0.373115,51.424046],[-0.372582,51.423189],[-0.368042,51.423189],[-0.368042,51.421477],[-0.365295,51.421477],[-0.365295,51.419764],[-0.362549,51.419764],[-0.362549,51.418907],[-0.360813,51.418907],[-0.359923,51.418051],[-0.359802,51.418051],[-0.35944,51.418051],[-0.359349,51.41808],[-0.358934,51.418479],[-0.358667,51.418907],[-0.358429,51.41929],[-0.358193,51.419668],[-0.357656,51.419764],[-0.357056,51.419871],[-0.35697,51.419764],[-0.354309,51.419764],[-0.351562,51.419764],[-0.351562,51.418051],[-0.348816,51.418051],[-0.348816,51.416338],[-0.348816,51.414625],[-0.351562,51.414625],[-0.351562,51.412912],[-0.351562,51.411199],[-0.354309,51.411199],[-0.35634,51.411199],[-0.357056,51.411199],[-0.359802,51.411199],[-0.359802,51.409486],[-0.359923,51.409486],[-0.359899,51.409373],[-0.362549,51.407957],[-0.362549,51.406059],[-0.362549,51.406059],[-0.368042,51.406059],[-0.372581,51.406059],[-0.373535,51.40453],[-0.374719,51.402633],[-0.375387,51.402174],[-0.376282,51.402304],[-0.377177,51.402174],[-0.377845,51.402633],[-0.379028,51.40453],[-0.379982,51.406059],[-0.379626,51.407773],[-0.379982,51.409486],[-0.380338,51.411199],[-0.383453,51.411199],[-0.384521,51.412912],[-0.389061,51.412912],[-0.389595,51.412056],[-0.390015,51.412056],[-0.392761,51.412056],[-0.395508,51.412056],[-0.396881,51.413156],[-0.396881,51.414381],[-0.396576,51.414625],[-0.395508,51.416338],[-0.394974,51.417195],[-0.393295,51.417195],[-0.392761,51.418051],[-0.390015,51.418051],[-0.390015,51.419764],[-0.384521,51.419764],[-0.384521,51.42166],[-0.384521,51.423189],[-0.379982,51.423189],[-0.379626,51.424902],[-0.379028,51.424902],[-0.376282,51.424902]]]}
}
