{
  "id": 101873663,
  "type": "Feature",
  "properties": {
    "edtf:cessation": "",
    "edtf:inception": "",
    "geom:area": 0,
    "geom:area_square_m": 0,
    "geom:bbox": "-4.054179,57.080409,-4.054179,57.080409",
    "geom:latitude": 57.080409,
    "geom:longitude": -4.054179,
    "gn:population": 1442,
    "iso:country": "GB",
    "lbl:bbox": "-4.074179,57.060409,-4.034179,57.100409",
    "lbl:latitude": 57.080409,
    "lbl:longitude": -4.054179,
    "lbl:max_zoom": 16,
    "lbl:min_zoom": 12,
    "mps:latitude": 57.080409,
    "mps:longitude": -4.054179,
    "mz:hierarchy_label": 1,
    "mz:is_current": 1,
    "mz:min_zoom": 11,
    "name:ast_x_preferred": [
      "Kingussie"
    ],
    "name:bul_x_preferred": [
      "Кингусие"
    ],
    "name:ceb_x_preferred": [
      "Kingussie"
    ],
    "name:cym_x_preferred": [
      "Kingussie"
    ],
    "name:deu_x_preferred": [
      "Kingussie"
    ],
    "name:eng_x_preferred": [
      "Kingussie"
    ],
    "name:eus_x_preferred": [
      "Kingussie"
    ],
    "name:fas_x_preferred": [
      "کینگوسی"
    ],
    "name:fra_x_preferred": [
      "Kingussie"
    ],
    "name:gla_x_preferred": [
      "Ceann a' Ghiùthsaich"
    ],
    "name:gla_x_variant": [
      "Ceann a Ghiùthsaich"
    ],
    "name:gle_x_preferred": [
      "Ceann a' Ghiúthsaich"
    ],
    "name:gle_x_variant": [
      "Ceann a Ghiúthsaich"
    ],
    "name:ita_x_preferred": [
      "Kingussie"
    ],
    "name:jpn_x_preferred": [
      "キングユージ"
    ],
    "name:nld_x_preferred": [
      "Kingussie"
    ],
    "name:nno_x_preferred": [
      "Kingussie"
    ],
    "name:nob_x_preferred": [
      "Kingussie"
    ],
    "name:nor_x_preferred": [
      "Kingussie"
    ],
    "name:pol_x_preferred": [
      "Kingussie"
    ],
    "name:rus_x_preferred": [
      "Кинджаси"
    ],
    "name:sco_x_preferred": [
      "Kineussie"
    ],
    "name:sco_x_variant": [
      "Kingussie"
    ],
    "name:spa_x_preferred": [
      "Kingussie"
    ],
    "name:swe_x_preferred": [
      "Kingussie"
    ],
    "name:zho_x_preferred": [
      "金尤西"
    ],
    "qs:a0": "United Kingdom",
    "qs:a1": "*Highland",
    "qs:a1_lc": "GB11QT0000",
    "qs:a1r": "0Scotland",
    "qs:a1r_lc": "GB11000000",
    "qs:adm0": "United Kingdom",
    "qs:id": 0,
    "qs:la_lc": "*",
    "qs:level": "locality",
    "qs:loc": "Kingussie",
    "qs:loc_alt": "Kingussie",
    "qs:pop": 0,
    "qs:source": "RCustom EuroGlobalMap + UMZ Urban Polygons + Geonames + GeoPlanet",
    "qs:type": "buffered point",
    "src:geom": "whosonfirst",
    "src:geom_alt": [
      "quattroshapes_pg",
      "quattroshapes"
    ],
    "src:geom_via": "quattroshapes",
    "src:lbl_centroid": "mapshaper",
    "src:population": "wikidata",
    "wd:latitude": 57.08,
    "wd:longitude": -4.05,
    "wd:wordcount": 595,
    "wof:belongsto": [
      1880762005,
      1360699045
    ],
    "wof:breaches": [],
    "wof:concordances": {
      "fct:id": "0aa61150-8f76-11e1-848f-cfd5bf3ef515",
      "gn:id": 2645409,
      "gp:id": 25244,
      "qs_pg:id": 439419,
      "wd:id": "Q1016904",
      "wk:page": "Kingussie"
    },
    "wof:country": "GB",
    "wof:created": 1765385081,
    "wof:geom_alt": [
      "quattroshapes",
      "quattroshapes_pg"
    ],
    "wof:geomhash": "b32a4269c68935a5f0d0632397b8b810",
    "wof:hierarchy": [
      {
        "continent_id": -1,
        "country_id": -1,
        "county_id": 1360699045,
        "locality_id": 101873663,
        "macrocounty_id": 1880762005,
        "region_id": -1
      }
    ],
    "wof:id": 101873663,
    "wof:lang": [
      "eng"
    ],
    "wof:lastmodified": 1765385081,
    "wof:name": "Kingussie",
    "wof:parent_id": 1360699045,
    "wof:placetype": "locality",
    "wof:population": 1480,
    "wof:population_rank": 3,
    "wof:repo": "whosonfirst-data-admin-gb",
    "wof:superseded_by": [],
    "wof:supersedes": [],
    "wof:tags": []
  },
  "bbox": [
    -4.054179,
    57.080409,
    -4.054179,
    57.080409
  ],
  "geometry": {"type":"Point","coordinates":[-4.054179,57.080409]}
}
