{
  "id": 1125883765,
  "type": "Feature",
  "properties": {
    "edtf:cessation": "",
    "edtf:inception": "",
    "geom:area": 0,
    "geom:area_square_m": 0,
    "geom:bbox": "-5.950000,56.516670,-5.950000,56.516670",
    "geom:latitude": 56.51667,
    "geom:longitude": -5.95,
    "gn:country": "GB",
    "gn:fcode": "PPL",
    "gn:population": 0,
    "iso:country": "GB",
    "lbl:bbox": "-5.97,56.49667,-5.93,56.53667",
    "lbl:latitude": 56.51667,
    "lbl:longitude": -5.95,
    "lbl:max_zoom": 18,
    "lbl:min_zoom": 13.5,
    "mz:hierarchy_label": 1,
    "mz:is_current": 1,
    "mz:min_zoom": 12,
    "mz:note": "Quattroshapes Point Gazetteer import 20170519",
    "name:ceb_x_preferred": [
      "Salen"
    ],
    "name:cym_x_preferred": [
      "Ant-Sailean"
    ],
    "name:eng_x_preferred": [
      "Salen"
    ],
    "name:eus_x_preferred": [
      "Salen"
    ],
    "name:fra_x_preferred": [
      "Salen"
    ],
    "name:gla_x_preferred": [
      "An t-Sàilean"
    ],
    "name:gle_x_preferred": [
      "An Sáilean"
    ],
    "name:gle_x_variant": [
      "An Sàilean"
    ],
    "name:nld_x_preferred": [
      "Salen"
    ],
    "name:swe_x_preferred": [
      "Salen"
    ],
    "qs_pg:aaroncc": "GB",
    "qs_pg:gn_country": "GB",
    "qs_pg:gn_fcode": "PPL",
    "qs_pg:gn_id": 2638676,
    "qs_pg:gn_pop": 0,
    "qs_pg:name": "Salen",
    "qs_pg:name_adm0": "United Kingdom",
    "qs_pg:name_adm1": "Scotland",
    "qs_pg:photos": 541,
    "qs_pg:photos_1k": 110,
    "qs_pg:photos_9k": 2,
    "qs_pg:photos_9r": 5,
    "qs_pg:photos_all": 541,
    "qs_pg:photos_sr": 7,
    "qs_pg:pop_sr": 0,
    "qs_pg:qs_id": 427211,
    "qs_pg:qs_pg_placetype": "locality",
    "qs_pg:qs_pg_placetype_gp": "Town",
    "qs_pg:woe_adm0": 23424975,
    "qs_pg:woe_id": 33881,
    "src:geom": "qs_pg",
    "src:lbl_centroid": "qs_pg",
    "src:population": "wikidata",
    "woe:adm0_id": 23424975,
    "woe:name_adm0": "United Kingdom",
    "woe:name_adm1": "Scotland",
    "woe:placetype": "Town",
    "wof:belongsto": [
      1880772977,
      102191581,
      85633159,
      1880762047,
      404227471,
      136253055,
      1360698863
    ],
    "wof:breaches": [],
    "wof:concordances": {
      "gn:id": 2638676,
      "gp:id": 33881,
      "qs_pg:id": 427211,
      "wd:id": "Q7404274"
    },
    "wof:country": "GB",
    "wof:created": 1497294967,
    "wof:geomhash": "980658d2b98a39fda582f639f207354e",
    "wof:hierarchy": [
      {
        "continent_id": 102191581,
        "country_id": 85633159,
        "county_id": 1360698863,
        "empire_id": 136253055,
        "locality_id": 1125883765,
        "macrocounty_id": 1880762047,
        "macroregion_id": 404227471,
        "region_id": 1880772977
      }
    ],
    "wof:id": 1125883765,
    "wof:lastmodified": 1765386249,
    "wof:name": "Salen",
    "wof:parent_id": 1360698863,
    "wof:placetype": "locality",
    "wof:population": 500,
    "wof:population_rank": 2,
    "wof:repo": "whosonfirst-data-admin-gb",
    "wof:superseded_by": [],
    "wof:supersedes": [],
    "wof:tags": []
  },
  "bbox": [
    -5.95,
    56.51667,
    -5.95,
    56.51667
  ],
  "geometry": {"type":"Point","coordinates":[-5.95,56.51667]}
}
