{
  "id": 1360809395,
  "type": "Feature",
  "properties": {
    "edtf:cessation": "",
    "edtf:inception": "",
    "geom:area": 0,
    "geom:area_square_m": 0,
    "geom:bbox": "-0.966200,52.649520,-0.966200,52.649520",
    "geom:latitude": 52.64952,
    "geom:longitude": -0.9662,
    "gn:admin1_code": "ENG",
    "gn:admin2_code": "H5",
    "gn:admin3_code": "31UD",
    "gn:admin4_code": "31UD038",
    "gn:asciiname": "Hungerton",
    "gn:country_code": "GB",
    "gn:dem": 157,
    "gn:feature_class": "P",
    "gn:feature_code": "PPL",
    "gn:geonameid": 2646409,
    "gn:latitude": 52.64952,
    "gn:longitude": -0.9662,
    "gn:modification_date": "2018-07-03",
    "gn:name": "Hungerton",
    "gn:population": 0,
    "gn:timezone": "Europe/London",
    "iso:country": "GB",
    "lbl:bbox": "-0.9712,52.64452,-0.9612,52.65452",
    "lbl:max_zoom": 18,
    "mz:hierarchy_label": 1,
    "mz:is_current": 1,
    "mz:min_zoom": 15,
    "src:geom": "geonames",
    "src:population": "wikidata",
    "wof:belongsto": [
      1880773085,
      102191581,
      1880762051,
      404438745,
      85633159,
      404227469,
      1326565177,
      136253055,
      1880771563
    ],
    "wof:breaches": [],
    "wof:concordances": {
      "gn:id": 2646409
    },
    "wof:country": "GB",
    "wof:created": 1765390702,
    "wof:geomhash": "1c1ea65be50445ed66da37c573241ca6",
    "wof:hierarchy": [
      {
        "continent_id": 102191581,
        "country_id": 85633159,
        "county_id": 1880771563,
        "empire_id": 136253055,
        "localadmin_id": 404438745,
        "locality_id": 1326565177,
        "macrocounty_id": 1880762051,
        "macroregion_id": 404227469,
        "neighbourhood_id": 1360809395,
        "region_id": 1880773085
      }
    ],
    "wof:id": 1360809395,
    "wof:lastmodified": 1765390702,
    "wof:name": "Hungerton",
    "wof:parent_id": 1326565177,
    "wof:placetype": "neighbourhood",
    "wof:population": 268,
    "wof:population_rank": 2,
    "wof:repo": "whosonfirst-data-admin-gb",
    "wof:superseded_by": [],
    "wof:supersedes": [
      1360113513
    ],
    "wof:tags": []
  },
  "bbox": [
    -0.9662,
    52.64952,
    -0.9662,
    52.64952
  ],
  "geometry": {"type":"Point","coordinates":[-0.9662,52.64952]}
}
