{
  "id": 1360791141,
  "type": "Feature",
  "properties": {
    "edtf:cessation": "",
    "edtf:inception": "",
    "geom:area": 0,
    "geom:area_square_m": 0,
    "geom:bbox": "-2.965582,55.005804,-2.965582,55.005804",
    "geom:latitude": 55.005804,
    "geom:longitude": -2.965582,
    "iso:country": "GB",
    "lbl:bbox": "-2.970582,55.000804,-2.960582,55.010804",
    "lbl:latitude": 55.005804,
    "lbl:longitude": -2.965582,
    "lbl:max_zoom": 18,
    "mps:latitude": 55.005804,
    "mps:longitude": -2.965582,
    "mz:hierarchy_label": 1,
    "mz:is_current": 1,
    "mz:min_zoom": 15,
    "name:ast_x_preferred": [
      "Longtown"
    ],
    "name:azb_x_preferred": [
      "لانقتاون"
    ],
    "name:ceb_x_preferred": [
      "Longtown"
    ],
    "name:cym_x_preferred": [
      "Longtown"
    ],
    "name:eng_x_preferred": [
      "Longtown"
    ],
    "name:fas_x_preferred": [
      "لانگ‌تاون، کامبریا"
    ],
    "name:fas_x_variant": [
      "لانگ‌تاون"
    ],
    "name:fra_x_preferred": [
      "Longtown"
    ],
    "name:gle_x_preferred": [
      "Longtown"
    ],
    "name:ita_x_preferred": [
      "Longtown"
    ],
    "name:jpn_x_preferred": [
      "ロングタウン"
    ],
    "name:lld_x_preferred": [
      "Longtown"
    ],
    "name:nld_x_preferred": [
      "Longtown"
    ],
    "name:pol_x_preferred": [
      "Longtown"
    ],
    "name:sco_x_preferred": [
      "Langtoon"
    ],
    "name:spa_x_preferred": [
      "Longtown"
    ],
    "name:swe_x_preferred": [
      "Longtown"
    ],
    "name:zho_x_preferred": [
      "長鎮"
    ],
    "qs:a0": "United Kingdom",
    "qs:a1": "*Cumbria",
    "qs:a1_lc": "GB12160000",
    "qs:a1r": "0England",
    "qs:a1r_lc": "GB12000000",
    "qs:adm0": "United Kingdom",
    "qs:la_lc": "*",
    "qs:level": "locality",
    "qs:loc": "Longtown",
    "qs:loc_alt": "Longtown",
    "qs:pop": 0,
    "qs:source": "RCustom EuroGlobalMap + UMZ Urban Polygons + Geonames + GeoPlanet",
    "qs:type": "buffered point",
    "src:geom": "whosonfirst",
    "src:geom_alt": [
      "quattroshapes_pg",
      "quattroshapes"
    ],
    "src:geom_via": "quattroshapes",
    "src:lbl_centroid": "mapshaper",
    "src:population": "wikidata",
    "wd:latitude": 55.0084,
    "wd:longitude": -2.9687,
    "wd:wordcount": 585,
    "wof:belongsto": [
      1880773269,
      102191581,
      1880761989,
      404431309,
      85633159,
      404227469,
      1360755721,
      136253055,
      1880773239
    ],
    "wof:breaches": [],
    "wof:concordances": {
      "fct:id": "0aa573ee-8f76-11e1-848f-cfd5bf3ef515",
      "gn:id": 2643618,
      "gp:id": 27460,
      "qs_pg:id": 1073557,
      "wd:id": "Q2360370",
      "wk:page": "Longtown, Cumbria"
    },
    "wof:concordances_alt": {
      "qs_pg:id": 1255865
    },
    "wof:country": "GB",
    "wof:created": 1765389458,
    "wof:geomhash": "2fefa3c70f8ce67fd3d210787766347c",
    "wof:hierarchy": [
      {
        "continent_id": 102191581,
        "country_id": 85633159,
        "county_id": 1880773239,
        "empire_id": 136253055,
        "localadmin_id": 404431309,
        "locality_id": 1360755721,
        "macrocounty_id": 1880761989,
        "macroregion_id": 404227469,
        "neighbourhood_id": 1360791141,
        "region_id": 1880773269
      }
    ],
    "wof:id": 1360791141,
    "wof:lang": [
      "eng"
    ],
    "wof:lastmodified": 1765389458,
    "wof:name": "Longtown",
    "wof:parent_id": 1360755721,
    "wof:placetype": "neighbourhood",
    "wof:population": 3000,
    "wof:population_rank": 4,
    "wof:repo": "whosonfirst-data-admin-gb",
    "wof:superseded_by": [],
    "wof:supersedes": [
      101873383
    ],
    "wof:tags": []
  },
  "bbox": [
    -2.965582,
    55.005804,
    -2.965582,
    55.005804
  ],
  "geometry": {"type":"Point","coordinates":[-2.965582,55.005804]}
}
