{
  "id": 1126055065,
  "type": "Feature",
  "properties": {
    "edtf:cessation": "",
    "edtf:inception": "",
    "geom:area": 0,
    "geom:area_square_m": 0,
    "geom:bbox": "-3.657503,55.944297,-3.657503,55.944297",
    "geom:latitude": 55.944297,
    "geom:longitude": -3.657503,
    "gn:country": null,
    "iso:country": "GB",
    "lbl:bbox": "-3.6775025,55.924297,-3.6375025,55.964297",
    "lbl:latitude": 55.944297,
    "lbl:longitude": -3.657503,
    "lbl:max_zoom": 18,
    "lbl:min_zoom": 13.5,
    "mz:hierarchy_label": 1,
    "mz:is_current": 1,
    "mz:min_zoom": 12,
    "mz:note": "Quattroshapes Point Gazetteer import 20170519",
    "name:eng_x_preferred": [
      "Standburn"
    ],
    "name:eus_x_preferred": [
      "Standburn"
    ],
    "name:fra_x_preferred": [
      "Standburn"
    ],
    "name:gla_x_preferred": [
      "Standburn"
    ],
    "name:gle_x_preferred": [
      "Standburn"
    ],
    "name:nld_x_preferred": [
      "Standburn"
    ],
    "qs_pg:aaroncc": "GB",
    "qs_pg:gn_country": null,
    "qs_pg:name": "Standburn",
    "qs_pg:name_adm0": "United Kingdom",
    "qs_pg:name_adm1": "Scotland",
    "qs_pg:photos": 10,
    "qs_pg:photos_1k": 2,
    "qs_pg:photos_9k": 1,
    "qs_pg:photos_9r": 1,
    "qs_pg:photos_all": 10,
    "qs_pg:photos_sr": 1,
    "qs_pg:pop_sr": 0,
    "qs_pg:qs_id": 1061665,
    "qs_pg:qs_pg_placetype": "locality",
    "qs_pg:qs_pg_placetype_gp": "Town",
    "qs_pg:woe_adm0": 23424975,
    "qs_pg:woe_id": 35865,
    "src:geom": "qs_pg",
    "src:lbl_centroid": "qs_pg",
    "src:population": "wikidata",
    "woe:adm0_id": 23424975,
    "woe:name_adm0": "United Kingdom",
    "woe:name_adm1": "Scotland",
    "woe:placetype": "Town",
    "wof:belongsto": [
      1880773117,
      102191581,
      85633159,
      1880762081,
      404227471,
      136253055,
      1360699027
    ],
    "wof:breaches": [],
    "wof:concordances": {
      "gp:id": 35865,
      "qs_pg:id": 1061665,
      "wd:id": "Q7598439"
    },
    "wof:country": "GB",
    "wof:created": 1497303069,
    "wof:geomhash": "75783974ce6334c124e8b3e1f4a5c47f",
    "wof:hierarchy": [
      {
        "continent_id": 102191581,
        "country_id": 85633159,
        "county_id": 1360699027,
        "empire_id": 136253055,
        "locality_id": 1126055065,
        "macrocounty_id": 1880762081,
        "macroregion_id": 404227471,
        "region_id": 1880773117
      }
    ],
    "wof:id": 1126055065,
    "wof:lastmodified": 1765387983,
    "wof:name": "Standburn",
    "wof:parent_id": 1360699027,
    "wof:placetype": "locality",
    "wof:population": 151,
    "wof:population_rank": 1,
    "wof:repo": "whosonfirst-data-admin-gb",
    "wof:superseded_by": [],
    "wof:supersedes": [],
    "wof:tags": []
  },
  "bbox": [
    -3.657503,
    55.944297,
    -3.657503,
    55.944297
  ],
  "geometry": {"type":"Point","coordinates":[-3.657503,55.944297]}
}
