{
  "id": 1343290697,
  "type": "Feature",
  "properties": {
    "edtf:cessation": "",
    "edtf:deprecated": "",
    "edtf:inception": "",
    "geom:area": 0,
    "geom:area_square_m": 0,
    "geom:bbox": "-0.344950,51.592790,-0.344950,51.592790",
    "geom:latitude": 51.59279,
    "geom:longitude": -0.34495,
    "gn:admin1_code": "ENG",
    "gn:admin2_code": "GLA",
    "gn:admin3_code": "F4",
    "gn:asciiname": "Headstone",
    "gn:country_code": "GB",
    "gn:dem": 56,
    "gn:feature_class": "P",
    "gn:feature_code": "PPL",
    "gn:geonameid": 10345364,
    "gn:latitude": 51.59279,
    "gn:longitude": -0.34495,
    "gn:modification_date": "2015-06-22",
    "gn:name": "Headstone",
    "gn:population": 0,
    "gn:timezone": "Europe/London",
    "iso:country": "GB",
    "mz:hierarchy_label": 1,
    "mz:is_current": 1,
    "src:geom": "geonames",
    "src:population": "wikidata",
    "wof:belongsto": [
      102191581,
      85633159,
      1360698645,
      404227469
    ],
    "wof:breaches": [],
    "wof:concordances": {
      "gn:id": 10345364
    },
    "wof:country": "GB",
    "wof:created": 1765388978,
    "wof:geomhash": "b24e5dca95f31546722ea7f2e8fb3ccd",
    "wof:hierarchy": [
      {
        "continent_id": 102191581,
        "country_id": 85633159,
        "locality_id": 1343290697,
        "macroregion_id": 404227469,
        "region_id": 1360698645
      }
    ],
    "wof:id": 1343290697,
    "wof:lastmodified": 1765388978,
    "wof:name": "Headstone",
    "wof:parent_id": 1360698645,
    "wof:placetype": "locality",
    "wof:population": 21228,
    "wof:population_rank": 7,
    "wof:repo": "whosonfirst-data-admin-gb",
    "wof:superseded_by": [],
    "wof:supersedes": [],
    "wof:tags": []
  },
  "bbox": [
    -0.34495,
    51.59279,
    -0.34495,
    51.59279
  ],
  "geometry": {"type":"Point","coordinates":[-0.34495,51.59279]}
}
