{
  "id": 101873443,
  "type": "Feature",
  "properties": {
    "edtf:cessation": "",
    "edtf:inception": "",
    "geom:area": 0,
    "geom:area_square_m": 0,
    "geom:bbox": "-2.996586,55.152575,-2.996586,55.152575",
    "geom:latitude": 55.152575,
    "geom:longitude": -2.996586,
    "gn:population": 2213,
    "iso:country": "GB",
    "lbl:bbox": "-3.016586,55.132575,-2.976586,55.172575",
    "lbl:latitude": 55.152576,
    "lbl:longitude": -2.996586,
    "lbl:max_zoom": 15,
    "lbl:min_zoom": 11.5,
    "mps:latitude": 55.152576,
    "mps:longitude": -2.996586,
    "mz:hierarchy_label": 1,
    "mz:is_current": 1,
    "mz:min_zoom": 11,
    "name:ast_x_preferred": [
      "Langholm"
    ],
    "name:ceb_x_preferred": [
      "Langholm"
    ],
    "name:cym_x_preferred": [
      "Langholm"
    ],
    "name:dan_x_preferred": [
      "Langholm"
    ],
    "name:deu_x_preferred": [
      "Langholm"
    ],
    "name:eng_x_preferred": [
      "Langholm"
    ],
    "name:epo_x_preferred": [
      "Langholm"
    ],
    "name:eus_x_preferred": [
      "Langholm"
    ],
    "name:fas_x_preferred": [
      "لنگهولم"
    ],
    "name:fra_x_preferred": [
      "Langholm"
    ],
    "name:gla_x_preferred": [
      "Langaim"
    ],
    "name:gle_x_preferred": [
      "Langaim"
    ],
    "name:ita_x_preferred": [
      "Langholm"
    ],
    "name:jpn_x_preferred": [
      "ラングホルム"
    ],
    "name:nld_x_preferred": [
      "Langholm"
    ],
    "name:nno_x_preferred": [
      "Langholm"
    ],
    "name:nob_x_preferred": [
      "Langholm"
    ],
    "name:nor_x_preferred": [
      "Langholm"
    ],
    "name:pol_x_preferred": [
      "Langholm"
    ],
    "name:por_x_preferred": [
      "Langholm"
    ],
    "name:rus_x_preferred": [
      "Лангхолм"
    ],
    "name:sco_x_preferred": [
      "Langholm"
    ],
    "name:sco_x_variant": [
      "Langham"
    ],
    "name:spa_x_preferred": [
      "Langholm"
    ],
    "name:swe_x_preferred": [
      "Langholm"
    ],
    "name:zho_x_preferred": [
      "兰厄姆"
    ],
    "qs:a0": "United Kingdom",
    "qs:a1": "*Dumfries and Galloway",
    "qs:a1_lc": "GB11QH0000",
    "qs:a1r": "0Scotland",
    "qs:a1r_lc": "GB11000000",
    "qs:adm0": "United Kingdom",
    "qs:id": 0,
    "qs:la_lc": "*",
    "qs:level": "locality",
    "qs:loc": "Langholm",
    "qs:loc_alt": "Langholm",
    "qs:pop": 0,
    "qs:source": "RCustom EuroGlobalMap + UMZ Urban Polygons + Geonames + GeoPlanet",
    "qs:type": "buffered point",
    "src:geom": "whosonfirst",
    "src:geom_alt": [
      "quattroshapes_pg",
      "quattroshapes"
    ],
    "src:geom_via": "quattroshapes",
    "src:lbl_centroid": "mapshaper",
    "src:population": "wikidata",
    "wd:latitude": 55.152,
    "wd:longitude": -2.999,
    "wd:wordcount": 1139,
    "wof:belongsto": [
      1360698719,
      102191581,
      404444245,
      85633159,
      404227471,
      1360699039
    ],
    "wof:breaches": [],
    "wof:concordances": {
      "fct:id": "0aa5f31e-8f76-11e1-848f-cfd5bf3ef515",
      "gn:id": 2644927,
      "gp:id": 25763,
      "qs_pg:id": 488147,
      "wd:id": "Q1014104",
      "wk:page": "Langholm"
    },
    "wof:country": "GB",
    "wof:created": 1765385027,
    "wof:geom_alt": [
      "quattroshapes_pg",
      "quattroshapes"
    ],
    "wof:geomhash": "fef6ac9e962bb4fa2c41e7a1bd067829",
    "wof:hierarchy": [
      {
        "continent_id": 102191581,
        "country_id": 85633159,
        "county_id": 1360699039,
        "localadmin_id": 404444245,
        "locality_id": 101873443,
        "macroregion_id": 404227471,
        "region_id": 1360698719
      }
    ],
    "wof:id": 101873443,
    "wof:lang": [
      "eng"
    ],
    "wof:lastmodified": 1765385027,
    "wof:name": "Langholm",
    "wof:parent_id": 404444245,
    "wof:placetype": "locality",
    "wof:population": 2160,
    "wof:population_rank": 4,
    "wof:repo": "whosonfirst-data-admin-gb",
    "wof:superseded_by": [],
    "wof:supersedes": [],
    "wof:tags": []
  },
  "bbox": [
    -2.996586,
    55.152575,
    -2.996586,
    55.152575
  ],
  "geometry": {"type":"Point","coordinates":[-2.996586,55.152575]}
}
