{
  "id": 1125872149,
  "type": "Feature",
  "properties": {
    "edtf:cessation": "",
    "edtf:inception": "",
    "geom:area": 0.00019326659500001062,
    "geom:area_square_m": 1463008.031606,
    "geom:bbox": "0.008417,52.245333,0.037022,52.259636",
    "geom:latitude": 52.25187542731804,
    "geom:longitude": 0.0221309395183051,
    "gn:country": "GB",
    "gn:fcode": "PPL",
    "gn:population": 0,
    "iso:country": "GB",
    "lbl:latitude": 52.24899,
    "lbl:longitude": 0.02883,
    "lbl:max_zoom": 15,
    "lbl:min_zoom": 11.5,
    "mz:hierarchy_label": 1,
    "mz:is_current": 1,
    "mz:min_zoom": 11,
    "mz:note": "Quattroshapes Point Gazetteer import 20170519",
    "name:ara_x_preferred": [
      "بار هيل"
    ],
    "name:arz_x_preferred": [
      "بار هيل"
    ],
    "name:ben_x_preferred": [
      "বার হিল"
    ],
    "name:ceb_x_preferred": [
      "Bar Hill"
    ],
    "name:deu_x_preferred": [
      "Bar Hill"
    ],
    "name:eng_x_preferred": [
      "Bar Hill"
    ],
    "name:fas_x_preferred": [
      "بار هیل"
    ],
    "name:fra_x_preferred": [
      "Bar Hill"
    ],
    "name:gle_x_preferred": [
      "Bar Hill"
    ],
    "name:guj_x_preferred": [
      "બાર હીલ"
    ],
    "name:ita_x_preferred": [
      "Bar Hill"
    ],
    "name:jpn_x_preferred": [
      "バーヒル"
    ],
    "name:kan_x_preferred": [
      "ಬಾರ್ ಹಿಲ್"
    ],
    "name:kor_x_preferred": [
      "바 힐"
    ],
    "name:lit_x_preferred": [
      "Bar Hilas"
    ],
    "name:nan_x_preferred": [
      "Bar Hill"
    ],
    "name:nld_x_preferred": [
      "Bar Hill"
    ],
    "name:nob_x_preferred": [
      "Bar Hill"
    ],
    "name:pol_x_preferred": [
      "Bar Hill"
    ],
    "name:por_x_preferred": [
      "Bar Hill"
    ],
    "name:rus_x_preferred": [
      "Бар-Хилл"
    ],
    "name:spa_x_preferred": [
      "Bar Hill"
    ],
    "name:swe_x_preferred": [
      "Bar Hill"
    ],
    "name:tam_x_preferred": [
      "பார் ஹில்"
    ],
    "name:tel_x_preferred": [
      "బార్ హిల్"
    ],
    "name:tur_x_preferred": [
      "Bar Hill"
    ],
    "name:urd_x_preferred": [
      "بار ہل"
    ],
    "qs_pg:aaroncc": "GB",
    "qs_pg:gn_country": "GB",
    "qs_pg:gn_fcode": "PPL",
    "qs_pg:gn_id": 6284555,
    "qs_pg:gn_pop": 0,
    "qs_pg:name": "Bar Hill",
    "qs_pg:name_adm0": "United Kingdom",
    "qs_pg:name_adm1": "England",
    "qs_pg:photos": 292,
    "qs_pg:photos_1k": 59,
    "qs_pg:photos_9k": 1,
    "qs_pg:photos_9r": 4,
    "qs_pg:photos_all": 292,
    "qs_pg:photos_sr": 5,
    "qs_pg:pop_sr": 0,
    "qs_pg:qs_id": 363704,
    "qs_pg:qs_pg_placetype": "locality",
    "qs_pg:qs_pg_placetype_gp": "Town",
    "qs_pg:woe_adm0": 23424975,
    "qs_pg:woe_id": 11800,
    "src:geom": "quattroshapes",
    "src:geom_alt": [
      "qs_pg"
    ],
    "src:lbl_centroid": "qs_pg",
    "src:population": "wikidata",
    "woe:adm0_id": 23424975,
    "woe:name_adm0": "United Kingdom",
    "woe:name_adm1": "England",
    "woe:placetype": "Town",
    "wof:belongsto": [
      1880762687,
      102191581,
      85633159,
      404436637,
      1880762143,
      404227469,
      136253055,
      1880771367
    ],
    "wof:breaches": [],
    "wof:concordances": {
      "gn:id": 6284555,
      "gp:id": 11800,
      "qs_pg:id": 363704,
      "wd:id": "Q2028934"
    },
    "wof:coterminous": [
      404436637
    ],
    "wof:country": "GB",
    "wof:created": 1497294354,
    "wof:geom_alt": [
      "qs_pg"
    ],
    "wof:geomhash": "b2fdc50c6835e5a1386386a382ec59c7",
    "wof:hierarchy": [
      {
        "continent_id": 102191581,
        "country_id": 85633159,
        "county_id": 1880771367,
        "empire_id": 136253055,
        "localadmin_id": 404436637,
        "locality_id": 1125872149,
        "macrocounty_id": 1880762143,
        "macroregion_id": 404227469,
        "region_id": 1880762687
      }
    ],
    "wof:id": 1125872149,
    "wof:lastmodified": 1765386026,
    "wof:name": "Bar Hill",
    "wof:parent_id": 404436637,
    "wof:placetype": "locality",
    "wof:population": 3900,
    "wof:population_rank": 4,
    "wof:repo": "whosonfirst-data-admin-gb",
    "wof:superseded_by": [],
    "wof:supersedes": [],
    "wof:tags": []
  },
  "bbox": [
    0.008417,
    52.245333,
    0.037022,
    52.259636
  ],
  "geometry": {"type":"Polygon","coordinates":[[[0.018125,52.259636],[0.024024,52.256985],[0.024176,52.256917],[0.028144,52.255086],[0.029544,52.254441],[0.031985,52.253272],[0.033037,52.252768],[0.037022,52.250847],[0.036043,52.249908],[0.0348,52.248685],[0.033099,52.247105],[0.032102,52.247475],[0.02873,52.248737],[0.028341,52.248619],[0.027928,52.248513],[0.027438,52.248415],[0.027205,52.248376],[0.027044,52.24835],[0.026992,52.248327],[0.026966,52.248308],[0.026952,52.248285],[0.026946,52.248251],[0.026956,52.248209],[0.026983,52.248167],[0.026993,52.248159],[0.027025,52.24813],[0.027054,52.248114],[0.027134,52.248084],[0.027486,52.24801],[0.027773,52.247962],[0.027837,52.247944],[0.02797,52.247897],[0.028151,52.247821],[0.028307,52.247745],[0.028567,52.247599],[0.028817,52.247487],[0.028277,52.247021],[0.026469,52.247622],[0.025919,52.247804],[0.022531,52.249008],[0.021197,52.249481],[0.020963,52.249438],[0.020483,52.249391],[0.020344,52.249357],[0.020114,52.249268],[0.019787,52.249113],[0.01948,52.248964],[0.019428,52.248933],[0.019376,52.248895],[0.019238,52.248752],[0.01918,52.248679],[0.018914,52.248242],[0.018789,52.247977],[0.018728,52.247914],[0.018577,52.247813],[0.018555,52.247688],[0.018327,52.247754],[0.018238,52.247483],[0.018034,52.247041],[0.018017,52.24696],[0.018179,52.245799],[0.018171,52.245651],[0.018135,52.245333],[0.016766,52.245837],[0.014719,52.246565],[0.011841,52.247588],[0.010303,52.248149],[0.008417,52.248872],[0.009237,52.249489],[0.009332,52.249617],[0.009993,52.250124],[0.01016,52.250269],[0.010283,52.250354],[0.010429,52.250441],[0.010641,52.250554],[0.010963,52.250714],[0.011792,52.251163],[0.012038,52.25181],[0.012099,52.252032],[0.01215,52.252154],[0.012198,52.252249],[0.012261,52.252342],[0.01235,52.252458],[0.01253,52.252648],[0.01298,52.253038],[0.01307,52.253124],[0.01339,52.253481],[0.013478,52.253611],[0.013608,52.253873],[0.013725,52.254025],[0.013882,52.254247],[0.014079,52.254498],[0.014513,52.25509],[0.014822,52.25547],[0.015072,52.255713],[0.015117,52.255799],[0.01524,52.255959],[0.015336,52.255976],[0.015668,52.256384],[0.015743,52.256397],[0.015785,52.256411],[0.015847,52.256447],[0.016193,52.256785],[0.016514,52.25707],[0.01673,52.257326],[0.016815,52.257443],[0.017026,52.257779],[0.017097,52.25792],[0.017247,52.258274],[0.017334,52.258427],[0.017356,52.258456],[0.017447,52.258533],[0.017523,52.258616],[0.017653,52.258861],[0.018065,52.259512],[0.018125,52.259636]]]}
}
