{
  "id": 85791335,
  "type": "Feature",
  "properties": {
    "edtf:cessation": "",
    "edtf:inception": "",
    "geom:area": 0.0001658899640000183,
    "geom:area_square_m": 1275026.334074,
    "geom:bbox": "0.013733,51.561881,0.030212,51.576994",
    "geom:latitude": 51.56920078306819,
    "geom:longitude": 0.021704945191719865,
    "gn:id": "",
    "iso:country": "GB",
    "lbl:latitude": 51.571794,
    "lbl:longitude": 0.022892,
    "lbl:max_zoom": 18,
    "mps:latitude": 51.568176,
    "mps:longitude": 0.023198,
    "mz:hierarchy_label": 1,
    "mz:is_current": -1,
    "mz:is_funky": 0,
    "mz:is_hard_boundary": 0,
    "mz:is_landuse_aoi": 0,
    "mz:is_official": 0,
    "mz:max_zoom": 18,
    "mz:min_zoom": 14,
    "mz:tier_locality": 7,
    "mz:tier_metro": 1,
    "name:azb_x_preferred": [
      "وانستید"
    ],
    "name:cat_x_preferred": [
      "Wanstead"
    ],
    "name:eng_x_preferred": [
      "Wanstead"
    ],
    "name:eus_x_preferred": [
      "Wanstead"
    ],
    "name:fas_x_preferred": [
      "وانستید"
    ],
    "name:fin_x_preferred": [
      "Wanstead"
    ],
    "name:fra_x_preferred": [
      "Wanstead"
    ],
    "name:gle_x_preferred": [
      "Wanstead"
    ],
    "name:heb_x_preferred": [
      "וואנסטד"
    ],
    "name:hin_x_preferred": [
      "वंस्टेड"
    ],
    "name:ita_x_preferred": [
      "Wanstead"
    ],
    "name:jpn_x_preferred": [
      "ウォンステッド"
    ],
    "name:jpn_x_variant": [
      "ワンステッド"
    ],
    "name:kor_x_preferred": [
      "원스테드"
    ],
    "name:new_x_preferred": [
      "वंस्टेड"
    ],
    "name:nld_x_preferred": [
      "Wanstead"
    ],
    "name:pol_x_preferred": [
      "Wanstead"
    ],
    "name:rus_x_preferred": [
      "Уонстед"
    ],
    "name:swe_x_preferred": [
      "Wanstead"
    ],
    "name:urd_x_preferred": [
      "وانسٹیڈ"
    ],
    "name:zho_x_preferred": [
      "万斯特德"
    ],
    "name:zho_x_variant": [
      "旺斯特德"
    ],
    "qs:gn_adm0_cc": "GB",
    "qs:gn_fcode": "PPL",
    "qs:gn_local": 2643743,
    "qs:gn_namadm1": "ENG",
    "qs:gn_name": "Wanstead",
    "qs:local_max": 40697,
    "qs:local_sum": 1675717,
    "qs:localhoods": 643,
    "qs:name": "Wanstead",
    "qs:name_adm0": "United Kingdom",
    "qs:name_adm1": "England",
    "qs:name_adm2": "Greater London",
    "qs:name_lau": "London Borough of Redbridge",
    "qs:name_local": "London",
    "qs:photo_max": 98,
    "qs:photo_sum": 796,
    "qs:placetype": "Suburb",
    "qs:quad_count": 50,
    "qs:woe_adm0": 23424975,
    "qs:woe_adm1": 24554868,
    "qs:woe_adm2": 23416974,
    "qs:woe_lau": 12695835,
    "qs:woe_local": 44418,
    "qs:woe_ver": "7.10.0",
    "src:geom": "quattroshapes",
    "src:geom_alt": [
      "quattroshapes_pg"
    ],
    "src:lbl_centroid": "mz",
    "src:population": "wikidata",
    "wd:wordcount": 1463,
    "wof:belongsto": [
      1880762729,
      102191581,
      1880762179,
      85633159,
      404227469,
      101750367,
      136253055,
      1158857291,
      1880771825
    ],
    "wof:breaches": [],
    "wof:concordances": {
      "gp:id": 39129,
      "qs_pg:id": 215116,
      "wd:id": "Q2491351"
    },
    "wof:country": "GB",
    "wof:created": 1765391220,
    "wof:geom_alt": [
      "quattroshapes_pg"
    ],
    "wof:geomhash": "4ee76d1f8d472716d1d67a30876e174b",
    "wof:hierarchy": [
      {
        "borough_id": 1158857291,
        "continent_id": 102191581,
        "country_id": 85633159,
        "county_id": 1880771825,
        "empire_id": 136253055,
        "locality_id": 101750367,
        "macrocounty_id": 1880762179,
        "macroregion_id": 404227469,
        "neighbourhood_id": 85791335,
        "region_id": 1880762729
      }
    ],
    "wof:id": 85791335,
    "wof:lang": [
      "eng"
    ],
    "wof:lastmodified": 1765391220,
    "wof:name": "Wanstead",
    "wof:parent_id": 1158857291,
    "wof:placetype": "neighbourhood",
    "wof:population": 11543,
    "wof:population_rank": 6,
    "wof:repo": "whosonfirst-data-admin-gb",
    "wof:superseded_by": [],
    "wof:supersedes": [],
    "wof:tags": []
  },
  "bbox": [
    0.013733,
    51.561881,
    0.030212,
    51.576994
  ],
  "geometry": {"type":"Polygon","coordinates":[[[0.021973,51.575363],[0.022979,51.573743],[0.023896,51.574038],[0.02461,51.573656],[0.027466,51.573656],[0.027466,51.571095],[0.029682,51.571095],[0.030212,51.570241],[0.030212,51.568534],[0.030212,51.566827],[0.030212,51.56512],[0.027466,51.56512],[0.027466,51.563412],[0.027466,51.561881],[0.024719,51.563354],[0.021973,51.561881],[0.019226,51.563354],[0.019226,51.563412],[0.019226,51.56512],[0.016479,51.56512],[0.016479,51.566827],[0.013733,51.566827],[0.013733,51.568534],[0.013733,51.570241],[0.013733,51.571949],[0.013733,51.573656],[0.013733,51.573714],[0.015766,51.574804],[0.015974,51.575809],[0.016479,51.576216],[0.017447,51.576994],[0.018403,51.576687],[0.019226,51.575363],[0.021973,51.575363]]]}
}
