{
  "id": 101872673,
  "type": "Feature",
  "properties": {
    "edtf:cessation": "",
    "edtf:inception": "",
    "geom:area": 0,
    "geom:area_square_m": 0,
    "geom:bbox": "-2.385468,57.284587,-2.385468,57.284587",
    "geom:latitude": 57.284587,
    "geom:longitude": -2.385468,
    "iso:country": "GB",
    "lbl:bbox": "-2.405468,57.264587,-2.365468,57.304587",
    "lbl:latitude": 57.284587,
    "lbl:longitude": -2.385468,
    "lbl:max_zoom": 18,
    "lbl:min_zoom": 13.5,
    "mps:latitude": 57.284587,
    "mps:longitude": -2.385468,
    "mz:hierarchy_label": 1,
    "mz:is_current": 1,
    "mz:min_zoom": 12,
    "name:ast_x_preferred": [
      "Inverurie"
    ],
    "name:ben_x_preferred": [
      "ইনভেরুরি"
    ],
    "name:bul_x_preferred": [
      "Инвърури"
    ],
    "name:ceb_x_preferred": [
      "Inverurie"
    ],
    "name:cym_x_preferred": [
      "Inverurie"
    ],
    "name:deu_x_preferred": [
      "Inverurie"
    ],
    "name:eng_x_preferred": [
      "Inverurie"
    ],
    "name:epo_x_preferred": [
      "Inverurie"
    ],
    "name:eus_x_preferred": [
      "Inverurie"
    ],
    "name:fas_x_preferred": [
      "اینوروری"
    ],
    "name:fin_x_preferred": [
      "Inverurie"
    ],
    "name:fra_x_preferred": [
      "Inverurie"
    ],
    "name:gla_x_preferred": [
      "Inbhir Uaraidh"
    ],
    "name:gle_x_preferred": [
      "Inbhir Úraidh"
    ],
    "name:gle_x_variant": [
      "Inbhir Uaraidh"
    ],
    "name:guj_x_preferred": [
      "ઇનવર્યુરી"
    ],
    "name:ita_x_preferred": [
      "Inverurie"
    ],
    "name:jpn_x_preferred": [
      "インヴァーウリー"
    ],
    "name:kan_x_preferred": [
      "ಇನ್ವರ್ರಿರಿ"
    ],
    "name:kor_x_preferred": [
      "인베루리"
    ],
    "name:lit_x_preferred": [
      "Inveruris"
    ],
    "name:nld_x_preferred": [
      "Inverurie"
    ],
    "name:nno_x_preferred": [
      "Inverurie"
    ],
    "name:nob_x_preferred": [
      "Inverurie"
    ],
    "name:pol_x_preferred": [
      "Inverurie"
    ],
    "name:por_x_preferred": [
      "Inverurie"
    ],
    "name:rus_x_preferred": [
      "Инверури"
    ],
    "name:rus_x_variant": [
      "Инверари"
    ],
    "name:sco_x_preferred": [
      "Inverurie"
    ],
    "name:sco_x_variant": [
      "Innerurie"
    ],
    "name:spa_x_preferred": [
      "Inverurie"
    ],
    "name:swe_x_preferred": [
      "Inverurie"
    ],
    "name:tam_x_preferred": [
      "இன்வேறுறியே"
    ],
    "name:tel_x_preferred": [
      "ఇంవేరురి"
    ],
    "name:ukr_x_preferred": [
      "Інверурі"
    ],
    "name:urd_x_preferred": [
      "انویروریی"
    ],
    "name:zho_x_preferred": [
      "因弗鲁里"
    ],
    "qs:a0": "United Kingdom",
    "qs:a1": "*Aberdeenshire",
    "qs:a1_lc": "GB11QB0000",
    "qs:a1r": "0Scotland",
    "qs:a1r_lc": "GB11000000",
    "qs:adm0": "United Kingdom",
    "qs:id": 0,
    "qs:la_lc": "*",
    "qs:level": "locality",
    "qs:loc": "Inverurie",
    "qs:loc_alt": "Inverurie",
    "qs:pop": 0,
    "qs:source": "RCustom EuroGlobalMap + UMZ Urban Polygons + Geonames + GeoPlanet",
    "qs:type": "buffered point",
    "src:geom": "whosonfirst",
    "src:geom_alt": [
      "quattroshapes_pg",
      "quattroshapes"
    ],
    "src:geom_via": "quattroshapes",
    "src:lbl_centroid": "mapshaper",
    "src:population": "wikidata",
    "wof:belongsto": [
      1880773121,
      102191581,
      85633159,
      1880762109,
      404227471,
      136253055,
      1360699031
    ],
    "wof:breaches": [],
    "wof:concordances": {
      "gn:id": 2646073,
      "gp:id": 24511,
      "qs_pg:id": 453810,
      "wd:id": "Q1017537",
      "wk:page": "Aberdeenshire"
    },
    "wof:country": "GB",
    "wof:created": 1765384906,
    "wof:geom_alt": [
      "quattroshapes",
      "quattroshapes_pg"
    ],
    "wof:geomhash": "e5df7b1ef242fdb66b03e3aed08524e8",
    "wof:hierarchy": [
      {
        "continent_id": 102191581,
        "country_id": 85633159,
        "county_id": 1360699031,
        "empire_id": 136253055,
        "locality_id": 101872673,
        "macrocounty_id": 1880762109,
        "macroregion_id": 404227471,
        "region_id": 1880773121
      }
    ],
    "wof:id": 101872673,
    "wof:lastmodified": 1765384906,
    "wof:name": "Inverurie",
    "wof:parent_id": 1360699031,
    "wof:placetype": "locality",
    "wof:population": 13640,
    "wof:population_rank": 6,
    "wof:repo": "whosonfirst-data-admin-gb",
    "wof:superseded_by": [],
    "wof:supersedes": [],
    "wof:tags": []
  },
  "bbox": [
    -2.385468,
    57.284587,
    -2.385468,
    57.284587
  ],
  "geometry": {"type":"Point","coordinates":[-2.385468,57.284587]}
}
