{
  "id": 1360797167,
  "type": "Feature",
  "properties": {
    "edtf:cessation": "",
    "edtf:inception": "",
    "geom:area": 0,
    "geom:area_square_m": 0,
    "geom:bbox": "-0.883330,51.450000,-0.883330,51.450000",
    "geom:latitude": 51.45,
    "geom:longitude": -0.88333,
    "gn:country": "GB",
    "gn:fcode": "PPLA3",
    "gn:population": 0,
    "iso:country": "GB",
    "lbl:bbox": "-0.88833,51.445,-0.87833,51.455",
    "lbl:latitude": 51.45,
    "lbl:longitude": -0.88333,
    "lbl:max_zoom": 18,
    "mz:hierarchy_label": 1,
    "mz:is_current": 1,
    "mz:min_zoom": 15,
    "mz:note": "Quattroshapes Point Gazetteer import 20170519",
    "name:ast_x_preferred": [
      "Woodley"
    ],
    "name:azb_x_preferred": [
      "وودلی"
    ],
    "name:ben_x_preferred": [
      "উডলে"
    ],
    "name:ceb_x_preferred": [
      "Woodley"
    ],
    "name:cym_x_preferred": [
      "Woodley"
    ],
    "name:deu_x_preferred": [
      "Woodley"
    ],
    "name:eng_x_preferred": [
      "Woodley"
    ],
    "name:fas_x_preferred": [
      "وودلی، برکشر"
    ],
    "name:fas_x_variant": [
      "وودلی"
    ],
    "name:fra_x_preferred": [
      "Woodley"
    ],
    "name:gle_x_preferred": [
      "Woodley"
    ],
    "name:guj_x_preferred": [
      "વુડલી"
    ],
    "name:ita_x_preferred": [
      "Woodley"
    ],
    "name:jpn_x_preferred": [
      "ウッドレイ"
    ],
    "name:kan_x_preferred": [
      "ವುಡ್ಲೆ"
    ],
    "name:kor_x_preferred": [
      "우들리"
    ],
    "name:lit_x_preferred": [
      "Vudlis"
    ],
    "name:lld_x_preferred": [
      "Woodley"
    ],
    "name:nan_x_preferred": [
      "Woodley"
    ],
    "name:nld_x_preferred": [
      "Woodley"
    ],
    "name:pol_x_preferred": [
      "Woodley"
    ],
    "name:por_x_preferred": [
      "Woodley"
    ],
    "name:rus_x_preferred": [
      "Вудли"
    ],
    "name:spa_x_preferred": [
      "Woodley"
    ],
    "name:swe_x_preferred": [
      "Woodley"
    ],
    "name:tam_x_preferred": [
      "வூட்லேய்"
    ],
    "name:tel_x_preferred": [
      "వుడ్లి"
    ],
    "name:tur_x_preferred": [
      "Woodley"
    ],
    "name:urd_x_preferred": [
      "وودلے"
    ],
    "qs_pg:aaroncc": "GB",
    "qs_pg:gn_country": "GB",
    "qs_pg:gn_fcode": "PPLA3",
    "qs_pg:gn_id": 2633633,
    "qs_pg:gn_pop": 0,
    "qs_pg:name": "Woodley",
    "qs_pg:photos_9r": 0,
    "qs_pg:photos_sr": 0,
    "qs_pg:pop_sr": 0,
    "qs_pg:qs_id": 1152099,
    "qs_pg:qs_pg_placetype": "locality",
    "src:geom": "qs_pg",
    "src:lbl_centroid": "qs_pg",
    "src:population": "wikidata",
    "wof:belongsto": [
      1880772969,
      102191581,
      1880762165,
      404439423,
      85633159,
      404227469,
      1126055149,
      136253055,
      1360698967
    ],
    "wof:breaches": [],
    "wof:concordances": {
      "gn:id": 2633633,
      "qs_pg:id": 1152099,
      "wd:id": "Q2334867"
    },
    "wof:country": "GB",
    "wof:created": 1497295757,
    "wof:geomhash": "9a547fd51b2a31ee337aefab5a1c6749",
    "wof:hierarchy": [
      {
        "continent_id": 102191581,
        "country_id": 85633159,
        "county_id": 1360698967,
        "empire_id": 136253055,
        "localadmin_id": 404439423,
        "locality_id": 1126055149,
        "macrocounty_id": 1880762165,
        "macroregion_id": 404227469,
        "neighbourhood_id": 1360797167,
        "region_id": 1880772969
      }
    ],
    "wof:id": 1360797167,
    "wof:lastmodified": 1765389831,
    "wof:name": "Woodley",
    "wof:parent_id": 1126055149,
    "wof:placetype": "neighbourhood",
    "wof:population": 28848,
    "wof:population_rank": 7,
    "wof:repo": "whosonfirst-data-admin-gb",
    "wof:superseded_by": [],
    "wof:supersedes": [
      1125899823
    ],
    "wof:tags": []
  },
  "bbox": [
    -0.88333,
    51.45,
    -0.88333,
    51.45
  ],
  "geometry": {"type":"Point","coordinates":[-0.88333,51.45]}
}
