{
  "id": 1360806425,
  "type": "Feature",
  "properties": {
    "edtf:cessation": "",
    "edtf:inception": "",
    "geom:area": 0,
    "geom:area_square_m": 0,
    "geom:bbox": "-2.265400,53.380270,-2.265400,53.380270",
    "geom:latitude": 53.38027,
    "geom:longitude": -2.2654,
    "gn:admin1_code": "ENG",
    "gn:admin2_code": "I2",
    "gn:admin3_code": "00BN001",
    "gn:asciiname": "Wythenshawe",
    "gn:country_code": "GB",
    "gn:dem": 64,
    "gn:feature_class": "P",
    "gn:feature_code": "PPL",
    "gn:geonameid": 2633432,
    "gn:latitude": 53.38027,
    "gn:longitude": -2.2654,
    "gn:modification_date": "2011-03-03",
    "gn:name": "Wythenshawe",
    "gn:population": 0,
    "gn:timezone": "Europe/London",
    "iso:country": "GB",
    "lbl:bbox": "-2.2704,53.37527,-2.2604,53.38527",
    "lbl:max_zoom": 18,
    "mz:hierarchy_label": 1,
    "mz:is_current": 1,
    "mz:min_zoom": 15,
    "name:deu_x_preferred": [
      "Wythenshawe"
    ],
    "name:fra_x_preferred": [
      "Wythenshawe"
    ],
    "name:gle_x_preferred": [
      "Wythenshawe"
    ],
    "name:und_x_variant": [
      "Wythenshawe Estate"
    ],
    "src:geom": "geonames",
    "src:population": "wikidata",
    "wof:belongsto": [
      1880773095,
      102191581,
      85633159,
      1880762163,
      404227469,
      101750525,
      136253055,
      1360698893
    ],
    "wof:breaches": [],
    "wof:concordances": {
      "gn:id": 2633432,
      "wk:page": "Wythenshawe"
    },
    "wof:country": "GB",
    "wof:created": 1765390385,
    "wof:geomhash": "6cdc8987823849cde7beae6d08cf2d32",
    "wof:hierarchy": [
      {
        "continent_id": 102191581,
        "country_id": 85633159,
        "county_id": 1360698893,
        "empire_id": 136253055,
        "locality_id": 101750525,
        "macrocounty_id": 1880762163,
        "macroregion_id": 404227469,
        "neighbourhood_id": 1360806425,
        "region_id": 1880773095
      }
    ],
    "wof:id": 1360806425,
    "wof:lastmodified": 1765390385,
    "wof:name": "Wythenshawe",
    "wof:parent_id": 101750525,
    "wof:placetype": "neighbourhood",
    "wof:population": 110000,
    "wof:population_rank": 9,
    "wof:repo": "whosonfirst-data-admin-gb",
    "wof:superseded_by": [],
    "wof:supersedes": [
      1225873981
    ],
    "wof:tags": []
  },
  "bbox": [
    -2.2654,
    53.38027,
    -2.2654,
    53.38027
  ],
  "geometry": {"type":"Point","coordinates":[-2.2654,53.38027]}
}
