{
  "id": 1360806965,
  "type": "Feature",
  "properties": {
    "edtf:cessation": "",
    "edtf:inception": "",
    "geom:area": 0,
    "geom:area_square_m": 0,
    "geom:bbox": "-0.572190,51.267370,-0.572190,51.267370",
    "geom:latitude": 51.26737,
    "geom:longitude": -0.57219,
    "gn:admin1_code": "ENG",
    "gn:admin2_code": "N7",
    "gn:admin3_code": "43UD",
    "gn:admin4_code": "43UD024",
    "gn:asciiname": "Jacob's Well",
    "gn:country_code": "GB",
    "gn:dem": 34,
    "gn:feature_class": "P",
    "gn:feature_code": "PPL",
    "gn:geonameid": 7116373,
    "gn:latitude": 51.26737,
    "gn:longitude": -0.57219,
    "gn:modification_date": "2018-07-03",
    "gn:name": "Jacob's Well",
    "gn:population": 0,
    "gn:timezone": "Europe/London",
    "iso:country": "GB",
    "lbl:bbox": "-0.57719,51.26237,-0.56719,51.27237",
    "lbl:max_zoom": 18,
    "mz:hierarchy_label": 1,
    "mz:is_current": 1,
    "mz:min_zoom": 15,
    "name:ara_x_preferred": [
      "بئر يعقوب"
    ],
    "name:deu_x_preferred": [
      "Jakobsbrunnen"
    ],
    "name:heb_x_preferred": [
      "באר יעקב"
    ],
    "name:ind_x_preferred": [
      "Sumur Yakub"
    ],
    "name:jpn_x_preferred": [
      "ヤコブの泉"
    ],
    "name:pol_x_preferred": [
      "Studnia Jakuba"
    ],
    "name:rus_x_preferred": [
      "Колодец Иакова"
    ],
    "name:swe_x_preferred": [
      "Jakobs källa"
    ],
    "name:tgl_x_preferred": [
      "Balon ni Jacob"
    ],
    "name:tur_x_preferred": [
      "Yakup Kuyusu"
    ],
    "name:ukr_x_preferred": [
      "Колодязь Якова"
    ],
    "name:urd_x_preferred": [
      "یعقوب کا کنواں"
    ],
    "name:zho_x_preferred": [
      "雅各井"
    ],
    "src:geom": "geonames",
    "src:population": "wikidata",
    "wof:belongsto": [
      1880762727,
      102191581,
      1880761993,
      404447609,
      85633159,
      404227469,
      1125994493,
      136253055,
      1880771657
    ],
    "wof:breaches": [],
    "wof:concordances": {
      "gn:id": 7116373
    },
    "wof:country": "GB",
    "wof:created": 1765390439,
    "wof:geomhash": "e092ed55e276df3a4b13b78b262e62a3",
    "wof:hierarchy": [
      {
        "continent_id": 102191581,
        "country_id": 85633159,
        "county_id": 1880771657,
        "empire_id": 136253055,
        "localadmin_id": 404447609,
        "locality_id": 1125994493,
        "macrocounty_id": 1880761993,
        "macroregion_id": 404227469,
        "neighbourhood_id": 1360806965,
        "region_id": 1880762727
      }
    ],
    "wof:id": 1360806965,
    "wof:lastmodified": 1765390439,
    "wof:name": "Jacob's Well",
    "wof:parent_id": 1125994493,
    "wof:placetype": "neighbourhood",
    "wof:population": 1171,
    "wof:population_rank": 3,
    "wof:repo": "whosonfirst-data-admin-gb",
    "wof:superseded_by": [],
    "wof:supersedes": [
      1243008471
    ],
    "wof:tags": []
  },
  "bbox": [
    -0.57219,
    51.26737,
    -0.57219,
    51.26737
  ],
  "geometry": {"type":"Point","coordinates":[-0.57219,51.26737]}
}
