{
  "id": 1360805743,
  "type": "Feature",
  "properties": {
    "edtf:cessation": "",
    "edtf:inception": "",
    "geom:area": 0,
    "geom:area_square_m": 0,
    "geom:bbox": "-1.027178,53.198217,-1.027178,53.198217",
    "geom:latitude": 53.198217,
    "geom:longitude": -1.027178,
    "gn:country": null,
    "iso:country": "GB",
    "lbl:bbox": "-1.0321785,53.193217,-1.0221785,53.203217",
    "lbl:latitude": 53.198217,
    "lbl:longitude": -1.027178,
    "lbl:max_zoom": 18,
    "mz:hierarchy_label": 1,
    "mz:is_current": 1,
    "mz:min_zoom": 15,
    "mz:note": "Quattroshapes Point Gazetteer import 20170519",
    "name:ast_x_preferred": [
      "Ollerton"
    ],
    "name:ben_x_preferred": [
      "ওল্যারটোন"
    ],
    "name:cym_x_preferred": [
      "Ollerton"
    ],
    "name:deu_x_preferred": [
      "Ollerton"
    ],
    "name:eng_x_preferred": [
      "Ollerton"
    ],
    "name:fas_x_preferred": [
      "اولرتون"
    ],
    "name:fra_x_preferred": [
      "Ollerton"
    ],
    "name:gle_x_preferred": [
      "Ollerton"
    ],
    "name:guj_x_preferred": [
      "ઓલર્ટન"
    ],
    "name:jpn_x_preferred": [
      "オラートン"
    ],
    "name:kan_x_preferred": [
      "ಒಲೆರ್ಟನ್"
    ],
    "name:kor_x_preferred": [
      "올레턴"
    ],
    "name:lit_x_preferred": [
      "Oljertonas"
    ],
    "name:lld_x_preferred": [
      "Ollerton"
    ],
    "name:nld_x_preferred": [
      "Ollerton"
    ],
    "name:nno_x_preferred": [
      "Ollerton"
    ],
    "name:pol_x_preferred": [
      "Ollerton"
    ],
    "name:por_x_preferred": [
      "Ollerton"
    ],
    "name:ron_x_preferred": [
      "Ollerton"
    ],
    "name:rus_x_preferred": [
      "Оллертон"
    ],
    "name:spa_x_preferred": [
      "Ollerton"
    ],
    "name:swe_x_preferred": [
      "Ollerton"
    ],
    "name:tam_x_preferred": [
      "ஒல்லெர்டன்"
    ],
    "name:tel_x_preferred": [
      "ఒలేట్రాన్"
    ],
    "name:urd_x_preferred": [
      "ولیرٹن"
    ],
    "qs_pg:aaroncc": "GB",
    "qs_pg:gn_country": null,
    "qs_pg:name": "Ollerton",
    "qs_pg:name_adm0": "United Kingdom",
    "qs_pg:name_adm1": "England",
    "qs_pg:photos": 242,
    "qs_pg:photos_1k": 49,
    "qs_pg:photos_9k": 1,
    "qs_pg:photos_9r": 4,
    "qs_pg:photos_all": 242,
    "qs_pg:photos_sr": 4,
    "qs_pg:pop_sr": 0,
    "qs_pg:qs_id": 1073643,
    "qs_pg:qs_pg_placetype": "locality",
    "qs_pg:qs_pg_placetype_gp": "Town",
    "qs_pg:woe_adm0": 23424975,
    "qs_pg:woe_id": 31034,
    "src:geom": "qs_pg",
    "src:lbl_centroid": "qs_pg",
    "src:population": "wikidata",
    "woe:adm0_id": 23424975,
    "woe:name_adm0": "United Kingdom",
    "woe:name_adm1": "England",
    "woe:placetype": "Town",
    "wof:belongsto": [
      1880762689,
      102191581,
      1880762077,
      404434483,
      85633159,
      404227469,
      1360755859,
      136253055,
      1880771361
    ],
    "wof:breaches": [],
    "wof:concordances": {
      "gp:id": 31034,
      "qs_pg:id": 1073643,
      "wd:id": "Q1867326"
    },
    "wof:country": "GB",
    "wof:created": 1497303993,
    "wof:geomhash": "ffd4735ccb8d6c2da05999c46168f31d",
    "wof:hierarchy": [
      {
        "continent_id": 102191581,
        "country_id": 85633159,
        "county_id": 1880771361,
        "empire_id": 136253055,
        "localadmin_id": 404434483,
        "locality_id": 1360755859,
        "macrocounty_id": 1880762077,
        "macroregion_id": 404227469,
        "neighbourhood_id": 1360805743,
        "region_id": 1880762689
      }
    ],
    "wof:id": 1360805743,
    "wof:lastmodified": 1765390335,
    "wof:name": "Ollerton",
    "wof:parent_id": 1360755859,
    "wof:placetype": "neighbourhood",
    "wof:population": 11103,
    "wof:population_rank": 6,
    "wof:repo": "whosonfirst-data-admin-gb",
    "wof:superseded_by": [],
    "wof:supersedes": [
      1126059833
    ],
    "wof:tags": []
  },
  "bbox": [
    -1.027178,
    53.198217,
    -1.027178,
    53.198217
  ],
  "geometry": {"type":"Point","coordinates":[-1.027178,53.198217]}
}
