{
  "id": 420781659,
  "type": "Feature",
  "properties": {
    "edtf:cessation": "",
    "edtf:inception": "",
    "geom:area": 0,
    "geom:area_square_m": 0,
    "geom:bbox": "0.048784,51.551826,0.048784,51.551826",
    "geom:latitude": 51.551826,
    "geom:longitude": 0.048784,
    "iso:country": "GB",
    "lbl:bbox": "0.0437842125039,51.5468259183,0.0537842125039,51.5568259183",
    "lbl:latitude": 51.551826,
    "lbl:longitude": 0.048784,
    "lbl:max_zoom": 18,
    "mz:hierarchy_label": 1,
    "mz:is_current": 1,
    "mz:is_funky": 0,
    "mz:is_hard_boundary": 0,
    "mz:is_landuse_aoi": 0,
    "mz:is_official": 0,
    "mz:max_zoom": 18,
    "mz:min_zoom": 14,
    "mz:tier_locality": 0,
    "name:azb_x_preferred": [
      "منور پارک"
    ],
    "name:ces_x_preferred": [
      "Manor Park"
    ],
    "name:deu_x_preferred": [
      "Manor Park"
    ],
    "name:eng_x_preferred": [
      "Manor Park"
    ],
    "name:fas_x_preferred": [
      "منور پارک، لندن"
    ],
    "name:fas_x_variant": [
      "منور پارک"
    ],
    "name:fra_x_preferred": [
      "Manor Park"
    ],
    "name:gle_x_preferred": [
      "Manor Park"
    ],
    "name:heb_x_preferred": [
      "מנור פארק"
    ],
    "name:ita_x_preferred": [
      "Manor Park"
    ],
    "name:jpn_x_preferred": [
      "マナー・パーク"
    ],
    "name:nld_x_preferred": [
      "Manor Park"
    ],
    "name:nob_x_preferred": [
      "Manor Park"
    ],
    "name:rus_x_preferred": [
      "парк манор"
    ],
    "name:slk_x_preferred": [
      "Manor Park"
    ],
    "name:urd_x_preferred": [
      "مینور پارک"
    ],
    "name:zho_x_preferred": [
      "曼諾公園"
    ],
    "src:geom": "unknown",
    "src:population": "wikidata",
    "wd:wordcount": 100,
    "wof:belongsto": [
      1880762729,
      102191581,
      1880762179,
      85633159,
      404227469,
      101750367,
      136253055,
      1158857293,
      1880771825
    ],
    "wof:breaches": [],
    "wof:concordances": {
      "gp:id": 20094333,
      "wd:id": "Q2005010"
    },
    "wof:country": "GB",
    "wof:created": 1458871809,
    "wof:geomhash": "4cb6234a9fb1a16a0dc6d81db39bede3",
    "wof:hierarchy": [
      {
        "borough_id": 1158857293,
        "continent_id": 102191581,
        "country_id": 85633159,
        "county_id": 1880771825,
        "empire_id": 136253055,
        "locality_id": 101750367,
        "macrocounty_id": 1880762179,
        "macroregion_id": 404227469,
        "neighbourhood_id": 420781659,
        "region_id": 1880762729
      }
    ],
    "wof:id": 420781659,
    "wof:lastmodified": 1765390905,
    "wof:name": "Manor Park",
    "wof:parent_id": 1158857293,
    "wof:placetype": "neighbourhood",
    "wof:population": 15318,
    "wof:population_rank": 6,
    "wof:repo": "whosonfirst-data-admin-gb",
    "wof:superseded_by": [],
    "wof:supersedes": [],
    "wof:tags": []
  },
  "bbox": [
    0.048784,
    51.551826,
    0.048784,
    51.551826
  ],
  "geometry": {"type":"Point","coordinates":[0.048784,51.551826]}
}
