{
  "id": 85860145,
  "type": "Feature",
  "properties": {
    "edtf:cessation": "",
    "edtf:inception": "",
    "geom:area": 0.00016497653100003116,
    "geom:area_square_m": 1269500.567983,
    "geom:bbox": "0.016479,51.506268,0.033912,51.520146",
    "geom:latitude": 51.51419411656922,
    "geom:longitude": 0.025385198685333867,
    "gn:id": "",
    "iso:country": "GB",
    "lbl:latitude": 51.514024,
    "lbl:longitude": 0.015434,
    "lbl:max_zoom": 18,
    "mps:latitude": 51.513815,
    "mps:longitude": 0.025385,
    "mz:hierarchy_label": 1,
    "mz:is_current": -1,
    "mz:is_funky": 0,
    "mz:is_hard_boundary": 0,
    "mz:is_landuse_aoi": 0,
    "mz:is_official": 0,
    "mz:max_zoom": 18,
    "mz:min_zoom": 14,
    "mz:tier_locality": 7,
    "mz:tier_metro": 1,
    "name:ast_x_preferred": [
      "Canning Town"
    ],
    "name:cat_x_preferred": [
      "Canning Town"
    ],
    "name:cym_x_preferred": [
      "Canning Town"
    ],
    "name:eng_x_preferred": [
      "Canning Town"
    ],
    "name:eng_x_variant": [
      "Canningtown"
    ],
    "name:fra_x_preferred": [
      "Canning Town"
    ],
    "name:gle_x_preferred": [
      "Canning Town"
    ],
    "name:jpn_x_preferred": [
      "カニング・タウン"
    ],
    "name:lld_x_preferred": [
      "Canning Town"
    ],
    "name:nld_x_preferred": [
      "Canning Town"
    ],
    "name:nob_x_preferred": [
      "Canning Town"
    ],
    "name:nor_x_preferred": [
      "Canning Town"
    ],
    "name:pol_x_preferred": [
      "Canning Town"
    ],
    "name:rus_x_preferred": [
      "Кеннинг Таун"
    ],
    "name:slv_x_preferred": [
      "Canning Town"
    ],
    "name:urd_x_preferred": [
      "کینینگ ٹاؤن"
    ],
    "name:vol_x_preferred": [
      "Upton"
    ],
    "name:zho_x_preferred": [
      "景寧鎮"
    ],
    "qs:gn_adm0_cc": "GB",
    "qs:gn_id": 0,
    "qs:gn_local": 2643743,
    "qs:gn_namadm1": "ENG",
    "qs:local_max": 40697,
    "qs:local_sum": 1675717,
    "qs:localhoods": 643,
    "qs:name": "Canning Town",
    "qs:name_adm0": "United Kingdom",
    "qs:name_adm1": "England",
    "qs:name_adm2": "Greater London",
    "qs:name_lau": "London Borough of Newham",
    "qs:name_local": "London",
    "qs:photo_max": 936,
    "qs:photo_sum": 6780,
    "qs:placetype": "Suburb",
    "qs:quad_count": 92,
    "qs:woe_adm0": 23424975,
    "qs:woe_adm1": 24554868,
    "qs:woe_adm2": 23416974,
    "qs:woe_lau": 12695815,
    "qs:woe_local": 44418,
    "qs:woe_ver": "7.10.0",
    "src:geom": "quattroshapes",
    "src:geom_alt": [
      "quattroshapes_pg"
    ],
    "src:lbl_centroid": "mz",
    "src:population": "wikidata",
    "wd:latitude": 51.515,
    "wd:longitude": 0.026,
    "wd:wordcount": 2512,
    "wof:belongsto": [
      1880762729,
      102191581,
      1880762179,
      85633159,
      404227469,
      101750367,
      136253055,
      1158857293,
      1880771825
    ],
    "wof:breaches": [],
    "wof:concordances": {
      "gp:id": 20089362,
      "qs_pg:id": 584147,
      "wd:id": "Q1792879"
    },
    "wof:country": "GB",
    "wof:created": 1765391316,
    "wof:geom_alt": [
      "quattroshapes_pg"
    ],
    "wof:geomhash": "1b87d8754999d2ce096d7b8243eedda2",
    "wof:hierarchy": [
      {
        "borough_id": 1158857293,
        "continent_id": 102191581,
        "country_id": 85633159,
        "county_id": 1880771825,
        "empire_id": 136253055,
        "locality_id": 101750367,
        "macrocounty_id": 1880762179,
        "macroregion_id": 404227469,
        "neighbourhood_id": 85860145,
        "region_id": 1880762729
      }
    ],
    "wof:id": 85860145,
    "wof:lang": [
      "eng"
    ],
    "wof:lastmodified": 1765391316,
    "wof:name": "Canning Town",
    "wof:parent_id": 1158857293,
    "wof:placetype": "neighbourhood",
    "wof:population": 42667,
    "wof:population_rank": 7,
    "wof:repo": "whosonfirst-data-admin-gb",
    "wof:superseded_by": [],
    "wof:supersedes": [],
    "wof:tags": []
  },
  "bbox": [
    0.016479,
    51.506268,
    0.033912,
    51.520146
  ],
  "geometry": {"type":"Polygon","coordinates":[[[0.032245,51.520146],[0.032959,51.518998],[0.033673,51.51785],[0.033557,51.517289],[0.033912,51.51558],[0.033912,51.51558],[0.033557,51.513871],[0.033673,51.513309],[0.032959,51.512161],[0.032959,51.510452],[0.030212,51.510452],[0.030212,51.510082],[0.030212,51.508742],[0.028272,51.508742],[0.028227,51.508529],[0.028242,51.508459],[0.028152,51.508315],[0.028063,51.508172],[0.027809,51.508308],[0.027466,51.508124],[0.027466,51.507888],[0.027228,51.507888],[0.02645,51.507888],[0.026093,51.507314],[0.026093,51.507033],[0.026093,51.507003],[0.024719,51.506268],[0.023346,51.507003],[0.023346,51.507033],[0.023346,51.507888],[0.023346,51.50836],[0.022797,51.508654],[0.022778,51.508742],[0.022659,51.508742],[0.022659,51.50917],[0.02269,51.50917],[0.022636,51.509428],[0.022612,51.509431],[0.022302,51.509597],[0.021973,51.509597],[0.021973,51.509774],[0.021595,51.509976],[0.021496,51.510452],[0.019226,51.510452],[0.019226,51.512161],[0.016479,51.512161],[0.016479,51.513692],[0.016479,51.51558],[0.016479,51.51558],[0.016479,51.518998],[0.016479,51.518998],[0.021973,51.518998],[0.027466,51.518998],[0.02818,51.520146],[0.030212,51.519057],[0.032245,51.520146]]]}
}
