{
  "id": 1360799769,
  "type": "Feature",
  "properties": {
    "edtf:cessation": "",
    "edtf:inception": "",
    "geom:area": 0,
    "geom:area_square_m": 0,
    "geom:bbox": "-2.439310,54.809000,-2.439310,54.809000",
    "geom:latitude": 54.809,
    "geom:longitude": -2.43931,
    "gn:country": "GB",
    "gn:fcode": "PPL",
    "gn:population": 0,
    "iso:country": "GB",
    "lbl:bbox": "-2.44431,54.804,-2.43431,54.814",
    "lbl:latitude": 54.809,
    "lbl:longitude": -2.43931,
    "lbl:max_zoom": 18,
    "mz:hierarchy_label": 1,
    "mz:is_current": 1,
    "mz:min_zoom": 15,
    "mz:note": "Quattroshapes Point Gazetteer import 20170519",
    "name:ast_x_preferred": [
      "Alston"
    ],
    "name:azb_x_preferred": [
      "آلستون"
    ],
    "name:bul_x_preferred": [
      "Алстон"
    ],
    "name:ceb_x_preferred": [
      "Alston"
    ],
    "name:cym_x_preferred": [
      "Alston"
    ],
    "name:deu_x_preferred": [
      "Alston"
    ],
    "name:eng_x_preferred": [
      "Alston"
    ],
    "name:fas_x_preferred": [
      "آلستون، کامبریا"
    ],
    "name:fas_x_variant": [
      "آلستون"
    ],
    "name:fra_x_preferred": [
      "Alston"
    ],
    "name:gle_x_preferred": [
      "Alston"
    ],
    "name:ita_x_preferred": [
      "Alston"
    ],
    "name:jpn_x_preferred": [
      "アルストン"
    ],
    "name:lld_x_preferred": [
      "Alston"
    ],
    "name:nld_x_preferred": [
      "Alston"
    ],
    "name:nno_x_preferred": [
      "Alston i Cumbria"
    ],
    "name:pol_x_preferred": [
      "Alston"
    ],
    "name:por_x_preferred": [
      "Alston"
    ],
    "name:ron_x_preferred": [
      "Alston"
    ],
    "name:spa_x_preferred": [
      "Alston"
    ],
    "name:swe_x_preferred": [
      "Alston"
    ],
    "name:vol_x_preferred": [
      "Alston"
    ],
    "name:zho_x_preferred": [
      "阿爾斯頓"
    ],
    "qs_pg:aaroncc": "GB",
    "qs_pg:gn_country": "GB",
    "qs_pg:gn_fcode": "PPL",
    "qs_pg:gn_id": 2657427,
    "qs_pg:gn_pop": 0,
    "qs_pg:name": "Alston",
    "qs_pg:name_adm0": "United Kingdom",
    "qs_pg:name_adm1": "England",
    "qs_pg:photos": 703,
    "qs_pg:photos_1k": 142,
    "qs_pg:photos_9k": 3,
    "qs_pg:photos_9r": 5,
    "qs_pg:photos_all": 703,
    "qs_pg:photos_sr": 8,
    "qs_pg:pop_sr": 0,
    "qs_pg:qs_id": 1240548,
    "qs_pg:qs_pg_placetype": "locality",
    "qs_pg:qs_pg_placetype_gp": "Town",
    "qs_pg:woe_adm0": 23424975,
    "qs_pg:woe_id": 10696,
    "src:geom": "qs_pg",
    "src:lbl_centroid": "qs_pg",
    "src:population": "wikidata",
    "woe:adm0_id": 23424975,
    "woe:name_adm0": "United Kingdom",
    "woe:name_adm1": "England",
    "woe:placetype": "Town",
    "wof:belongsto": [
      1880773269,
      102191581,
      1880761989,
      404439897,
      85633159,
      404227469,
      1360755785,
      136253055,
      1880773235
    ],
    "wof:breaches": [],
    "wof:concordances": {
      "gn:id": 2657427,
      "gp:id": 10696,
      "qs_pg:id": 1240548,
      "wd:id": "Q2560190"
    },
    "wof:country": "GB",
    "wof:created": 1497297447,
    "wof:geomhash": "e988d2709a8ed2c14b5b6898e43a2e6c",
    "wof:hierarchy": [
      {
        "continent_id": 102191581,
        "country_id": 85633159,
        "county_id": 1880773235,
        "empire_id": 136253055,
        "localadmin_id": 404439897,
        "locality_id": 1360755785,
        "macrocounty_id": 1880761989,
        "macroregion_id": 404227469,
        "neighbourhood_id": 1360799769,
        "region_id": 1880773269
      }
    ],
    "wof:id": 1360799769,
    "wof:lastmodified": 1765390000,
    "wof:name": "Alston",
    "wof:parent_id": 1360755785,
    "wof:placetype": "neighbourhood",
    "wof:population": 1128,
    "wof:population_rank": 3,
    "wof:repo": "whosonfirst-data-admin-gb",
    "wof:superseded_by": [],
    "wof:supersedes": [
      1125950761
    ],
    "wof:tags": []
  },
  "bbox": [
    -2.43931,
    54.809,
    -2.43931,
    54.809
  ],
  "geometry": {"type":"Point","coordinates":[-2.43931,54.809]}
}
