{
  "id": 1343388457,
  "type": "Feature",
  "properties": {
    "edtf:cessation": "",
    "edtf:inception": "",
    "geom:area": 0,
    "geom:area_square_m": 0,
    "geom:bbox": "-6.116670,54.366670,-6.116670,54.366670",
    "geom:latitude": 54.36666999999999,
    "geom:longitude": -6.11667,
    "gn:admin1_code": "NIR",
    "gn:admin2_code": "N09000002",
    "gn:asciiname": "Waringsford",
    "gn:country_code": "GB",
    "gn:dem": 126,
    "gn:feature_class": "P",
    "gn:feature_code": "PPL",
    "gn:geonameid": 2634769,
    "gn:latitude": 54.36667,
    "gn:longitude": -6.11667,
    "gn:modification_date": "2016-12-04",
    "gn:name": "Waringsford",
    "gn:population": 0,
    "gn:timezone": "Europe/London",
    "iso:country": "GB",
    "lbl:bbox": "-6.13667,54.34667,-6.09667,54.38667",
    "lbl:max_zoom": 18,
    "lbl:min_zoom": 13.5,
    "mz:hierarchy_label": 1,
    "mz:is_current": -1,
    "mz:min_zoom": 12,
    "name:ceb_x_preferred": [
      "Waringsford"
    ],
    "name:eus_x_preferred": [
      "Waringsford"
    ],
    "name:fas_x_preferred": [
      "وارینگزفورد"
    ],
    "name:msa_x_preferred": [
      "Waringsford"
    ],
    "name:pli_x_preferred": [
      "वारिन्ग्स्फोर्ड"
    ],
    "name:spa_x_preferred": [
      "Waringsford"
    ],
    "name:swe_x_preferred": [
      "Waringsford"
    ],
    "src:geom": "geonames",
    "src:population": "wikidata",
    "wof:belongsto": [
      1360699225,
      102191581,
      85633159,
      1880762227,
      404227473,
      136253055,
      1880762249
    ],
    "wof:breaches": [],
    "wof:concordances": {
      "gn:id": 2634769,
      "wk:page": "Waringsford"
    },
    "wof:country": "GB",
    "wof:created": 1765388989,
    "wof:geomhash": "c6c57afe7a538719c23feafc589ad751",
    "wof:hierarchy": [
      {
        "continent_id": 102191581,
        "country_id": 85633159,
        "county_id": 1880762249,
        "empire_id": 136253055,
        "locality_id": 1343388457,
        "macrocounty_id": 1880762227,
        "macroregion_id": 404227473,
        "region_id": 1360699225
      }
    ],
    "wof:id": 1343388457,
    "wof:lastmodified": 1765388989,
    "wof:name": "Waringsford",
    "wof:parent_id": 1880762249,
    "wof:placetype": "locality",
    "wof:population": 129,
    "wof:population_rank": 1,
    "wof:repo": "whosonfirst-data-admin-gb",
    "wof:superseded_by": [],
    "wof:supersedes": [],
    "wof:tags": []
  },
  "bbox": [
    -6.11667,
    54.36666999999999,
    -6.11667,
    54.36666999999999
  ],
  "geometry": {"type":"Point","coordinates":[-6.11667,54.36666999999999]}
}
