{
  "id": 101873899,
  "type": "Feature",
  "properties": {
    "edtf:cessation": "",
    "edtf:inception": "",
    "geom:area": 0,
    "geom:area_square_m": 0,
    "geom:bbox": "-7.111177,55.032383,-7.111177,55.032383",
    "geom:latitude": 55.032383,
    "geom:longitude": -7.111177,
    "iso:country": "GB",
    "lbl:bbox": "-7.131177,55.012383,-7.091177,55.052383",
    "lbl:latitude": 55.032384,
    "lbl:longitude": -7.111177,
    "lbl:max_zoom": 18,
    "lbl:min_zoom": 13.5,
    "mps:latitude": 55.032384,
    "mps:longitude": -7.111177,
    "mz:hierarchy_label": 1,
    "mz:is_current": 1,
    "mz:min_zoom": 12,
    "name:eng_x_preferred": [
      "Greysteel"
    ],
    "name:eus_x_preferred": [
      "Greysteel"
    ],
    "name:fra_x_preferred": [
      "Greysteel"
    ],
    "name:gle_x_preferred": [
      "Glas-stiall"
    ],
    "name:msa_x_preferred": [
      "Greysteel"
    ],
    "name:nld_x_preferred": [
      "Greysteel"
    ],
    "name:pli_x_preferred": [
      "ग्रेय्स्तील"
    ],
    "name:spa_x_preferred": [
      "Greysteel"
    ],
    "name:swe_x_preferred": [
      "Greysteel"
    ],
    "qs:a0": "United Kingdom",
    "qs:a1": "*Limavady",
    "qs:a1_lc": "N_A",
    "qs:a1r": "0Northern Ireland",
    "qs:a1r_lc": "N_A",
    "qs:adm0": "United Kingdom",
    "qs:la_lc": "*",
    "qs:level": "locality",
    "qs:loc": "Greysteel",
    "qs:loc_alt": "Greysteel",
    "qs:pop": 0,
    "qs:source": "RCustom EuroGlobalMap + UMZ Urban Polygons + Geonames + GeoPlanet",
    "qs:type": "buffered point",
    "src:geom": "whosonfirst",
    "src:geom_alt": [
      "quattroshapes_pg",
      "quattroshapes"
    ],
    "src:geom_via": "quattroshapes",
    "src:lbl_centroid": "mapshaper",
    "src:population": "wikidata",
    "wd:latitude": 55.0317,
    "wd:longitude": -7.12056,
    "wd:wordcount": 561,
    "wof:belongsto": [
      1360699239,
      102191581,
      85633159,
      1880762225,
      404227473,
      136253055,
      1880762253
    ],
    "wof:breaches": [],
    "wof:concordances": {
      "gn:id": 8063577,
      "gp:id": 44863,
      "qs_pg:id": 1132690,
      "wd:id": "Q2401497",
      "wk:page": "Greysteel"
    },
    "wof:country": "GB",
    "wof:created": 1765385099,
    "wof:geom_alt": [
      "quattroshapes",
      "quattroshapes_pg"
    ],
    "wof:geomhash": "c6a7246cfef285855585e5b72eb270e1",
    "wof:hierarchy": [
      {
        "continent_id": 102191581,
        "country_id": 85633159,
        "county_id": 1880762253,
        "empire_id": 136253055,
        "locality_id": 101873899,
        "macrocounty_id": 1880762225,
        "macroregion_id": 404227473,
        "region_id": 1360699239
      }
    ],
    "wof:id": 101873899,
    "wof:lastmodified": 1765385099,
    "wof:name": "Greysteel",
    "wof:parent_id": 1880762253,
    "wof:placetype": "locality",
    "wof:population": 1229,
    "wof:population_rank": 3,
    "wof:repo": "whosonfirst-data-admin-gb",
    "wof:superseded_by": [],
    "wof:supersedes": [],
    "wof:tags": []
  },
  "bbox": [
    -7.111177,
    55.032383,
    -7.111177,
    55.032383
  ],
  "geometry": {"type":"Point","coordinates":[-7.111177,55.032383]}
}
