{
  "id": 85789203,
  "type": "Feature",
  "properties": {
    "edtf:cessation": "",
    "edtf:inception": "",
    "geom:area": 0.00030367672100004917,
    "geom:area_square_m": 2235848.215728,
    "geom:bbox": "-2.258388,53.447171,-2.230225,53.463526",
    "geom:latitude": 53.45638017691834,
    "geom:longitude": -2.2432920063575534,
    "gn:id": "",
    "iso:country": "GB",
    "lbl:latitude": 53.455561,
    "lbl:longitude": -2.239071,
    "lbl:max_zoom": 18,
    "mps:latitude": 53.456984,
    "mps:longitude": -2.243024,
    "mz:hierarchy_label": 1,
    "mz:is_current": 1,
    "mz:is_funky": 0,
    "mz:is_hard_boundary": 0,
    "mz:is_landuse_aoi": 0,
    "mz:is_official": 0,
    "mz:max_zoom": 18,
    "mz:min_zoom": 15,
    "mz:tier_locality": 4,
    "mz:tier_metro": 1,
    "name:azb_x_preferred": [
      "موس سایت"
    ],
    "name:deu_x_preferred": [
      "Moss Side"
    ],
    "name:eng_x_preferred": [
      "Moss Side"
    ],
    "name:fas_x_preferred": [
      "موس سایت"
    ],
    "name:fra_x_preferred": [
      "Moss Side"
    ],
    "name:gle_x_preferred": [
      "Moss Side"
    ],
    "name:ita_x_preferred": [
      "Moss Side"
    ],
    "name:jpn_x_preferred": [
      "モス・サイド"
    ],
    "name:nld_x_preferred": [
      "Moss Side"
    ],
    "name:nob_x_preferred": [
      "Moss Side"
    ],
    "name:pol_x_preferred": [
      "Moss Side"
    ],
    "name:rus_x_preferred": [
      "Мосс-Сайд"
    ],
    "name:slk_x_preferred": [
      "Moss Side"
    ],
    "name:slv_x_preferred": [
      "Moss Side"
    ],
    "name:spa_x_preferred": [
      "Moss Side"
    ],
    "name:ukr_x_preferred": [
      "Мосс-Сайд"
    ],
    "name:zho_x_preferred": [
      "尼斯登"
    ],
    "name:zho_x_variant": [
      "莫斯賽得"
    ],
    "qs:gn_id": 0,
    "src:geom": "quattroshapes",
    "src:geom_alt": [
      "quattroshapes_pg"
    ],
    "src:lbl_centroid": "mz",
    "src:population": "wikidata",
    "wof:belongsto": [
      1880773095,
      102191581,
      85633159,
      1880762163,
      404227469,
      101750525,
      136253055,
      1360698893
    ],
    "wof:breaches": [],
    "wof:concordances": {
      "gp:id": 29412,
      "qs_pg:id": 1195072,
      "wd:id": "Q2240567"
    },
    "wof:country": "GB",
    "wof:created": 1765391119,
    "wof:geom_alt": [
      "quattroshapes_pg"
    ],
    "wof:geomhash": "1ea64b29e9b020fbd7539cdd6418efcc",
    "wof:hierarchy": [
      {
        "continent_id": 102191581,
        "country_id": 85633159,
        "county_id": 1360698893,
        "empire_id": 136253055,
        "locality_id": 101750525,
        "macrocounty_id": 1880762163,
        "macroregion_id": 404227469,
        "neighbourhood_id": 85789203,
        "region_id": 1880773095
      }
    ],
    "wof:id": 85789203,
    "wof:lang": [
      "eng"
    ],
    "wof:lastmodified": 1765391119,
    "wof:name": "Moss Side",
    "wof:parent_id": 101750525,
    "wof:placetype": "neighbourhood",
    "wof:population": 20745,
    "wof:population_rank": 7,
    "wof:repo": "whosonfirst-data-admin-gb",
    "wof:superseded_by": [],
    "wof:supersedes": [],
    "wof:tags": []
  },
  "bbox": [
    -2.258388,
    53.447171,
    -2.230225,
    53.463526
  ],
  "geometry": {"type":"Polygon","coordinates":[[[-2.241211,53.463526],[-2.241211,53.46189],[-2.235718,53.46189],[-2.235718,53.45862],[-2.232971,53.45862],[-2.232971,53.456985],[-2.230225,53.456985],[-2.230225,53.455349],[-2.230225,53.453714],[-2.230225,53.452078],[-2.230225,53.450442],[-2.230225,53.448807],[-2.230922,53.447635],[-2.232971,53.448782],[-2.23502,53.447635],[-2.235112,53.447171],[-2.238464,53.447171],[-2.238951,53.447989],[-2.240724,53.447989],[-2.241211,53.448807],[-2.241211,53.450442],[-2.243492,53.450442],[-2.243958,53.450443],[-2.243958,53.451669],[-2.244644,53.451669],[-2.244644,53.452078],[-2.246704,53.452078],[-2.247169,53.452078],[-2.249451,53.452078],[-2.249451,53.453714],[-2.252197,53.453714],[-2.252197,53.455349],[-2.25769,53.455349],[-2.25769,53.45862],[-2.25769,53.460255],[-2.25769,53.46189],[-2.258388,53.463062],[-2.258296,53.463526],[-2.25769,53.463526],[-2.254944,53.463526],[-2.252197,53.463526],[-2.249451,53.463526],[-2.246704,53.463526],[-2.243958,53.463526],[-2.241211,53.463526]]]}
}
