{
  "id": 85792469,
  "type": "Feature",
  "properties": {
    "edtf:cessation": "",
    "edtf:inception": "",
    "geom:area": 0,
    "geom:area_square_m": 0,
    "geom:bbox": "-4.410493,55.839034,-4.410493,55.839034",
    "geom:latitude": 55.839034,
    "geom:longitude": -4.410493,
    "gn:latitude": 55.73333,
    "gn:longitude": -3.96667,
    "gn:population": 15410,
    "iso:country": "GB",
    "lbl:bbox": "-4.415493,55.834034,-4.405493,55.844034",
    "lbl:latitude": 55.839034,
    "lbl:longitude": -4.410493,
    "lbl:max_zoom": 18,
    "mps:latitude": 55.842743,
    "mps:longitude": -4.405919,
    "mz:hierarchy_label": 0,
    "mz:is_current": -1,
    "mz:is_funky": 0,
    "mz:is_hard_boundary": 0,
    "mz:is_landuse_aoi": 0,
    "mz:is_official": 0,
    "mz:max_zoom": 18,
    "mz:min_zoom": 14,
    "mz:tier_locality": 2,
    "mz:tier_metro": 1,
    "name:ara_x_preferred": [
      "لاركهول"
    ],
    "name:arz_x_preferred": [
      "لاركهول"
    ],
    "name:ast_x_preferred": [
      "Larkhall"
    ],
    "name:ben_x_preferred": [
      "লাখাল"
    ],
    "name:bul_x_preferred": [
      "Ларкхал"
    ],
    "name:ceb_x_preferred": [
      "Larkhall"
    ],
    "name:ces_x_preferred": [
      "Larkhall"
    ],
    "name:cym_x_preferred": [
      "Larkhall"
    ],
    "name:deu_x_preferred": [
      "Larkhall"
    ],
    "name:eng_x_preferred": [
      "Blackhall"
    ],
    "name:eng_x_variant": [
      "Larkhall"
    ],
    "name:eus_x_preferred": [
      "Larkhall"
    ],
    "name:fas_x_preferred": [
      "لارکهال"
    ],
    "name:fra_x_preferred": [
      "Larkhall"
    ],
    "name:gla_x_preferred": [
      "Taigh na h-Uiseig"
    ],
    "name:gla_x_variant": [
      "Largall"
    ],
    "name:gle_x_preferred": [
      "Taigh na h-Uiseig"
    ],
    "name:guj_x_preferred": [
      "લર્ખાલ"
    ],
    "name:ita_x_preferred": [
      "Larkhall"
    ],
    "name:jpn_x_preferred": [
      "ラークホール"
    ],
    "name:kan_x_preferred": [
      "ಲಾರ್ಖಾಲ್"
    ],
    "name:kor_x_preferred": [
      "라크홀"
    ],
    "name:lit_x_preferred": [
      "Larkholas"
    ],
    "name:nld_x_preferred": [
      "Larkhall"
    ],
    "name:nno_x_preferred": [
      "Larkhall"
    ],
    "name:nob_x_preferred": [
      "Larkhall"
    ],
    "name:pol_x_preferred": [
      "Larkhall"
    ],
    "name:por_x_preferred": [
      "Larkhall"
    ],
    "name:rus_x_preferred": [
      "Ларкхол"
    ],
    "name:sco_x_preferred": [
      "Larkhauch"
    ],
    "name:sco_x_variant": [
      "Larkhaw"
    ],
    "name:spa_x_preferred": [
      "Larkhall"
    ],
    "name:swe_x_preferred": [
      "Larkhall"
    ],
    "name:tam_x_preferred": [
      "லார்க்கஹால்"
    ],
    "name:tel_x_preferred": [
      "లార్క్హాల్"
    ],
    "name:ukr_x_preferred": [
      "Ларкхолл"
    ],
    "name:und_x_variant": [
      "Darkhall"
    ],
    "name:urd_x_preferred": [
      "لارخال"
    ],
    "name:zho_x_preferred": [
      "拉克霍爾"
    ],
    "qs:gn_fcode": "PPL",
    "qs:gn_local": 0,
    "qs:gn_namadm1": "SCT",
    "qs:gn_name": "Larkhall",
    "qs:local_max": 4949,
    "qs:local_sum": 11872,
    "qs:localhoods": 6,
    "qs:name": "Blackhall",
    "qs:name_adm0": "United Kingdom",
    "qs:name_adm1": "Scotland",
    "qs:name_adm2": "Strathclyde",
    "qs:name_lau": "Renfrewshire",
    "qs:name_local": "Paisley",
    "qs:photo_max": 343,
    "qs:photo_sum": 2020,
    "qs:placetype": "Suburb",
    "qs:quad_count": 61,
    "qs:woe_adm0": 23424975,
    "qs:woe_adm1": 12578048,
    "qs:woe_adm2": 12602207,
    "qs:woe_lau": 12696207,
    "qs:woe_local": 31342,
    "qs:woe_ver": "7.10.0",
    "src:geom": "mz",
    "src:geom_alt": [
      "quattroshapes_pg",
      "quattroshapes"
    ],
    "src:lbl_centroid": "mz",
    "src:population": "wikidata",
    "wof:belongsto": [
      136253055,
      102191581,
      85633159,
      404227471
    ],
    "wof:breaches": [],
    "wof:concordances": {
      "gn:id": 2644853,
      "gp:id": 43565,
      "qs_pg:id": 280143,
      "wd:id": "Q1012019",
      "wk:page": "Larkhall"
    },
    "wof:country": "GB",
    "wof:created": 1765391274,
    "wof:geom_alt": [
      "quattroshapes",
      "quattroshapes_pg"
    ],
    "wof:geomhash": "b0e3b594614ca9b902712a674deabf46",
    "wof:hierarchy": [
      {
        "continent_id": 102191581,
        "country_id": 85633159,
        "county_id": -1,
        "empire_id": 136253055,
        "locality_id": 85792469,
        "macrocounty_id": -1,
        "macroregion_id": 404227471,
        "neighbourhood_id": 85792469,
        "region_id": -1
      }
    ],
    "wof:id": 85792469,
    "wof:lang": [
      "eng"
    ],
    "wof:lastmodified": 1765391274,
    "wof:name": "Blackhall",
    "wof:parent_id": -1,
    "wof:placetype": "neighbourhood",
    "wof:population": 14740,
    "wof:population_rank": 6,
    "wof:repo": "whosonfirst-data-admin-gb",
    "wof:superseded_by": [],
    "wof:supersedes": [],
    "wof:tags": []
  },
  "bbox": [
    -4.410493,
    55.839034,
    -4.410493,
    55.839034
  ],
  "geometry": {"type":"Point","coordinates":[-4.410493,55.839034]}
}
