{
  "id": 1360790707,
  "type": "Feature",
  "properties": {
    "edtf:cessation": "",
    "edtf:inception": "",
    "geom:area": 0,
    "geom:area_square_m": 0,
    "geom:bbox": "-2.958596,50.873571,-2.958596,50.873571",
    "geom:latitude": 50.873571,
    "geom:longitude": -2.958596,
    "gn:population": 12275,
    "iso:country": "GB",
    "lbl:bbox": "-2.963596,50.868571,-2.953596,50.878571",
    "lbl:latitude": 50.873573,
    "lbl:longitude": -2.958596,
    "lbl:max_zoom": 18,
    "mps:latitude": 50.873573,
    "mps:longitude": -2.958596,
    "mz:hierarchy_label": 1,
    "mz:is_current": 1,
    "mz:min_zoom": 15,
    "name:ast_x_preferred": [
      "Chard"
    ],
    "name:azb_x_preferred": [
      "چارد"
    ],
    "name:bar_x_preferred": [
      "Chard"
    ],
    "name:ben_x_preferred": [
      "চার্ড টাউন"
    ],
    "name:ceb_x_preferred": [
      "Chard"
    ],
    "name:cym_x_preferred": [
      "Chard"
    ],
    "name:deu_x_preferred": [
      "Chard"
    ],
    "name:eng_x_preferred": [
      "Chard"
    ],
    "name:fas_x_preferred": [
      "چارد، سامرست"
    ],
    "name:fas_x_variant": [
      "چارد"
    ],
    "name:fra_x_preferred": [
      "Chard"
    ],
    "name:gle_x_preferred": [
      "Chard"
    ],
    "name:guj_x_preferred": [
      "ચાર્ડ"
    ],
    "name:heb_x_preferred": [
      "צ'ארד"
    ],
    "name:ita_x_preferred": [
      "Chard"
    ],
    "name:jpn_x_preferred": [
      "チャード"
    ],
    "name:kan_x_preferred": [
      "ಚಾರ್ಡ್"
    ],
    "name:kor_x_preferred": [
      "차드 타운"
    ],
    "name:lat_x_preferred": [
      "Chard"
    ],
    "name:lit_x_preferred": [
      "Čard Taunas"
    ],
    "name:nan_x_preferred": [
      "Chard"
    ],
    "name:nld_x_preferred": [
      "Chard"
    ],
    "name:nno_x_preferred": [
      "Chard"
    ],
    "name:pol_x_preferred": [
      "Chard"
    ],
    "name:por_x_preferred": [
      "Chard"
    ],
    "name:ron_x_preferred": [
      "Chard"
    ],
    "name:rus_x_preferred": [
      "Чард"
    ],
    "name:sco_x_preferred": [
      "Chard"
    ],
    "name:spa_x_preferred": [
      "Chard"
    ],
    "name:swe_x_preferred": [
      "Chard"
    ],
    "name:tam_x_preferred": [
      "சர்ட்"
    ],
    "name:tel_x_preferred": [
      "చార్డ్"
    ],
    "name:tur_x_preferred": [
      "Chard"
    ],
    "name:ukr_x_preferred": [
      "Чард"
    ],
    "name:urd_x_preferred": [
      "چارد"
    ],
    "name:vol_x_preferred": [
      "Chard"
    ],
    "name:zho_x_preferred": [
      "查德"
    ],
    "qs:a0": "United Kingdom",
    "qs:a1": "*Somerset",
    "qs:a1_lc": "GB12400000",
    "qs:a1r": "0England",
    "qs:a1r_lc": "GB12000000",
    "qs:adm0": "United Kingdom",
    "qs:la_lc": "*",
    "qs:level": "locality",
    "qs:loc": "Chard",
    "qs:loc_alt": "Chard",
    "qs:pop": 0,
    "qs:source": "RCustom EuroGlobalMap + UMZ Urban Polygons + Geonames + GeoPlanet",
    "qs:type": "buffered point",
    "src:geom": "whosonfirst",
    "src:geom_alt": [
      "quattroshapes_pg",
      "quattroshapes"
    ],
    "src:geom_via": "quattroshapes",
    "src:lbl_centroid": "mapshaper",
    "src:population": "wikidata",
    "wd:latitude": 50.8728,
    "wd:longitude": -2.9587,
    "wd:wordcount": 4338,
    "wof:belongsto": [
      404441335,
      1880762071,
      1360756929,
      1360699059
    ],
    "wof:breaches": [],
    "wof:concordances": {
      "fct:id": "0aa40bee-8f76-11e1-848f-cfd5bf3ef515",
      "gn:id": 2653346,
      "gp:id": 15645,
      "qs_pg:id": 965976,
      "wd:id": "Q117810",
      "wk:page": "Chard, Somerset"
    },
    "wof:country": "GB",
    "wof:created": 1765389422,
    "wof:geomhash": "50bc13d0089317003df5b0d82cb7225b",
    "wof:hierarchy": [
      {
        "continent_id": -1,
        "country_id": -1,
        "county_id": 1360699059,
        "localadmin_id": 404441335,
        "locality_id": 1360756929,
        "macrocounty_id": 1880762071,
        "neighbourhood_id": 1360790707,
        "region_id": -1
      }
    ],
    "wof:id": 1360790707,
    "wof:lang": [
      "eng"
    ],
    "wof:lastmodified": 1765389422,
    "wof:name": "Chard",
    "wof:parent_id": 1360756929,
    "wof:placetype": "neighbourhood",
    "wof:population": 14287,
    "wof:population_rank": 6,
    "wof:repo": "whosonfirst-data-admin-gb",
    "wof:superseded_by": [],
    "wof:supersedes": [
      101852515
    ],
    "wof:tags": []
  },
  "bbox": [
    -2.958596,
    50.873571,
    -2.958596,
    50.873571
  ],
  "geometry": {"type":"Point","coordinates":[-2.958596,50.873571]}
}
