{
  "id": 85787065,
  "type": "Feature",
  "properties": {
    "edtf:cessation": "",
    "edtf:inception": "",
    "geom:area": 0.0008060248225000206,
    "geom:area_square_m": 6226435.380091,
    "geom:bbox": "0.041199,51.324563,0.084094,51.355276",
    "geom:latitude": 51.33711170202264,
    "geom:longitude": 0.06069540076322261,
    "iso:country": "GB",
    "lbl:latitude": 51.336328,
    "lbl:longitude": 0.051117,
    "lbl:max_zoom": 18,
    "mps:latitude": 51.337474,
    "mps:longitude": 0.060694,
    "mz:hierarchy_label": 1,
    "mz:is_current": -1,
    "mz:is_funky": 0,
    "mz:is_hard_boundary": 0,
    "mz:is_landuse_aoi": 0,
    "mz:is_official": 0,
    "mz:max_zoom": 18,
    "mz:min_zoom": 14,
    "mz:tier_locality": 7,
    "mz:tier_metro": 1,
    "name:afr_x_preferred": [
      "Downe"
    ],
    "name:arg_x_preferred": [
      "Downe"
    ],
    "name:bel_x_preferred": [
      "Доўн"
    ],
    "name:bos_x_preferred": [
      "Downe"
    ],
    "name:bre_x_preferred": [
      "Downe"
    ],
    "name:cat_x_preferred": [
      "Downe"
    ],
    "name:ceb_x_preferred": [
      "Downe"
    ],
    "name:ces_x_preferred": [
      "Downe"
    ],
    "name:cym_x_preferred": [
      "Downe"
    ],
    "name:dan_x_preferred": [
      "Downe"
    ],
    "name:deu_x_preferred": [
      "London Borough of Bromley"
    ],
    "name:deu_x_variant": [
      "Downe"
    ],
    "name:ell_x_preferred": [
      "Ντάουνι"
    ],
    "name:eng_x_preferred": [
      "Downe"
    ],
    "name:epo_x_preferred": [
      "Downe"
    ],
    "name:est_x_preferred": [
      "Downe"
    ],
    "name:eus_x_preferred": [
      "Downe"
    ],
    "name:fas_x_preferred": [
      "داون"
    ],
    "name:fin_x_preferred": [
      "Downe"
    ],
    "name:fra_x_preferred": [
      "Downe"
    ],
    "name:gle_x_preferred": [
      "Downe"
    ],
    "name:glg_x_preferred": [
      "Downe"
    ],
    "name:gsw_x_preferred": [
      "Downe"
    ],
    "name:heb_x_preferred": [
      "דאון"
    ],
    "name:hin_x_preferred": [
      "डाउन"
    ],
    "name:hrv_x_preferred": [
      "Downe"
    ],
    "name:hun_x_preferred": [
      "Downe"
    ],
    "name:hye_x_preferred": [
      "Դաունի"
    ],
    "name:hyw_x_preferred": [
      "Տաունի Լոնտոն"
    ],
    "name:isl_x_preferred": [
      "Downe"
    ],
    "name:ita_x_preferred": [
      "Downe"
    ],
    "name:jpn_x_preferred": [
      "ダウン"
    ],
    "name:kat_x_preferred": [
      "დაუნი"
    ],
    "name:lit_x_preferred": [
      "Downe"
    ],
    "name:lmo_x_preferred": [
      "Downe"
    ],
    "name:ltz_x_preferred": [
      "Downe"
    ],
    "name:nds_x_preferred": [
      "Downe"
    ],
    "name:nld_x_preferred": [
      "Downe"
    ],
    "name:nno_x_preferred": [
      "Downe"
    ],
    "name:nob_x_preferred": [
      "Downe"
    ],
    "name:nor_x_preferred": [
      "Downe"
    ],
    "name:oci_x_preferred": [
      "Downe"
    ],
    "name:pms_x_preferred": [
      "Downe"
    ],
    "name:pol_x_preferred": [
      "Downe"
    ],
    "name:por_x_preferred": [
      "Downe"
    ],
    "name:ron_x_preferred": [
      "Downe"
    ],
    "name:rus_x_preferred": [
      "Доун"
    ],
    "name:rus_x_variant": [
      "Даун"
    ],
    "name:slk_x_preferred": [
      "Downe"
    ],
    "name:slv_x_preferred": [
      "Downe"
    ],
    "name:spa_x_preferred": [
      "Downe"
    ],
    "name:sqi_x_preferred": [
      "Downe"
    ],
    "name:swe_x_preferred": [
      "Downe"
    ],
    "name:tur_x_preferred": [
      "Downe"
    ],
    "name:ukr_x_preferred": [
      "Даун"
    ],
    "name:urd_x_preferred": [
      "ڈاؤن، لندن"
    ],
    "name:urd_x_variant": [
      "ڈاؤن"
    ],
    "name:vec_x_preferred": [
      "Downe"
    ],
    "name:wln_x_preferred": [
      "Downe"
    ],
    "name:yid_x_preferred": [
      "דאון"
    ],
    "name:zho_x_preferred": [
      "道恩"
    ],
    "src:geom": "quattroshapes",
    "src:geom_alt": [
      "quattroshapes_pg"
    ],
    "src:lbl_centroid": "mz",
    "src:population": "wikidata",
    "wd:latitude": 51.3359,
    "wd:longitude": 0.0535,
    "wd:wordcount": 560,
    "wof:belongsto": [
      1880762729,
      102191581,
      1880762179,
      85633159,
      404227469,
      101750367,
      136253055,
      1158857297,
      1880771825
    ],
    "wof:breaches": [],
    "wof:concordances": {
      "gn:id": 2651033,
      "gp:id": 18399,
      "qs_pg:id": 1047608,
      "wd:id": "Q125344",
      "wk:page": "Downe"
    },
    "wof:country": "GB",
    "wof:created": 1765391018,
    "wof:geom_alt": [
      "quattroshapes_pg"
    ],
    "wof:geomhash": "abacc604be387892ddf1a3fa892d3cea",
    "wof:hierarchy": [
      {
        "borough_id": 1158857297,
        "continent_id": 102191581,
        "country_id": 85633159,
        "county_id": 1880771825,
        "empire_id": 136253055,
        "locality_id": 101750367,
        "macrocounty_id": 1880762179,
        "macroregion_id": 404227469,
        "neighbourhood_id": 85787065,
        "region_id": 1880762729
      }
    ],
    "wof:id": 85787065,
    "wof:lang": [
      "eng"
    ],
    "wof:lastmodified": 1765391018,
    "wof:name": "Downe",
    "wof:parent_id": 1158857297,
    "wof:placetype": "neighbourhood",
    "wof:population": 327,
    "wof:population_rank": 2,
    "wof:repo": "whosonfirst-data-admin-gb",
    "wof:superseded_by": [],
    "wof:supersedes": [],
    "wof:tags": []
  },
  "bbox": [
    0.041199,
    51.324563,
    0.084094,
    51.355276
  ],
  "geometry": {"type":"Polygon","coordinates":[[[0.052386,51.355276],[0.054932,51.351201],[0.054932,51.351201],[0.060425,51.351201],[0.060425,51.351201],[0.060425,51.34777],[0.065678,51.34777],[0.065918,51.348],[0.066638,51.34777],[0.067832,51.347388],[0.068665,51.346054],[0.071411,51.346054],[0.072008,51.346054],[0.072366,51.344339],[0.076904,51.344339],[0.076904,51.34281],[0.079165,51.339191],[0.082708,51.337645],[0.083309,51.337003],[0.084094,51.335117],[0.083966,51.333809],[0.083397,51.331933],[0.082472,51.330204],[0.082168,51.329833],[0.082167,51.329831],[0.082023,51.329359],[0.081626,51.328617],[0.08163,51.328612],[0.074205,51.327698],[0.073556,51.327179],[0.071411,51.327179],[0.065918,51.327179],[0.060425,51.327179],[0.055886,51.327179],[0.055529,51.325463],[0.052185,51.325463],[0.051113,51.325463],[0.050207,51.324739],[0.049438,51.324563],[0.048126,51.325463],[0.043945,51.325463],[0.041701,51.327259],[0.041951,51.33006],[0.041434,51.330612],[0.041199,51.330988],[0.041199,51.334044],[0.041199,51.33576],[0.041199,51.336827],[0.043226,51.337476],[0.043945,51.337706],[0.043945,51.340907],[0.043945,51.342623],[0.046089,51.344338],[0.047295,51.344338],[0.047295,51.344339],[0.049438,51.34777],[0.049438,51.34777],[0.049438,51.351201],[0.049438,51.352916],[0.052386,51.355276]]]}
}
