{
  "id": 85684099,
  "type": "Feature",
  "properties": {
    "edtf:cessation": "",
    "edtf:deprecated": "2017-12-20",
    "edtf:inception": "",
    "geom:area": 0.004864471765499952,
    "geom:area_square_m": 37518073.722626,
    "geom:bbox": "-0.254200,51.380146,-0.124159,51.441444",
    "geom:latitude": 51.409955858212236,
    "geom:longitude": -0.197249903198426,
    "iso:country": "GB",
    "lbl:latitude": 51.41318,
    "lbl:longitude": -0.209058,
    "mps:latitude": 51.41318,
    "mps:longitude": -0.209058,
    "mz:hierarchy_label": 1,
    "mz:is_current": 0,
    "mz:is_funky": 1,
    "mz:max_zoom": 11,
    "mz:min_zoom": 11,
    "name:ben_x_preferred": [
      "মেটন"
    ],
    "name:cat_x_preferred": [
      "Merton"
    ],
    "name:ceb_x_preferred": [
      "Merton"
    ],
    "name:ces_x_preferred": [
      "Merton"
    ],
    "name:cym_x_preferred": [
      "Merton"
    ],
    "name:dan_x_preferred": [
      "Merton"
    ],
    "name:deu_x_preferred": [
      "Merton"
    ],
    "name:deu_x_variant": [
      "London Borough of Merton"
    ],
    "name:eng_x_preferred": [
      "Merton"
    ],
    "name:eus_x_preferred": [
      "Merton"
    ],
    "name:fas_x_preferred": [
      "منطقه مرتون لندن"
    ],
    "name:fin_x_preferred": [
      "Merton"
    ],
    "name:fra_x_preferred": [
      "Merton"
    ],
    "name:fra_x_variant": [
      "district londonien de Merton"
    ],
    "name:gle_x_preferred": [
      "Buirg Londan Merton"
    ],
    "name:guj_x_preferred": [
      "લંડન બોરો ઓફ મેર્ટન"
    ],
    "name:heb_x_preferred": [
      "מרטון"
    ],
    "name:hin_x_preferred": [
      "मर्टन बरो"
    ],
    "name:hrv_x_preferred": [
      "Merton"
    ],
    "name:hun_x_preferred": [
      "Merton kerület"
    ],
    "name:hye_x_preferred": [
      "Մերտոն"
    ],
    "name:isl_x_preferred": [
      "Merton"
    ],
    "name:ita_x_preferred": [
      "Merton"
    ],
    "name:jpn_x_preferred": [
      "マートン"
    ],
    "name:kan_x_preferred": [
      "ಲಂಡನ್ ಬರೋ ಆಫ್ ಮೆರ್ಟನ್"
    ],
    "name:kor_x_preferred": [
      "머턴"
    ],
    "name:lat_x_preferred": [
      "Merton"
    ],
    "name:lav_x_preferred": [
      "Mertona"
    ],
    "name:nld_x_preferred": [
      "Merton"
    ],
    "name:nno_x_preferred": [
      "London Borough of Merton"
    ],
    "name:nob_x_preferred": [
      "Merton"
    ],
    "name:nor_x_preferred": [
      "Merton"
    ],
    "name:pnb_x_preferred": [
      "مرٹن"
    ],
    "name:pol_x_preferred": [
      "Merton"
    ],
    "name:por_x_preferred": [
      "Merton"
    ],
    "name:ron_x_preferred": [
      "Merton"
    ],
    "name:rus_x_preferred": [
      "Мертон"
    ],
    "name:sco_x_preferred": [
      "Lunnon Borough o Merton"
    ],
    "name:spa_x_preferred": [
      "Merton"
    ],
    "name:srp_x_preferred": [
      "Лондонска општина Мертон"
    ],
    "name:swe_x_preferred": [
      "Merton"
    ],
    "name:tam_x_preferred": [
      "லண்டன்  பாரூக்ஹ்  ஆப்  மெர்டோன்"
    ],
    "name:tel_x_preferred": [
      "లండన్ బోరోగ్ అఫ్ మెర్టన్"
    ],
    "name:tgl_x_preferred": [
      "Merton"
    ],
    "name:ukr_x_preferred": [
      "Мертон"
    ],
    "name:urd_x_preferred": [
      "مرٹن بورو"
    ],
    "name:vie_x_preferred": [
      "Khu Merton của Luân Đôn"
    ],
    "name:yid_x_preferred": [
      "לאנדאנער בארא פון מערטאן"
    ],
    "name:zho_x_preferred": [
      "默頓區"
    ],
    "ne:abbrev": "Merton",
    "ne:adm0_a3": "GBR",
    "ne:adm0_label": "7",
    "ne:adm0_sr": "1",
    "ne:adm1_cod_1": "GBR-2073",
    "ne:adm1_code": "GBR-2073",
    "ne:admin": "United Kingdom",
    "ne:area_sqkm": "0.00000000000",
    "ne:check_me": "20",
    "ne:code_hasc": "GB.ME",
    "ne:code_local": "",
    "ne:datarank": "5",
    "ne:diss_me": "2073",
    "ne:featurecla": "Admin-1 scale rank",
    "ne:fips": "UK17",
    "ne:fips_alt": "UKI4",
    "ne:gadm_level": "2",
    "ne:geonunit": "England",
    "ne:gn_a1_code": "GB.",
    "ne:gn_id": "-2648110",
    "ne:gn_level": "-2",
    "ne:gn_name": "Greater London",
    "ne:gn_region": "",
    "ne:gns_adm1": "",
    "ne:gns_id": "6077613",
    "ne:gns_lang": "ind",
    "ne:gns_level": "1",
    "ne:gns_name": "Merton, London Borough of",
    "ne:gns_region": "UK35",
    "ne:gu_a3": "ENG",
    "ne:hasc_maybe": "",
    "ne:iso_3166_2": "GB-",
    "ne:iso_a2": "GB",
    "ne:labelrank": "9",
    "ne:latitude": "51.40870000000",
    "ne:longitude": "-0.18150800000",
    "ne:mapcolor13": 3,
    "ne:mapcolor9": 6,
    "ne:name": "Merton",
    "ne:name_alt": "",
    "ne:name_len": 6,
    "ne:name_local": "",
    "ne:note": "",
    "ne:postal": "ME",
    "ne:provnum_ne": "3",
    "ne:region": "Greater London",
    "ne:region_cod": "",
    "ne:region_sub": "Greater London",
    "ne:sameascity": "-99",
    "ne:scalerank": "8",
    "ne:sov_a3": "GB1",
    "ne:sub_code": "",
    "ne:type": "London Borough",
    "ne:type_en": "London Borough",
    "ne:wikipedia": "",
    "ne:woe_id": 12695834,
    "ne:woe_label": "",
    "ne:woe_name": "London Borough of Merton",
    "qs:a0": "United Kingdom",
    "qs:a0_lc": "GB00000000",
    "qs:a1": "Merton",
    "qs:a1_alt": "Merton",
    "qs:a1_lc": "GB12BA0000",
    "qs:a1r": "England",
    "qs:a1r_alt": "England",
    "qs:a1r_lc": "GB12000000",
    "qs:adm0": "United Kingdom",
    "qs:adm0_a3": "GBR",
    "qs:level": "adm1",
    "qs:source": "EuroGlobalMap",
    "qs:type": "London Borough",
    "src:geom": "quattroshapes",
    "src:geom_alt": [],
    "src:lbl:centroid": "mapshaper",
    "src:population": "wikidata",
    "unlc:subdivision": "GB-MRT",
    "wd:wordcount": 81,
    "wof:belongsto": [
      102191581,
      85633159,
      404227469
    ],
    "wof:breaches": [],
    "wof:concordances": {
      "fips:code": "UK17",
      "gn:id": -2648110,
      "gp:id": 12695834,
      "hasc:id": "GB.ME",
      "unlc:id": "GB-MRT",
      "wd:id": "Q32504"
    },
    "wof:country": "GB",
    "wof:created": 1765390942,
    "wof:geomhash": "b8b8dc747ce9b7fac446570b0b4de8f0",
    "wof:hierarchy": [
      {
        "continent_id": 102191581,
        "country_id": 85633159,
        "macroregion_id": 404227469,
        "region_id": 85684099
      }
    ],
    "wof:id": 85684099,
    "wof:lastmodified": 1765390942,
    "wof:name": "Merton",
    "wof:parent_id": 404227469,
    "wof:placetype": "region",
    "wof:population": 214709,
    "wof:population_rank": 10,
    "wof:repo": "whosonfirst-data-admin-gb",
    "wof:shortcode": "ME",
    "wof:subdivision": "GB-MRT",
    "wof:superseded_by": [
      1158857305
    ],
    "wof:supersedes": [],
    "wof:tags": []
  },
  "bbox": [
    -0.2542,
    51.380146,
    -0.124159,
    51.441444
  ],
  "geometry": {"type":"Polygon","coordinates":[[[-0.140344,51.419246],[-0.14492,51.415889],[-0.144072,51.415462],[-0.147993,51.412864],[-0.144654,51.412334],[-0.142584,51.413315],[-0.139484,51.412174],[-0.134014,51.411003],[-0.133569,51.412586],[-0.132676,51.412342],[-0.12787,51.411979],[-0.127744,51.412315],[-0.127537,51.412254],[-0.128075,51.411094],[-0.128552,51.410949],[-0.129416,51.409572],[-0.132028,51.409168],[-0.132257,51.406925],[-0.130445,51.403274],[-0.128079,51.401821],[-0.125632,51.398361],[-0.124159,51.397598],[-0.129696,51.393669],[-0.128886,51.393432],[-0.134318,51.39088],[-0.141863,51.389339],[-0.143196,51.390426],[-0.144317,51.390674],[-0.157575,51.389206],[-0.160974,51.387764],[-0.161869,51.388153],[-0.16523,51.387974],[-0.166395,51.38969],[-0.169911,51.39172],[-0.174807,51.393413],[-0.179053,51.389938],[-0.188394,51.385444],[-0.193891,51.387867],[-0.200257,51.38496],[-0.203458,51.387222],[-0.204966,51.386089],[-0.209733,51.388248],[-0.218077,51.380146],[-0.227683,51.383949],[-0.233869,51.387707],[-0.234598,51.390533],[-0.239632,51.389293],[-0.241727,51.393936],[-0.244632,51.394706],[-0.24743,51.397644],[-0.246791,51.400543],[-0.245148,51.401874],[-0.244595,51.403854],[-0.245442,51.407352],[-0.246992,51.407879],[-0.247489,51.408561],[-0.247078,51.40958],[-0.2494,51.414787],[-0.249548,51.418468],[-0.251174,51.42247],[-0.252899,51.423332],[-0.252355,51.426327],[-0.2542,51.429504],[-0.253299,51.430919],[-0.251025,51.432564],[-0.231264,51.438137],[-0.224217,51.438858],[-0.220378,51.438446],[-0.217721,51.438671],[-0.215622,51.437725],[-0.204457,51.438904],[-0.190022,51.441444],[-0.189716,51.439991],[-0.190687,51.438961],[-0.189244,51.438156],[-0.191053,51.433037],[-0.189721,51.431328],[-0.189227,51.431804],[-0.187396,51.43206],[-0.187308,51.432903],[-0.185742,51.433086],[-0.184262,51.431228],[-0.184455,51.42707],[-0.181984,51.424698],[-0.173287,51.423069],[-0.168364,51.420906],[-0.164773,51.420337],[-0.165033,51.420089],[-0.161632,51.419819],[-0.159912,51.421924],[-0.159974,51.422664],[-0.151265,51.419849],[-0.149718,51.420009],[-0.144505,51.41774],[-0.140344,51.419246]]]}
}
