{
  "id": 85860191,
  "type": "Feature",
  "properties": {
    "edtf:cessation": "",
    "edtf:inception": "",
    "geom:area": 0.00019928536850004713,
    "geom:area_square_m": 1533521.9992,
    "geom:bbox": "0.046692,51.507033,0.072364,51.520707",
    "geom:latitude": 51.51389419346688,
    "geom:longitude": 0.05928447602841301,
    "gn:id": "",
    "iso:country": "GB",
    "lbl:latitude": 51.516046,
    "lbl:longitude": 0.05592,
    "lbl:max_zoom": 18,
    "mps:latitude": 51.514725,
    "mps:longitude": 0.059289,
    "mz:hierarchy_label": 1,
    "mz:is_current": -1,
    "mz:is_funky": 0,
    "mz:is_hard_boundary": 0,
    "mz:is_landuse_aoi": 0,
    "mz:is_official": 0,
    "mz:max_zoom": 18,
    "mz:min_zoom": 16,
    "mz:tier_locality": 7,
    "mz:tier_metro": 1,
    "name:azb_x_preferred": [
      "بکتون"
    ],
    "name:eng_x_preferred": [
      "Mid Beckton"
    ],
    "name:eng_x_variant": [
      "Beckton"
    ],
    "name:fas_x_preferred": [
      "بکتون"
    ],
    "name:fra_x_preferred": [
      "West Hythe"
    ],
    "name:fra_x_variant": [
      "Beckton"
    ],
    "name:gle_x_preferred": [
      "Beckton"
    ],
    "name:heb_x_preferred": [
      "בקטון"
    ],
    "name:ita_x_preferred": [
      "Beckton"
    ],
    "name:jpn_x_preferred": [
      "ベックトン"
    ],
    "name:nld_x_preferred": [
      "Beckton"
    ],
    "name:nob_x_preferred": [
      "Beckton"
    ],
    "name:urd_x_preferred": [
      "بیکٹن"
    ],
    "name:zho_x_preferred": [
      "貝克頓"
    ],
    "qs:gn_adm0_cc": "GB",
    "qs:gn_id": 0,
    "qs:gn_local": 2643743,
    "qs:gn_namadm1": "ENG",
    "qs:local_max": 40697,
    "qs:local_sum": 1675717,
    "qs:localhoods": 643,
    "qs:name": "Mid Beckton",
    "qs:name_adm0": "United Kingdom",
    "qs:name_adm1": "England",
    "qs:name_adm2": "Greater London",
    "qs:name_lau": "London Borough of Newham",
    "qs:name_local": "London",
    "qs:photo_max": 142,
    "qs:photo_sum": 1500,
    "qs:placetype": "Suburb",
    "qs:quad_count": 56,
    "qs:woe_adm0": 23424975,
    "qs:woe_adm1": 24554868,
    "qs:woe_adm2": 23416974,
    "qs:woe_lau": 12695815,
    "qs:woe_local": 44418,
    "qs:woe_ver": "7.10.0",
    "src:geom": "quattroshapes",
    "src:geom_alt": [
      "quattroshapes_pg"
    ],
    "src:lbl_centroid": "mz",
    "src:population": "wikidata",
    "wd:wordcount": 1685,
    "wof:belongsto": [
      1880762729,
      102191581,
      1880762179,
      85633159,
      404227469,
      101750367,
      136253055,
      1158857293,
      1880771825
    ],
    "wof:breaches": [],
    "wof:concordances": {
      "gp:id": 20089376,
      "qs_pg:id": 237456,
      "wd:id": "Q3417728"
    },
    "wof:country": "GB",
    "wof:created": 1765391318,
    "wof:geom_alt": [
      "quattroshapes_pg"
    ],
    "wof:geomhash": "f482bc678553a0b645a8199fb1a0ccf1",
    "wof:hierarchy": [
      {
        "borough_id": 1158857293,
        "continent_id": 102191581,
        "country_id": 85633159,
        "county_id": 1880771825,
        "empire_id": 136253055,
        "locality_id": 101750367,
        "macrocounty_id": 1880762179,
        "macroregion_id": 404227469,
        "neighbourhood_id": 85860191,
        "region_id": 1880762729
      }
    ],
    "wof:id": 85860191,
    "wof:lang": [
      "eng"
    ],
    "wof:lastmodified": 1765391318,
    "wof:name": "Mid Beckton",
    "wof:parent_id": 1158857293,
    "wof:placetype": "neighbourhood",
    "wof:population": 33247,
    "wof:population_rank": 7,
    "wof:repo": "whosonfirst-data-admin-gb",
    "wof:superseded_by": [],
    "wof:supersedes": [],
    "wof:tags": []
  },
  "bbox": [
    0.046692,
    51.507033,
    0.072364,
    51.520707
  ],
  "geometry": {"type":"Polygon","coordinates":[[[0.068665,51.520707],[0.068665,51.518998],[0.071411,51.518998],[0.071411,51.517467],[0.071411,51.51711],[0.072364,51.51558],[0.071832,51.513016],[0.071411,51.513016],[0.069196,51.513016],[0.068665,51.512161],[0.065918,51.512161],[0.065386,51.511307],[0.063703,51.511307],[0.063171,51.510452],[0.060425,51.510452],[0.057678,51.510452],[0.057678,51.508742],[0.054932,51.508742],[0.054932,51.507033],[0.052185,51.507033],[0.049915,51.507033],[0.049438,51.507033],[0.049438,51.507888],[0.048065,51.507888],[0.048065,51.508742],[0.046692,51.508742],[0.046692,51.509508],[0.046692,51.510452],[0.046692,51.512161],[0.046692,51.512221],[0.049438,51.513692],[0.049438,51.514049],[0.049438,51.51558],[0.053979,51.51558],[0.054932,51.51711],[0.054932,51.517467],[0.054932,51.518998],[0.060425,51.518998],[0.065918,51.518998],[0.065918,51.520707],[0.068665,51.520707]]]}
}
