{
  "id": 1125950771,
  "type": "Feature",
  "properties": {
    "edtf:cessation": "",
    "edtf:inception": "",
    "geom:area": 0,
    "geom:area_square_m": 0,
    "geom:bbox": "-3.828720,56.022460,-3.828720,56.022460",
    "geom:latitude": 56.02246,
    "geom:longitude": -3.82872,
    "gn:country": "GB",
    "gn:fcode": "PPL",
    "gn:population": 11000,
    "iso:country": "GB",
    "lbl:bbox": "-3.84872,56.00246,-3.80872,56.04246",
    "lbl:latitude": 56.02246,
    "lbl:longitude": -3.82872,
    "lbl:max_zoom": 15,
    "lbl:min_zoom": 11,
    "mz:hierarchy_label": 1,
    "mz:is_current": 1,
    "mz:min_zoom": 11,
    "mz:note": "Quattroshapes Point Gazetteer import 20170519",
    "name:ast_x_preferred": [
      "Larbert"
    ],
    "name:aze_x_preferred": [
      "Larbert"
    ],
    "name:ceb_x_preferred": [
      "Larbert"
    ],
    "name:cym_x_preferred": [
      "Larbert"
    ],
    "name:deu_x_preferred": [
      "Larbert"
    ],
    "name:eng_x_preferred": [
      "Larbert"
    ],
    "name:eus_x_preferred": [
      "Larbert"
    ],
    "name:fas_x_preferred": [
      "لاربرت"
    ],
    "name:fra_x_preferred": [
      "Larbert"
    ],
    "name:gla_x_preferred": [
      "Lèirbert"
    ],
    "name:gla_x_variant": [
      "Lèirbeart"
    ],
    "name:gle_x_preferred": [
      "Léirbert"
    ],
    "name:gle_x_variant": [
      "Leth-Pheairt"
    ],
    "name:ita_x_preferred": [
      "Larbert"
    ],
    "name:jpn_x_preferred": [
      "ラーバート"
    ],
    "name:ltz_x_preferred": [
      "Larbert"
    ],
    "name:nld_x_preferred": [
      "Larbert"
    ],
    "name:pol_x_preferred": [
      "Larbert"
    ],
    "name:rus_x_preferred": [
      "Ларберт"
    ],
    "name:sco_x_preferred": [
      "Lairbert"
    ],
    "name:sco_x_variant": [
      "Trumland Ho"
    ],
    "name:spa_x_preferred": [
      "Larbert"
    ],
    "name:swe_x_preferred": [
      "Larbert"
    ],
    "name:zho_x_preferred": [
      "拉伯特"
    ],
    "qs_pg:aaroncc": "GB",
    "qs_pg:gn_country": "GB",
    "qs_pg:gn_fcode": "PPL",
    "qs_pg:gn_id": 2644867,
    "qs_pg:gn_pop": 11000,
    "qs_pg:name": "Larbert",
    "qs_pg:name_adm0": "United Kingdom",
    "qs_pg:name_adm1": "Scotland",
    "qs_pg:photos": 1728,
    "qs_pg:photos_1k": 350,
    "qs_pg:photos_9k": 8,
    "qs_pg:photos_9r": 8,
    "qs_pg:photos_all": 1728,
    "qs_pg:photos_sr": 14,
    "qs_pg:pop_sr": 6,
    "qs_pg:qs_id": 230857,
    "qs_pg:qs_pg_placetype": "locality",
    "qs_pg:qs_pg_placetype_gp": "Town",
    "qs_pg:woe_adm0": 23424975,
    "qs_pg:woe_id": 25842,
    "src:geom": "qs_pg",
    "src:lbl_centroid": "qs_pg",
    "src:population": "wikidata",
    "woe:adm0_id": 23424975,
    "woe:name_adm0": "United Kingdom",
    "woe:name_adm1": "Scotland",
    "woe:placetype": "Town",
    "wof:belongsto": [
      1880762131,
      1360698865
    ],
    "wof:breaches": [],
    "wof:concordances": {
      "gn:id": 2644867,
      "gp:id": 25842,
      "qs_pg:id": 230857,
      "wd:id": "Q1389537"
    },
    "wof:country": "GB",
    "wof:created": 1497297447,
    "wof:geomhash": "81a4fb952f1edf1baa83e42655622a65",
    "wof:hierarchy": [
      {
        "continent_id": -1,
        "country_id": -1,
        "county_id": 1360698865,
        "locality_id": 1125950771,
        "macrocounty_id": 1880762131,
        "region_id": -1
      }
    ],
    "wof:id": 1125950771,
    "wof:lastmodified": 1765386907,
    "wof:name": "Larbert",
    "wof:parent_id": 1360698865,
    "wof:placetype": "locality",
    "wof:population": 11050,
    "wof:population_rank": 6,
    "wof:repo": "whosonfirst-data-admin-gb",
    "wof:superseded_by": [],
    "wof:supersedes": [],
    "wof:tags": []
  },
  "bbox": [
    -3.82872,
    56.02246,
    -3.82872,
    56.02246
  ],
  "geometry": {"type":"Point","coordinates":[-3.82872,56.02246]}
}
