{
  "id": 1360808193,
  "type": "Feature",
  "properties": {
    "edtf:cessation": "",
    "edtf:deprecated": "2024-01-19",
    "edtf:inception": "",
    "edtf:superseded": "2024-01-19",
    "geom:area": 0,
    "geom:area_square_m": 0,
    "geom:bbox": "-0.385380,51.319240,-0.385380,51.319240",
    "geom:latitude": 51.31924,
    "geom:longitude": -0.38538,
    "gn:admin1_code": "ENG",
    "gn:admin2_code": "N7",
    "gn:admin3_code": "43UE",
    "gn:asciiname": "Stoke D'Abernon",
    "gn:country_code": "GB",
    "gn:dem": 29,
    "gn:feature_class": "P",
    "gn:feature_code": "PPL",
    "gn:geonameid": 2636860,
    "gn:latitude": 51.31924,
    "gn:longitude": -0.38538,
    "gn:modification_date": "2014-12-31",
    "gn:name": "Stoke D’Abernon",
    "gn:population": 0,
    "gn:timezone": "Europe/London",
    "iso:country": "GB",
    "lbl:bbox": "-0.39038,51.31424,-0.38038,51.32424",
    "lbl:max_zoom": 18,
    "mz:hierarchy_label": 1,
    "mz:is_current": 0,
    "mz:min_zoom": 15,
    "src:geom": "geonames",
    "src:population": "wikidata",
    "wof:belongsto": [
      102191581,
      1880761993,
      1360817207,
      85633159,
      404227469,
      1126029813,
      136253055,
      1880771665,
      1880762727
    ],
    "wof:breaches": [],
    "wof:concordances": {
      "gn:id": 2636860
    },
    "wof:country": "GB",
    "wof:created": 1765390582,
    "wof:geomhash": "80b7cf75b6e6dbe99c487fd16a3c6ac7",
    "wof:hierarchy": [
      {
        "continent_id": 102191581,
        "country_id": 85633159,
        "county_id": 1880771665,
        "empire_id": 136253055,
        "localadmin_id": 1360817207,
        "locality_id": 1126029813,
        "macrocounty_id": 1880761993,
        "macroregion_id": 404227469,
        "neighbourhood_id": 1360808193,
        "region_id": 1880762727
      }
    ],
    "wof:id": 1360808193,
    "wof:lastmodified": 1765390582,
    "wof:name": "Stoke D'Abernon",
    "wof:parent_id": 1126029813,
    "wof:placetype": "neighbourhood",
    "wof:population": 1693,
    "wof:population_rank": 3,
    "wof:repo": "whosonfirst-data-admin-gb",
    "wof:superseded_by": [
      1360793431
    ],
    "wof:supersedes": [
      1293524749
    ],
    "wof:tags": []
  },
  "bbox": [
    -0.38538,
    51.31924,
    -0.38538,
    51.31924
  ],
  "geometry": {"type":"Point","coordinates":[-0.38538,51.31924]}
}
