{
  "id": 1360790965,
  "type": "Feature",
  "properties": {
    "edtf:cessation": "",
    "edtf:inception": "",
    "geom:area": 0,
    "geom:area_square_m": 0,
    "geom:bbox": "-0.800948,53.083585,-0.800948,53.083585",
    "geom:latitude": 53.083585,
    "geom:longitude": -0.800948,
    "gn:population": 25376,
    "iso:country": "GB",
    "lbl:bbox": "-0.805948,53.078585,-0.795948,53.088585",
    "lbl:latitude": 53.083585,
    "lbl:longitude": -0.800948,
    "lbl:max_zoom": 18,
    "mps:latitude": 53.083585,
    "mps:longitude": -0.800948,
    "mz:hierarchy_label": 1,
    "mz:is_current": 1,
    "mz:min_zoom": 15,
    "name:azb_x_preferred": [
      "نیوارک-آن-ترنت"
    ],
    "name:bel_x_preferred": [
      "Ньюарк-он-Трэнт"
    ],
    "name:ben_x_preferred": [
      "নিউয়ার্ক"
    ],
    "name:bul_x_preferred": [
      "Нюарк он Трент"
    ],
    "name:cat_x_preferred": [
      "Newark-on-Trent"
    ],
    "name:ceb_x_preferred": [
      "Newark on Trent"
    ],
    "name:ces_x_preferred": [
      "Newark-on-Trent"
    ],
    "name:cym_x_preferred": [
      "Newark-on-Trent"
    ],
    "name:deu_x_preferred": [
      "Newark-on-Trent"
    ],
    "name:ell_x_preferred": [
      "Νιούαρκ ον Τρεντ"
    ],
    "name:ell_x_variant": [
      "Νιούαρκ-ον-Τρεντ"
    ],
    "name:eng_x_preferred": [
      "Newark-on-Trent"
    ],
    "name:eng_x_variant": [
      "Newark",
      "Newark on Trent",
      "Newark upon Trent"
    ],
    "name:epo_x_preferred": [
      "Newark-on-Trent"
    ],
    "name:est_x_preferred": [
      "Newark-on-Trent"
    ],
    "name:fas_x_preferred": [
      "نیوارک-آن-ترنت"
    ],
    "name:fra_x_preferred": [
      "Newark-on-Trent"
    ],
    "name:gle_x_preferred": [
      "Newark-on-Trent"
    ],
    "name:guj_x_preferred": [
      "નેવાર્ક-ઑન-ટ્રેન્ટ"
    ],
    "name:heb_x_preferred": [
      "ניוארק און טרנט"
    ],
    "name:hun_x_preferred": [
      "Newark-on-Trent"
    ],
    "name:ita_x_preferred": [
      "Newark-on-Trent"
    ],
    "name:jpn_x_preferred": [
      "ニューアーク＝オン＝トレント"
    ],
    "name:kan_x_preferred": [
      "ನೆವಾರ್ಕ್-ಆನ್-ಟ್ರೆಂಟ್"
    ],
    "name:kor_x_preferred": [
      "뉴어크온트렌트"
    ],
    "name:lit_x_preferred": [
      "Niuvarkas"
    ],
    "name:lld_x_preferred": [
      "Newark-on-Trent"
    ],
    "name:nan_x_preferred": [
      "Newark-on-Trent"
    ],
    "name:nld_x_preferred": [
      "Newark-on-Trent"
    ],
    "name:nno_x_preferred": [
      "Newark-on-Trent"
    ],
    "name:nob_x_preferred": [
      "Newark-on-Trent"
    ],
    "name:nor_x_preferred": [
      "Newark-on-Trent"
    ],
    "name:oci_x_preferred": [
      "Newark-on-Trent"
    ],
    "name:pol_x_preferred": [
      "Newark-on-Trent"
    ],
    "name:por_x_preferred": [
      "Newark-on-Trent"
    ],
    "name:ron_x_preferred": [
      "Newark-on-Trent"
    ],
    "name:rus_x_preferred": [
      "Ньюарк-он-Трент"
    ],
    "name:slv_x_preferred": [
      "Newark-on-Trent"
    ],
    "name:spa_x_preferred": [
      "Newark-on-Trent"
    ],
    "name:srp_x_preferred": [
      "Njuark"
    ],
    "name:swe_x_preferred": [
      "Newark-on-Trent"
    ],
    "name:tam_x_preferred": [
      "நியூயார்க் -அன் -ட்ரெண்ட்"
    ],
    "name:tel_x_preferred": [
      "న్యూయార్క్-ఆన్-ట్రెంట్"
    ],
    "name:ukr_x_preferred": [
      "Ньюарк-он-Трент"
    ],
    "name:urd_x_preferred": [
      "نیوارک آن ٹرینٹ"
    ],
    "name:vol_x_preferred": [
      "Newark-on-Trent"
    ],
    "name:zho_x_preferred": [
      "特倫特河畔紐瓦克"
    ],
    "qs:a0": "United Kingdom",
    "qs:a1": "*Nottinghamshire",
    "qs:a1_lc": "GB12370000",
    "qs:a1r": "0England",
    "qs:a1r_lc": "GB12000000",
    "qs:adm0": "United Kingdom",
    "qs:la_lc": "*",
    "qs:level": "locality",
    "qs:loc": "Newark on Trent",
    "qs:loc_alt": "Newark on Trent",
    "qs:pop": 0,
    "qs:source": "RCustom EuroGlobalMap + UMZ Urban Polygons + Geonames + GeoPlanet",
    "qs:type": "buffered point",
    "src:geom": "whosonfirst",
    "src:geom_alt": [
      "quattroshapes_pg",
      "quattroshapes"
    ],
    "src:geom_via": "quattroshapes",
    "src:lbl_centroid": "mapshaper",
    "src:population": "wikidata",
    "wd:latitude": 53.134722,
    "wd:longitude": -1.35,
    "wd:wordcount": 4626,
    "wof:belongsto": [
      1880762689,
      102191581,
      1880762077,
      404444647,
      85633159,
      404227469,
      1360758949,
      136253055,
      1880771361
    ],
    "wof:breaches": [],
    "wof:concordances": {
      "fct:id": "0aa2b7a8-8f76-11e1-848f-cfd5bf3ef515",
      "gn:id": 2641731,
      "gp:id": 30008,
      "qs_pg:id": 900907,
      "wd:id": "Q49940",
      "wk:page": "Newark-on-Trent"
    },
    "wof:country": "GB",
    "wof:created": 1765389443,
    "wof:geomhash": "c012b4328ee6073952488f715e49e437",
    "wof:hierarchy": [
      {
        "continent_id": 102191581,
        "country_id": 85633159,
        "county_id": 1880771361,
        "empire_id": 136253055,
        "localadmin_id": 404444647,
        "locality_id": 1360758949,
        "macrocounty_id": 1880762077,
        "macroregion_id": 404227469,
        "neighbourhood_id": 1360790965,
        "region_id": 1880762689
      }
    ],
    "wof:id": 1360790965,
    "wof:lang": [
      "eng"
    ],
    "wof:lastmodified": 1765389443,
    "wof:name": "Newark on Trent",
    "wof:parent_id": 1360758949,
    "wof:placetype": "neighbourhood",
    "wof:population": 30345,
    "wof:population_rank": 7,
    "wof:repo": "whosonfirst-data-admin-gb",
    "wof:superseded_by": [],
    "wof:supersedes": [
      101871931
    ],
    "wof:tags": []
  },
  "bbox": [
    -0.800948,
    53.083585,
    -0.800948,
    53.083585
  ],
  "geometry": {"type":"Point","coordinates":[-0.800948,53.083585]}
}
