{
  "id": 85790111,
  "type": "Feature",
  "properties": {
    "edtf:cessation": "",
    "edtf:inception": "",
    "geom:area": 0.001032776213499961,
    "geom:area_square_m": 7936052.762122,
    "geom:bbox": "-0.450439,51.558466,-0.411987,51.597548",
    "geom:latitude": 51.578473106228046,
    "geom:longitude": -0.4302161789519923,
    "gn:latitude": 51.57344,
    "gn:longitude": -0.42341,
    "gn:population": 31000,
    "iso:country": "GB",
    "lbl:latitude": 51.574405,
    "lbl:longitude": -0.42264,
    "lbl:max_zoom": 18,
    "mps:latitude": 51.577919,
    "mps:longitude": -0.429864,
    "mz:hierarchy_label": 1,
    "mz:is_current": 1,
    "mz:is_funky": 0,
    "mz:is_hard_boundary": 0,
    "mz:is_landuse_aoi": 0,
    "mz:is_official": 0,
    "mz:max_zoom": 18,
    "mz:min_zoom": 13,
    "mz:tier_locality": 7,
    "mz:tier_metro": 1,
    "name:azb_x_preferred": [
      "رایسلیپ"
    ],
    "name:bul_x_preferred": [
      "Руислип"
    ],
    "name:cat_x_preferred": [
      "Ruislip"
    ],
    "name:ceb_x_preferred": [
      "Ruislip"
    ],
    "name:deu_x_preferred": [
      "Rußlip"
    ],
    "name:eng_x_preferred": [
      "Ruislip"
    ],
    "name:fas_x_preferred": [
      "رایسلیپ"
    ],
    "name:fra_x_preferred": [
      "Ruislip"
    ],
    "name:gle_x_preferred": [
      "Ruislip"
    ],
    "name:heb_x_preferred": [
      "רואיסליפ"
    ],
    "name:hin_x_preferred": [
      "राइस्लिप"
    ],
    "name:hye_x_preferred": [
      "Ռուիսլիփ"
    ],
    "name:ita_x_preferred": [
      "Ruislip"
    ],
    "name:jpn_x_preferred": [
      "ルイスリップ"
    ],
    "name:nld_x_preferred": [
      "Ruislip"
    ],
    "name:nob_x_preferred": [
      "Ruislip"
    ],
    "name:nor_x_preferred": [
      "Ruislip"
    ],
    "name:pol_x_preferred": [
      "Ruislip"
    ],
    "name:rus_x_preferred": [
      "Райслип"
    ],
    "name:slv_x_preferred": [
      "Ruislip"
    ],
    "name:spa_x_preferred": [
      "Ruislip"
    ],
    "name:swe_x_preferred": [
      "Ruislip"
    ],
    "name:urd_x_preferred": [
      "رویسلپ"
    ],
    "name:zho_x_preferred": [
      "莱斯里普"
    ],
    "qs:gn_adm0_cc": "GB",
    "qs:gn_fcode": "PPL",
    "qs:gn_local": 2643743,
    "qs:gn_namadm1": "ENG",
    "qs:gn_name": "Ruislip",
    "qs:local_max": 40697,
    "qs:local_sum": 1675717,
    "qs:localhoods": 643,
    "qs:name": "Ruislip",
    "qs:name_adm0": "United Kingdom",
    "qs:name_adm1": "England",
    "qs:name_adm2": "Greater London",
    "qs:name_lau": "London Borough of Hillingdon",
    "qs:name_local": "London",
    "qs:photo_max": 175,
    "qs:photo_sum": 1138,
    "qs:placetype": "Suburb",
    "qs:quad_count": 63,
    "qs:woe_adm0": 23424975,
    "qs:woe_adm1": 24554868,
    "qs:woe_adm2": 23416974,
    "qs:woe_funk": "Grouping neighborhood",
    "qs:woe_lau": 12695831,
    "qs:woe_local": 44418,
    "qs:woe_ver": "7.10.0",
    "src:geom": "quattroshapes",
    "src:geom_alt": [
      "quattroshapes_pg"
    ],
    "src:lbl_centroid": "mz",
    "src:population": "wikidata",
    "wd:wordcount": 4463,
    "wof:belongsto": [
      1880762729,
      102191581,
      1880762179,
      85633159,
      404227469,
      101750367,
      136253055,
      1158857261,
      1880771825
    ],
    "wof:breaches": [],
    "wof:concordances": {
      "gn:id": 2638976,
      "gp:id": 33749,
      "qs_pg:id": 454147,
      "wd:id": "Q2379971",
      "wk:page": "Ruislip"
    },
    "wof:country": "GB",
    "wof:created": 1765391162,
    "wof:geom_alt": [
      "quattroshapes_pg"
    ],
    "wof:geomhash": "4612b9987769ad9941e2de11a13c99ba",
    "wof:hierarchy": [
      {
        "borough_id": 1158857261,
        "continent_id": 102191581,
        "country_id": 85633159,
        "county_id": 1880771825,
        "empire_id": 136253055,
        "locality_id": 101750367,
        "macrocounty_id": 1880762179,
        "macroregion_id": 404227469,
        "neighbourhood_id": 85790111,
        "region_id": 1880762729
      }
    ],
    "wof:id": 85790111,
    "wof:lang": [
      "eng"
    ],
    "wof:lastmodified": 1765391162,
    "wof:name": "Ruislip",
    "wof:parent_id": 1158857261,
    "wof:placetype": "neighbourhood",
    "wof:population": 58217,
    "wof:population_rank": 8,
    "wof:repo": "whosonfirst-data-admin-gb",
    "wof:superseded_by": [],
    "wof:supersedes": [],
    "wof:tags": []
  },
  "bbox": [
    -0.450439,
    51.558466,
    -0.411987,
    51.597548
  ],
  "geometry": {"type":"Polygon","coordinates":[[[-0.43396,51.596016],[-0.433084,51.595546],[-0.432655,51.595841],[-0.429527,51.595841],[-0.428467,51.594135],[-0.428467,51.594135],[-0.422974,51.594135],[-0.422974,51.594135],[-0.420854,51.594135],[-0.420854,51.594135],[-0.4196,51.594135],[-0.417481,51.590723],[-0.41748,51.590723],[-0.412232,51.590723],[-0.411987,51.590723],[-0.411987,51.58731],[-0.412939,51.58731],[-0.413415,51.585012],[-0.413986,51.584093],[-0.413886,51.583718],[-0.411987,51.58219],[-0.411987,51.580483],[-0.411987,51.57707],[-0.411987,51.577069],[-0.41748,51.577069],[-0.41748,51.575187],[-0.41748,51.573656],[-0.418432,51.573656],[-0.418854,51.572978],[-0.418854,51.571949],[-0.418588,51.571095],[-0.418601,51.571055],[-0.418432,51.570241],[-0.41748,51.570241],[-0.41748,51.567681],[-0.415264,51.567681],[-0.414734,51.566827],[-0.413673,51.56512],[-0.413257,51.564785],[-0.413086,51.564237],[-0.414624,51.563412],[-0.416766,51.562264],[-0.416882,51.561705],[-0.416528,51.559997],[-0.41748,51.558466],[-0.420227,51.559939],[-0.422974,51.558466],[-0.423926,51.559997],[-0.428467,51.559997],[-0.430413,51.559997],[-0.431193,51.562926],[-0.431664,51.563133],[-0.436707,51.561974],[-0.438868,51.56247],[-0.439453,51.563412],[-0.439453,51.563412],[-0.439453,51.566591],[-0.439698,51.566827],[-0.444946,51.566827],[-0.444946,51.566827],[-0.446007,51.568534],[-0.449134,51.568534],[-0.449134,51.568534],[-0.449488,51.570241],[-0.450439,51.570241],[-0.450439,51.573656],[-0.449488,51.573656],[-0.449071,51.575666],[-0.447693,51.575912],[-0.446181,51.575642],[-0.444946,51.576833],[-0.444946,51.57707],[-0.444702,51.57707],[-0.441166,51.580483],[-0.444069,51.582485],[-0.444946,51.583897],[-0.444946,51.583897],[-0.447067,51.58731],[-0.449187,51.589016],[-0.447066,51.590723],[-0.444946,51.594135],[-0.444946,51.594135],[-0.439453,51.594135],[-0.439453,51.596016],[-0.439453,51.597548],[-0.43396,51.597548],[-0.43396,51.596016]]]}
}
