{
  "id": 1360791161,
  "type": "Feature",
  "properties": {
    "edtf:cessation": "",
    "edtf:inception": "",
    "geom:area": 0,
    "geom:area_square_m": 0,
    "geom:bbox": "-0.020854,51.747571,-0.020854,51.747571",
    "geom:latitude": 51.747571,
    "geom:longitude": -0.020854,
    "iso:country": "GB",
    "lbl:bbox": "-0.025854,51.742571,-0.015854,51.752571",
    "lbl:latitude": 51.75217,
    "lbl:longitude": -0.019378,
    "lbl:max_zoom": 18,
    "mps:latitude": 51.75217,
    "mps:longitude": -0.019378,
    "mz:hierarchy_label": 1,
    "mz:is_current": 1,
    "mz:min_zoom": 15,
    "name:ast_x_preferred": [
      "Hoddesdon"
    ],
    "name:azb_x_preferred": [
      "هودسدون"
    ],
    "name:bul_x_preferred": [
      "Ходесдон"
    ],
    "name:ceb_x_preferred": [
      "Hoddesdon"
    ],
    "name:ces_x_preferred": [
      "Hoddesdon"
    ],
    "name:cym_x_preferred": [
      "Hoddesdon"
    ],
    "name:deu_x_preferred": [
      "Hoddesdon"
    ],
    "name:eng_x_preferred": [
      "Hoddesdon"
    ],
    "name:fas_x_preferred": [
      "هودسدون"
    ],
    "name:fra_x_preferred": [
      "Hoddesdon"
    ],
    "name:gle_x_preferred": [
      "Hoddesdon"
    ],
    "name:ita_x_preferred": [
      "Hoddesdon"
    ],
    "name:jpn_x_preferred": [
      "ホッデスドン"
    ],
    "name:lld_x_preferred": [
      "Hoddesdon"
    ],
    "name:nld_x_preferred": [
      "Hoddesdon"
    ],
    "name:nno_x_preferred": [
      "Hoddesdon"
    ],
    "name:nob_x_preferred": [
      "Hoddesdon"
    ],
    "name:nor_x_preferred": [
      "Hoddesdon"
    ],
    "name:pol_x_preferred": [
      "Hoddesdon"
    ],
    "name:ron_x_preferred": [
      "Hoddesdon"
    ],
    "name:rus_x_preferred": [
      "Ходдсдон"
    ],
    "name:rus_x_variant": [
      "Ходдесдон"
    ],
    "name:spa_x_preferred": [
      "Hoddesdon"
    ],
    "name:swe_x_preferred": [
      "Hoddesdon"
    ],
    "name:szl_x_preferred": [
      "Hoddesdon"
    ],
    "name:vol_x_preferred": [
      "Hoddesdon"
    ],
    "name:zho_x_preferred": [
      "霍兹登"
    ],
    "qs:a0": "United Kingdom",
    "qs:a1": "*Hertfordshire",
    "qs:a1_lc": "GB12260000",
    "qs:a1r": "0England",
    "qs:a1r_lc": "GB12000000",
    "qs:adm0": "United Kingdom",
    "qs:la_lc": "*",
    "qs:level": "locality",
    "qs:loc": "Hoddesdon",
    "qs:loc_alt": "Hoddesdon",
    "qs:pop": 0,
    "qs:source": "RCustom EuroGlobalMap + UMZ Urban Polygons + Geonames + GeoPlanet",
    "qs:type": "buffered point",
    "src:geom": "whosonfirst",
    "src:geom_alt": [
      "quattroshapes_pg",
      "quattroshapes"
    ],
    "src:geom_via": "quattroshapes",
    "src:lbl_centroid": "mapshaper",
    "src:population": "wikidata",
    "wd:latitude": 51.759,
    "wd:longitude": -0.015,
    "wd:wordcount": 3258,
    "wof:belongsto": [
      1880762721,
      102191581,
      1880762153,
      1360817279,
      85633159,
      404227469,
      1125881275,
      136253055,
      1880771487
    ],
    "wof:breaches": [],
    "wof:concordances": {
      "gn:id": 2646807,
      "gp:id": 23597,
      "qs_pg:id": 241752,
      "wd:id": "Q1477061",
      "wk:page": "Hoddesdon"
    },
    "wof:country": "GB",
    "wof:created": 1765389460,
    "wof:geomhash": "180445893081027664770984a09da4b0",
    "wof:hierarchy": [
      {
        "continent_id": 102191581,
        "country_id": 85633159,
        "county_id": 1880771487,
        "empire_id": 136253055,
        "localadmin_id": 1360817279,
        "locality_id": 1125881275,
        "macrocounty_id": 1880762153,
        "macroregion_id": 404227469,
        "neighbourhood_id": 1360791161,
        "region_id": 1880762721
      }
    ],
    "wof:id": 1360791161,
    "wof:lastmodified": 1765389460,
    "wof:name": "Hoddesdon",
    "wof:parent_id": 1125881275,
    "wof:placetype": "neighbourhood",
    "wof:population": 42253,
    "wof:population_rank": 7,
    "wof:repo": "whosonfirst-data-admin-gb",
    "wof:superseded_by": [],
    "wof:supersedes": [
      101874049
    ],
    "wof:tags": []
  },
  "bbox": [
    -0.020854,
    51.747571,
    -0.020854,
    51.747571
  ],
  "geometry": {"type":"Point","coordinates":[-0.020854,51.747571]}
}
