{
  "id": 101873549,
  "type": "Feature",
  "properties": {
    "edtf:cessation": "",
    "edtf:inception": "",
    "geom:area": 0,
    "geom:area_square_m": 0,
    "geom:bbox": "-3.675056,56.161993,-3.675056,56.161993",
    "geom:latitude": 56.161993,
    "geom:longitude": -3.675056,
    "iso:country": "GB",
    "lbl:bbox": "-3.695056,56.141993,-3.655056,56.181993",
    "lbl:latitude": 56.161993,
    "lbl:longitude": -3.675056,
    "lbl:max_zoom": 18,
    "lbl:min_zoom": 13.5,
    "mps:latitude": 56.161993,
    "mps:longitude": -3.675056,
    "mz:hierarchy_label": 1,
    "mz:is_current": 1,
    "mz:min_zoom": 12,
    "name:ast_x_preferred": [
      "Dollar"
    ],
    "name:bul_x_preferred": [
      "Долар"
    ],
    "name:ceb_x_preferred": [
      "Dollar"
    ],
    "name:cym_x_preferred": [
      "Dollar"
    ],
    "name:deu_x_preferred": [
      "Dollar"
    ],
    "name:eng_x_preferred": [
      "Dollar"
    ],
    "name:epo_x_preferred": [
      "Dolaro"
    ],
    "name:eus_x_preferred": [
      "Dollar"
    ],
    "name:fas_x_preferred": [
      "دالر"
    ],
    "name:fra_x_preferred": [
      "Dollar"
    ],
    "name:gla_x_preferred": [
      "Dolair"
    ],
    "name:gle_x_preferred": [
      "Dolair"
    ],
    "name:gle_x_variant": [
      "Dolar"
    ],
    "name:heb_x_preferred": [
      "דולר"
    ],
    "name:ita_x_preferred": [
      "Dollar"
    ],
    "name:jpn_x_preferred": [
      "ドラー"
    ],
    "name:nld_x_preferred": [
      "Dollar"
    ],
    "name:nno_x_preferred": [
      "Dollar i Clackmannanshire"
    ],
    "name:nob_x_preferred": [
      "Dollar"
    ],
    "name:nor_x_preferred": [
      "Dollar"
    ],
    "name:pol_x_preferred": [
      "Dollar"
    ],
    "name:por_x_preferred": [
      "Dólar"
    ],
    "name:rus_x_preferred": [
      "Доллар"
    ],
    "name:sco_x_preferred": [
      "Dollar"
    ],
    "name:spa_x_preferred": [
      "Dollar"
    ],
    "name:swe_x_preferred": [
      "Dollar"
    ],
    "name:zho_x_preferred": [
      "多勒"
    ],
    "qs:a0": "United Kingdom",
    "qs:a1": "*Clackmannanshire",
    "qs:a1_lc": "GB11QF0000",
    "qs:a1r": "0Scotland",
    "qs:a1r_lc": "GB11000000",
    "qs:adm0": "United Kingdom",
    "qs:id": 0,
    "qs:la_lc": "*",
    "qs:level": "locality",
    "qs:loc": "Dollar",
    "qs:loc_alt": "Dollar",
    "qs:pop": 0,
    "qs:source": "RCustom EuroGlobalMap + UMZ Urban Polygons + Geonames + GeoPlanet",
    "qs:type": "buffered point",
    "src:geom": "whosonfirst",
    "src:geom_alt": [
      "quattroshapes_pg",
      "quattroshapes"
    ],
    "src:geom_via": "quattroshapes",
    "src:lbl_centroid": "mapshaper",
    "src:population": "wikidata",
    "wd:latitude": 56.1625,
    "wd:longitude": -3.66814,
    "wd:wordcount": 1288,
    "wof:belongsto": [
      1880762127,
      1360699079
    ],
    "wof:breaches": [],
    "wof:concordances": {
      "gn:id": 2651151,
      "gp:id": 18294,
      "qs_pg:id": 974279,
      "wd:id": "Q1235672",
      "wk:page": "Dollar, Clackmannanshire"
    },
    "wof:country": "GB",
    "wof:created": 1765385073,
    "wof:geom_alt": [
      "quattroshapes_pg",
      "quattroshapes"
    ],
    "wof:geomhash": "ebcd65394c91f38be53d7cb2a7d4f56f",
    "wof:hierarchy": [
      {
        "continent_id": -1,
        "country_id": -1,
        "county_id": 1360699079,
        "locality_id": 101873549,
        "macrocounty_id": 1880762127,
        "region_id": -1
      }
    ],
    "wof:id": 101873549,
    "wof:lastmodified": 1765385073,
    "wof:name": "Dollar",
    "wof:parent_id": 1360699079,
    "wof:placetype": "locality",
    "wof:population": 2800,
    "wof:population_rank": 4,
    "wof:repo": "whosonfirst-data-admin-gb",
    "wof:superseded_by": [],
    "wof:supersedes": [],
    "wof:tags": []
  },
  "bbox": [
    -3.675056,
    56.161993,
    -3.675056,
    56.161993
  ],
  "geometry": {"type":"Point","coordinates":[-3.675056,56.161993]}
}
