{
  "id": 1360807291,
  "type": "Feature",
  "properties": {
    "edtf:cessation": "",
    "edtf:inception": "",
    "geom:area": 0,
    "geom:area_square_m": 0,
    "geom:bbox": "0.275950,50.794790,0.275950,50.794790",
    "geom:latitude": 50.79479,
    "geom:longitude": 0.27595,
    "gn:admin1_code": "ENG",
    "gn:admin2_code": "E2",
    "gn:admin3_code": "21UC",
    "gn:asciiname": "Hampden Park",
    "gn:country_code": "GB",
    "gn:dem": 5,
    "gn:feature_class": "P",
    "gn:feature_code": "PPL",
    "gn:geonameid": 11550747,
    "gn:latitude": 50.79479,
    "gn:longitude": 0.27595,
    "gn:modification_date": "2017-06-06",
    "gn:name": "Hampden Park",
    "gn:population": 0,
    "gn:timezone": "Europe/London",
    "iso:country": "GB",
    "lbl:bbox": "0.27095,50.78979,0.28095,50.79979",
    "lbl:max_zoom": 18,
    "mz:hierarchy_label": 1,
    "mz:is_current": 1,
    "mz:min_zoom": 15,
    "name:pol_x_preferred": [
      "Hampden Park"
    ],
    "src:geom": "geonames",
    "src:population": "wikidata",
    "wof:belongsto": [
      1880762703,
      102191581,
      85633159,
      1880762145,
      404227469,
      101750315,
      136253055,
      1880771415
    ],
    "wof:breaches": [],
    "wof:concordances": {
      "gn:id": 11550747,
      "wk:page": "Hampden_Park,_Eastbourne"
    },
    "wof:country": "GB",
    "wof:created": 1765390485,
    "wof:geomhash": "372f20b6315b8b2989e46040067ec15c",
    "wof:hierarchy": [
      {
        "continent_id": 102191581,
        "country_id": 85633159,
        "county_id": 1880771415,
        "empire_id": 136253055,
        "locality_id": 101750315,
        "macrocounty_id": 1880762145,
        "macroregion_id": 404227469,
        "neighbourhood_id": 1360807291,
        "region_id": 1880762703
      }
    ],
    "wof:id": 1360807291,
    "wof:lastmodified": 1765390485,
    "wof:name": "Hampden Park",
    "wof:parent_id": 101750315,
    "wof:placetype": "neighbourhood",
    "wof:population": 10591,
    "wof:population_rank": 6,
    "wof:repo": "whosonfirst-data-admin-gb",
    "wof:superseded_by": [],
    "wof:supersedes": [
      1259712893
    ],
    "wof:tags": []
  },
  "bbox": [
    0.27595,
    50.79479,
    0.27595,
    50.79479
  ],
  "geometry": {"type":"Point","coordinates":[0.27595,50.79479]}
}
