{
  "id": 1276149541,
  "type": "Feature",
  "properties": {
    "edtf:cessation": "",
    "edtf:inception": "",
    "geom:area": 0,
    "geom:area_square_m": 0,
    "geom:bbox": "-6.933330,54.600000,-6.933330,54.600000",
    "geom:latitude": 54.6,
    "geom:longitude": -6.93333,
    "gn:admin1_code": "NIR",
    "gn:admin2_code": "N09000009",
    "gn:asciiname": "Pomeroy",
    "gn:country_code": "GB",
    "gn:dem": 175,
    "gn:feature_class": "P",
    "gn:feature_code": "PPL",
    "gn:geonameid": 2640142,
    "gn:latitude": 54.6,
    "gn:longitude": -6.93333,
    "gn:modification_date": "2018-07-04",
    "gn:name": "Pomeroy",
    "gn:population": 0,
    "gn:timezone": "Europe/London",
    "iso:country": "GB",
    "lbl:bbox": "-6.95333,54.58,-6.91333,54.62",
    "lbl:max_zoom": 18,
    "lbl:min_zoom": 13.5,
    "mz:hierarchy_label": 1,
    "mz:is_current": -1,
    "mz:min_zoom": 12,
    "name:ceb_x_preferred": [
      "Pomeroy"
    ],
    "name:deu_x_preferred": [
      "Pomeroy"
    ],
    "name:fra_x_preferred": [
      "Pomeroy"
    ],
    "name:ita_x_preferred": [
      "Pomeroy"
    ],
    "name:kor_x_preferred": [
      "포머로이"
    ],
    "name:nld_x_preferred": [
      "Pomeroy"
    ],
    "name:pol_x_preferred": [
      "Pomeroy"
    ],
    "name:por_x_preferred": [
      "Pomeroy"
    ],
    "name:srp_x_preferred": [
      "Померој"
    ],
    "name:swe_x_preferred": [
      "Pomeroy"
    ],
    "name:ukr_x_preferred": [
      "Померой"
    ],
    "name:vol_x_preferred": [
      "Pomeroy"
    ],
    "name:zho_x_preferred": [
      "波默罗伊"
    ],
    "src:geom": "geonames",
    "src:population": "wikidata",
    "wof:belongsto": [
      1360699235,
      102191581,
      85633159,
      1880762223,
      404227473,
      136253055,
      1880762263
    ],
    "wof:breaches": [],
    "wof:concordances": {
      "gn:id": 2640142
    },
    "wof:country": "GB",
    "wof:created": 1765388539,
    "wof:geomhash": "18ef827d1a126691cf681fbcf6e66fa9",
    "wof:hierarchy": [
      {
        "continent_id": 102191581,
        "country_id": 85633159,
        "county_id": 1880762263,
        "empire_id": 136253055,
        "locality_id": 1276149541,
        "macrocounty_id": 1880762223,
        "macroregion_id": 404227473,
        "region_id": 1360699235
      }
    ],
    "wof:id": 1276149541,
    "wof:lastmodified": 1765388539,
    "wof:name": "Pomeroy",
    "wof:parent_id": 1880762263,
    "wof:placetype": "locality",
    "wof:population": 788,
    "wof:population_rank": 2,
    "wof:repo": "whosonfirst-data-admin-gb",
    "wof:superseded_by": [],
    "wof:supersedes": [],
    "wof:tags": []
  },
  "bbox": [
    -6.93333,
    54.6,
    -6.93333,
    54.6
  ],
  "geometry": {"type":"Point","coordinates":[-6.93333,54.6]}
}
