{
  "id": 85787663,
  "type": "Feature",
  "properties": {
    "edtf:cessation": "",
    "edtf:inception": "",
    "geom:area": 0.00031984843250005066,
    "geom:area_square_m": 2354657.230204,
    "geom:bbox": "-2.184906,53.452078,-2.153320,53.468431",
    "geom:latitude": 53.45962567617231,
    "geom:longitude": -2.170395631825876,
    "iso:country": "GB",
    "lbl:latitude": 53.460417,
    "lbl:longitude": -2.17224,
    "lbl:max_zoom": 18,
    "mps:latitude": 53.458619,
    "mps:longitude": -2.168805,
    "mz:hierarchy_label": 1,
    "mz:is_current": 1,
    "mz:is_funky": 0,
    "mz:is_hard_boundary": 0,
    "mz:is_landuse_aoi": 0,
    "mz:is_official": 0,
    "mz:max_zoom": 18,
    "mz:min_zoom": 13,
    "mz:tier_locality": 4,
    "mz:tier_metro": 1,
    "name:ell_x_preferred": [
      "Γκόρτον"
    ],
    "name:eng_x_preferred": [
      "Gorton"
    ],
    "name:fas_x_preferred": [
      "گورتون"
    ],
    "name:fra_x_preferred": [
      "Gorton"
    ],
    "name:gle_x_preferred": [
      "Gorton"
    ],
    "name:heb_x_preferred": [
      "גורטון"
    ],
    "name:ind_x_preferred": [
      "Gorton"
    ],
    "name:jpn_x_preferred": [
      "ゴートン"
    ],
    "name:nld_x_preferred": [
      "Gorton"
    ],
    "name:pol_x_preferred": [
      "Gorton"
    ],
    "name:slv_x_preferred": [
      "Gorton"
    ],
    "name:zho_x_preferred": [
      "吉林漢姆"
    ],
    "name:zho_x_variant": [
      "戈頓"
    ],
    "src:geom": "quattroshapes",
    "src:geom_alt": [
      "quattroshapes_pg"
    ],
    "src:lbl_centroid": "mz",
    "src:population": "wikidata",
    "wd:wordcount": 2080,
    "wof:belongsto": [
      1880773095,
      102191581,
      85633159,
      1880762163,
      404227469,
      101750525,
      136253055,
      1360698893
    ],
    "wof:breaches": [],
    "wof:concordances": {
      "gn:id": 2648280,
      "gp:id": 21405,
      "qs_pg:id": 1127564,
      "wd:id": "Q5586936",
      "wk:page": "Gorton"
    },
    "wof:country": "GB",
    "wof:created": 1765391047,
    "wof:geom_alt": [
      "quattroshapes_pg"
    ],
    "wof:geomhash": "b2a6ee844f3f9fcf998dace9ed56fe22",
    "wof:hierarchy": [
      {
        "continent_id": 102191581,
        "country_id": 85633159,
        "county_id": 1360698893,
        "empire_id": 136253055,
        "locality_id": 101750525,
        "macrocounty_id": 1880762163,
        "macroregion_id": 404227469,
        "neighbourhood_id": 85787663,
        "region_id": 1880773095
      }
    ],
    "wof:id": 85787663,
    "wof:lang": [
      "eng"
    ],
    "wof:lastmodified": 1765391047,
    "wof:name": "Gorton",
    "wof:parent_id": 101750525,
    "wof:placetype": "neighbourhood",
    "wof:population": 36055,
    "wof:population_rank": 7,
    "wof:repo": "whosonfirst-data-admin-gb",
    "wof:superseded_by": [],
    "wof:supersedes": [],
    "wof:tags": []
  },
  "bbox": [
    -2.184906,
    53.452078,
    -2.15332,
    53.468431
  ],
  "geometry": {"type":"Polygon","coordinates":[[[-2.1698,53.466723],[-2.16887,53.465161],[-2.164307,53.465161],[-2.164307,53.465161],[-2.164307,53.463453],[-2.16156,53.461915],[-2.16156,53.46189],[-2.16156,53.460255],[-2.158813,53.460255],[-2.158813,53.45862],[-2.15332,53.45862],[-2.15332,53.457058],[-2.15332,53.455349],[-2.15332,53.455349],[-2.157883,53.455349],[-2.158813,53.453787],[-2.158813,53.45364],[-2.158813,53.452078],[-2.159744,53.452078],[-2.159744,53.452078],[-2.163376,53.452078],[-2.163377,53.452078],[-2.164307,53.452078],[-2.167053,53.452078],[-2.1698,53.452078],[-2.17073,53.452078],[-2.17073,53.452078],[-2.175293,53.452078],[-2.175293,53.452078],[-2.175293,53.455349],[-2.175293,53.455349],[-2.175802,53.456203],[-2.179413,53.45707],[-2.179531,53.456984],[-2.183533,53.456984],[-2.184906,53.457753],[-2.184906,53.457949],[-2.183533,53.460255],[-2.183533,53.46189],[-2.183533,53.463526],[-2.183046,53.464343],[-2.180786,53.464343],[-2.180786,53.465161],[-2.180786,53.466796],[-2.180786,53.468431],[-2.175293,53.468431],[-2.1698,53.468431],[-2.1698,53.468431],[-2.1698,53.466723]]]}
}
