{
  "id": 1276802833,
  "type": "Feature",
  "properties": {
    "edtf:cessation": "",
    "edtf:inception": "",
    "geom:area": 0,
    "geom:area_square_m": 0,
    "geom:bbox": "-6.200000,54.333330,-6.200000,54.333330",
    "geom:latitude": 54.33333,
    "geom:longitude": -6.2,
    "gn:admin1_code": "NIR",
    "gn:admin2_code": "N09000002",
    "gn:asciiname": "Corbet Milltown",
    "gn:cc2": "GB",
    "gn:country_code": "GB",
    "gn:dem": 65,
    "gn:feature_class": "P",
    "gn:feature_code": "PPL",
    "gn:geonameid": 2652384,
    "gn:latitude": 54.33333,
    "gn:longitude": -6.2,
    "gn:modification_date": "2016-12-04",
    "gn:name": "Corbet Milltown",
    "gn:population": 0,
    "gn:timezone": "Europe/London",
    "iso:country": "GB",
    "lbl:bbox": "-6.22,54.31333,-6.18,54.35333",
    "lbl:max_zoom": 18,
    "lbl:min_zoom": 13.5,
    "mz:hierarchy_label": 1,
    "mz:is_current": -1,
    "mz:min_zoom": 12,
    "name:ceb_x_preferred": [
      "Corbet Milltown"
    ],
    "name:eus_x_preferred": [
      "Corbet"
    ],
    "name:fas_x_preferred": [
      "کوربست"
    ],
    "name:gle_x_preferred": [
      "An Carbad"
    ],
    "name:msa_x_preferred": [
      "Corbet"
    ],
    "name:pli_x_preferred": [
      "कॉर्बेट"
    ],
    "name:por_x_preferred": [
      "Corbet"
    ],
    "name:spa_x_preferred": [
      "Corbet"
    ],
    "name:swe_x_preferred": [
      "Corbet Milltown"
    ],
    "name:zho_x_preferred": [
      "科比特"
    ],
    "src:geom": "geonames",
    "src:population": "wikidata",
    "wof:belongsto": [
      1360699225,
      102191581,
      85633159,
      1880762227,
      404227473,
      136253055,
      1880762249
    ],
    "wof:breaches": [],
    "wof:concordances": {
      "gn:id": 2652384,
      "wk:page": "Corbet"
    },
    "wof:country": "GB",
    "wof:created": 1765388606,
    "wof:geomhash": "6878853ccef8ee0fecc8b7766dc402cb",
    "wof:hierarchy": [
      {
        "continent_id": 102191581,
        "country_id": 85633159,
        "county_id": 1880762249,
        "empire_id": 136253055,
        "locality_id": 1276802833,
        "macrocounty_id": 1880762227,
        "macroregion_id": 404227473,
        "region_id": 1360699225
      }
    ],
    "wof:id": 1276802833,
    "wof:lastmodified": 1765388606,
    "wof:name": "Corbet Milltown",
    "wof:parent_id": 1880762249,
    "wof:placetype": "locality",
    "wof:population": 107,
    "wof:population_rank": 1,
    "wof:repo": "whosonfirst-data-admin-gb",
    "wof:superseded_by": [],
    "wof:supersedes": [],
    "wof:tags": []
  },
  "bbox": [
    -6.2,
    54.33333,
    -6.2,
    54.33333
  ],
  "geometry": {"type":"Point","coordinates":[-6.2,54.33333]}
}
