{
  "id": 85786397,
  "type": "Feature",
  "properties": {
    "edtf:cessation": "",
    "edtf:inception": "",
    "geom:area": 0.0007922487645000343,
    "geom:area_square_m": 6088188.542168,
    "geom:bbox": "0.119789,51.561705,0.164795,51.592429",
    "geom:latitude": 51.5755607756254,
    "geom:longitude": 0.13923997700168944,
    "gn:latitude": 51.57121,
    "gn:longitude": 0.13271,
    "gn:population": 9598,
    "iso:country": "GB",
    "lbl:latitude": 51.573966,
    "lbl:longitude": 0.135523,
    "lbl:max_zoom": 18,
    "mps:latitude": 51.574247,
    "mps:longitude": 0.13702,
    "mz:hierarchy_label": 1,
    "mz:is_current": 1,
    "mz:is_funky": 0,
    "mz:is_hard_boundary": 0,
    "mz:is_landuse_aoi": 0,
    "mz:is_official": 0,
    "mz:max_zoom": 18,
    "mz:min_zoom": 15,
    "mz:tier_locality": 7,
    "mz:tier_metro": 1,
    "name:azb_x_preferred": [
      "چادول هیث"
    ],
    "name:bul_x_preferred": [
      "Чадуел Хийт"
    ],
    "name:cat_x_preferred": [
      "Chadwell Heath"
    ],
    "name:ceb_x_preferred": [
      "Chadwell Heath"
    ],
    "name:deu_x_preferred": [
      "Chadwell Heath"
    ],
    "name:eng_x_preferred": [
      "Chadwell Heath"
    ],
    "name:epo_x_preferred": [
      "Chadwell Heath"
    ],
    "name:eus_x_preferred": [
      "Chadwell Heath"
    ],
    "name:fas_x_preferred": [
      "چادول هیث"
    ],
    "name:fra_x_preferred": [
      "Chadwell Heath"
    ],
    "name:gle_x_preferred": [
      "Chadwell Heath"
    ],
    "name:heb_x_preferred": [
      "צ'אדוול הית'"
    ],
    "name:hin_x_preferred": [
      "चैडवेल हीथ"
    ],
    "name:hye_x_preferred": [
      "Չադուել Հիթ"
    ],
    "name:ita_x_preferred": [
      "Chadwell Heath"
    ],
    "name:jpn_x_preferred": [
      "チャドウェル・ヒース"
    ],
    "name:nld_x_preferred": [
      "Chadwell Heath"
    ],
    "name:nob_x_preferred": [
      "Chadwell Heath"
    ],
    "name:nor_x_preferred": [
      "Chadwell Heath"
    ],
    "name:pol_x_preferred": [
      "Chadwell Heath"
    ],
    "name:rus_x_preferred": [
      "Чадуэлл-Хит"
    ],
    "name:slv_x_preferred": [
      "Chadwell Heath"
    ],
    "name:spa_x_preferred": [
      "Chadwell Heath"
    ],
    "name:swe_x_preferred": [
      "Chadwell Heath"
    ],
    "name:urd_x_preferred": [
      "چیڈویل ہیتھ"
    ],
    "name:zho_x_preferred": [
      "查特韋爾希斯"
    ],
    "qs:gn_adm0_cc": "GB",
    "qs:gn_fcode": "PPLX",
    "qs:gn_local": 2643743,
    "qs:gn_namadm1": "ENG",
    "qs:gn_name": "Chadwell Heath",
    "qs:local_max": 40697,
    "qs:local_sum": 1675717,
    "qs:localhoods": 643,
    "qs:name": "Chadwell Heath",
    "qs:name_adm0": "United Kingdom",
    "qs:name_adm1": "England",
    "qs:name_adm2": "Greater London",
    "qs:name_lau": "London Borough of Barking and Dagenham",
    "qs:name_local": "London",
    "qs:photo_max": 69,
    "qs:photo_sum": 754,
    "qs:placetype": "Suburb",
    "qs:quad_count": 72,
    "qs:woe_adm0": 23424975,
    "qs:woe_adm1": 24554868,
    "qs:woe_adm2": 23416974,
    "qs:woe_lau": 12695820,
    "qs:woe_local": 44418,
    "qs:woe_ver": "7.10.0",
    "src:geom": "quattroshapes",
    "src:geom_alt": [
      "quattroshapes_pg"
    ],
    "src:lbl_centroid": "mz",
    "src:population": "wikidata",
    "wd:wordcount": 2571,
    "wof:belongsto": [
      1880762729,
      102191581,
      1880762179,
      85633159,
      404227469,
      101750367,
      136253055,
      1158857319,
      1880771825
    ],
    "wof:breaches": [],
    "wof:concordances": {
      "gn:id": 6690869,
      "gp:id": 15561,
      "qs_pg:id": 1091320,
      "wd:id": "Q1058698",
      "wk:page": "Chadwell Heath"
    },
    "wof:country": "GB",
    "wof:created": 1765390993,
    "wof:geom_alt": [
      "quattroshapes_pg"
    ],
    "wof:geomhash": "ffede82cbe393e4904e9e55ef12b642c",
    "wof:hierarchy": [
      {
        "borough_id": 1158857319,
        "continent_id": 102191581,
        "country_id": 85633159,
        "county_id": 1880771825,
        "empire_id": 136253055,
        "locality_id": 101750367,
        "macrocounty_id": 1880762179,
        "macroregion_id": 404227469,
        "neighbourhood_id": 85786397,
        "region_id": 1880762729
      }
    ],
    "wof:id": 85786397,
    "wof:lang": [
      "eng"
    ],
    "wof:lastmodified": 1765390993,
    "wof:name": "Chadwell Heath",
    "wof:parent_id": 1158857319,
    "wof:placetype": "neighbourhood",
    "wof:population": 24278,
    "wof:population_rank": 7,
    "wof:repo": "whosonfirst-data-admin-gb",
    "wof:superseded_by": [],
    "wof:supersedes": [],
    "wof:tags": []
  },
  "bbox": [
    0.119789,
    51.561705,
    0.164795,
    51.592429
  ],
  "geometry": {"type":"Polygon","coordinates":[[[0.136269,51.592429],[0.137329,51.590723],[0.137329,51.590723],[0.137329,51.590723],[0.138389,51.589016],[0.142822,51.589016],[0.145569,51.586806],[0.145569,51.583897],[0.145569,51.580986],[0.148315,51.578776],[0.152503,51.578776],[0.153809,51.577876],[0.153809,51.57707],[0.153809,51.573656],[0.159302,51.573656],[0.159302,51.572124],[0.159302,51.570241],[0.164795,51.570241],[0.164795,51.570241],[0.164795,51.566827],[0.164795,51.566827],[0.163734,51.56512],[0.159302,51.56512],[0.159208,51.565044],[0.158559,51.564928],[0.154394,51.565885],[0.153809,51.564944],[0.153809,51.563412],[0.152857,51.563412],[0.152802,51.563324],[0.151885,51.563029],[0.151171,51.563412],[0.148315,51.563412],[0.147363,51.563412],[0.147363,51.563412],[0.142822,51.563412],[0.141761,51.561705],[0.138635,51.561705],[0.138207,51.562],[0.137329,51.563412],[0.131836,51.563412],[0.126343,51.563412],[0.126343,51.563412],[0.126343,51.565296],[0.126343,51.566827],[0.126343,51.568534],[0.126343,51.570241],[0.126343,51.571773],[0.126343,51.573656],[0.126343,51.575362],[0.12191,51.575362],[0.12085,51.577069],[0.12085,51.57707],[0.119789,51.578776],[0.12085,51.580483],[0.12085,51.580483],[0.12085,51.580483],[0.122971,51.583897],[0.123805,51.584568],[0.125588,51.590307],[0.125808,51.590453],[0.126813,51.592429],[0.136269,51.592429]]]}
}
