{
  "id": 85791255,
  "type": "Feature",
  "properties": {
    "edtf:cessation": "",
    "edtf:inception": "",
    "geom:area": 0.0002555001395000216,
    "geom:area_square_m": 1964676.248433,
    "geom:bbox": "-0.480652,51.536940,-0.453809,51.558290",
    "geom:latitude": 51.546953954579955,
    "geom:longitude": -0.46669221461419785,
    "gn:latitude": 51.54863,
    "gn:longitude": -0.48048,
    "iso:country": "GB",
    "lbl:latitude": 51.542143,
    "lbl:longitude": -0.479459,
    "lbl:max_zoom": 18,
    "mps:latitude": 51.546771,
    "mps:longitude": -0.466895,
    "mz:hierarchy_label": 1,
    "mz:is_current": -1,
    "mz:is_funky": 0,
    "mz:is_hard_boundary": 0,
    "mz:is_landuse_aoi": 0,
    "mz:is_official": 0,
    "mz:max_zoom": 18,
    "mz:min_zoom": 13,
    "mz:tier_locality": 7,
    "mz:tier_metro": 1,
    "name:ara_x_preferred": [
      "أوكسبريدج"
    ],
    "name:azb_x_preferred": [
      "اوکسبریج"
    ],
    "name:bul_x_preferred": [
      "Ъксбридж"
    ],
    "name:cat_x_preferred": [
      "Uxbridge"
    ],
    "name:cym_x_preferred": [
      "Uxbridge"
    ],
    "name:deu_x_preferred": [
      "Uxbridge"
    ],
    "name:eng_x_preferred": [
      "Uxbridge"
    ],
    "name:fas_x_preferred": [
      "اوکسبریج"
    ],
    "name:fin_x_preferred": [
      "Uxbridge"
    ],
    "name:fra_x_preferred": [
      "Uxbridge"
    ],
    "name:gle_x_preferred": [
      "Uxbridge"
    ],
    "name:heb_x_preferred": [
      "אוקסברידג'"
    ],
    "name:hin_x_preferred": [
      "अक्सब्रिज"
    ],
    "name:ita_x_preferred": [
      "Uxbridge"
    ],
    "name:jpn_x_preferred": [
      "アクスブリッジ"
    ],
    "name:kor_x_preferred": [
      "억스브리지"
    ],
    "name:lat_x_preferred": [
      "Uxbriga"
    ],
    "name:new_x_preferred": [
      "अक्सब्रिज"
    ],
    "name:nld_x_preferred": [
      "Uxbridge"
    ],
    "name:nno_x_preferred": [
      "Uxbridge"
    ],
    "name:nob_x_preferred": [
      "Uxbridge"
    ],
    "name:pol_x_preferred": [
      "Uxbridge"
    ],
    "name:por_x_preferred": [
      "Uxbridge"
    ],
    "name:ron_x_preferred": [
      "Uxbridge"
    ],
    "name:rus_x_preferred": [
      "Аксбридж"
    ],
    "name:spa_x_preferred": [
      "Uxbridge"
    ],
    "name:swe_x_preferred": [
      "Uxbridge"
    ],
    "name:urd_x_preferred": [
      "اکسبریج"
    ],
    "name:yue_x_preferred": [
      "Uxbridge"
    ],
    "name:zho_x_preferred": [
      "阿克斯橋"
    ],
    "name:zho_x_variant": [
      "烏克斯橋"
    ],
    "qs:gn_adm0_cc": "GB",
    "qs:gn_fcode": "PPL",
    "qs:gn_local": 2643743,
    "qs:gn_namadm1": "ENG",
    "qs:gn_name": "Uxbridge",
    "qs:local_max": 40697,
    "qs:local_sum": 1675717,
    "qs:localhoods": 643,
    "qs:name": "Uxbridge",
    "qs:name_adm0": "United Kingdom",
    "qs:name_adm1": "England",
    "qs:name_adm2": "Greater London",
    "qs:name_lau": "London Borough of Hillingdon",
    "qs:name_local": "London",
    "qs:photo_max": 159,
    "qs:photo_sum": 690,
    "qs:placetype": "Suburb",
    "qs:quad_count": 29,
    "qs:woe_adm0": 23424975,
    "qs:woe_adm1": 24554868,
    "qs:woe_adm2": 23416974,
    "qs:woe_funk": "Grouping neighborhood",
    "qs:woe_lau": 12695831,
    "qs:woe_local": 44418,
    "qs:woe_ver": "7.10.0",
    "src:geom": "quattroshapes",
    "src:geom_alt": [
      "quattroshapes_pg"
    ],
    "src:lbl_centroid": "mz",
    "src:population": "wikidata",
    "wd:wordcount": 5551,
    "wof:belongsto": [
      1880762729,
      102191581,
      1880762179,
      85633159,
      404227469,
      101750367,
      136253055,
      1158857261,
      1880771825
    ],
    "wof:breaches": [],
    "wof:concordances": {
      "gn:id": 7645989,
      "gp:id": 38838,
      "qs_pg:id": 467211,
      "wd:id": "Q3552816",
      "wk:page": "Uxbridge"
    },
    "wof:country": "GB",
    "wof:created": 1765391216,
    "wof:geom_alt": [
      "quattroshapes_pg"
    ],
    "wof:geomhash": "5d922f1357049727ba7069b77cf68e7a",
    "wof:hierarchy": [
      {
        "borough_id": 1158857261,
        "continent_id": 102191581,
        "country_id": 85633159,
        "county_id": 1880771825,
        "empire_id": 136253055,
        "locality_id": 101750367,
        "macrocounty_id": 1880762179,
        "macroregion_id": 404227469,
        "neighbourhood_id": 85791255,
        "region_id": 1880762729
      }
    ],
    "wof:id": 85791255,
    "wof:lang": [
      "eng"
    ],
    "wof:lastmodified": 1765391216,
    "wof:name": "Uxbridge",
    "wof:parent_id": 1158857261,
    "wof:placetype": "neighbourhood",
    "wof:population": 70560,
    "wof:population_rank": 8,
    "wof:repo": "whosonfirst-data-admin-gb",
    "wof:superseded_by": [],
    "wof:supersedes": [],
    "wof:tags": []
  },
  "bbox": [
    -0.480652,
    51.53694,
    -0.453809,
    51.55829
  ],
  "geometry": {"type":"Polygon","coordinates":[[[-0.458679,51.554874],[-0.458679,51.553167],[-0.455933,51.553167],[-0.455933,51.551635],[-0.454504,51.55087],[-0.453809,51.549751],[-0.455933,51.548043],[-0.46012,51.548043],[-0.460547,51.547749],[-0.461426,51.546335],[-0.461426,51.546335],[-0.461426,51.54445],[-0.461426,51.542919],[-0.464172,51.542919],[-0.464172,51.541211],[-0.464172,51.539502],[-0.464172,51.537794],[-0.465856,51.537794],[-0.466919,51.53694],[-0.469134,51.53694],[-0.469666,51.537794],[-0.47301,51.537794],[-0.473364,51.539502],[-0.476953,51.539502],[-0.476953,51.539502],[-0.477905,51.539502],[-0.477905,51.541211],[-0.480652,51.541211],[-0.480652,51.542919],[-0.477905,51.542919],[-0.477905,51.543861],[-0.477905,51.544627],[-0.477429,51.544627],[-0.475873,51.544627],[-0.475159,51.545775],[-0.475159,51.546335],[-0.472412,51.546335],[-0.472412,51.549751],[-0.47146,51.549751],[-0.471444,51.549827],[-0.47049,51.550134],[-0.469666,51.551459],[-0.469666,51.553167],[-0.466919,51.553167],[-0.466919,51.556582],[-0.465967,51.556582],[-0.465613,51.55829],[-0.462487,51.55829],[-0.461609,51.556877],[-0.461426,51.556818],[-0.460693,51.556582],[-0.459503,51.556199],[-0.458679,51.554874]]]}
}
