{
  "id": 101872415,
  "type": "Feature",
  "properties": {
    "edtf:cessation": "",
    "edtf:inception": "",
    "geom:area": 0,
    "geom:area_square_m": 0,
    "geom:bbox": "-4.378847,55.600117,-4.378847,55.600117",
    "geom:latitude": 55.600117,
    "geom:longitude": -4.378847,
    "iso:country": "GB",
    "lbl:bbox": "-4.398847,55.580117,-4.358847,55.620117",
    "lbl:latitude": 55.600117,
    "lbl:longitude": -4.378846,
    "lbl:max_zoom": 18,
    "lbl:min_zoom": 13.5,
    "mps:latitude": 55.600117,
    "mps:longitude": -4.378846,
    "mz:hierarchy_label": 1,
    "mz:is_current": -1,
    "mz:min_zoom": 12,
    "name:ast_x_preferred": [
      "Galston"
    ],
    "name:ceb_x_preferred": [
      "Galston"
    ],
    "name:cym_x_preferred": [
      "Galston"
    ],
    "name:deu_x_preferred": [
      "Galston"
    ],
    "name:eng_x_preferred": [
      "Galston"
    ],
    "name:eus_x_preferred": [
      "Galston"
    ],
    "name:fra_x_preferred": [
      "Galston"
    ],
    "name:gla_x_preferred": [
      "Baile nan Gall"
    ],
    "name:gle_x_preferred": [
      "Baile nan Gall"
    ],
    "name:heb_x_preferred": [
      "גלסטון"
    ],
    "name:ita_x_preferred": [
      "Galston"
    ],
    "name:nld_x_preferred": [
      "Galston"
    ],
    "name:nob_x_preferred": [
      "Galston"
    ],
    "name:pol_x_preferred": [
      "Galston"
    ],
    "name:rus_x_preferred": [
      "Голстон"
    ],
    "name:rus_x_variant": [
      "Галстон"
    ],
    "name:sco_x_preferred": [
      "Gauston"
    ],
    "name:sco_x_variant": [
      "Gawstoun"
    ],
    "name:slk_x_preferred": [
      "Galston"
    ],
    "name:spa_x_preferred": [
      "Galston"
    ],
    "name:swe_x_preferred": [
      "Galston"
    ],
    "name:ukr_x_preferred": [
      "Ґалстон"
    ],
    "qs:a0": "United Kingdom",
    "qs:a1": "*East Ayrshire",
    "qs:a1_lc": "GB11QK0000",
    "qs:a1r": "0Scotland",
    "qs:a1r_lc": "GB11000000",
    "qs:adm0": "United Kingdom",
    "qs:id": 0,
    "qs:la_lc": "*",
    "qs:level": "locality",
    "qs:loc": "Galston",
    "qs:loc_alt": "Galston",
    "qs:pop": 0,
    "qs:source": "RCustom EuroGlobalMap + UMZ Urban Polygons + Geonames + GeoPlanet",
    "qs:type": "buffered point",
    "src:geom": "whosonfirst",
    "src:geom_alt": [
      "quattroshapes_pg",
      "quattroshapes"
    ],
    "src:geom_via": "quattroshapes",
    "src:lbl_centroid": "mapshaper",
    "src:population": "wikidata",
    "wd:wordcount": 1195,
    "wof:belongsto": [
      1880772907,
      102191581,
      85633159,
      1880762041,
      404227471,
      136253055,
      1360698779
    ],
    "wof:breaches": [],
    "wof:concordances": {
      "gn:id": 2648909,
      "gp:id": 20804,
      "qs_pg:id": 140864,
      "wd:id": "Q3997296",
      "wk:page": "Galston, East Ayrshire"
    },
    "wof:country": "GB",
    "wof:created": 1765384886,
    "wof:geom_alt": [
      "quattroshapes",
      "quattroshapes_pg"
    ],
    "wof:geomhash": "6c87cc5ab3367cd8e8ca670256dbc4e4",
    "wof:hierarchy": [
      {
        "continent_id": 102191581,
        "country_id": 85633159,
        "county_id": 1360698779,
        "empire_id": 136253055,
        "locality_id": 101872415,
        "macrocounty_id": 1880762041,
        "macroregion_id": 404227471,
        "region_id": 1880772907
      }
    ],
    "wof:id": 101872415,
    "wof:lastmodified": 1765384886,
    "wof:name": "Galston",
    "wof:parent_id": 1360698779,
    "wof:placetype": "locality",
    "wof:population": 4740,
    "wof:population_rank": 4,
    "wof:repo": "whosonfirst-data-admin-gb",
    "wof:superseded_by": [],
    "wof:supersedes": [],
    "wof:tags": []
  },
  "bbox": [
    -4.378847,
    55.600117,
    -4.378847,
    55.600117
  ],
  "geometry": {"type":"Point","coordinates":[-4.378847,55.600117]}
}
