{
  "id": 85785577,
  "type": "Feature",
  "properties": {
    "edtf:cessation": "",
    "edtf:inception": "",
    "geom:area": 0.00010309620450000199,
    "geom:area_square_m": 794634.586124,
    "geom:bbox": "-2.620239,51.431935,-2.603760,51.443737",
    "geom:latitude": 51.4385600142921,
    "geom:longitude": -2.6120168515767084,
    "gn:id": "",
    "gn:latitude": 51.43838,
    "gn:longitude": -2.60007,
    "iso:country": "GB",
    "lbl:latitude": 51.440395,
    "lbl:longitude": -2.598507,
    "lbl:max_zoom": 18,
    "mps:latitude": 51.438887,
    "mps:longitude": -2.612017,
    "mz:hierarchy_label": 1,
    "mz:is_current": -1,
    "mz:is_funky": 0,
    "mz:is_hard_boundary": 0,
    "mz:is_landuse_aoi": 0,
    "mz:is_official": 0,
    "mz:max_zoom": 18,
    "mz:min_zoom": 13,
    "mz:tier_locality": 4,
    "mz:tier_metro": 30,
    "name:bar_x_preferred": [
      "Bedminster"
    ],
    "name:cym_x_preferred": [
      "Bedminster"
    ],
    "name:deu_x_preferred": [
      "Bedminster"
    ],
    "name:eng_x_preferred": [
      "Bedminster"
    ],
    "name:fra_x_preferred": [
      "Bedminster"
    ],
    "name:gle_x_preferred": [
      "Bedminster"
    ],
    "name:jpn_x_preferred": [
      "ベッドミンスター"
    ],
    "name:nld_x_preferred": [
      "Bedminster"
    ],
    "name:nno_x_preferred": [
      "Bedminster"
    ],
    "name:nob_x_preferred": [
      "Bedminster"
    ],
    "name:pol_x_preferred": [
      "Bedminster"
    ],
    "name:rus_x_preferred": [
      "Бедминстер"
    ],
    "name:swe_x_preferred": [
      "Bedminster"
    ],
    "name:zho_x_preferred": [
      "貝德明斯特"
    ],
    "qs:gn_adm0_cc": "GB",
    "qs:gn_fcode": "PPLX",
    "qs:gn_local": 2654675,
    "qs:gn_nam_loc": "Bristol, City of Bristol, England, GB",
    "qs:gn_namadm1": "ENG",
    "qs:gn_name": "Bedminster",
    "qs:local_max": 8672,
    "qs:local_sum": 133678,
    "qs:localhoods": 87,
    "qs:name": "Bedminster",
    "qs:name_adm0": "United Kingdom",
    "qs:name_adm1": "England",
    "qs:name_adm2": "City of Bristol",
    "qs:name_lau": "Bristol",
    "qs:name_local": "Bristol",
    "qs:photo_max": 296,
    "qs:photo_sum": 1241,
    "qs:placetype": "Suburb",
    "qs:quad_count": 21,
    "qs:woe_adm0": 23424975,
    "qs:woe_adm1": 24554868,
    "qs:woe_adm2": 12602180,
    "qs:woe_lau": 12696137,
    "qs:woe_local": 13963,
    "qs:woe_ver": "7.10.0",
    "src:geom": "quattroshapes",
    "src:geom_alt": [
      "quattroshapes_pg"
    ],
    "src:lbl_centroid": "whosonfirst",
    "src:population": "wikidata",
    "wof:belongsto": [
      1880772883,
      102191581,
      85633159,
      1880762137,
      404227469,
      1175612699,
      136253055,
      1360698747
    ],
    "wof:breaches": [],
    "wof:concordances": {
      "fct:id": "0ab4bed0-8f76-11e1-848f-cfd5bf3ef515",
      "gn:id": 2656038,
      "gp:id": 12221,
      "qs_pg:id": 245057,
      "wd:id": "Q2660843",
      "wk:page": "Bedminster, Bristol"
    },
    "wof:country": "GB",
    "wof:created": 1765390965,
    "wof:geom_alt": [
      "quattroshapes_pg"
    ],
    "wof:geomhash": "ff03f423d00893f7f59fa05ca7c62562",
    "wof:hierarchy": [
      {
        "continent_id": 102191581,
        "country_id": 85633159,
        "county_id": 1360698747,
        "empire_id": 136253055,
        "locality_id": 1175612699,
        "macrocounty_id": 1880762137,
        "macroregion_id": 404227469,
        "neighbourhood_id": 85785577,
        "region_id": 1880772883
      }
    ],
    "wof:id": 85785577,
    "wof:lang": [
      "eng"
    ],
    "wof:lastmodified": 1765390965,
    "wof:name": "Bedminster",
    "wof:parent_id": 1175612699,
    "wof:placetype": "neighbourhood",
    "wof:population": 12448,
    "wof:population_rank": 6,
    "wof:repo": "whosonfirst-data-admin-gb",
    "wof:superseded_by": [],
    "wof:supersedes": [],
    "wof:tags": []
  },
  "bbox": [
    -2.620239,
    51.431935,
    -2.60376,
    51.443737
  ],
  "geometry": {"type":"Polygon","coordinates":[[[-2.611523,51.443737],[-2.609253,51.443737],[-2.606506,51.443737],[-2.606506,51.442025],[-2.604236,51.442025],[-2.60376,51.442025],[-2.60376,51.440313],[-2.604236,51.440313],[-2.606506,51.440313],[-2.606506,51.438601],[-2.606506,51.436889],[-2.609253,51.436889],[-2.609253,51.435176],[-2.609253,51.433464],[-2.609968,51.432317],[-2.612,51.433403],[-2.614746,51.431935],[-2.6157,51.433464],[-2.615344,51.435176],[-2.6157,51.436889],[-2.619286,51.436889],[-2.619286,51.436889],[-2.620239,51.436889],[-2.620239,51.438601],[-2.620239,51.440313],[-2.615223,51.440313],[-2.615045,51.441169],[-2.615223,51.442025],[-2.614746,51.442025],[-2.613373,51.442025],[-2.613373,51.442881],[-2.612,51.442881],[-2.612,51.443737],[-2.611523,51.443737]]]}
}
