{
  "id": 1360791521,
  "type": "Feature",
  "properties": {
    "edtf:cessation": "",
    "edtf:inception": "",
    "geom:area": 0,
    "geom:area_square_m": 0,
    "geom:bbox": "-0.879940,51.427470,-0.879940,51.427470",
    "geom:latitude": 51.42747,
    "geom:longitude": -0.87994,
    "gn:country": "GB",
    "gn:fcode": "PPLA3",
    "gn:population": 0,
    "iso:country": "GB",
    "lbl:bbox": "-0.88494,51.42247,-0.87494,51.43247",
    "lbl:latitude": 51.42747,
    "lbl:longitude": -0.87994,
    "lbl:max_zoom": 18,
    "mz:hierarchy_label": 1,
    "mz:is_current": 1,
    "mz:min_zoom": 15,
    "mz:note": "Quattroshapes Point Gazetteer import 20170519",
    "name:ben_x_preferred": [
      "উইন্যারশ"
    ],
    "name:ceb_x_preferred": [
      "Winnersh"
    ],
    "name:cym_x_preferred": [
      "Winnersh"
    ],
    "name:deu_x_preferred": [
      "Winnersh"
    ],
    "name:eng_x_preferred": [
      "Winnersh"
    ],
    "name:fas_x_preferred": [
      "ویننرش"
    ],
    "name:fra_x_preferred": [
      "Winnersh"
    ],
    "name:gle_x_preferred": [
      "Winnersh"
    ],
    "name:guj_x_preferred": [
      "વિનર્શ"
    ],
    "name:jpn_x_preferred": [
      "ウィナーシュ"
    ],
    "name:kan_x_preferred": [
      "ವಿನ್ನರ್ಸ್"
    ],
    "name:kor_x_preferred": [
      "위너쉬"
    ],
    "name:lit_x_preferred": [
      "Vėneršas"
    ],
    "name:lld_x_preferred": [
      "Winnersh"
    ],
    "name:nan_x_preferred": [
      "Winnersh"
    ],
    "name:nld_x_preferred": [
      "Winnersh"
    ],
    "name:pol_x_preferred": [
      "Winnersh"
    ],
    "name:por_x_preferred": [
      "Winnersh"
    ],
    "name:rus_x_preferred": [
      "Уиннерш"
    ],
    "name:spa_x_preferred": [
      "Winnersh"
    ],
    "name:swe_x_preferred": [
      "Winnersh"
    ],
    "name:tam_x_preferred": [
      "வின்னேர்ஷ்"
    ],
    "name:tel_x_preferred": [
      "విన్నర్ష్"
    ],
    "name:tur_x_preferred": [
      "Winnersh"
    ],
    "name:urd_x_preferred": [
      "ویننیرش"
    ],
    "qs_pg:aaroncc": "GB",
    "qs_pg:gn_country": "GB",
    "qs_pg:gn_fcode": "PPLA3",
    "qs_pg:gn_id": 2633814,
    "qs_pg:gn_pop": 0,
    "qs_pg:name": "Winnersh",
    "qs_pg:photos_9r": 0,
    "qs_pg:photos_sr": 0,
    "qs_pg:pop_sr": 0,
    "qs_pg:qs_id": 1028793,
    "qs_pg:qs_pg_placetype": "locality",
    "src:geom": "qs_pg",
    "src:lbl_centroid": "qs_pg",
    "src:population": "wikidata",
    "wof:belongsto": [
      404444111,
      1880761993,
      1125928983,
      1880771647
    ],
    "wof:breaches": [],
    "wof:concordances": {
      "gn:id": 2633814,
      "qs_pg:id": 1028793,
      "wd:id": "Q5552283"
    },
    "wof:country": "GB",
    "wof:created": 1497290240,
    "wof:geomhash": "564c413ce7ffa2dbae0db7163212a4cf",
    "wof:hierarchy": [
      {
        "continent_id": -1,
        "country_id": -1,
        "county_id": 1880771647,
        "localadmin_id": 404444111,
        "locality_id": 1125928983,
        "macrocounty_id": 1880761993,
        "neighbourhood_id": 1360791521,
        "region_id": -1
      }
    ],
    "wof:id": 1360791521,
    "wof:lastmodified": 1765389483,
    "wof:name": "Winnersh",
    "wof:parent_id": 1125928983,
    "wof:placetype": "neighbourhood",
    "wof:population": 10872,
    "wof:population_rank": 6,
    "wof:repo": "whosonfirst-data-admin-gb",
    "wof:superseded_by": [],
    "wof:supersedes": [
      1125775527
    ],
    "wof:tags": []
  },
  "bbox": [
    -0.87994,
    51.42747,
    -0.87994,
    51.42747
  ],
  "geometry": {"type":"Point","coordinates":[-0.87994,51.42747]}
}
