{
  "id": 101873435,
  "type": "Feature",
  "properties": {
    "edtf:cessation": "",
    "edtf:inception": "",
    "geom:area": 0,
    "geom:area_square_m": 0,
    "geom:bbox": "-3.439714,55.129275,-3.439714,55.129275",
    "geom:latitude": 55.129275,
    "geom:longitude": -3.439714,
    "gn:population": 1910,
    "iso:country": "GB",
    "lbl:bbox": "-3.459714,55.109275,-3.419714,55.149275",
    "lbl:latitude": 55.129275,
    "lbl:longitude": -3.439713,
    "lbl:max_zoom": 16,
    "lbl:min_zoom": 12,
    "mps:latitude": 55.129275,
    "mps:longitude": -3.439713,
    "mz:hierarchy_label": 1,
    "mz:is_current": 1,
    "mz:min_zoom": 11,
    "name:ast_x_preferred": [
      "Lochmaben"
    ],
    "name:azb_x_preferred": [
      "لوچمابین"
    ],
    "name:bre_x_preferred": [
      "Lochmaben"
    ],
    "name:ceb_x_preferred": [
      "Lochmaben"
    ],
    "name:cym_x_preferred": [
      "Lochmaben"
    ],
    "name:deu_x_preferred": [
      "Lochmaben"
    ],
    "name:eng_x_preferred": [
      "Lochmaben"
    ],
    "name:eus_x_preferred": [
      "Lochmaben"
    ],
    "name:fas_x_preferred": [
      "لوچمابین"
    ],
    "name:fra_x_preferred": [
      "Lochmaben"
    ],
    "name:gla_x_preferred": [
      "Loch Mhabain"
    ],
    "name:gle_x_preferred": [
      "Loch Mhabain"
    ],
    "name:ita_x_preferred": [
      "Lochmaben"
    ],
    "name:jpn_x_preferred": [
      "ロックマーベン"
    ],
    "name:nld_x_preferred": [
      "Lochmaben"
    ],
    "name:rus_x_preferred": [
      "Лохмабен"
    ],
    "name:sco_x_preferred": [
      "Lochmaben"
    ],
    "name:spa_x_preferred": [
      "Lochmaben"
    ],
    "name:swe_x_preferred": [
      "Lochmaben"
    ],
    "name:zho_x_preferred": [
      "洛支麥本"
    ],
    "qs:a0": "United Kingdom",
    "qs:a1": "*Dumfries and Galloway",
    "qs:a1_lc": "GB11QH0000",
    "qs:a1r": "0Scotland",
    "qs:a1r_lc": "GB11000000",
    "qs:adm0": "United Kingdom",
    "qs:id": 0,
    "qs:la_lc": "*",
    "qs:level": "locality",
    "qs:loc": "Lochmaben",
    "qs:loc_alt": "Lochmaben",
    "qs:pop": 0,
    "qs:source": "RCustom EuroGlobalMap + UMZ Urban Polygons + Geonames + GeoPlanet",
    "qs:type": "buffered point",
    "src:geom": "whosonfirst",
    "src:geom_alt": [
      "quattroshapes_pg",
      "quattroshapes"
    ],
    "src:geom_via": "quattroshapes",
    "src:lbl_centroid": "mapshaper",
    "src:population": "wikidata",
    "wd:latitude": 55.1281,
    "wd:longitude": -3.4413,
    "wd:wordcount": 1280,
    "wof:belongsto": [
      1360698719,
      102191581,
      404444245,
      85633159,
      404227471,
      1360699039
    ],
    "wof:breaches": [],
    "wof:concordances": {
      "fct:id": "0aa5ecb6-8f76-11e1-848f-cfd5bf3ef515",
      "gn:id": 2643812,
      "gp:id": 27245,
      "qs_pg:id": 1036942,
      "wd:id": "Q3257725",
      "wk:page": "Lochmaben"
    },
    "wof:country": "GB",
    "wof:created": 1765385026,
    "wof:geom_alt": [
      "quattroshapes",
      "quattroshapes_pg"
    ],
    "wof:geomhash": "95abd3626ee9343d86ed6e4afe853ab7",
    "wof:hierarchy": [
      {
        "continent_id": 102191581,
        "country_id": 85633159,
        "county_id": 1360699039,
        "localadmin_id": 404444245,
        "locality_id": 101873435,
        "macroregion_id": 404227471,
        "region_id": 1360698719
      }
    ],
    "wof:id": 101873435,
    "wof:lang": [
      "eng"
    ],
    "wof:lastmodified": 1765385026,
    "wof:name": "Lochmaben",
    "wof:parent_id": 404444245,
    "wof:placetype": "locality",
    "wof:population": 2200,
    "wof:population_rank": 4,
    "wof:repo": "whosonfirst-data-admin-gb",
    "wof:superseded_by": [],
    "wof:supersedes": [],
    "wof:tags": []
  },
  "bbox": [
    -3.439714,
    55.129275,
    -3.439714,
    55.129275
  ],
  "geometry": {"type":"Point","coordinates":[-3.439714,55.129275]}
}
