{
  "id": 1126091545,
  "type": "Feature",
  "properties": {
    "edtf:cessation": "",
    "edtf:deprecated": "2024-01-19",
    "edtf:inception": "",
    "edtf:superseded": "2024-01-19",
    "geom:area": 0,
    "geom:area_square_m": 0,
    "geom:bbox": "-0.150289,51.462991,-0.150289,51.462991",
    "geom:latitude": 51.462991,
    "geom:longitude": -0.150289,
    "gn:country": null,
    "iso:country": "GB",
    "lbl:bbox": "-0.155289,51.457991,-0.145289,51.467991",
    "lbl:latitude": 51.462991,
    "lbl:longitude": -0.150289,
    "lbl:max_zoom": 18,
    "mz:hierarchy_label": 1,
    "mz:is_current": 0,
    "mz:min_zoom": 15,
    "mz:note": "Quattroshapes Point Gazetteer import 20170519",
    "name:ara_x_preferred": [
      "كلافام"
    ],
    "name:azb_x_preferred": [
      "کلاپام"
    ],
    "name:aze_x_preferred": [
      "Klapem"
    ],
    "name:bul_x_preferred": [
      "Клепам"
    ],
    "name:cat_x_preferred": [
      "Clapham"
    ],
    "name:ces_x_preferred": [
      "Clapham"
    ],
    "name:cym_x_preferred": [
      "Clapham"
    ],
    "name:deu_x_preferred": [
      "Clapham"
    ],
    "name:eng_x_preferred": [
      "Clapham"
    ],
    "name:fas_x_preferred": [
      "کلاپهام"
    ],
    "name:fin_x_preferred": [
      "Clapham"
    ],
    "name:fra_x_preferred": [
      "Clapham"
    ],
    "name:gle_x_preferred": [
      "Clapham"
    ],
    "name:heb_x_preferred": [
      "קלפהאם"
    ],
    "name:hun_x_preferred": [
      "Clapham"
    ],
    "name:hye_x_preferred": [
      "Քլեպհեմ"
    ],
    "name:isl_x_preferred": [
      "Clapham"
    ],
    "name:ita_x_preferred": [
      "Clapham"
    ],
    "name:jpn_x_preferred": [
      "クラップハム"
    ],
    "name:ltz_x_preferred": [
      "Clapham"
    ],
    "name:nld_x_preferred": [
      "Clapham"
    ],
    "name:nob_x_preferred": [
      "Clapham"
    ],
    "name:pol_x_preferred": [
      "Clapham"
    ],
    "name:rus_x_preferred": [
      "Клэпхем"
    ],
    "name:rus_x_variant": [
      "Клапем"
    ],
    "name:slv_x_preferred": [
      "Clapham"
    ],
    "name:spa_x_preferred": [
      "Clapham"
    ],
    "name:srp_x_preferred": [
      "Клапам"
    ],
    "name:swe_x_preferred": [
      "Clapham"
    ],
    "name:ukr_x_preferred": [
      "Клепхем"
    ],
    "name:urd_x_preferred": [
      "کلیپہیم"
    ],
    "name:vie_x_preferred": [
      "Clapham"
    ],
    "name:zho_x_preferred": [
      "克拉珀姆"
    ],
    "qs_pg:aaroncc": "GB",
    "qs_pg:gn_country": null,
    "qs_pg:name": "Clapham",
    "qs_pg:name_adm0": "United Kingdom",
    "qs_pg:name_adm1": "England",
    "qs_pg:photos": 2075,
    "qs_pg:photos_1k": 420,
    "qs_pg:photos_9k": 9,
    "qs_pg:photos_9r": 9,
    "qs_pg:photos_all": 2075,
    "qs_pg:photos_sr": 16,
    "qs_pg:pop_sr": 0,
    "qs_pg:qs_id": 215513,
    "qs_pg:qs_pg_placetype": "neighbourhood",
    "qs_pg:qs_pg_placetype_gp": "Suburb",
    "qs_pg:woe_adm0": 23424975,
    "qs_pg:woe_id": 16155,
    "src:geom": "qs_pg",
    "src:lbl_centroid": "qs_pg",
    "src:population": "wikidata",
    "woe:adm0_id": 23424975,
    "woe:name_adm0": "United Kingdom",
    "woe:name_adm1": "England",
    "woe:placetype": "Suburb",
    "wof:belongsto": [
      102191581,
      1880762179,
      85633159,
      404227469,
      101750367,
      136253055,
      1158857249,
      1880771825,
      1880762729
    ],
    "wof:breaches": [],
    "wof:concordances": {
      "gp:id": 16155,
      "qs_pg:id": 215513,
      "wd:id": "Q146659"
    },
    "wof:country": "GB",
    "wof:created": 1497313942,
    "wof:geomhash": "3f576ecb10f36db04919706bddd1616b",
    "wof:hierarchy": [
      {
        "borough_id": 1158857249,
        "continent_id": 102191581,
        "country_id": 85633159,
        "county_id": 1880771825,
        "empire_id": 136253055,
        "locality_id": 101750367,
        "macrocounty_id": 1880762179,
        "macroregion_id": 404227469,
        "neighbourhood_id": 1126091545,
        "region_id": 1880762729
      }
    ],
    "wof:id": 1126091545,
    "wof:lastmodified": 1765388071,
    "wof:name": "Clapham",
    "wof:parent_id": 1158857249,
    "wof:placetype": "neighbourhood",
    "wof:population": 48478,
    "wof:population_rank": 7,
    "wof:repo": "whosonfirst-data-admin-gb",
    "wof:superseded_by": [
      85861663
    ],
    "wof:supersedes": [],
    "wof:tags": []
  },
  "bbox": [
    -0.150289,
    51.462991,
    -0.150289,
    51.462991
  ],
  "geometry": {"type":"Point","coordinates":[-0.150289,51.462991]}
}
