{
  "id": 85790841,
  "type": "Feature",
  "properties": {
    "edtf:cessation": "",
    "edtf:inception": "",
    "geom:area": 0.0002577190704999835,
    "geom:area_square_m": 1988647.20958,
    "geom:bbox": "-0.310364,51.380254,-0.285645,51.397492",
    "geom:latitude": 51.388864453548464,
    "geom:longitude": -0.29939488780005896,
    "gn:latitude": 51.39148,
    "gn:longitude": -0.29825,
    "gn:population": 38158,
    "iso:country": "GB",
    "lbl:latitude": 51.393476,
    "lbl:longitude": -0.297629,
    "lbl:max_zoom": 18,
    "mps:latitude": 51.389073,
    "mps:longitude": -0.29963,
    "mz:hierarchy_label": 1,
    "mz:is_current": 1,
    "mz:is_funky": 0,
    "mz:is_hard_boundary": 0,
    "mz:is_landuse_aoi": 0,
    "mz:is_official": 0,
    "mz:max_zoom": 18,
    "mz:min_zoom": 13,
    "mz:tier_locality": 7,
    "mz:tier_metro": 1,
    "name:ara_x_preferred": [
      "ساربيتون"
    ],
    "name:azb_x_preferred": [
      "ساربیتون"
    ],
    "name:bul_x_preferred": [
      "Сурбитон"
    ],
    "name:cat_x_preferred": [
      "Surbiton"
    ],
    "name:ceb_x_preferred": [
      "Surbiton"
    ],
    "name:ces_x_preferred": [
      "Surbiton"
    ],
    "name:cym_x_preferred": [
      "Surbiton"
    ],
    "name:dan_x_preferred": [
      "Surbiton"
    ],
    "name:deu_x_preferred": [
      "Surbiton"
    ],
    "name:eng_x_preferred": [
      "Surbiton"
    ],
    "name:epo_x_preferred": [
      "Surbiton"
    ],
    "name:fas_x_preferred": [
      "ساربیتون"
    ],
    "name:fra_x_preferred": [
      "Surbiton"
    ],
    "name:gle_x_preferred": [
      "Surbiton"
    ],
    "name:heb_x_preferred": [
      "סורביטון"
    ],
    "name:hin_x_preferred": [
      "सर्बिटन"
    ],
    "name:ita_x_preferred": [
      "Surbiton"
    ],
    "name:jpn_x_preferred": [
      "サービトン"
    ],
    "name:lat_x_preferred": [
      "Surbiton"
    ],
    "name:new_x_preferred": [
      "सर्बिटन"
    ],
    "name:nld_x_preferred": [
      "Surbiton"
    ],
    "name:nob_x_preferred": [
      "Surbiton"
    ],
    "name:pol_x_preferred": [
      "Surbiton"
    ],
    "name:por_x_preferred": [
      "Surbiton"
    ],
    "name:rus_x_preferred": [
      "Сербитон"
    ],
    "name:slv_x_preferred": [
      "Surbiton"
    ],
    "name:spa_x_preferred": [
      "Surbiton"
    ],
    "name:swe_x_preferred": [
      "Surbiton"
    ],
    "name:ukr_x_preferred": [
      "Сербітон"
    ],
    "name:urd_x_preferred": [
      "سربیٹن"
    ],
    "name:zho_x_preferred": [
      "蘇別頓"
    ],
    "src:geom": "quattroshapes",
    "src:geom_alt": [
      "quattroshapes_pg"
    ],
    "src:lbl_centroid": "mz",
    "src:population": "wikidata",
    "wd:wordcount": 2252,
    "wof:belongsto": [
      1880762729,
      102191581,
      1880762179,
      85633159,
      404227469,
      101750367,
      136253055,
      1158857309,
      1880771825
    ],
    "wof:breaches": [],
    "wof:concordances": {
      "gn:id": 6690866,
      "gp:id": 36642,
      "qs_pg:id": 1071569,
      "wd:id": "Q2453259",
      "wk:page": "Surbiton"
    },
    "wof:country": "GB",
    "wof:created": 1765391198,
    "wof:geom_alt": [
      "quattroshapes_pg"
    ],
    "wof:geomhash": "bda14f0ddc52d1cf3cc4c8f61eefe787",
    "wof:hierarchy": [
      {
        "borough_id": 1158857309,
        "continent_id": 102191581,
        "country_id": 85633159,
        "county_id": 1880771825,
        "empire_id": 136253055,
        "locality_id": 101750367,
        "macrocounty_id": 1880762179,
        "macroregion_id": 404227469,
        "neighbourhood_id": 85790841,
        "region_id": 1880762729
      }
    ],
    "wof:id": 85790841,
    "wof:lang": [
      "eng"
    ],
    "wof:lastmodified": 1765391198,
    "wof:name": "Surbiton",
    "wof:parent_id": 1158857309,
    "wof:placetype": "neighbourhood",
    "wof:population": 45132,
    "wof:population_rank": 7,
    "wof:repo": "whosonfirst-data-admin-gb",
    "wof:superseded_by": [],
    "wof:supersedes": [],
    "wof:tags": []
  },
  "bbox": [
    -0.310364,
    51.380254,
    -0.285645,
    51.397492
  ],
  "geometry": {"type":"Polygon","coordinates":[[[-0.29054,51.390637],[-0.290184,51.388923],[-0.285645,51.388923],[-0.285645,51.388923],[-0.285645,51.387024],[-0.285645,51.385495],[-0.291138,51.385495],[-0.291138,51.383781],[-0.293884,51.383781],[-0.294419,51.382924],[-0.296631,51.382924],[-0.296631,51.382067],[-0.302124,51.382067],[-0.303078,51.382067],[-0.30383,51.380862],[-0.306486,51.380254],[-0.307617,51.382067],[-0.307617,51.382067],[-0.307617,51.385263],[-0.30834,51.385495],[-0.309533,51.385877],[-0.310364,51.387209],[-0.310364,51.388923],[-0.310364,51.390637],[-0.308094,51.390637],[-0.307916,51.391494],[-0.308094,51.392351],[-0.307617,51.393115],[-0.307617,51.394065],[-0.305586,51.394065],[-0.304871,51.395211],[-0.304871,51.395778],[-0.302124,51.395778],[-0.302124,51.397492],[-0.299377,51.397492],[-0.296631,51.397492],[-0.296033,51.397492],[-0.295915,51.396925],[-0.293884,51.39584],[-0.293884,51.395778],[-0.293884,51.394065],[-0.293884,51.392351],[-0.291138,51.392351],[-0.290184,51.392351],[-0.290184,51.392351],[-0.29054,51.390637]]]}
}
