{
  "id": 85683637,
  "type": "Feature",
  "properties": {
    "edtf:cessation": "",
    "edtf:deprecated": "2017-12-20",
    "edtf:inception": "",
    "geom:area": 0.0048993434584999425,
    "geom:area_square_m": 37676518.490678,
    "geom:bbox": "0.066758,51.508762,0.190249,51.599449",
    "geom:latitude": 51.54392687505853,
    "geom:longitude": 0.13329859641291314,
    "iso:country": "GB",
    "lbl:latitude": 51.540167,
    "lbl:longitude": 0.139385,
    "mps:latitude": 51.540167,
    "mps:longitude": 0.139385,
    "mz:hierarchy_label": 1,
    "mz:is_current": 0,
    "mz:is_funky": 1,
    "mz:max_zoom": 11,
    "mz:min_zoom": 11,
    "name:aze_x_preferred": [
      "Barkinq və Dagenhem borosu"
    ],
    "name:bel_x_preferred": [
      "бора Баркінг і Дагенем"
    ],
    "name:ben_x_preferred": [
      "বার্কিং ও ডেগেনহ্যাম"
    ],
    "name:cat_x_preferred": [
      "Barking i Dagenham"
    ],
    "name:ces_x_preferred": [
      "Barking a Dagenham"
    ],
    "name:cym_x_preferred": [
      "Barking a Dagenham"
    ],
    "name:dan_x_preferred": [
      "Barking and Dagenham"
    ],
    "name:deu_x_preferred": [
      "London Borough of Barking and Dagenham"
    ],
    "name:eng_x_preferred": [
      "Barking and Dagenham"
    ],
    "name:eus_x_preferred": [
      "Barking eta Dagenham"
    ],
    "name:fas_x_preferred": [
      "منطقه بارکینگ و دگنهام لندن"
    ],
    "name:fin_x_preferred": [
      "Barking and Dagenham"
    ],
    "name:fra_x_preferred": [
      "district londonien de Barking et Dagenham"
    ],
    "name:gle_x_preferred": [
      "Buirg Londan Barking agus Dagenham"
    ],
    "name:guj_x_preferred": [
      "લંડન બોરો ઓફ બાર્કિંગ અને ડગેનહામ"
    ],
    "name:heb_x_preferred": [
      "בארקינג ודאגנהאם"
    ],
    "name:hin_x_preferred": [
      "बार्किंग ऐंड डेगनहम बरो"
    ],
    "name:hun_x_preferred": [
      "Barking and Dagenham kerület"
    ],
    "name:ind_x_preferred": [
      "Barking dan Dagenham"
    ],
    "name:isl_x_preferred": [
      "Barking og Dagenham"
    ],
    "name:ita_x_preferred": [
      "Barking e Dagenham"
    ],
    "name:jpn_x_preferred": [
      "バーキング・アンド・ダゲナム・ロンドン特別区"
    ],
    "name:kan_x_preferred": [
      "ಲಂಡನ್ ಬರೋ ಆಫ್ ಬಾರ್ಕಿಂಗ್ ಮತ್ತು ಡೇಗೆನ್ಹ್ಯಾಮ್"
    ],
    "name:kor_x_preferred": [
      "바킹 대거넘 구"
    ],
    "name:lat_x_preferred": [
      "Barking and Dagenham"
    ],
    "name:lin_x_preferred": [
      "London Borough of Barking and Dagenham"
    ],
    "name:nld_x_preferred": [
      "Barking en Dagenham"
    ],
    "name:nno_x_preferred": [
      "London Borough of Barking and Dagenham"
    ],
    "name:nob_x_preferred": [
      "Barking and Dagenham"
    ],
    "name:pol_x_preferred": [
      "London Borough of Barking and Dagenham"
    ],
    "name:por_x_preferred": [
      "Barking e Dagenham"
    ],
    "name:ron_x_preferred": [
      "Barking and Dagenham"
    ],
    "name:rus_x_preferred": [
      "Баркинг и Дагенхэм"
    ],
    "name:sco_x_preferred": [
      "Lunnon Borough o Barking an Dagenham"
    ],
    "name:slk_x_preferred": [
      "Barking and Dagenham"
    ],
    "name:spa_x_preferred": [
      "Barking y Dagenham"
    ],
    "name:srp_x_preferred": [
      "Лондонска општина Баркинг и Дагенам"
    ],
    "name:swe_x_preferred": [
      "London Borough of Barking and Dagenham"
    ],
    "name:tam_x_preferred": [
      "லண்டன்  பாரூக்ஹ்  ஆப்  பார்க்கிங்  \u0026 டகென்ஹாம்"
    ],
    "name:tel_x_preferred": [
      "లండన్ బోరోగ్ అఫ్ బార్కింగ్ అండ్ డాగెంహం"
    ],
    "name:ukr_x_preferred": [
      "Баркінг і Дагенем"
    ],
    "name:urd_x_preferred": [
      "بارکنگ اور ڈیگنہیم بورو"
    ],
    "name:vie_x_preferred": [
      "Khu Barking và Dagenham của Luân Đôn"
    ],
    "name:yid_x_preferred": [
      "לאנדאנער בארא פון בארקינג און דעגנהעם"
    ],
    "name:zho_x_preferred": [
      "巴金-達格納姆區"
    ],
    "ne:abbrev": "Bark\u0026Dag",
    "ne:adm0_a3": "GBR",
    "ne:adm0_label": "7",
    "ne:adm0_sr": "1",
    "ne:adm1_cod_1": "GBR-2060",
    "ne:adm1_code": "GBR-2060",
    "ne:admin": "United Kingdom",
    "ne:area_sqkm": "0.00000000000",
    "ne:check_me": "20",
    "ne:code_hasc": "GB.BA",
    "ne:code_local": "",
    "ne:datarank": "5",
    "ne:diss_me": "2060",
    "ne:featurecla": "Admin-1 scale rank",
    "ne:fips": "UK17",
    "ne:fips_alt": "UKA1",
    "ne:gadm_level": "2",
    "ne:geonunit": "England",
    "ne:gn_a1_code": "GB.",
    "ne:gn_id": "-2648110",
    "ne:gn_level": "-2",
    "ne:gn_name": "Greater London",
    "ne:gn_region": "",
    "ne:gns_adm1": "",
    "ne:gns_id": "6077562",
    "ne:gns_lang": "ind",
    "ne:gns_level": "1",
    "ne:gns_name": "Barking and Dagenham, London Borough of",
    "ne:gns_region": "UK35",
    "ne:gu_a3": "ENG",
    "ne:hasc_maybe": "",
    "ne:iso_3166_2": "GB-",
    "ne:iso_a2": "GB",
    "ne:labelrank": "9",
    "ne:latitude": "51.53790000000",
    "ne:longitude": "0.13395100000",
    "ne:mapcolor13": 3,
    "ne:mapcolor9": 6,
    "ne:name": "Barking and Dagenham",
    "ne:name_alt": "",
    "ne:name_len": 20,
    "ne:name_local": "",
    "ne:note": "",
    "ne:postal": "BA",
    "ne:provnum_ne": "20035",
    "ne:region": "Greater London",
    "ne:region_cod": "",
    "ne:region_sub": "Greater London",
    "ne:sameascity": "-99",
    "ne:scalerank": "8",
    "ne:sov_a3": "GB1",
    "ne:sub_code": "",
    "ne:type": "London Borough",
    "ne:type_en": "London Borough",
    "ne:wikipedia": "",
    "ne:woe_id": 12695820,
    "ne:woe_label": "",
    "ne:woe_name": "London Borough of Barking and Dagenham",
    "qs:a0": "United Kingdom",
    "qs:a0_lc": "GB00000000",
    "qs:a1": "Barking and Dagenham",
    "qs:a1_alt": "Barking and Dagenham",
    "qs:a1_lc": "GB12AB0000",
    "qs:a1r": "England",
    "qs:a1r_alt": "England",
    "qs:a1r_lc": "GB12000000",
    "qs:adm0": "United Kingdom",
    "qs:adm0_a3": "GBR",
    "qs:level": "adm1",
    "qs:source": "EuroGlobalMap",
    "qs:type": "London Borough",
    "src:geom": "quattroshapes",
    "src:geom_alt": [],
    "src:lbl:centroid": "mapshaper",
    "src:population": "wikidata",
    "unlc:subdivision": "GB-BDG",
    "wof:belongsto": [
      102191581,
      85633159,
      404227469
    ],
    "wof:breaches": [],
    "wof:concordances": {
      "fips:code": "UK17",
      "gn:id": -2648110,
      "gp:id": 12695820,
      "hasc:id": "GB.BA",
      "unlc:id": "GB-BDG",
      "wd:id": "Q205358"
    },
    "wof:country": "GB",
    "wof:created": 1765390918,
    "wof:geomhash": "9dac7d611c7e3f39bbbeaaee61a1f2ca",
    "wof:hierarchy": [
      {
        "continent_id": 102191581,
        "country_id": 85633159,
        "macroregion_id": 404227469,
        "region_id": 85683637
      }
    ],
    "wof:id": 85683637,
    "wof:lastmodified": 1765390918,
    "wof:name": "Barking and Dagenham",
    "wof:parent_id": 404227469,
    "wof:placetype": "region",
    "wof:population": 219992,
    "wof:population_rank": 10,
    "wof:repo": "whosonfirst-data-admin-gb",
    "wof:shortcode": "BA",
    "wof:subdivision": "GB-BDG",
    "wof:superseded_by": [
      1158857319
    ],
    "wof:supersedes": [],
    "wof:tags": []
  },
  "bbox": [
    0.066758,
    51.508762,
    0.190249,
    51.599449
  ],
  "geometry": {"type":"Polygon","coordinates":[[[0.148205,51.599048],[0.147637,51.596805],[0.148129,51.596397],[0.149818,51.597076],[0.151096,51.595546],[0.150641,51.591285],[0.151266,51.589123],[0.150997,51.583755],[0.148452,51.580749],[0.147517,51.580791],[0.147052,51.575676],[0.14818,51.575622],[0.147985,51.573131],[0.149029,51.57323],[0.149821,51.569694],[0.146711,51.569416],[0.146829,51.568767],[0.148818,51.568619],[0.150428,51.567821],[0.151505,51.567989],[0.161922,51.561599],[0.173457,51.565098],[0.183358,51.564651],[0.185207,51.565521],[0.182688,51.56131],[0.184835,51.559852],[0.184811,51.556423],[0.18696,51.555782],[0.187602,51.554523],[0.190249,51.552677],[0.189688,51.551513],[0.187553,51.550201],[0.186064,51.547535],[0.182393,51.545654],[0.180523,51.544113],[0.179303,51.540336],[0.175147,51.538547],[0.170874,51.532676],[0.166053,51.528797],[0.163008,51.52388],[0.158779,51.512172],[0.158015,51.508762],[0.153328,51.50925],[0.146928,51.510719],[0.135994,51.514591],[0.128874,51.515529],[0.12344,51.515148],[0.118364,51.51358],[0.108048,51.511535],[0.099773,51.511898],[0.099865,51.51448],[0.096999,51.515671],[0.094946,51.517048],[0.094977,51.520534],[0.092516,51.522518],[0.092579,51.525738],[0.088757,51.52652],[0.085296,51.52589],[0.080619,51.527652],[0.07836,51.529258],[0.075336,51.529941],[0.072878,51.529255],[0.072772,51.530784],[0.069811,51.536037],[0.068795,51.536182],[0.068429,51.536869],[0.06915,51.537334],[0.066758,51.540714],[0.068394,51.544414],[0.071864,51.543586],[0.076931,51.544613],[0.078006,51.544082],[0.086094,51.547371],[0.091544,51.548259],[0.092607,51.549606],[0.09241,51.548454],[0.093534,51.545791],[0.104638,51.549934],[0.108337,51.552055],[0.108489,51.552681],[0.111128,51.552467],[0.112422,51.552997],[0.112427,51.553509],[0.114809,51.555301],[0.112792,51.556518],[0.113397,51.557316],[0.11722,51.556892],[0.117201,51.557388],[0.119006,51.557346],[0.120556,51.55854],[0.117548,51.559162],[0.119819,51.562492],[0.118941,51.562729],[0.119101,51.563064],[0.125012,51.564228],[0.127735,51.566112],[0.129431,51.566532],[0.130526,51.57032],[0.129919,51.571598],[0.131627,51.571834],[0.130978,51.57344],[0.130009,51.573055],[0.129512,51.573875],[0.129303,51.576294],[0.131724,51.57708],[0.130909,51.579391],[0.133587,51.579963],[0.132633,51.581314],[0.127706,51.581634],[0.128105,51.583259],[0.126468,51.586704],[0.131082,51.587505],[0.129599,51.590057],[0.137479,51.593841],[0.146626,51.599449],[0.148205,51.599048]]]}
}
