{
  "id": 85792301,
  "type": "Feature",
  "properties": {
    "edtf:cessation": "",
    "edtf:inception": "",
    "geom:area": 0.0011616752349999037,
    "geom:area_square_m": 8910614.86283,
    "geom:bbox": "-0.290799,51.641377,-0.239163,51.677445",
    "geom:latitude": 51.65949752981472,
    "geom:longitude": -0.26606907510934297,
    "iso:country": "GB",
    "lbl:latitude": 51.650276,
    "lbl:longitude": -0.240592,
    "lbl:max_zoom": 18,
    "mps:latitude": 51.660605,
    "mps:longitude": -0.268154,
    "mz:hierarchy_label": 1,
    "mz:is_current": -1,
    "mz:is_funky": 0,
    "mz:is_hard_boundary": 0,
    "mz:is_landuse_aoi": 0,
    "mz:is_official": 0,
    "mz:max_zoom": 18,
    "mz:min_zoom": 15,
    "mz:tier_locality": 7,
    "mz:tier_metro": 1,
    "name:aar_x_preferred": [
      "Croxley Green"
    ],
    "name:ace_x_preferred": [
      "Croxley Green"
    ],
    "name:afr_x_preferred": [
      "Croxley Green"
    ],
    "name:aka_x_preferred": [
      "Croxley Green"
    ],
    "name:aln_x_preferred": [
      "Croxley Green"
    ],
    "name:ang_x_preferred": [
      "Croxley Green"
    ],
    "name:ang_x_variant": [
      "Crocesleag"
    ],
    "name:arg_x_preferred": [
      "Croxley Green"
    ],
    "name:arn_x_preferred": [
      "Croxley Green"
    ],
    "name:ast_x_preferred": [
      "Croxley Green"
    ],
    "name:atj_x_preferred": [
      "Croxley Green"
    ],
    "name:aym_x_preferred": [
      "Croxley Green"
    ],
    "name:aze_x_preferred": [
      "Croxley Green"
    ],
    "name:bam_x_preferred": [
      "Croxley Green"
    ],
    "name:bar_x_preferred": [
      "Croxley Green"
    ],
    "name:ben_x_preferred": [
      "ক্রক্সলে গ্রিন"
    ],
    "name:bis_x_preferred": [
      "Croxley Green"
    ],
    "name:bjn_x_preferred": [
      "Croxley Green"
    ],
    "name:bre_x_preferred": [
      "Croxley Green"
    ],
    "name:cat_x_preferred": [
      "Croxley Green"
    ],
    "name:ceb_x_preferred": [
      "Croxley Green"
    ],
    "name:ces_x_preferred": [
      "Croxley Green"
    ],
    "name:cha_x_preferred": [
      "Croxley Green"
    ],
    "name:cho_x_preferred": [
      "Croxley Green"
    ],
    "name:chy_x_preferred": [
      "Croxley Green"
    ],
    "name:cor_x_preferred": [
      "Croxley Green"
    ],
    "name:cos_x_preferred": [
      "Croxley Green"
    ],
    "name:csb_x_preferred": [
      "Croxley Green"
    ],
    "name:cym_x_preferred": [
      "Croxley Green"
    ],
    "name:dan_x_preferred": [
      "Croxley Green"
    ],
    "name:deu_x_preferred": [
      "Croxley Green"
    ],
    "name:din_x_preferred": [
      "Croxley Green"
    ],
    "name:dsb_x_preferred": [
      "Croxley Green"
    ],
    "name:eml_x_preferred": [
      "Croxley Green"
    ],
    "name:eng_x_preferred": [
      "Rowley Green"
    ],
    "name:eng_x_variant": [
      "Croxley Green"
    ],
    "name:epo_x_preferred": [
      "Croxley Green"
    ],
    "name:est_x_preferred": [
      "Croxley Green"
    ],
    "name:eus_x_preferred": [
      "Croxley Green"
    ],
    "name:ewe_x_preferred": [
      "Croxley Green"
    ],
    "name:ext_x_preferred": [
      "Croxley Green"
    ],
    "name:fao_x_preferred": [
      "Croxley Green"
    ],
    "name:fas_x_preferred": [
      "کراکسلی گرین"
    ],
    "name:fij_x_preferred": [
      "Croxley Green"
    ],
    "name:fin_x_preferred": [
      "Croxley Green"
    ],
    "name:fra_x_preferred": [
      "Croxley Green"
    ],
    "name:frc_x_preferred": [
      "Croxley Green"
    ],
    "name:frp_x_preferred": [
      "Croxley Green"
    ],
    "name:frr_x_preferred": [
      "Croxley Green"
    ],
    "name:fry_x_preferred": [
      "Croxley Green"
    ],
    "name:ful_x_preferred": [
      "Croxley Green"
    ],
    "name:fur_x_preferred": [
      "Croxley Green"
    ],
    "name:gag_x_preferred": [
      "Croxley Green"
    ],
    "name:gcr_x_preferred": [
      "Croxley Green"
    ],
    "name:gla_x_preferred": [
      "Croxley Green"
    ],
    "name:gle_x_preferred": [
      "Croxley Green"
    ],
    "name:glg_x_preferred": [
      "Croxley Green"
    ],
    "name:glv_x_preferred": [
      "Croxley Green"
    ],
    "name:gor_x_preferred": [
      "Croxley Green"
    ],
    "name:grn_x_preferred": [
      "Croxley Green"
    ],
    "name:gsw_x_preferred": [
      "Croxley Green"
    ],
    "name:guj_x_preferred": [
      "ક્રોક્સલી ગ્રીન"
    ],
    "name:hat_x_preferred": [
      "Croxley Green"
    ],
    "name:hau_x_preferred": [
      "Croxley Green"
    ],
    "name:her_x_preferred": [
      "Croxley Green"
    ],
    "name:hil_x_preferred": [
      "Croxley Green"
    ],
    "name:hmo_x_preferred": [
      "Croxley Green"
    ],
    "name:hsb_x_preferred": [
      "Croxley Green"
    ],
    "name:ibo_x_preferred": [
      "Croxley Green"
    ],
    "name:ido_x_preferred": [
      "Croxley Green"
    ],
    "name:ile_x_preferred": [
      "Croxley Green"
    ],
    "name:ina_x_preferred": [
      "Croxley Green"
    ],
    "name:ind_x_preferred": [
      "Croxley Green"
    ],
    "name:ipk_x_preferred": [
      "Croxley Green"
    ],
    "name:isl_x_preferred": [
      "Croxley Green"
    ],
    "name:ita_x_preferred": [
      "Croxley Green"
    ],
    "name:jam_x_preferred": [
      "Croxley Green"
    ],
    "name:jav_x_preferred": [
      "Croxley Green"
    ],
    "name:jbo_x_preferred": [
      "Croxley Green"
    ],
    "name:jpn_x_preferred": [
      "クロクスリー・グリーン"
    ],
    "name:jut_x_preferred": [
      "Croxley Green"
    ],
    "name:kaa_x_preferred": [
      "Croxley Green"
    ],
    "name:kab_x_preferred": [
      "Croxley Green"
    ],
    "name:kal_x_preferred": [
      "Croxley Green"
    ],
    "name:kan_x_preferred": [
      "ಕ್ರೊಕ್ಸ್ಲೆ ಗ್ರೀನ್"
    ],
    "name:kau_x_preferred": [
      "Croxley Green"
    ],
    "name:kbp_x_preferred": [
      "Croxley Green"
    ],
    "name:kik_x_preferred": [
      "Croxley Green"
    ],
    "name:kin_x_preferred": [
      "Croxley Green"
    ],
    "name:kon_x_preferred": [
      "Croxley Green"
    ],
    "name:kor_x_preferred": [
      "크록슬리 그린"
    ],
    "name:kri_x_preferred": [
      "Croxley Green"
    ],
    "name:krj_x_preferred": [
      "Croxley Green"
    ],
    "name:ksh_x_preferred": [
      "Croxley Green"
    ],
    "name:kur_x_preferred": [
      "Croxley Green"
    ],
    "name:lad_x_preferred": [
      "Croxley Green"
    ],
    "name:lat_x_preferred": [
      "Croxley Green"
    ],
    "name:lav_x_preferred": [
      "Croxley Green"
    ],
    "name:lfn_x_preferred": [
      "Croxley Green"
    ],
    "name:lij_x_preferred": [
      "Croxley Green"
    ],
    "name:lim_x_preferred": [
      "Croxley Green"
    ],
    "name:lin_x_preferred": [
      "Croxley Green"
    ],
    "name:lit_x_preferred": [
      "Krokslei Grynas"
    ],
    "name:liv_x_preferred": [
      "Croxley Green"
    ],
    "name:lld_x_preferred": [
      "Croxley Green"
    ],
    "name:lmo_x_preferred": [
      "Croxley Green"
    ],
    "name:ltg_x_preferred": [
      "Croxley Green"
    ],
    "name:ltz_x_preferred": [
      "Croxley Green"
    ],
    "name:mah_x_preferred": [
      "Croxley Green"
    ],
    "name:min_x_preferred": [
      "Croxley Green"
    ],
    "name:mlg_x_preferred": [
      "Croxley Green"
    ],
    "name:mlt_x_preferred": [
      "Croxley Green"
    ],
    "name:mri_x_preferred": [
      "Croxley Green"
    ],
    "name:msa_x_preferred": [
      "Croxley Green"
    ],
    "name:mus_x_preferred": [
      "Croxley Green"
    ],
    "name:mwl_x_preferred": [
      "Croxley Green"
    ],
    "name:nah_x_preferred": [
      "Croxley Green"
    ],
    "name:nap_x_preferred": [
      "Croxley Green"
    ],
    "name:nau_x_preferred": [
      "Croxley Green"
    ],
    "name:nav_x_preferred": [
      "Croxley Green"
    ],
    "name:nds_x_preferred": [
      "Croxley Green"
    ],
    "name:nld_x_preferred": [
      "Croxley Green"
    ],
    "name:nno_x_preferred": [
      "Croxley Green"
    ],
    "name:nob_x_preferred": [
      "Croxley Green"
    ],
    "name:nov_x_preferred": [
      "Croxley Green"
    ],
    "name:nrm_x_preferred": [
      "Croxley Green"
    ],
    "name:nso_x_preferred": [
      "Croxley Green"
    ],
    "name:nya_x_preferred": [
      "Croxley Green"
    ],
    "name:oci_x_preferred": [
      "Croxley Green"
    ],
    "name:olo_x_preferred": [
      "Croxley Green"
    ],
    "name:orm_x_preferred": [
      "Croxley Green"
    ],
    "name:pag_x_preferred": [
      "Croxley Green"
    ],
    "name:pam_x_preferred": [
      "Croxley Green"
    ],
    "name:pap_x_preferred": [
      "Croxley Green"
    ],
    "name:pcd_x_preferred": [
      "Croxley Green"
    ],
    "name:pdc_x_preferred": [
      "Croxley Green"
    ],
    "name:pdt_x_preferred": [
      "Croxley Green"
    ],
    "name:pfl_x_preferred": [
      "Croxley Green"
    ],
    "name:pih_x_preferred": [
      "Croxley Green"
    ],
    "name:pms_x_preferred": [
      "Croxley Green"
    ],
    "name:pol_x_preferred": [
      "Croxley Green"
    ],
    "name:por_x_preferred": [
      "Croxley Green"
    ],
    "name:prg_x_preferred": [
      "Croxley Green"
    ],
    "name:que_x_preferred": [
      "Croxley Green"
    ],
    "name:rmy_x_preferred": [
      "Croxley Green"
    ],
    "name:roh_x_preferred": [
      "Croxley Green"
    ],
    "name:ron_x_preferred": [
      "Croxley Green"
    ],
    "name:run_x_preferred": [
      "Croxley Green"
    ],
    "name:rup_x_preferred": [
      "Croxley Green"
    ],
    "name:ruq_x_preferred": [
      "Croxley Green"
    ],
    "name:rus_x_preferred": [
      "Кроксли-Грин"
    ],
    "name:sag_x_preferred": [
      "Croxley Green"
    ],
    "name:sat_x_preferred": [
      "Croxley Green"
    ],
    "name:scn_x_preferred": [
      "Croxley Green"
    ],
    "name:sco_x_preferred": [
      "Croxley Green"
    ],
    "name:sgs_x_preferred": [
      "Croxley Green"
    ],
    "name:slk_x_preferred": [
      "Croxley Green"
    ],
    "name:slv_x_preferred": [
      "Croxley Green"
    ],
    "name:sma_x_preferred": [
      "Croxley Green"
    ],
    "name:sme_x_preferred": [
      "Croxley Green"
    ],
    "name:smo_x_preferred": [
      "Croxley Green"
    ],
    "name:sna_x_preferred": [
      "Croxley Green"
    ],
    "name:som_x_preferred": [
      "Croxley Green"
    ],
    "name:sot_x_preferred": [
      "Croxley Green"
    ],
    "name:spa_x_preferred": [
      "Croxley Green"
    ],
    "name:sqi_x_preferred": [
      "Croxley Green"
    ],
    "name:srd_x_preferred": [
      "Croxley Green"
    ],
    "name:srn_x_preferred": [
      "Croxley Green"
    ],
    "name:ssw_x_preferred": [
      "Croxley Green"
    ],
    "name:stq_x_preferred": [
      "Croxley Green"
    ],
    "name:sun_x_preferred": [
      "Croxley Green"
    ],
    "name:swa_x_preferred": [
      "Croxley Green"
    ],
    "name:swe_x_preferred": [
      "Croxley Green"
    ],
    "name:szl_x_preferred": [
      "Croxley Green"
    ],
    "name:tam_x_preferred": [
      "கிராஸ்லே கிறீன்"
    ],
    "name:tay_x_preferred": [
      "Croxley Green"
    ],
    "name:tel_x_preferred": [
      "క్రోక్లే గ్రీన్"
    ],
    "name:tet_x_preferred": [
      "Croxley Green"
    ],
    "name:tgl_x_preferred": [
      "Croxley Green"
    ],
    "name:ton_x_preferred": [
      "Croxley Green"
    ],
    "name:tpi_x_preferred": [
      "Croxley Green"
    ],
    "name:tsn_x_preferred": [
      "Croxley Green"
    ],
    "name:tso_x_preferred": [
      "Croxley Green"
    ],
    "name:tuk_x_preferred": [
      "Croxley Green"
    ],
    "name:tum_x_preferred": [
      "Croxley Green"
    ],
    "name:tur_x_preferred": [
      "Croxley Green"
    ],
    "name:twi_x_preferred": [
      "Croxley Green"
    ],
    "name:urd_x_preferred": [
      "کروزلے گرین"
    ],
    "name:vec_x_preferred": [
      "Croxley Green"
    ],
    "name:ven_x_preferred": [
      "Croxley Green"
    ],
    "name:vep_x_preferred": [
      "Croxley Green"
    ],
    "name:vmf_x_preferred": [
      "Croxley Green"
    ],
    "name:vol_x_preferred": [
      "Croxley Green"
    ],
    "name:vot_x_preferred": [
      "Croxley Green"
    ],
    "name:vro_x_preferred": [
      "Croxley Green"
    ],
    "name:war_x_preferred": [
      "Croxley Green"
    ],
    "name:wln_x_preferred": [
      "Croxley Green"
    ],
    "name:wol_x_preferred": [
      "Croxley Green"
    ],
    "name:xho_x_preferred": [
      "Croxley Green"
    ],
    "name:yor_x_preferred": [
      "Croxley Green"
    ],
    "name:zea_x_preferred": [
      "Croxley Green"
    ],
    "name:zha_x_preferred": [
      "Croxley Green"
    ],
    "name:zho_x_preferred": [
      "克諾斯萊綠地"
    ],
    "name:zul_x_preferred": [
      "Croxley Green"
    ],
    "qs:gn_adm0_cc": "GB",
    "qs:gn_fcode": "PPL",
    "qs:gn_local": 2643743,
    "qs:gn_namadm1": "ENG",
    "qs:gn_name": "Croxley Green",
    "qs:local_max": 40697,
    "qs:local_sum": 1675717,
    "qs:localhoods": 643,
    "qs:name": "Rowley Green",
    "qs:name_adm0": "United Kingdom",
    "qs:name_adm1": "England",
    "qs:name_adm2": "Greater London",
    "qs:name_lau": "London Borough of Barnet",
    "qs:name_local": "London",
    "qs:photo_max": 65,
    "qs:photo_sum": 199,
    "qs:placetype": "Suburb",
    "qs:quad_count": 27,
    "qs:woe_adm0": 23424975,
    "qs:woe_adm1": 24554868,
    "qs:woe_adm2": 23416974,
    "qs:woe_funk": "Parented by a neighborhood",
    "qs:woe_lau": 12695821,
    "qs:woe_local": 44418,
    "qs:woe_ver": "7.10.0",
    "src:geom": "quattroshapes",
    "src:geom_alt": [
      "quattroshapes_pg"
    ],
    "src:lbl_centroid": "mz",
    "src:population": "wikidata",
    "wd:latitude": 51.647,
    "wd:longitude": -0.445,
    "wd:wordcount": 901,
    "wof:belongsto": [
      1880762729,
      102191581,
      1880762179,
      85633159,
      404227469,
      101750367,
      136253055,
      1158857285,
      1880771825
    ],
    "wof:breaches": [],
    "wof:concordances": {
      "gn:id": 2651826,
      "gp:id": 43364,
      "qs_pg:id": 1210176,
      "wd:id": "Q9666",
      "wk:page": "Croxley Green"
    },
    "wof:country": "GB",
    "wof:created": 1765391268,
    "wof:geom_alt": [
      "quattroshapes_pg"
    ],
    "wof:geomhash": "ee499c7d61d41ea267114706b457fa77",
    "wof:hierarchy": [
      {
        "borough_id": 1158857285,
        "continent_id": 102191581,
        "country_id": 85633159,
        "county_id": 1880771825,
        "empire_id": 136253055,
        "locality_id": 101750367,
        "macrocounty_id": 1880762179,
        "macroregion_id": 404227469,
        "neighbourhood_id": 85792301,
        "region_id": 1880762729
      }
    ],
    "wof:id": 85792301,
    "wof:lang": [
      "eng"
    ],
    "wof:lastmodified": 1765391268,
    "wof:name": "Rowley Green",
    "wof:parent_id": 1158857285,
    "wof:placetype": "neighbourhood",
    "wof:population": 13533,
    "wof:population_rank": 6,
    "wof:repo": "whosonfirst-data-admin-gb",
    "wof:superseded_by": [],
    "wof:supersedes": [],
    "wof:tags": []
  },
  "bbox": [
    -0.290799,
    51.641377,
    -0.239163,
    51.677445
  ],
  "geometry": {"type":"Polygon","coordinates":[[[-0.265365,51.674946],[-0.263672,51.670852],[-0.250467,51.670852],[-0.24922,51.666831],[-0.241699,51.662789],[-0.240106,51.661076],[-0.240995,51.658927],[-0.241024,51.658786],[-0.239163,51.65279],[-0.241699,51.648703],[-0.241699,51.648703],[-0.242757,51.646998],[-0.246135,51.646998],[-0.247192,51.645294],[-0.247192,51.645294],[-0.249308,51.641885],[-0.249939,51.641377],[-0.25057,51.641885],[-0.252686,51.645294],[-0.252686,51.645294],[-0.252686,51.648703],[-0.258179,51.648703],[-0.258179,51.648703],[-0.259818,51.651344],[-0.261432,51.652212],[-0.263672,51.650407],[-0.269165,51.650407],[-0.272122,51.648023],[-0.272969,51.645294],[-0.273817,51.643928],[-0.277405,51.642483],[-0.280993,51.643928],[-0.283111,51.647341],[-0.287672,51.649791],[-0.290799,51.659874],[-0.289969,51.660886],[-0.288454,51.66213],[-0.28728,51.662757],[-0.287279,51.662758],[-0.287405,51.664038],[-0.287213,51.665989],[-0.286644,51.667865],[-0.285719,51.669593],[-0.284476,51.671109],[-0.28296,51.672352],[-0.281232,51.673277],[-0.279633,51.673762],[-0.279592,51.673774],[-0.278983,51.674516],[-0.277467,51.67576],[-0.275738,51.676684],[-0.273863,51.677253],[-0.271912,51.677445],[-0.269961,51.677253],[-0.268085,51.676684],[-0.266356,51.67576],[-0.265365,51.674946]]]}
}
