{
  "id": 85788941,
  "type": "Feature",
  "properties": {
    "edtf:cessation": "",
    "edtf:inception": "",
    "geom:area": 0,
    "geom:area_square_m": 0,
    "geom:bbox": "-2.120810,52.460577,-2.120810,52.460577",
    "geom:latitude": 52.460577,
    "geom:longitude": -2.12081,
    "gn:latitude": 52.45838,
    "gn:longitude": -2.11701,
    "iso:country": "GB",
    "lbl:bbox": "-2.12581,52.455577,-2.11581,52.465577",
    "lbl:latitude": 52.460577,
    "lbl:longitude": -2.12081,
    "lbl:max_zoom": 18,
    "mps:latitude": 52.456009,
    "mps:longitude": -2.103784,
    "mz:hierarchy_label": 0,
    "mz:is_current": -1,
    "mz:is_funky": 0,
    "mz:is_hard_boundary": 0,
    "mz:is_landuse_aoi": 0,
    "mz:is_official": 0,
    "mz:max_zoom": 18,
    "mz:min_zoom": 14,
    "mz:tier_locality": 2,
    "mz:tier_metro": 1,
    "name:eng_x_preferred": [
      "Lye"
    ],
    "name:jpn_x_preferred": [
      "ライ"
    ],
    "name:lat_x_preferred": [
      "Lege"
    ],
    "name:nld_x_preferred": [
      "Lye"
    ],
    "name:pol_x_preferred": [
      "Lye"
    ],
    "qs:gn_adm0_cc": "GB",
    "qs:gn_fcode": "PPL",
    "qs:gn_local": 2636769,
    "qs:gn_nam_loc": "stourbridge",
    "qs:gn_namadm1": "ENG",
    "qs:gn_name": "Lye",
    "qs:local_max": 1517,
    "qs:local_sum": 3568,
    "qs:localhoods": 4,
    "qs:name": "Lye",
    "qs:name_adm0": "United Kingdom",
    "qs:name_adm1": "England",
    "qs:name_adm2": "West Midlands",
    "qs:name_lau": "Dudley Metropolitan Borough",
    "qs:name_local": "Stourbridge",
    "qs:photo_max": 37,
    "qs:photo_sum": 179,
    "qs:placetype": "Suburb",
    "qs:quad_count": 17,
    "qs:woe_adm0": 23424975,
    "qs:woe_adm1": 24554868,
    "qs:woe_adm2": 12602191,
    "qs:woe_lau": 12695865,
    "qs:woe_local": 36367,
    "qs:woe_ver": "7.10.0",
    "src:geom": "mz",
    "src:geom_alt": [
      "quattroshapes_pg",
      "quattroshapes"
    ],
    "src:lbl_centroid": "mz",
    "src:population": "wikidata",
    "wof:belongsto": [
      1360817295,
      1880762069,
      1125999239,
      1360698933
    ],
    "wof:breaches": [],
    "wof:concordances": {
      "gn:id": 2643316,
      "gp:id": 28035,
      "qs_pg:id": 246429,
      "wd:id": "Q6707742",
      "wk:page": "Lye, West Midlands"
    },
    "wof:country": "GB",
    "wof:created": 1765391105,
    "wof:geom_alt": [
      "quattroshapes",
      "quattroshapes_pg"
    ],
    "wof:geomhash": "c61b6f82a81cfa9daa52afa081b30428",
    "wof:hierarchy": [
      {
        "continent_id": -1,
        "country_id": -1,
        "county_id": 1360698933,
        "localadmin_id": 1360817295,
        "locality_id": 1125999239,
        "macrocounty_id": 1880762069,
        "neighbourhood_id": 85788941,
        "region_id": -1
      }
    ],
    "wof:id": 85788941,
    "wof:lang": [
      "eng"
    ],
    "wof:lastmodified": 1765391105,
    "wof:name": "Lye",
    "wof:parent_id": 1125999239,
    "wof:placetype": "neighbourhood",
    "wof:population": 12346,
    "wof:population_rank": 6,
    "wof:repo": "whosonfirst-data-admin-gb",
    "wof:superseded_by": [],
    "wof:supersedes": [],
    "wof:tags": []
  },
  "bbox": [
    -2.12081,
    52.460577,
    -2.12081,
    52.460577
  ],
  "geometry": {"type":"Point","coordinates":[-2.12081,52.460577]}
}
