{
  "id": 101872489,
  "type": "Feature",
  "properties": {
    "edtf:cessation": "",
    "edtf:inception": "",
    "geom:area": 0,
    "geom:area_square_m": 0,
    "geom:bbox": "-4.721761,55.709929,-4.721761,55.709929",
    "geom:latitude": 55.709929,
    "geom:longitude": -4.721761,
    "iso:country": "GB",
    "lbl:bbox": "-4.741761,55.689929,-4.701761,55.729929",
    "lbl:latitude": 55.70993,
    "lbl:longitude": -4.721761,
    "lbl:max_zoom": 18,
    "lbl:min_zoom": 13.5,
    "mps:latitude": 55.70993,
    "mps:longitude": -4.721761,
    "mz:hierarchy_label": 1,
    "mz:is_current": 1,
    "mz:min_zoom": 12,
    "name:ast_x_preferred": [
      "Dalry"
    ],
    "name:ben_x_preferred": [
      "ড্যালরি"
    ],
    "name:bre_x_preferred": [
      "Dalry"
    ],
    "name:bul_x_preferred": [
      "Далрй"
    ],
    "name:cat_x_preferred": [
      "Dalry"
    ],
    "name:ceb_x_preferred": [
      "Dalry"
    ],
    "name:ces_x_preferred": [
      "Dalry"
    ],
    "name:cos_x_preferred": [
      "Dalry"
    ],
    "name:cym_x_preferred": [
      "Dalry"
    ],
    "name:dan_x_preferred": [
      "Dalry"
    ],
    "name:deu_x_preferred": [
      "Dalry"
    ],
    "name:eng_x_preferred": [
      "Dalry"
    ],
    "name:est_x_preferred": [
      "Dalry"
    ],
    "name:eus_x_preferred": [
      "Dalry"
    ],
    "name:fao_x_preferred": [
      "Dalry"
    ],
    "name:fas_x_preferred": [
      "دارلی"
    ],
    "name:fin_x_preferred": [
      "Dalry"
    ],
    "name:fra_x_preferred": [
      "Dalry"
    ],
    "name:gla_x_preferred": [
      "Dail Ruigh"
    ],
    "name:gla_x_variant": [
      "Dail Ruighe"
    ],
    "name:gle_x_preferred": [
      "Dail Ruighe"
    ],
    "name:glg_x_preferred": [
      "Dalry"
    ],
    "name:guj_x_preferred": [
      "ડેલ્રી"
    ],
    "name:hrv_x_preferred": [
      "Dalry"
    ],
    "name:hun_x_preferred": [
      "Dalry"
    ],
    "name:ind_x_preferred": [
      "Dalry"
    ],
    "name:ita_x_preferred": [
      "Dalry"
    ],
    "name:jpn_x_preferred": [
      "ダ―リー"
    ],
    "name:kan_x_preferred": [
      "ಡಾಲ್ರಿ"
    ],
    "name:kor_x_preferred": [
      "달라이"
    ],
    "name:lav_x_preferred": [
      "Dalry"
    ],
    "name:lit_x_preferred": [
      "Dalris"
    ],
    "name:ltz_x_preferred": [
      "Dalry"
    ],
    "name:nld_x_preferred": [
      "Dalry"
    ],
    "name:nno_x_preferred": [
      "Dalry"
    ],
    "name:nob_x_preferred": [
      "Dalry"
    ],
    "name:nor_x_preferred": [
      "Dalry"
    ],
    "name:nrm_x_preferred": [
      "Dalry"
    ],
    "name:oci_x_preferred": [
      "Dalry"
    ],
    "name:pol_x_preferred": [
      "Dalry"
    ],
    "name:por_x_preferred": [
      "Dalry"
    ],
    "name:roh_x_preferred": [
      "Dalry"
    ],
    "name:ron_x_preferred": [
      "Dalry"
    ],
    "name:rus_x_preferred": [
      "Далрай"
    ],
    "name:sco_x_preferred": [
      "Dalry"
    ],
    "name:sco_x_variant": [
      "Dawry"
    ],
    "name:slk_x_preferred": [
      "Dalry"
    ],
    "name:slv_x_preferred": [
      "Dalry"
    ],
    "name:spa_x_preferred": [
      "Dalry"
    ],
    "name:swe_x_preferred": [
      "Dalry"
    ],
    "name:tah_x_preferred": [
      "Dalry"
    ],
    "name:tam_x_preferred": [
      "டால்ரி"
    ],
    "name:tel_x_preferred": [
      "డాల్రి"
    ],
    "name:tur_x_preferred": [
      "Dalry"
    ],
    "name:urd_x_preferred": [
      "دالری"
    ],
    "name:zho_x_preferred": [
      "达尔赖"
    ],
    "qs:a0": "United Kingdom",
    "qs:a1": "*North Ayrshire",
    "qs:a1_lc": "GB11QY0000",
    "qs:a1r": "0Scotland",
    "qs:a1r_lc": "GB11000000",
    "qs:adm0": "United Kingdom",
    "qs:id": 0,
    "qs:la_lc": "*",
    "qs:level": "locality",
    "qs:loc": "Dalry",
    "qs:loc_alt": "Dalry",
    "qs:pop": 0,
    "qs:source": "RCustom EuroGlobalMap + UMZ Urban Polygons + Geonames + GeoPlanet",
    "qs:type": "buffered point",
    "src:geom": "whosonfirst",
    "src:geom_alt": [
      "quattroshapes_pg",
      "quattroshapes"
    ],
    "src:geom_via": "quattroshapes",
    "src:lbl_centroid": "mapshaper",
    "src:population": "wikidata",
    "wd:latitude": 55.711,
    "wd:longitude": -4.723,
    "wd:wordcount": 4448,
    "wof:belongsto": [
      1880772907,
      102191581,
      85633159,
      1880762041,
      404227471,
      136253055,
      1360698855
    ],
    "wof:breaches": [],
    "wof:concordances": {
      "gn:id": 2651561,
      "gp:id": 17874,
      "qs_pg:id": 140879,
      "wd:id": "Q3467446",
      "wk:page": "Dalry, North Ayrshire"
    },
    "wof:country": "GB",
    "wof:created": 1765384892,
    "wof:geom_alt": [
      "quattroshapes_pg",
      "quattroshapes"
    ],
    "wof:geomhash": "bb6fbf6f07b2b36c2cbf75f11e794bdb",
    "wof:hierarchy": [
      {
        "continent_id": 102191581,
        "country_id": 85633159,
        "county_id": 1360698855,
        "empire_id": 136253055,
        "locality_id": 101872489,
        "macrocounty_id": 1880762041,
        "macroregion_id": 404227471,
        "region_id": 1880772907
      }
    ],
    "wof:id": 101872489,
    "wof:lastmodified": 1765384892,
    "wof:name": "Dalry",
    "wof:parent_id": 1360698855,
    "wof:placetype": "locality",
    "wof:population": 5360,
    "wof:population_rank": 5,
    "wof:repo": "whosonfirst-data-admin-gb",
    "wof:superseded_by": [],
    "wof:supersedes": [],
    "wof:tags": []
  },
  "bbox": [
    -4.721761,
    55.709929,
    -4.721761,
    55.709929
  ],
  "geometry": {"type":"Point","coordinates":[-4.721761,55.709929]}
}
