{
  "id": 1360807103,
  "type": "Feature",
  "properties": {
    "edtf:cessation": "",
    "edtf:inception": "",
    "geom:area": 0,
    "geom:area_square_m": 0,
    "geom:bbox": "-1.661000,53.731250,-1.661000,53.731250",
    "geom:latitude": 53.73125,
    "geom:longitude": -1.661,
    "gn:admin1_code": "ENG",
    "gn:admin2_code": "G8",
    "gn:asciiname": "Birstall",
    "gn:country_code": "GB",
    "gn:dem": 96,
    "gn:feature_class": "P",
    "gn:feature_code": "PPL",
    "gn:geonameid": 2655592,
    "gn:latitude": 53.73125,
    "gn:longitude": -1.661,
    "gn:modification_date": "2013-07-11",
    "gn:name": "Birstall",
    "gn:population": 0,
    "gn:timezone": "Europe/London",
    "iso:country": "GB",
    "lbl:bbox": "-1.666,53.72625,-1.656,53.73625",
    "lbl:max_zoom": 18,
    "mz:hierarchy_label": 1,
    "mz:is_current": 1,
    "mz:min_zoom": 15,
    "name:azb_x_preferred": [
      "برستال"
    ],
    "name:ceb_x_preferred": [
      "Birstall"
    ],
    "name:dan_x_preferred": [
      "Birstall"
    ],
    "name:deu_x_preferred": [
      "Birstall"
    ],
    "name:fas_x_preferred": [
      "برستال"
    ],
    "name:kor_x_preferred": [
      "버스톨"
    ],
    "name:pol_x_preferred": [
      "Birstall"
    ],
    "name:por_x_preferred": [
      "Birstall"
    ],
    "name:ron_x_preferred": [
      "Birstall"
    ],
    "name:sco_x_preferred": [
      "Birstall"
    ],
    "name:spa_x_preferred": [
      "Birstall"
    ],
    "name:swe_x_preferred": [
      "Birstall"
    ],
    "name:szl_x_preferred": [
      "Birstall"
    ],
    "src:geom": "geonames",
    "src:population": "wikidata",
    "wof:belongsto": [
      1880773017,
      102191581,
      85633159,
      1880762059,
      404227469,
      101750569,
      136253055,
      1360698917
    ],
    "wof:breaches": [],
    "wof:concordances": {
      "gn:id": 2655592,
      "wk:page": "Birstall%2C_West_Yorkshire"
    },
    "wof:country": "GB",
    "wof:created": 1765390460,
    "wof:geomhash": "d9234d9fc2a66448909e93ee304ad219",
    "wof:hierarchy": [
      {
        "continent_id": 102191581,
        "country_id": 85633159,
        "county_id": 1360698917,
        "empire_id": 136253055,
        "locality_id": 101750569,
        "macrocounty_id": 1880762059,
        "macroregion_id": 404227469,
        "neighbourhood_id": 1360807103,
        "region_id": 1880773017
      }
    ],
    "wof:id": 1360807103,
    "wof:lastmodified": 1765390460,
    "wof:name": "Birstall",
    "wof:parent_id": 101750569,
    "wof:placetype": "neighbourhood",
    "wof:population": 16298,
    "wof:population_rank": 6,
    "wof:repo": "whosonfirst-data-admin-gb",
    "wof:superseded_by": [],
    "wof:supersedes": [
      1243392589
    ],
    "wof:tags": []
  },
  "bbox": [
    -1.661,
    53.73125,
    -1.661,
    53.73125
  ],
  "geometry": {"type":"Point","coordinates":[-1.661,53.73125]}
}
