{
  "id": 85684289,
  "type": "Feature",
  "properties": {
    "edtf:cessation": "",
    "edtf:deprecated": "2017-12-20",
    "edtf:inception": "",
    "geom:area": 0.0038663962055000695,
    "geom:area_square_m": 29778427.683958,
    "geom:bbox": "-0.111380,51.420505,-0.029464,51.509845",
    "geom:latitude": 51.47420512198959,
    "geom:longitude": -0.07400022828799008,
    "iso:country": "GB",
    "lbl:latitude": 51.475508,
    "lbl:longitude": -0.073368,
    "mps:latitude": 51.475508,
    "mps:longitude": -0.073368,
    "mz:hierarchy_label": 1,
    "mz:is_current": 0,
    "mz:is_funky": 1,
    "mz:max_zoom": 11,
    "mz:min_zoom": 11,
    "name:afr_x_preferred": [
      "Southwark"
    ],
    "name:ara_x_preferred": [
      "ساوثوورك"
    ],
    "name:bel_x_preferred": [
      "Саўтуарк"
    ],
    "name:bre_x_preferred": [
      "Southwark"
    ],
    "name:cat_x_preferred": [
      "Southwark"
    ],
    "name:ces_x_preferred": [
      "Southwark"
    ],
    "name:cym_x_preferred": [
      "Southwark"
    ],
    "name:dan_x_preferred": [
      "Southwark"
    ],
    "name:deu_x_preferred": [
      "London Borough of Southwark"
    ],
    "name:eng_x_preferred": [
      "Southwark"
    ],
    "name:epo_x_preferred": [
      "Southwark"
    ],
    "name:eus_x_preferred": [
      "Southwark"
    ],
    "name:fas_x_preferred": [
      "سات‌ارک"
    ],
    "name:fas_x_variant": [
      "منطقه ساوت‌وارک لندن"
    ],
    "name:fin_x_preferred": [
      "Southwark"
    ],
    "name:fra_x_preferred": [
      "Southwark"
    ],
    "name:fra_x_variant": [
      "district londonien de Southwark"
    ],
    "name:gle_x_preferred": [
      "Buirg Londan Southwark"
    ],
    "name:heb_x_preferred": [
      "סאת'ק"
    ],
    "name:hin_x_preferred": [
      "सदक"
    ],
    "name:hun_x_preferred": [
      "London Borough of Southwark"
    ],
    "name:hye_x_preferred": [
      "Սաութուրք"
    ],
    "name:ind_x_preferred": [
      "Southwark"
    ],
    "name:isl_x_preferred": [
      "Southwark"
    ],
    "name:ita_x_preferred": [
      "Borgo londinese di Southwark"
    ],
    "name:jpn_x_preferred": [
      "サザーク"
    ],
    "name:kat_x_preferred": [
      "საუთუარკი"
    ],
    "name:kor_x_preferred": [
      "서더크"
    ],
    "name:lat_x_preferred": [
      "Southwark"
    ],
    "name:lav_x_preferred": [
      "Sautvorka"
    ],
    "name:mkd_x_preferred": [
      "Савак"
    ],
    "name:nld_x_preferred": [
      "Southwark"
    ],
    "name:nno_x_preferred": [
      "London Borough of Southwark"
    ],
    "name:nob_x_preferred": [
      "Southwark"
    ],
    "name:nor_x_preferred": [
      "Southwark"
    ],
    "name:pnb_x_preferred": [
      "ساؤتھوارک"
    ],
    "name:pol_x_preferred": [
      "Southwark"
    ],
    "name:por_x_preferred": [
      "Southwark"
    ],
    "name:ron_x_preferred": [
      "Southwark"
    ],
    "name:rus_x_preferred": [
      "Саутуарк"
    ],
    "name:sco_x_preferred": [
      "Southwark"
    ],
    "name:slv_x_preferred": [
      "London Borough of Southwark"
    ],
    "name:spa_x_preferred": [
      "Municipio de Southwark"
    ],
    "name:srp_x_preferred": [
      "Лондонска општина Садарк"
    ],
    "name:swe_x_preferred": [
      "Southwark"
    ],
    "name:tur_x_preferred": [
      "Southwark"
    ],
    "name:ukr_x_preferred": [
      "Саутерк"
    ],
    "name:urd_x_preferred": [
      "سدرک بورو"
    ],
    "name:vie_x_preferred": [
      "Khu Southwark của Luân Đôn"
    ],
    "name:yid_x_preferred": [
      "לאנדאנער בארא פון סאדארק"
    ],
    "name:zho_x_preferred": [
      "薩瑟克"
    ],
    "name:zho_x_variant": [
      "南華克區"
    ],
    "ne:abbrev": "Southw'k",
    "ne:adm0_a3": "GBR",
    "ne:adm0_label": "7",
    "ne:adm0_sr": "1",
    "ne:adm1_cod_1": "GBR-2771",
    "ne:adm1_code": "GBR-2771",
    "ne:admin": "United Kingdom",
    "ne:area_sqkm": "0.00000000000",
    "ne:check_me": "20",
    "ne:code_hasc": "GB.SQ",
    "ne:code_local": "",
    "ne:datarank": "5",
    "ne:diss_me": "2771",
    "ne:featurecla": "Admin-1 scale rank",
    "ne:fips": "UK17",
    "ne:fips_alt": "UKM8",
    "ne:gadm_level": "2",
    "ne:geonunit": "England",
    "ne:gn_a1_code": "GB.",
    "ne:gn_id": "-2648110",
    "ne:gn_level": "-2",
    "ne:gn_name": "Greater London",
    "ne:gn_region": "",
    "ne:gns_adm1": "",
    "ne:gns_id": "6077642",
    "ne:gns_lang": "ind",
    "ne:gns_level": "1",
    "ne:gns_name": "Southwark, London Borough of",
    "ne:gns_region": "UK35",
    "ne:gu_a3": "ENG",
    "ne:hasc_maybe": "",
    "ne:iso_3166_2": "GB-",
    "ne:iso_a2": "GB",
    "ne:labelrank": "9",
    "ne:latitude": "51.46600000000",
    "ne:longitude": "-0.06552020000",
    "ne:mapcolor13": 3,
    "ne:mapcolor9": 6,
    "ne:name": "Southwark",
    "ne:name_alt": "",
    "ne:name_len": 9,
    "ne:name_local": "",
    "ne:note": "",
    "ne:postal": "SQ",
    "ne:provnum_ne": "20044",
    "ne:region": "Greater London",
    "ne:region_cod": "",
    "ne:region_sub": "Greater London",
    "ne:sameascity": "-99",
    "ne:scalerank": "8",
    "ne:sov_a3": "GB1",
    "ne:sub_code": "",
    "ne:type": "London Borough",
    "ne:type_en": "London Borough",
    "ne:wikipedia": "",
    "ne:woe_id": 12695816,
    "ne:woe_label": "",
    "ne:woe_name": "London Borough of Southwark",
    "qs:a0": "United Kingdom",
    "qs:a0_lc": "GB00000000",
    "qs:a1": "Southwark",
    "qs:a1_alt": "Southwark",
    "qs:a1_lc": "GB12BE0000",
    "qs:a1r": "England",
    "qs:a1r_alt": "England",
    "qs:a1r_lc": "GB12000000",
    "qs:adm0": "United Kingdom",
    "qs:adm0_a3": "GBR",
    "qs:level": "adm1",
    "qs:source": "EuroGlobalMap",
    "qs:type": "London Borough",
    "src:geom": "quattroshapes",
    "src:geom_alt": [],
    "src:lbl:centroid": "mapshaper",
    "src:population": "wikidata",
    "unlc:subdivision": "GB-SWK",
    "wof:belongsto": [
      102191581,
      85633159,
      404227469
    ],
    "wof:breaches": [],
    "wof:concordances": {
      "fips:code": "UK17",
      "gn:id": -2648110,
      "gp:id": 12695816,
      "hasc:id": "GB.SQ",
      "unlc:id": "GB-SWK",
      "wd:id": "Q730706"
    },
    "wof:country": "GB",
    "wof:created": 1765390944,
    "wof:geomhash": "e702938530f589e86bc24000db685f62",
    "wof:hierarchy": [
      {
        "continent_id": 102191581,
        "country_id": 85633159,
        "macroregion_id": 404227469,
        "region_id": 85684289
      }
    ],
    "wof:id": 85684289,
    "wof:lastmodified": 1765390944,
    "wof:name": "Southwark",
    "wof:parent_id": 404227469,
    "wof:placetype": "region",
    "wof:population": 311913,
    "wof:population_rank": 10,
    "wof:repo": "whosonfirst-data-admin-gb",
    "wof:shortcode": "SQ",
    "wof:subdivision": "GB-SWK",
    "wof:superseded_by": [
      1158857247
    ],
    "wof:supersedes": [],
    "wof:tags": []
  },
  "bbox": [
    -0.11138,
    51.420505,
    -0.029464,
    51.509845
  ],
  "geometry": {"type":"Polygon","coordinates":[[[-0.104639,51.508621],[-0.10402,51.508526],[-0.104058,51.509845],[-0.099902,51.509677],[-0.080139,51.506847],[-0.065854,51.502521],[-0.059463,51.501713],[-0.054811,51.502792],[-0.046332,51.507496],[-0.043285,51.50848],[-0.038822,51.508575],[-0.03159,51.506546],[-0.030269,51.505733],[-0.029464,51.503978],[-0.029883,51.493561],[-0.032325,51.493026],[-0.037251,51.492218],[-0.039256,51.492958],[-0.040489,51.492798],[-0.040006,51.492161],[-0.040992,51.491825],[-0.04028,51.491058],[-0.042444,51.490238],[-0.045767,51.490158],[-0.046503,51.490741],[-0.051895,51.489132],[-0.050189,51.488067],[-0.05251,51.487545],[-0.053953,51.487968],[-0.05276,51.486202],[-0.053476,51.485775],[-0.052892,51.48278],[-0.054265,51.478603],[-0.052635,51.478004],[-0.052693,51.472931],[-0.051652,51.469757],[-0.052218,51.469211],[-0.050836,51.467579],[-0.051275,51.467354],[-0.048209,51.465885],[-0.048547,51.465576],[-0.0465,51.46447],[-0.045391,51.462742],[-0.045179,51.459404],[-0.046096,51.456959],[-0.041584,51.454986],[-0.046087,51.449871],[-0.049023,51.450107],[-0.053724,51.448707],[-0.057498,51.450336],[-0.062157,51.447349],[-0.063577,51.444805],[-0.063807,51.442524],[-0.064963,51.441154],[-0.06399,51.440845],[-0.063393,51.437538],[-0.064357,51.437038],[-0.066646,51.433918],[-0.069466,51.432678],[-0.072798,51.432083],[-0.074985,51.429176],[-0.073872,51.426151],[-0.074903,51.425697],[-0.078261,51.420505],[-0.079211,51.420852],[-0.078848,51.421562],[-0.079709,51.422127],[-0.08078,51.42184],[-0.081615,51.423301],[-0.083365,51.422962],[-0.083697,51.425163],[-0.086011,51.427822],[-0.085828,51.428497],[-0.088435,51.429703],[-0.090402,51.436096],[-0.095841,51.446506],[-0.09883,51.448734],[-0.099796,51.450233],[-0.100704,51.450355],[-0.101412,51.452156],[-0.100876,51.454147],[-0.095775,51.457405],[-0.092149,51.461117],[-0.090604,51.463291],[-0.090043,51.465732],[-0.092677,51.469818],[-0.092968,51.472027],[-0.094042,51.470737],[-0.095935,51.469879],[-0.099313,51.472622],[-0.10062,51.474457],[-0.099935,51.476871],[-0.108292,51.480312],[-0.103978,51.480858],[-0.106024,51.482696],[-0.105592,51.482967],[-0.107104,51.483646],[-0.106251,51.484871],[-0.10839,51.485847],[-0.103009,51.49152],[-0.104936,51.493519],[-0.110895,51.495498],[-0.11138,51.496444],[-0.110241,51.496841],[-0.108126,51.500534],[-0.105884,51.502044],[-0.107395,51.50301],[-0.106333,51.503368],[-0.106403,51.504982],[-0.107301,51.507061],[-0.108113,51.506908],[-0.108863,51.508449],[-0.109094,51.509823],[-0.104608,51.509823],[-0.104639,51.508621]]]}
}
