{
  "id": 85684533,
  "type": "Feature",
  "properties": {
    "edtf:cessation": "",
    "edtf:deprecated": "2017-12-20",
    "edtf:inception": "",
    "geom:area": 0.0035248534149999707,
    "geom:area_square_m": 27160110.853394,
    "geom:bbox": "-0.151170,51.411003,-0.078261,51.509823",
    "geom:latitude": 51.45383263332562,
    "geom:longitude": -0.11823029217494271,
    "iso:country": "GB",
    "lbl:latitude": 51.456329,
    "lbl:longitude": -0.121293,
    "mps:latitude": 51.456329,
    "mps:longitude": -0.121293,
    "mz:hierarchy_label": 1,
    "mz:is_current": 0,
    "mz:is_funky": 1,
    "mz:max_zoom": 11,
    "mz:min_zoom": 11,
    "name:ara_x_preferred": [
      "لامبيث"
    ],
    "name:bel_x_preferred": [
      "бора Ламбет"
    ],
    "name:cat_x_preferred": [
      "Lambeth"
    ],
    "name:ces_x_preferred": [
      "Londýnský městský obvod Lambeth"
    ],
    "name:cym_x_preferred": [
      "Lambeth"
    ],
    "name:dan_x_preferred": [
      "Lambeth"
    ],
    "name:deu_x_preferred": [
      "London Borough of Lambeth"
    ],
    "name:ell_x_preferred": [
      "Λάμπεθ"
    ],
    "name:eng_x_preferred": [
      "Lambeth"
    ],
    "name:eus_x_preferred": [
      "Lambeth"
    ],
    "name:fas_x_preferred": [
      "منطقه لمبث لندن"
    ],
    "name:fin_x_preferred": [
      "Lambeth"
    ],
    "name:fra_x_preferred": [
      "district londonien de Lambeth"
    ],
    "name:gle_x_preferred": [
      "Buirg Londan Lambeth"
    ],
    "name:heb_x_preferred": [
      "למבת'"
    ],
    "name:hin_x_preferred": [
      "लैम्बेथ बरो"
    ],
    "name:hye_x_preferred": [
      "Լամբեթ"
    ],
    "name:ind_x_preferred": [
      "Lambeth"
    ],
    "name:isl_x_preferred": [
      "Lambeth"
    ],
    "name:ita_x_preferred": [
      "Borgo londinese di Lambeth"
    ],
    "name:jpn_x_preferred": [
      "ランベス・ロンドン特別区"
    ],
    "name:kor_x_preferred": [
      "램버스 구"
    ],
    "name:lat_x_preferred": [
      "Lambeth"
    ],
    "name:lav_x_preferred": [
      "Lembeta"
    ],
    "name:nld_x_preferred": [
      "Lambeth"
    ],
    "name:nno_x_preferred": [
      "London Borough of Lambeth"
    ],
    "name:nob_x_preferred": [
      "Lambeth"
    ],
    "name:pnb_x_preferred": [
      "لیمبتھ"
    ],
    "name:pol_x_preferred": [
      "London Borough of Lambeth"
    ],
    "name:por_x_preferred": [
      "Lambeth"
    ],
    "name:ron_x_preferred": [
      "Lambeth"
    ],
    "name:rus_x_preferred": [
      "Ламбет"
    ],
    "name:sco_x_preferred": [
      "Lunnon Burgh o Lambeth"
    ],
    "name:slv_x_preferred": [
      "London Borough of Lambeth"
    ],
    "name:spa_x_preferred": [
      "Municipio de Lambeth"
    ],
    "name:srp_x_preferred": [
      "Лондонска општина Ламбет"
    ],
    "name:swe_x_preferred": [
      "London Borough of Lambeth"
    ],
    "name:ukr_x_preferred": [
      "Ламбет"
    ],
    "name:urd_x_preferred": [
      "لیمبیتھ بورو"
    ],
    "name:vie_x_preferred": [
      "Khu Lambeth của Luân Đôn"
    ],
    "name:yid_x_preferred": [
      "לאנדאנער בארא פון לאמבעט"
    ],
    "name:zho_x_preferred": [
      "蘭貝斯區"
    ],
    "ne:abbrev": "Lambeth",
    "ne:adm0_a3": "GBR",
    "ne:adm0_label": "7",
    "ne:adm0_sr": "1",
    "ne:adm1_cod_1": "GBR-2768",
    "ne:adm1_code": "GBR-2768",
    "ne:admin": "United Kingdom",
    "ne:area_sqkm": "0.00000000000",
    "ne:check_me": "20",
    "ne:code_hasc": "GB.LT",
    "ne:code_local": "",
    "ne:datarank": "5",
    "ne:diss_me": "2768",
    "ne:featurecla": "Admin-1 scale rank",
    "ne:fips": "UK17",
    "ne:fips_alt": "UKH1",
    "ne:gadm_level": "2",
    "ne:geonunit": "England",
    "ne:gn_a1_code": "GB.",
    "ne:gn_id": "-2648110",
    "ne:gn_level": "-2",
    "ne:gn_name": "Greater London",
    "ne:gn_region": "",
    "ne:gns_adm1": "",
    "ne:gns_id": "6077605",
    "ne:gns_lang": "ind",
    "ne:gns_level": "1",
    "ne:gns_name": "Lambeth, London Borough of",
    "ne:gns_region": "UK35",
    "ne:gu_a3": "ENG",
    "ne:hasc_maybe": "",
    "ne:iso_3166_2": "GB-",
    "ne:iso_a2": "GB",
    "ne:labelrank": "9",
    "ne:latitude": "51.46040000000",
    "ne:longitude": "-0.10867000000",
    "ne:mapcolor13": 3,
    "ne:mapcolor9": 6,
    "ne:name": "Lambeth",
    "ne:name_alt": "",
    "ne:name_len": 7,
    "ne:name_local": "",
    "ne:note": "",
    "ne:postal": "LT",
    "ne:provnum_ne": "20045",
    "ne:region": "Greater London",
    "ne:region_cod": "",
    "ne:region_sub": "Greater London",
    "ne:sameascity": "-99",
    "ne:scalerank": "8",
    "ne:sov_a3": "GB1",
    "ne:sub_code": "",
    "ne:type": "London Borough",
    "ne:type_en": "London Borough",
    "ne:wikipedia": "",
    "ne:woe_id": 12695813,
    "ne:woe_label": "",
    "ne:woe_name": "London Borough of Lambeth",
    "qs:a0": "United Kingdom",
    "qs:a0_lc": "GB00000000",
    "qs:a1": "Lambeth",
    "qs:a1_alt": "Lambeth",
    "qs:a1_lc": "GB12AY0000",
    "qs:a1r": "England",
    "qs:a1r_alt": "England",
    "qs:a1r_lc": "GB12000000",
    "qs:adm0": "United Kingdom",
    "qs:adm0_a3": "GBR",
    "qs:level": "adm1",
    "qs:source": "EuroGlobalMap",
    "qs:type": "London Borough",
    "src:geom": "quattroshapes",
    "src:geom_alt": [],
    "src:lbl:centroid": "mapshaper",
    "src:population": "wikidata",
    "unlc:subdivision": "GB-LBH",
    "wd:wordcount": 901,
    "wof:belongsto": [
      102191581,
      85633159,
      404227469
    ],
    "wof:breaches": [],
    "wof:concordances": {
      "fips:code": "UK17",
      "gn:id": -2648110,
      "gp:id": 12695813,
      "hasc:id": "GB.LT",
      "unlc:id": "GB-LBH",
      "wd:id": "Q202059"
    },
    "wof:country": "GB",
    "wof:created": 1765390947,
    "wof:geomhash": "d26254a78ed4b1111fa53dfdf4a59384",
    "wof:hierarchy": [
      {
        "continent_id": 102191581,
        "country_id": 85633159,
        "macroregion_id": 404227469,
        "region_id": 85684533
      }
    ],
    "wof:id": 85684533,
    "wof:lastmodified": 1765390947,
    "wof:name": "Lambeth",
    "wof:parent_id": 404227469,
    "wof:placetype": "region",
    "wof:population": 316812,
    "wof:population_rank": 10,
    "wof:repo": "whosonfirst-data-admin-gb",
    "wof:shortcode": "LT",
    "wof:subdivision": "GB-LBH",
    "wof:superseded_by": [
      1158857249
    ],
    "wof:supersedes": [],
    "wof:tags": []
  },
  "bbox": [
    -0.15117,
    51.411003,
    -0.078261,
    51.509823
  ],
  "geometry": {"type":"Polygon","coordinates":[[[-0.109094,51.509823],[-0.108863,51.508449],[-0.108113,51.506908],[-0.107301,51.507061],[-0.106403,51.504982],[-0.106333,51.503368],[-0.107395,51.50301],[-0.105884,51.502044],[-0.108126,51.500534],[-0.110241,51.496841],[-0.11138,51.496444],[-0.110895,51.495498],[-0.104936,51.493519],[-0.103009,51.49152],[-0.10839,51.485847],[-0.106251,51.484871],[-0.107104,51.483646],[-0.105592,51.482967],[-0.106024,51.482696],[-0.103978,51.480858],[-0.108292,51.480312],[-0.099935,51.476871],[-0.10062,51.474457],[-0.099313,51.472622],[-0.095935,51.469879],[-0.094042,51.470737],[-0.092968,51.472027],[-0.092677,51.469818],[-0.090043,51.465732],[-0.090604,51.463291],[-0.092149,51.461117],[-0.095775,51.457405],[-0.100876,51.454147],[-0.101412,51.452156],[-0.100704,51.450355],[-0.099796,51.450233],[-0.09883,51.448734],[-0.095841,51.446506],[-0.090402,51.436096],[-0.088435,51.429703],[-0.085828,51.428497],[-0.086011,51.427822],[-0.083697,51.425163],[-0.083365,51.422962],[-0.081615,51.423301],[-0.08078,51.42184],[-0.079709,51.422127],[-0.078848,51.421562],[-0.079211,51.420852],[-0.078261,51.420505],[-0.078612,51.419822],[-0.086363,51.419304],[-0.092672,51.422535],[-0.105925,51.422573],[-0.11265,51.423225],[-0.115653,51.420574],[-0.11978,51.41885],[-0.122533,51.415008],[-0.124106,51.414642],[-0.125567,51.412887],[-0.127744,51.412315],[-0.12787,51.411979],[-0.132676,51.412342],[-0.133569,51.412586],[-0.134014,51.411003],[-0.139484,51.412174],[-0.142584,51.413315],[-0.144654,51.412334],[-0.147993,51.412864],[-0.144072,51.415462],[-0.14492,51.415889],[-0.140344,51.419246],[-0.13779,51.421104],[-0.138861,51.424568],[-0.138368,51.430454],[-0.135273,51.430286],[-0.136521,51.433876],[-0.137803,51.433708],[-0.138225,51.434021],[-0.139685,51.435398],[-0.140006,51.436558],[-0.139675,51.437328],[-0.137597,51.438656],[-0.137374,51.440132],[-0.135942,51.441993],[-0.143586,51.441768],[-0.145638,51.44577],[-0.144829,51.448421],[-0.142266,51.450966],[-0.147685,51.452308],[-0.148146,51.456402],[-0.15117,51.465881],[-0.150409,51.465976],[-0.150557,51.467613],[-0.143039,51.470516],[-0.142615,51.470062],[-0.136853,51.473125],[-0.13604,51.47266],[-0.135174,51.472931],[-0.134383,51.473839],[-0.135096,51.474331],[-0.129876,51.481125],[-0.127474,51.481876],[-0.126227,51.484478],[-0.128366,51.485058],[-0.129508,51.485897],[-0.127035,51.487644],[-0.123942,51.49118],[-0.120487,51.506008],[-0.117688,51.508377],[-0.115504,51.50914],[-0.111398,51.509742],[-0.109094,51.509823]]]}
}
