{
  "id": 1125964831,
  "type": "Feature",
  "properties": {
    "edtf:cessation": "",
    "edtf:inception": "",
    "geom:area": 0,
    "geom:area_square_m": 0,
    "geom:bbox": "-3.256870,56.143100,-3.256870,56.143100",
    "geom:latitude": 56.1431,
    "geom:longitude": -3.25687,
    "gn:country": "GB",
    "gn:fcode": "PPL",
    "gn:population": 4913,
    "iso:country": "GB",
    "lbl:bbox": "-3.27687,56.1231,-3.23687,56.1631",
    "lbl:latitude": 56.1431,
    "lbl:longitude": -3.25687,
    "lbl:max_zoom": 15,
    "lbl:min_zoom": 11.5,
    "mz:hierarchy_label": 1,
    "mz:is_current": 1,
    "mz:min_zoom": 11,
    "mz:note": "Quattroshapes Point Gazetteer import 20170519",
    "name:ast_x_preferred": [
      "Cardenden"
    ],
    "name:cat_x_preferred": [
      "Cardenden"
    ],
    "name:ceb_x_preferred": [
      "Cardenden"
    ],
    "name:cym_x_preferred": [
      "Cardenden"
    ],
    "name:eng_x_preferred": [
      "Cardenden"
    ],
    "name:eus_x_preferred": [
      "Cardenden"
    ],
    "name:fas_x_preferred": [
      "کاردندن"
    ],
    "name:fra_x_preferred": [
      "Cardenden"
    ],
    "name:glg_x_preferred": [
      "Cardenden"
    ],
    "name:ita_x_preferred": [
      "Cardenden"
    ],
    "name:jpn_x_preferred": [
      "カーデンデン"
    ],
    "name:nld_x_preferred": [
      "Cardenden"
    ],
    "name:nno_x_preferred": [
      "Cardenden"
    ],
    "name:nob_x_preferred": [
      "Cardenden"
    ],
    "name:spa_x_preferred": [
      "Cardenden"
    ],
    "name:swe_x_preferred": [
      "Cardenden"
    ],
    "name:zho_x_preferred": [
      "卡登登"
    ],
    "qs_pg:aaroncc": "GB",
    "qs_pg:gn_country": "GB",
    "qs_pg:gn_fcode": "PPL",
    "qs_pg:gn_id": 2653824,
    "qs_pg:gn_pop": 4913,
    "qs_pg:name": "Cardenden",
    "qs_pg:name_adm0": "United Kingdom",
    "qs_pg:name_adm1": "Scotland",
    "qs_pg:photos": 56,
    "qs_pg:photos_1k": 11,
    "qs_pg:photos_9k": 1,
    "qs_pg:photos_9r": 2,
    "qs_pg:photos_all": 56,
    "qs_pg:photos_sr": 2,
    "qs_pg:pop_sr": 4,
    "qs_pg:qs_id": 507202,
    "qs_pg:qs_pg_placetype": "locality",
    "qs_pg:qs_pg_placetype_gp": "Town",
    "qs_pg:woe_adm0": 23424975,
    "qs_pg:woe_id": 15123,
    "src:geom": "qs_pg",
    "src:lbl_centroid": "qs_pg",
    "src:population": "wikidata",
    "woe:adm0_id": 23424975,
    "woe:name_adm0": "United Kingdom",
    "woe:name_adm1": "Scotland",
    "woe:placetype": "Town",
    "wof:belongsto": [
      1880762125,
      1360699123
    ],
    "wof:breaches": [],
    "wof:concordances": {
      "gn:id": 2653824,
      "gp:id": 15123,
      "qs_pg:id": 507202,
      "wd:id": "Q1014545"
    },
    "wof:country": "GB",
    "wof:created": 1497297932,
    "wof:geomhash": "af85d59fbc5ef1b74a938da3d4db3371",
    "wof:hierarchy": [
      {
        "continent_id": -1,
        "country_id": -1,
        "county_id": 1360699123,
        "locality_id": 1125964831,
        "macrocounty_id": 1880762125,
        "region_id": -1
      }
    ],
    "wof:id": 1125964831,
    "wof:lastmodified": 1765387045,
    "wof:name": "Cardenden",
    "wof:parent_id": 1360699123,
    "wof:placetype": "locality",
    "wof:population": 5420,
    "wof:population_rank": 5,
    "wof:repo": "whosonfirst-data-admin-gb",
    "wof:superseded_by": [],
    "wof:supersedes": [],
    "wof:tags": []
  },
  "bbox": [
    -3.25687,
    56.1431,
    -3.25687,
    56.1431
  ],
  "geometry": {"type":"Point","coordinates":[-3.25687,56.1431]}
}
