{
  "id": 1360790987,
  "type": "Feature",
  "properties": {
    "edtf:cessation": "",
    "edtf:inception": "",
    "geom:area": 0,
    "geom:area_square_m": 0,
    "geom:bbox": "-1.406224,53.050162,-1.406224,53.050162",
    "geom:latitude": 53.050162,
    "geom:longitude": -1.406224,
    "gn:population": 21097,
    "iso:country": "GB",
    "lbl:bbox": "-1.411224,53.045162,-1.401224,53.055162",
    "lbl:latitude": 53.050163,
    "lbl:longitude": -1.406224,
    "lbl:max_zoom": 18,
    "mps:latitude": 53.050163,
    "mps:longitude": -1.406224,
    "mz:hierarchy_label": 1,
    "mz:is_current": 1,
    "mz:min_zoom": 15,
    "name:ast_x_preferred": [
      "Ripley"
    ],
    "name:azb_x_preferred": [
      "ریپلی"
    ],
    "name:ben_x_preferred": [
      "রিপ্লে"
    ],
    "name:bre_x_preferred": [
      "Ripley"
    ],
    "name:cat_x_preferred": [
      "Ripley"
    ],
    "name:ceb_x_preferred": [
      "Ripley"
    ],
    "name:ces_x_preferred": [
      "Ripley"
    ],
    "name:cos_x_preferred": [
      "Ripley"
    ],
    "name:cym_x_preferred": [
      "Ripley"
    ],
    "name:dan_x_preferred": [
      "Ripley"
    ],
    "name:deu_x_preferred": [
      "Ripley"
    ],
    "name:eng_x_preferred": [
      "Ripley"
    ],
    "name:est_x_preferred": [
      "Ripley"
    ],
    "name:eus_x_preferred": [
      "Ripley"
    ],
    "name:fas_x_preferred": [
      "ریپلی، دربی‌شر"
    ],
    "name:fas_x_variant": [
      "ریپلی"
    ],
    "name:fin_x_preferred": [
      "Ripley"
    ],
    "name:fra_x_preferred": [
      "Ripley"
    ],
    "name:fra_x_variant": [
      "Riplay"
    ],
    "name:gle_x_preferred": [
      "Ripley"
    ],
    "name:glg_x_preferred": [
      "Ripley"
    ],
    "name:guj_x_preferred": [
      "રિપ્લે"
    ],
    "name:hrv_x_preferred": [
      "Ripley"
    ],
    "name:hun_x_preferred": [
      "Ripley"
    ],
    "name:ind_x_preferred": [
      "Ripley"
    ],
    "name:ita_x_preferred": [
      "Ripley"
    ],
    "name:jpn_x_preferred": [
      "リプリー"
    ],
    "name:kan_x_preferred": [
      "ರಿಪ್ಲೆ"
    ],
    "name:kor_x_preferred": [
      "리플리"
    ],
    "name:lav_x_preferred": [
      "Ripley"
    ],
    "name:lit_x_preferred": [
      "Riplis"
    ],
    "name:ltz_x_preferred": [
      "Ripley"
    ],
    "name:nan_x_preferred": [
      "Ripley"
    ],
    "name:nld_x_preferred": [
      "Ripley"
    ],
    "name:nno_x_preferred": [
      "Ripley i Derbyshire"
    ],
    "name:nob_x_preferred": [
      "Ripley"
    ],
    "name:nor_x_preferred": [
      "Ripley"
    ],
    "name:nrm_x_preferred": [
      "Ripley"
    ],
    "name:oci_x_preferred": [
      "Ripley"
    ],
    "name:pol_x_preferred": [
      "Ripley"
    ],
    "name:por_x_preferred": [
      "Ripley"
    ],
    "name:roh_x_preferred": [
      "Ripley"
    ],
    "name:ron_x_preferred": [
      "Ripley"
    ],
    "name:rus_x_preferred": [
      "Рипли"
    ],
    "name:slk_x_preferred": [
      "Ripley"
    ],
    "name:slv_x_preferred": [
      "Ripley"
    ],
    "name:spa_x_preferred": [
      "Ripley"
    ],
    "name:swe_x_preferred": [
      "Ripley"
    ],
    "name:tah_x_preferred": [
      "Ripley"
    ],
    "name:tam_x_preferred": [
      "ரிப்ளே"
    ],
    "name:tel_x_preferred": [
      "రిప్లీ"
    ],
    "name:tur_x_preferred": [
      "Ripley"
    ],
    "name:urd_x_preferred": [
      "ریپلے"
    ],
    "name:vol_x_preferred": [
      "Ripley"
    ],
    "name:zho_x_preferred": [
      "雷普利"
    ],
    "qs:a0": "United Kingdom",
    "qs:a1": "*Derbyshire",
    "qs:a1_lc": "GB12170000",
    "qs:a1r": "0England",
    "qs:a1r_lc": "GB12000000",
    "qs:adm0": "United Kingdom",
    "qs:la_lc": "*",
    "qs:level": "locality",
    "qs:loc": "Ripley",
    "qs:loc_alt": "Ripley",
    "qs:pop": 0,
    "qs:source": "RCustom EuroGlobalMap + UMZ Urban Polygons + Geonames + GeoPlanet",
    "qs:type": "buffered point",
    "src:geom": "whosonfirst",
    "src:geom_alt": [
      "quattroshapes_pg",
      "quattroshapes"
    ],
    "src:geom_via": "quattroshapes",
    "src:lbl_centroid": "mapshaper",
    "src:population": "wikidata",
    "wd:latitude": 53.033333,
    "wd:longitude": -1.4,
    "wd:wordcount": 1939,
    "wof:belongsto": [
      1880762707,
      102191581,
      1880762133,
      404438739,
      85633159,
      404227469,
      1243291125,
      136253055,
      1880771385
    ],
    "wof:breaches": [],
    "wof:concordances": {
      "gn:id": 2639324,
      "gp:id": 33357,
      "qs_pg:id": 1121921,
      "wd:id": "Q936514",
      "wk:page": "Ripley, Derbyshire"
    },
    "wof:concordances_alt": {
      "qs_pg:id": 1165392
    },
    "wof:country": "GB",
    "wof:created": 1765389445,
    "wof:geomhash": "cfc187daedb0a3ad9878a1c66fe69864",
    "wof:hierarchy": [
      {
        "continent_id": 102191581,
        "country_id": 85633159,
        "county_id": 1880771385,
        "empire_id": 136253055,
        "localadmin_id": 404438739,
        "locality_id": 1243291125,
        "macrocounty_id": 1880762133,
        "macroregion_id": 404227469,
        "neighbourhood_id": 1360790987,
        "region_id": 1880762707
      }
    ],
    "wof:id": 1360790987,
    "wof:lastmodified": 1765389445,
    "wof:name": "Ripley",
    "wof:parent_id": 1243291125,
    "wof:placetype": "neighbourhood",
    "wof:population": 20633,
    "wof:population_rank": 7,
    "wof:repo": "whosonfirst-data-admin-gb",
    "wof:superseded_by": [],
    "wof:supersedes": [
      101872067
    ],
    "wof:tags": []
  },
  "bbox": [
    -1.406224,
    53.050162,
    -1.406224,
    53.050162
  ],
  "geometry": {"type":"Point","coordinates":[-1.406224,53.050162]}
}
