{
  "id": 101751937,
  "type": "Feature",
  "properties": {
    "edtf:cessation": "",
    "edtf:inception": "",
    "geom:area": 0.0012109918014999426,
    "geom:area_square_m": 8657823.003519,
    "geom:bbox": "-5.934782,54.653064,-5.869514,54.696736",
    "geom:latitude": 54.67641976090757,
    "geom:longitude": -5.905648966051681,
    "gn:population": 63860,
    "iso:country": "GB",
    "lbl:latitude": 54.680298,
    "lbl:longitude": -5.902429,
    "lbl:max_zoom": 14,
    "lbl:min_zoom": 9.5,
    "mps:latitude": 54.680298,
    "mps:longitude": -5.902429,
    "mz:hierarchy_label": 1,
    "mz:is_current": 1,
    "mz:min_zoom": 8,
    "name:afr_x_preferred": [
      "Newtownabbey"
    ],
    "name:azb_x_preferred": [
      "نیوتاون‌ابی"
    ],
    "name:bul_x_preferred": [
      "Нютаунаби"
    ],
    "name:cat_x_preferred": [
      "Newtownabbey"
    ],
    "name:ceb_x_preferred": [
      "Newtownabbey"
    ],
    "name:deu_x_preferred": [
      "Newtownabbey"
    ],
    "name:eng_x_preferred": [
      "Newtownabbey"
    ],
    "name:eus_x_preferred": [
      "Newtownabbey"
    ],
    "name:fas_x_preferred": [
      "تیوتاون‌ابی"
    ],
    "name:fra_x_preferred": [
      "Newtownabbey"
    ],
    "name:gla_x_preferred": [
      "Baile na Mainistreach"
    ],
    "name:gle_x_preferred": [
      "Baile na Mainistreach"
    ],
    "name:hun_x_preferred": [
      "Newtownabbey"
    ],
    "name:ita_x_preferred": [
      "Newtownabbey"
    ],
    "name:jpn_x_preferred": [
      "ニュータウンアベイ"
    ],
    "name:kor_x_preferred": [
      "뉴타우내비"
    ],
    "name:mkd_x_preferred": [
      "Њутонеби"
    ],
    "name:msa_x_preferred": [
      "Newtownabbey"
    ],
    "name:nld_x_preferred": [
      "Newtownabbey"
    ],
    "name:nno_x_preferred": [
      "Newtownabbey"
    ],
    "name:nob_x_preferred": [
      "Newtownabbey"
    ],
    "name:nor_x_preferred": [
      "Newtownabbey"
    ],
    "name:pol_x_preferred": [
      "Newtownabbey"
    ],
    "name:rus_x_preferred": [
      "Ньютаунабби"
    ],
    "name:rus_x_variant": [
      "Ньютонэббей",
      "Ньютаунэбби"
    ],
    "name:spa_x_preferred": [
      "Newtownabbey"
    ],
    "name:srp_x_preferred": [
      "Њутонаби"
    ],
    "name:swe_x_preferred": [
      "Newtownabbey"
    ],
    "name:tat_x_preferred": [
      "Ньютаунәбби"
    ],
    "name:urd_x_preferred": [
      "نیو ٹاؤن ایبی"
    ],
    "name:zho_x_preferred": [
      "紐敦阿比"
    ],
    "qs:a0": "United Kingdom",
    "qs:a1": "*Newtownabbey",
    "qs:a1_lc": "N_A",
    "qs:a1r": "0Northern Ireland",
    "qs:a1r_lc": "N_A",
    "qs:adm0": "United Kingdom",
    "qs:la_lc": "*",
    "qs:level": "locality",
    "qs:loc": "Newtownabbey",
    "qs:loc_alt": "Newtownabbey",
    "qs:pop": 0,
    "qs:source": "RCustom EuroGlobalMap + UMZ Urban Polygons + Geonames + GeoPlanet",
    "qs:type": "urban core",
    "src:geom": "quattroshapes",
    "src:geom_alt": [
      "quattroshapes_pg"
    ],
    "src:lbl_centroid": "mapshaper",
    "src:population": "wikidata",
    "wof:belongsto": [
      1360699239,
      102191581,
      85633159,
      1880762225,
      404227473,
      136253055,
      1880762245
    ],
    "wof:breaches": [],
    "wof:concordances": {
      "gn:id": 2641520,
      "gp:id": 45059,
      "qs_pg:id": 1036902,
      "wd:id": "Q918947",
      "wk:page": "Newtownabbey"
    },
    "wof:concordances_alt": {
      "qs_pg:id": 1074019
    },
    "wof:country": "GB",
    "wof:created": 1765384723,
    "wof:geom_alt": [
      "quattroshapes_pg"
    ],
    "wof:geomhash": "135388c5c7981536a2b7ca66d21e5362",
    "wof:hierarchy": [
      {
        "continent_id": 102191581,
        "country_id": 85633159,
        "county_id": 1880762245,
        "empire_id": 136253055,
        "locality_id": 101751937,
        "macrocounty_id": 1880762225,
        "macroregion_id": 404227473,
        "region_id": 1360699239
      }
    ],
    "wof:id": 101751937,
    "wof:lastmodified": 1765384723,
    "wof:name": "Newtownabbey",
    "wof:parent_id": 1880762245,
    "wof:placetype": "locality",
    "wof:population": 62056,
    "wof:population_rank": 8,
    "wof:repo": "whosonfirst-data-admin-gb",
    "wof:superseded_by": [],
    "wof:supersedes": [],
    "wof:tags": []
  },
  "bbox": [
    -5.934782,
    54.653064,
    -5.869514,
    54.696736
  ],
  "geometry": {"type":"Polygon","coordinates":[[[-5.905007,54.696002],[-5.904426,54.693955],[-5.903211,54.69356],[-5.895527,54.691064],[-5.893615,54.691337],[-5.89278,54.690674],[-5.891098,54.692192],[-5.892555,54.694336],[-5.890152,54.695283],[-5.88999,54.695347],[-5.889893,54.695325],[-5.886813,54.694634],[-5.889084,54.690953],[-5.891112,54.68935],[-5.889767,54.688775],[-5.882928,54.685848],[-5.877192,54.688301],[-5.876576,54.688565],[-5.8745,54.687002],[-5.87419,54.686768],[-5.874111,54.686811],[-5.872351,54.687771],[-5.869514,54.685864],[-5.870856,54.685218],[-5.888606,54.67667],[-5.889637,54.676174],[-5.892191,54.673977],[-5.893392,54.672943],[-5.896088,54.670624],[-5.895792,54.670369],[-5.89888,54.664501],[-5.901968,54.658943],[-5.9066,54.653384],[-5.909166,54.653064],[-5.908453,54.654311],[-5.914012,54.656472],[-5.919262,54.657708],[-5.923585,54.658325],[-5.92729,54.660178],[-5.933775,54.663266],[-5.934782,54.662626],[-5.933467,54.666045],[-5.932245,54.666367],[-5.933198,54.667023],[-5.920957,54.669709],[-5.919006,54.676873],[-5.913179,54.678097],[-5.915859,54.682159],[-5.922004,54.688091],[-5.919115,54.689422],[-5.920672,54.691254],[-5.91879,54.693915],[-5.917532,54.695694],[-5.917365,54.695931],[-5.909428,54.695904],[-5.905215,54.696736],[-5.905007,54.696002]]]}
}
