{
  "id": 1125904821,
  "type": "Feature",
  "properties": {
    "edtf:cessation": "",
    "edtf:inception": "",
    "geom:area": 0,
    "geom:area_square_m": 0,
    "geom:bbox": "-3.322205,56.038102,-3.322205,56.038102",
    "geom:latitude": 56.038102,
    "geom:longitude": -3.322205,
    "gn:country": null,
    "iso:country": "GB",
    "lbl:bbox": "-3.342205,56.018102,-3.302205,56.058102",
    "lbl:latitude": 56.038102,
    "lbl:longitude": -3.322205,
    "lbl:max_zoom": 18,
    "lbl:min_zoom": 13.5,
    "mz:hierarchy_label": 1,
    "mz:is_current": 1,
    "mz:min_zoom": 12,
    "mz:note": "Quattroshapes Point Gazetteer import 20170519",
    "name:ast_x_preferred": [
      "Dalgety Bay"
    ],
    "name:ceb_x_preferred": [
      "Dalgety Bay"
    ],
    "name:cym_x_preferred": [
      "Dalgety Bay"
    ],
    "name:deu_x_preferred": [
      "Dalgety Bay"
    ],
    "name:eng_x_preferred": [
      "Dalgety Bay"
    ],
    "name:eus_x_preferred": [
      "Dalgety Bay"
    ],
    "name:fas_x_preferred": [
      "خلیج دالگتی"
    ],
    "name:fra_x_preferred": [
      "Dalgety Bay"
    ],
    "name:gle_x_preferred": [
      "Bágh Dhealgadaidh"
    ],
    "name:ita_x_preferred": [
      "Dalgety Bay"
    ],
    "name:jpn_x_preferred": [
      "ダルゲティ・ベイ"
    ],
    "name:nld_x_preferred": [
      "Dalgety Bay"
    ],
    "name:pol_x_preferred": [
      "Dalgety Bay"
    ],
    "name:sco_x_preferred": [
      "Dawgety"
    ],
    "name:spa_x_preferred": [
      "Dalgety Bay"
    ],
    "name:swe_x_preferred": [
      "Dalgety Bay"
    ],
    "name:ukr_x_preferred": [
      "Далгеті-Бей"
    ],
    "name:zho_x_preferred": [
      "达尔盖蒂"
    ],
    "qs_pg:aaroncc": "GB",
    "qs_pg:gn_country": null,
    "qs_pg:name": "Dalgety Bay",
    "qs_pg:name_adm0": "United Kingdom",
    "qs_pg:name_adm1": "Scotland",
    "qs_pg:photos": 2237,
    "qs_pg:photos_1k": 453,
    "qs_pg:photos_9k": 10,
    "qs_pg:photos_9r": 9,
    "qs_pg:photos_all": 2237,
    "qs_pg:photos_sr": 16,
    "qs_pg:pop_sr": 0,
    "qs_pg:qs_id": 1030645,
    "qs_pg:qs_pg_placetype": "locality",
    "qs_pg:qs_pg_placetype_gp": "Town",
    "qs_pg:woe_adm0": 23424975,
    "qs_pg:woe_id": 17843,
    "src:geom": "qs_pg",
    "src:lbl_centroid": "qs_pg",
    "src:population": "wikidata",
    "woe:adm0_id": 23424975,
    "woe:name_adm0": "United Kingdom",
    "woe:name_adm1": "Scotland",
    "woe:placetype": "Town",
    "wof:belongsto": [
      1880762125,
      1360699123
    ],
    "wof:breaches": [],
    "wof:concordances": {
      "gp:id": 17843,
      "qs_pg:id": 1030645,
      "wd:id": "Q1984807"
    },
    "wof:country": "GB",
    "wof:created": 1497295947,
    "wof:geomhash": "91dd3eb28694a4eb3888947969044422",
    "wof:hierarchy": [
      {
        "continent_id": -1,
        "country_id": -1,
        "county_id": 1360699123,
        "locality_id": 1125904821,
        "macrocounty_id": 1880762125,
        "region_id": -1
      }
    ],
    "wof:id": 1125904821,
    "wof:lastmodified": 1765386428,
    "wof:name": "Dalgety Bay",
    "wof:parent_id": 1360699123,
    "wof:placetype": "locality",
    "wof:population": 10050,
    "wof:population_rank": 6,
    "wof:repo": "whosonfirst-data-admin-gb",
    "wof:superseded_by": [],
    "wof:supersedes": [],
    "wof:tags": []
  },
  "bbox": [
    -3.322205,
    56.038102,
    -3.322205,
    56.038102
  ],
  "geometry": {"type":"Point","coordinates":[-3.322205,56.038102]}
}
