{
  "id": 1360806459,
  "type": "Feature",
  "properties": {
    "edtf:cessation": "",
    "edtf:inception": "",
    "geom:area": 0,
    "geom:area_square_m": 0,
    "geom:bbox": "1.389000,52.715550,1.389000,52.715550",
    "geom:latitude": 52.71555,
    "geom:longitude": 1.389,
    "gn:admin1_code": "ENG",
    "gn:admin2_code": "I9",
    "gn:admin3_code": "33UC",
    "gn:admin4_code": "33UC007",
    "gn:asciiname": "Belaugh Village",
    "gn:country_code": "GB",
    "gn:dem": 16,
    "gn:feature_class": "P",
    "gn:feature_code": "PPL",
    "gn:geonameid": 9884150,
    "gn:latitude": 52.71555,
    "gn:longitude": 1.389,
    "gn:modification_date": "2015-01-01",
    "gn:name": "Belaugh Village",
    "gn:population": 0,
    "gn:timezone": "Europe/London",
    "iso:country": "GB",
    "lbl:bbox": "1.384,52.71055,1.394,52.72055",
    "lbl:max_zoom": 18,
    "mz:hierarchy_label": 1,
    "mz:is_current": 1,
    "mz:min_zoom": 15,
    "src:geom": "geonames",
    "src:population": "wikidata",
    "wof:belongsto": [
      1880762699,
      102191581,
      1880762037,
      404442935,
      85633159,
      404227469,
      1125908353,
      136253055,
      1880771709
    ],
    "wof:breaches": [],
    "wof:concordances": {
      "gn:id": 9884150
    },
    "wof:country": "GB",
    "wof:created": 1765390388,
    "wof:geomhash": "a1fad56a2b3530b2520efd1243090618",
    "wof:hierarchy": [
      {
        "continent_id": 102191581,
        "country_id": 85633159,
        "county_id": 1880771709,
        "empire_id": 136253055,
        "localadmin_id": 404442935,
        "locality_id": 1125908353,
        "macrocounty_id": 1880762037,
        "macroregion_id": 404227469,
        "neighbourhood_id": 1360806459,
        "region_id": 1880762699
      }
    ],
    "wof:id": 1360806459,
    "wof:lastmodified": 1765390388,
    "wof:name": "Belaugh Village",
    "wof:parent_id": 1125908353,
    "wof:placetype": "neighbourhood",
    "wof:population": 101,
    "wof:population_rank": 1,
    "wof:repo": "whosonfirst-data-admin-gb",
    "wof:superseded_by": [],
    "wof:supersedes": [
      1225973221
    ],
    "wof:tags": []
  },
  "bbox": [
    1.389,
    52.71555,
    1.389,
    52.71555
  ],
  "geometry": {"type":"Point","coordinates":[1.389,52.71555]}
}
