{
  "id": 85788007,
  "type": "Feature",
  "properties": {
    "edtf:cessation": "",
    "edtf:inception": "",
    "geom:area": 0.000598230446000002,
    "geom:area_square_m": 4593994.883594,
    "geom:bbox": "-0.395508,51.597548,-0.359802,51.618017",
    "geom:latitude": 51.6076171640432,
    "geom:longitude": -0.3779166628594173,
    "iso:country": "GB",
    "lbl:latitude": 51.607339,
    "lbl:longitude": -0.368708,
    "lbl:max_zoom": 18,
    "mps:latitude": 51.608819,
    "mps:longitude": -0.378256,
    "mz:hierarchy_label": 1,
    "mz:is_current": -1,
    "mz:is_funky": 0,
    "mz:is_hard_boundary": 0,
    "mz:is_landuse_aoi": 0,
    "mz:is_official": 0,
    "mz:max_zoom": 18,
    "mz:min_zoom": 15,
    "mz:tier_locality": 7,
    "mz:tier_metro": 1,
    "name:ast_x_preferred": [
      "Hatch End"
    ],
    "name:eng_x_preferred": [
      "Hatch End"
    ],
    "name:fra_x_preferred": [
      "Hatch End"
    ],
    "name:gle_x_preferred": [
      "Hatch End"
    ],
    "name:hin_x_preferred": [
      "हैच एंड"
    ],
    "name:jpn_x_preferred": [
      "ハッチエンド"
    ],
    "name:lld_x_preferred": [
      "Hatch End"
    ],
    "name:nld_x_preferred": [
      "Hatch End"
    ],
    "name:urd_x_preferred": [
      "ہیچ اینڈ"
    ],
    "qs:gn_adm0_cc": "GB",
    "qs:gn_fcode": "PPL",
    "qs:gn_local": 2643743,
    "qs:gn_namadm1": "ENG",
    "qs:gn_name": "Hatch End",
    "qs:local_max": 40697,
    "qs:local_sum": 1675717,
    "qs:localhoods": 643,
    "qs:name": "Hatch End",
    "qs:name_adm0": "United Kingdom",
    "qs:name_adm1": "England",
    "qs:name_adm2": "Greater London",
    "qs:name_lau": "London Borough of Harrow",
    "qs:name_local": "London",
    "qs:photo_max": 30,
    "qs:photo_sum": 252,
    "qs:placetype": "Suburb",
    "qs:quad_count": 28,
    "qs:woe_adm0": 23424975,
    "qs:woe_adm1": 24554868,
    "qs:woe_adm2": 23416974,
    "qs:woe_funk": "Parented by a neighborhood",
    "qs:woe_lau": 12695829,
    "qs:woe_local": 44418,
    "qs:woe_ver": "7.10.0",
    "src:geom": "quattroshapes",
    "src:geom_alt": [
      "quattroshapes_pg"
    ],
    "src:lbl_centroid": "mz",
    "src:population": "wikidata",
    "wd:latitude": 51.601,
    "wd:longitude": -0.3743,
    "wd:wordcount": 876,
    "wof:belongsto": [
      1880762729,
      102191581,
      1880762179,
      85633159,
      404227469,
      101750367,
      136253055,
      1158857263,
      1880771825
    ],
    "wof:breaches": [],
    "wof:concordances": {
      "gn:id": 2647351,
      "gp:id": 22627,
      "qs_pg:id": 1254869,
      "wd:id": "Q3633577",
      "wk:page": "Hatch End"
    },
    "wof:country": "GB",
    "wof:created": 1765391059,
    "wof:geom_alt": [
      "quattroshapes_pg"
    ],
    "wof:geomhash": "6d61cf6b1b39693f6cc447a3cede27c8",
    "wof:hierarchy": [
      {
        "borough_id": 1158857263,
        "continent_id": 102191581,
        "country_id": 85633159,
        "county_id": 1880771825,
        "empire_id": 136253055,
        "locality_id": 101750367,
        "macrocounty_id": 1880762179,
        "macroregion_id": 404227469,
        "neighbourhood_id": 85788007,
        "region_id": 1880762729
      }
    ],
    "wof:id": 85788007,
    "wof:lang": [
      "eng"
    ],
    "wof:lastmodified": 1765391059,
    "wof:name": "Hatch End",
    "wof:parent_id": 1158857263,
    "wof:placetype": "neighbourhood",
    "wof:population": 10693,
    "wof:population_rank": 6,
    "wof:repo": "whosonfirst-data-admin-gb",
    "wof:superseded_by": [],
    "wof:supersedes": [],
    "wof:tags": []
  },
  "bbox": [
    -0.395508,
    51.597548,
    -0.359802,
    51.618017
  ],
  "geometry": {"type":"Polygon","coordinates":[[[-0.373535,51.618016],[-0.372476,51.616311],[-0.368042,51.616311],[-0.359802,51.616311],[-0.359802,51.6117],[-0.36043,51.611195],[-0.362549,51.607783],[-0.362549,51.607783],[-0.362549,51.604372],[-0.362549,51.604372],[-0.362549,51.60096],[-0.362549,51.599254],[-0.366982,51.599254],[-0.368042,51.597548],[-0.368042,51.597548],[-0.373535,51.597548],[-0.373535,51.597548],[-0.374595,51.599254],[-0.377723,51.599254],[-0.379028,51.600154],[-0.383397,51.599149],[-0.383559,51.598714],[-0.384521,51.597784],[-0.384521,51.597548],[-0.384766,51.597548],[-0.384767,51.597548],[-0.390015,51.597548],[-0.395508,51.597548],[-0.395508,51.597548],[-0.395508,51.60096],[-0.395508,51.60096],[-0.395508,51.604372],[-0.395508,51.604372],[-0.395508,51.606251],[-0.395508,51.607783],[-0.394556,51.607783],[-0.393497,51.609489],[-0.391074,51.609489],[-0.390015,51.611195],[-0.390015,51.611195],[-0.390015,51.614606],[-0.390015,51.614606],[-0.390015,51.618016],[-0.390015,51.618017],[-0.384521,51.618017],[-0.379028,51.618017],[-0.373535,51.618017],[-0.373535,51.618016]]]}
}
