{
  "id": 1126055537,
  "type": "Feature",
  "properties": {
    "edtf:cessation": "",
    "edtf:inception": "",
    "geom:area": 0.0002469782919999826,
    "geom:area_square_m": 1859000.537044,
    "geom:bbox": "-1.759553,52.491660,-1.733226,52.512923",
    "geom:latitude": 52.50248831584722,
    "geom:longitude": -1.747223032991508,
    "gn:country": null,
    "iso:country": "GB",
    "lbl:latitude": 52.498445,
    "lbl:longitude": -1.741354,
    "lbl:max_zoom": 18,
    "lbl:min_zoom": 13.5,
    "mz:hierarchy_label": 1,
    "mz:is_current": 1,
    "mz:min_zoom": 12,
    "mz:note": "Quattroshapes Point Gazetteer import 20170519",
    "name:ben_x_preferred": [
      "স্মিথ'স উড"
    ],
    "name:ceb_x_preferred": [
      "Smith's Wood"
    ],
    "name:deu_x_preferred": [
      "Smith's Wood"
    ],
    "name:eng_x_preferred": [
      "Smith's Wood"
    ],
    "name:fra_x_preferred": [
      "Smith's Wood"
    ],
    "name:gle_x_preferred": [
      "Smith's Wood"
    ],
    "name:guj_x_preferred": [
      "સ્મિથ્સ વુડ"
    ],
    "name:jpn_x_preferred": [
      "スミスズ・ウッド"
    ],
    "name:kan_x_preferred": [
      "ಸ್ಮಿತ್'ಸ್ ವುಡ್"
    ],
    "name:kor_x_preferred": [
      "스미츠 우드"
    ],
    "name:lit_x_preferred": [
      "Smito Vudas"
    ],
    "name:lld_x_preferred": [
      "Smith's Wood"
    ],
    "name:nld_x_preferred": [
      "Smith's Wood"
    ],
    "name:pol_x_preferred": [
      "Smith's Wood"
    ],
    "name:por_x_preferred": [
      "Smith's Wood"
    ],
    "name:rus_x_preferred": [
      "Смитс-Вуд"
    ],
    "name:sco_x_preferred": [
      "Smith's Wood"
    ],
    "name:spa_x_preferred": [
      "Smith's Wood"
    ],
    "name:swe_x_preferred": [
      "Smith's Wood"
    ],
    "name:tam_x_preferred": [
      "ஸ்மித் 'ஸ் வுட்"
    ],
    "name:tel_x_preferred": [
      "స్మిత్స్ వుడ్"
    ],
    "name:tur_x_preferred": [
      "Smith's Wood"
    ],
    "name:urd_x_preferred": [
      "سمتھ ’ س ووڈ"
    ],
    "qs_pg:aaroncc": "GB",
    "qs_pg:gn_country": null,
    "qs_pg:name": "Smith's Wood",
    "qs_pg:name_adm0": "United Kingdom",
    "qs_pg:name_adm1": "England",
    "qs_pg:photos": 28,
    "qs_pg:photos_1k": 6,
    "qs_pg:photos_9k": 1,
    "qs_pg:photos_9r": 2,
    "qs_pg:photos_all": 28,
    "qs_pg:photos_sr": 2,
    "qs_pg:pop_sr": 0,
    "qs_pg:qs_id": 1061920,
    "qs_pg:qs_pg_placetype": "locality",
    "qs_pg:qs_pg_placetype_gp": "Town",
    "qs_pg:woe_adm0": 23424975,
    "qs_pg:woe_id": 23415953,
    "src:geom": "quattroshapes",
    "src:geom_alt": [
      "qs_pg"
    ],
    "src:lbl_centroid": "qs_pg",
    "src:population": "wikidata",
    "woe:adm0_id": 23424975,
    "woe:name_adm0": "United Kingdom",
    "woe:name_adm1": "England",
    "woe:placetype": "Town",
    "wof:belongsto": [
      1880773161,
      102191581,
      85633159,
      404444037,
      1880762069,
      404227469,
      136253055,
      1360699057
    ],
    "wof:breaches": [],
    "wof:concordances": {
      "gp:id": 23415953,
      "qs_pg:id": 1061920,
      "wd:id": "Q9338662"
    },
    "wof:coterminous": [
      404444037
    ],
    "wof:country": "GB",
    "wof:created": 1497303136,
    "wof:geom_alt": [
      "qs_pg"
    ],
    "wof:geomhash": "b576c81744c8667b4302ff8f6870c0d2",
    "wof:hierarchy": [
      {
        "continent_id": 102191581,
        "country_id": 85633159,
        "county_id": 1360699057,
        "empire_id": 136253055,
        "localadmin_id": 404444037,
        "locality_id": 1126055537,
        "macrocounty_id": 1880762069,
        "macroregion_id": 404227469,
        "region_id": 1880773161
      }
    ],
    "wof:id": 1126055537,
    "wof:lastmodified": 1765387985,
    "wof:name": "Smith's Wood",
    "wof:parent_id": 404444037,
    "wof:placetype": "locality",
    "wof:population": 10897,
    "wof:population_rank": 6,
    "wof:repo": "whosonfirst-data-admin-gb",
    "wof:superseded_by": [],
    "wof:supersedes": [],
    "wof:tags": []
  },
  "bbox": [
    -1.759553,
    52.49166,
    -1.733226,
    52.512923
  ],
  "geometry": {"type":"Polygon","coordinates":[[[-1.733226,52.492104],[-1.733643,52.492078],[-1.733861,52.492072],[-1.734964,52.491988],[-1.735541,52.491954],[-1.735717,52.49194],[-1.73559,52.491693],[-1.735757,52.49166],[-1.736014,52.492023],[-1.73611,52.492202],[-1.736336,52.492314],[-1.736643,52.492414],[-1.736814,52.49233],[-1.736976,52.49223],[-1.737174,52.49212],[-1.738086,52.491801],[-1.738429,52.49171],[-1.738506,52.491699],[-1.738612,52.49169],[-1.738745,52.491688],[-1.739057,52.491717],[-1.739173,52.491747],[-1.739257,52.491778],[-1.739499,52.491901],[-1.740087,52.492299],[-1.740745,52.492711],[-1.741248,52.493064],[-1.741463,52.493241],[-1.741731,52.493481],[-1.742045,52.493811],[-1.742365,52.493726],[-1.743001,52.493536],[-1.743162,52.493499],[-1.743574,52.49424],[-1.743712,52.49459],[-1.743753,52.494674],[-1.744006,52.495206],[-1.744155,52.495484],[-1.744303,52.495707],[-1.744412,52.495829],[-1.744488,52.495897],[-1.744572,52.495963],[-1.744687,52.496036],[-1.744821,52.496112],[-1.744962,52.496181],[-1.745397,52.496356],[-1.745576,52.496418],[-1.745757,52.496475],[-1.745897,52.496514],[-1.747028,52.496786],[-1.747806,52.496953],[-1.74929,52.497225],[-1.75094,52.497573],[-1.751582,52.497762],[-1.751767,52.497831],[-1.752027,52.497951],[-1.752269,52.498094],[-1.752539,52.49828],[-1.752665,52.49838],[-1.752771,52.498474],[-1.75298,52.498674],[-1.753276,52.498981],[-1.75343,52.499089],[-1.753715,52.499253],[-1.754194,52.499487],[-1.7544,52.499573],[-1.755135,52.499863],[-1.75481,52.50003],[-1.754422,52.500328],[-1.754123,52.500534],[-1.752633,52.501484],[-1.752585,52.501568],[-1.752475,52.501797],[-1.75302,52.50188],[-1.755058,52.502206],[-1.755111,52.502217],[-1.755375,52.502288],[-1.755566,52.502355],[-1.755934,52.502541],[-1.756053,52.502618],[-1.756112,52.502665],[-1.756187,52.50274],[-1.756337,52.502961],[-1.7564,52.503301],[-1.756398,52.503526],[-1.756335,52.504355],[-1.756309,52.504798],[-1.756264,52.505254],[-1.756267,52.505495],[-1.756396,52.506499],[-1.756495,52.506971],[-1.757469,52.506911],[-1.758558,52.506866],[-1.759553,52.506871],[-1.759223,52.508922],[-1.759134,52.509874],[-1.759087,52.510027],[-1.759038,52.510149],[-1.75898,52.510258],[-1.758924,52.51035],[-1.758867,52.510426],[-1.758777,52.510529],[-1.758692,52.510613],[-1.758528,52.510746],[-1.758312,52.510891],[-1.758179,52.510965],[-1.757977,52.511067],[-1.757636,52.511207],[-1.757392,52.511285],[-1.757089,52.511359],[-1.756938,52.511385],[-1.756731,52.511413],[-1.756569,52.511428],[-1.756293,52.511437],[-1.755359,52.511431],[-1.754387,52.511433],[-1.75317,52.511409],[-1.753159,52.511412],[-1.753079,52.511469],[-1.753062,52.511505],[-1.753021,52.511667],[-1.753015,52.511726],[-1.753017,52.511782],[-1.753051,52.511891],[-1.753537,52.512923],[-1.752349,52.512507],[-1.75159,52.512235],[-1.750859,52.511947],[-1.750348,52.51173],[-1.749664,52.51142],[-1.749253,52.511221],[-1.74827,52.510721],[-1.747935,52.510542],[-1.747259,52.51016],[-1.746438,52.509672],[-1.746039,52.509405],[-1.745549,52.509061],[-1.745267,52.508853],[-1.744986,52.508645],[-1.744508,52.508275],[-1.74428,52.508075],[-1.743987,52.507797],[-1.743753,52.507588],[-1.743611,52.507392],[-1.743479,52.507224],[-1.743256,52.506913],[-1.742803,52.506279],[-1.742356,52.505601],[-1.741598,52.504387],[-1.740458,52.502624],[-1.739528,52.501176],[-1.738713,52.499965],[-1.738325,52.499355],[-1.73801,52.498908],[-1.737747,52.498489],[-1.737077,52.49747],[-1.736624,52.496824],[-1.736154,52.496092],[-1.73589,52.495713],[-1.735538,52.495163],[-1.734926,52.494289],[-1.734836,52.494144],[-1.734568,52.493806],[-1.73393,52.492937],[-1.73369,52.492629],[-1.733226,52.492104]]]}
}
