{
  "id": 1125998427,
  "type": "Feature",
  "properties": {
    "edtf:cessation": "",
    "edtf:inception": "",
    "geom:area": 0,
    "geom:area_square_m": 0,
    "geom:bbox": "-6.750000,58.266670,-6.750000,58.266670",
    "geom:latitude": 58.26667,
    "geom:longitude": -6.75,
    "gn:country": "GB",
    "gn:fcode": "PPL",
    "gn:population": 0,
    "iso:country": "GB",
    "lbl:bbox": "-6.77,58.24667,-6.73,58.28667",
    "lbl:latitude": 58.26667,
    "lbl:longitude": -6.75,
    "lbl:max_zoom": 18,
    "lbl:min_zoom": 13.5,
    "mz:hierarchy_label": 1,
    "mz:is_current": 1,
    "mz:min_zoom": 12,
    "mz:note": "Quattroshapes Point Gazetteer import 20170519",
    "name:cym_x_preferred": [
      "Càrlabhagh"
    ],
    "name:deu_x_preferred": [
      "Carloway"
    ],
    "name:eng_x_preferred": [
      "Carloway"
    ],
    "name:eus_x_preferred": [
      "Carloway"
    ],
    "name:fra_x_preferred": [
      "Carloway"
    ],
    "name:gla_x_preferred": [
      "Càrlabhagh"
    ],
    "name:gle_x_preferred": [
      "Cárlabhagh"
    ],
    "name:gle_x_variant": [
      "Càrlabhagh"
    ],
    "name:jpn_x_preferred": [
      "カロウェイ"
    ],
    "name:nld_x_preferred": [
      "Carloway"
    ],
    "name:sco_x_preferred": [
      "Carlowa"
    ],
    "qs_pg:aaroncc": "GB",
    "qs_pg:gn_country": "GB",
    "qs_pg:gn_fcode": "PPL",
    "qs_pg:gn_id": 2653772,
    "qs_pg:gn_pop": 0,
    "qs_pg:name": "Carloway",
    "qs_pg:name_adm0": "United Kingdom",
    "qs_pg:name_adm1": "Scotland",
    "qs_pg:photos": 103,
    "qs_pg:photos_1k": 21,
    "qs_pg:photos_9k": 1,
    "qs_pg:photos_9r": 3,
    "qs_pg:photos_all": 103,
    "qs_pg:photos_sr": 3,
    "qs_pg:pop_sr": 0,
    "qs_pg:qs_id": 32373,
    "qs_pg:qs_pg_placetype": "locality",
    "qs_pg:qs_pg_placetype_gp": "Town",
    "qs_pg:woe_adm0": 23424975,
    "qs_pg:woe_id": 28835951,
    "src:geom": "qs_pg",
    "src:lbl_centroid": "qs_pg",
    "src:population": "wikidata",
    "woe:adm0_id": 23424975,
    "woe:name_adm0": "United Kingdom",
    "woe:name_adm1": "Scotland",
    "woe:placetype": "Town",
    "wof:belongsto": [
      1880773097,
      102191581,
      85633159,
      1880762027,
      404227471,
      136253055,
      1360699007
    ],
    "wof:breaches": [],
    "wof:concordances": {
      "gn:id": 2653772,
      "gp:id": 28835951,
      "qs_pg:id": 32373,
      "wd:id": "Q1043339"
    },
    "wof:country": "GB",
    "wof:created": 1497299502,
    "wof:geomhash": "9142ea0763a624942ecfeb6930013184",
    "wof:hierarchy": [
      {
        "continent_id": 102191581,
        "country_id": 85633159,
        "county_id": 1360699007,
        "empire_id": 136253055,
        "locality_id": 1125998427,
        "macrocounty_id": 1880762027,
        "macroregion_id": 404227471,
        "region_id": 1880773097
      }
    ],
    "wof:id": 1125998427,
    "wof:lastmodified": 1765387441,
    "wof:name": "Carloway",
    "wof:parent_id": 1360699007,
    "wof:placetype": "locality",
    "wof:population": 500,
    "wof:population_rank": 2,
    "wof:repo": "whosonfirst-data-admin-gb",
    "wof:superseded_by": [],
    "wof:supersedes": [],
    "wof:tags": []
  },
  "bbox": [
    -6.75,
    58.26667,
    -6.75,
    58.26667
  ],
  "geometry": {"type":"Point","coordinates":[-6.75,58.26667]}
}
