{
  "id": 101750641,
  "type": "Feature",
  "properties": {
    "edtf:cessation": "",
    "edtf:inception": "",
    "geom:area": 0.005631864575000333,
    "geom:area_square_m": 38461120.018913,
    "geom:bbox": "-3.056365,56.450936,-2.803594,56.499658",
    "geom:latitude": 56.47543091615299,
    "geom:longitude": -2.9528698117270875,
    "iso:country": "GB",
    "lbl:latitude": 56.473055,
    "lbl:longitude": -2.993131,
    "lbl:max_zoom": 18,
    "lbl:min_zoom": 13.5,
    "mps:latitude": 56.473055,
    "mps:longitude": -2.993131,
    "mz:hierarchy_label": 1,
    "mz:is_current": 1,
    "mz:min_zoom": 6.7,
    "name:afr_x_preferred": [
      "Dundee"
    ],
    "name:ara_x_preferred": [
      "دندي"
    ],
    "name:arz_x_preferred": [
      "دندى"
    ],
    "name:ast_x_preferred": [
      "Dundee"
    ],
    "name:azb_x_preferred": [
      "داندی"
    ],
    "name:aze_x_preferred": [
      "Dandi"
    ],
    "name:bel_x_preferred": [
      "Горад Данды"
    ],
    "name:bel_x_variant": [
      "Данды"
    ],
    "name:ben_x_preferred": [
      "ড্যান্ডি"
    ],
    "name:bre_x_preferred": [
      "Dùn Dèagh"
    ],
    "name:bul_x_preferred": [
      "Дънди"
    ],
    "name:cat_x_preferred": [
      "Dundee"
    ],
    "name:ceb_x_preferred": [
      "Dundee"
    ],
    "name:ces_x_preferred": [
      "Dundee"
    ],
    "name:cos_x_preferred": [
      "Dundee"
    ],
    "name:cym_x_preferred": [
      "Dundee"
    ],
    "name:dan_x_preferred": [
      "Dundee"
    ],
    "name:deu_x_preferred": [
      "Dundee"
    ],
    "name:diq_x_preferred": [
      "Dundee"
    ],
    "name:ell_x_preferred": [
      "Νταντί"
    ],
    "name:ell_x_variant": [
      "Ντάντι"
    ],
    "name:eng_x_preferred": [
      "Dundee"
    ],
    "name:epo_x_preferred": [
      "Dundee"
    ],
    "name:est_x_preferred": [
      "Dundee"
    ],
    "name:eus_x_preferred": [
      "Dundee"
    ],
    "name:fas_x_preferred": [
      "داندی"
    ],
    "name:fin_x_preferred": [
      "Dundee"
    ],
    "name:fra_x_preferred": [
      "Dundee"
    ],
    "name:frr_x_preferred": [
      "Dundee"
    ],
    "name:fry_x_preferred": [
      "Dundee"
    ],
    "name:gla_x_preferred": [
      "Dùn Dèagh"
    ],
    "name:gla_x_variant": [
      "Dùn Dè"
    ],
    "name:gle_x_preferred": [
      "Dún Déagh"
    ],
    "name:gle_x_variant": [
      "Dùn Dèagh"
    ],
    "name:glg_x_preferred": [
      "Dundee"
    ],
    "name:guj_x_preferred": [
      "ડંડી"
    ],
    "name:heb_x_preferred": [
      "דנדי"
    ],
    "name:hin_x_preferred": [
      "डन्डी नोड"
    ],
    "name:hun_x_preferred": [
      "Dundee"
    ],
    "name:hye_x_preferred": [
      "Դանդի"
    ],
    "name:ile_x_preferred": [
      "Dundee"
    ],
    "name:ind_x_preferred": [
      "Dundee"
    ],
    "name:isl_x_preferred": [
      "Dundee"
    ],
    "name:ita_x_preferred": [
      "Dundee"
    ],
    "name:jpn_x_preferred": [
      "ダンディー"
    ],
    "name:kan_x_preferred": [
      "ದಂಡೀ"
    ],
    "name:kat_x_preferred": [
      "დანდი"
    ],
    "name:kaz_x_preferred": [
      "Данди"
    ],
    "name:kir_x_preferred": [
      "Данди"
    ],
    "name:kor_x_preferred": [
      "던디"
    ],
    "name:kur_x_preferred": [
      "Dundee"
    ],
    "name:lat_x_preferred": [
      "Taodunum"
    ],
    "name:lav_x_preferred": [
      "Dandī"
    ],
    "name:lit_x_preferred": [
      "Dandi"
    ],
    "name:lmo_x_preferred": [
      "Dundee"
    ],
    "name:mar_x_preferred": [
      "डंडी"
    ],
    "name:mkd_x_preferred": [
      "Данди"
    ],
    "name:mlg_x_preferred": [
      "Dundee"
    ],
    "name:mni_x_preferred": [
      "ꯗꯨꯟꯗꯤ"
    ],
    "name:msa_x_preferred": [
      "Dundee"
    ],
    "name:nan_x_preferred": [
      "Dundee"
    ],
    "name:nld_x_preferred": [
      "Dundee"
    ],
    "name:nno_x_preferred": [
      "Dundee"
    ],
    "name:nob_x_preferred": [
      "Dundee"
    ],
    "name:nor_x_preferred": [
      "Dundee"
    ],
    "name:pms_x_preferred": [
      "Dundee"
    ],
    "name:pnb_x_preferred": [
      "ڈنڈی شہر"
    ],
    "name:pol_x_preferred": [
      "Dundee"
    ],
    "name:por_x_preferred": [
      "Dundee"
    ],
    "name:que_x_preferred": [
      "Dundee"
    ],
    "name:ron_x_preferred": [
      "Dundee"
    ],
    "name:rus_x_preferred": [
      "Данди"
    ],
    "name:sco_x_preferred": [
      "Dundee"
    ],
    "name:sin_x_preferred": [
      "ඩන්ඩි"
    ],
    "name:slk_x_preferred": [
      "Dundee"
    ],
    "name:slv_x_preferred": [
      "Dundee"
    ],
    "name:snd_x_preferred": [
      "ڊنڊي"
    ],
    "name:spa_x_preferred": [
      "Dundee"
    ],
    "name:srp_x_preferred": [
      "Данди"
    ],
    "name:swa_x_preferred": [
      "Dundee"
    ],
    "name:swe_x_preferred": [
      "Dundee"
    ],
    "name:szl_x_preferred": [
      "Dundee"
    ],
    "name:tam_x_preferred": [
      "டண்டீ"
    ],
    "name:tat_x_preferred": [
      "Данди"
    ],
    "name:tel_x_preferred": [
      "డండీ"
    ],
    "name:tgl_x_preferred": [
      "Dundee"
    ],
    "name:tha_x_preferred": [
      "ดันดี"
    ],
    "name:tur_x_preferred": [
      "Dundee"
    ],
    "name:ukr_x_preferred": [
      "Данді"
    ],
    "name:urd_x_preferred": [
      "ڈنڈی، سکاٹ لینڈ"
    ],
    "name:urd_x_variant": [
      "ڈنڈی"
    ],
    "name:uzb_x_preferred": [
      "Dandi"
    ],
    "name:vec_x_preferred": [
      "Dundee"
    ],
    "name:vie_x_preferred": [
      "Dundee"
    ],
    "name:vol_x_preferred": [
      "Dundee"
    ],
    "name:war_x_preferred": [
      "Dundee"
    ],
    "name:wuu_x_preferred": [
      "邓迪"
    ],
    "name:yid_x_preferred": [
      "דאנדי"
    ],
    "name:yue_x_preferred": [
      "登地"
    ],
    "name:zho_x_preferred": [
      "邓迪"
    ],
    "ne:ADM0CAP": 0,
    "ne:ADM0NAME": "United Kingdom",
    "ne:ADM0_A3": "GBR",
    "ne:ADM1NAME": "Dundee",
    "ne:ADMIN1_COD": 0,
    "ne:CAPALT": 0,
    "ne:CAPIN": null,
    "ne:CHANGED": 0,
    "ne:CHECKME": 2,
    "ne:CITYALT": null,
    "ne:COMPARE": 0,
    "ne:DIFFASCII": 0,
    "ne:DIFFNOTE": null,
    "ne:ELEVATION": 0,
    "ne:FEATURECLA": "Populated place",
    "ne:FEATURE_CL": "P",
    "ne:FEATURE_CO": "PPL",
    "ne:GEONAMEID": 2650752,
    "ne:GEONAMESNO": "Geonames ascii name + lat.d + long.d matching.",
    "ne:GN_ASCII": "Dundee",
    "ne:GN_POP": 151592,
    "ne:GTOPO30": 76,
    "ne:ISO_A2": "GB",
    "ne:LABELRANK": 5,
    "ne:LATITUDE": 56.470389,
    "ne:LONGITUDE": -3.000008,
    "ne:LS_MATCH": 1,
    "ne:LS_NAME": "Dundee",
    "ne:MAX_AREAKM": 59,
    "ne:MAX_AREAMI": 23,
    "ne:MAX_BBXMAX": -2.8,
    "ne:MAX_BBXMIN": -3.075,
    "ne:MAX_BBYMAX": 56.508333,
    "ne:MAX_BBYMIN": 56.45,
    "ne:MAX_NATSCA": 20,
    "ne:MAX_PERKM": 77,
    "ne:MAX_PERMI": 48,
    "ne:MAX_POP10": 150435,
    "ne:MAX_POP20": 150435,
    "ne:MAX_POP300": 0,
    "ne:MAX_POP310": 0,
    "ne:MAX_POP50": 0,
    "ne:MEAN_BBXC": -2.954368,
    "ne:MEAN_BBYC": 56.476411,
    "ne:MEGACITY": 0,
    "ne:MEGANAME": null,
    "ne:MIN_AREAKM": 59,
    "ne:MIN_AREAMI": 23,
    "ne:MIN_BBXMAX": -2.8,
    "ne:MIN_BBXMIN": -3.075,
    "ne:MIN_BBYMAX": 56.508333,
    "ne:MIN_BBYMIN": 56.45,
    "ne:MIN_PERKM": 77,
    "ne:MIN_PERMI": 48,
    "ne:NAME": "Dundee",
    "ne:NAMEALT": null,
    "ne:NAMEASCII": "Dundee",
    "ne:NAMEDIFF": 0,
    "ne:NAMEPAR": null,
    "ne:NATSCALE": 20,
    "ne:NOTE": null,
    "ne:POP1950": 0,
    "ne:POP1955": 0,
    "ne:POP1960": 0,
    "ne:POP1965": 0,
    "ne:POP1970": 0,
    "ne:POP1975": 0,
    "ne:POP1980": 0,
    "ne:POP1985": 0,
    "ne:POP1990": 0,
    "ne:POP1995": 0,
    "ne:POP2000": 0,
    "ne:POP2005": 0,
    "ne:POP2010": 0,
    "ne:POP2015": 0,
    "ne:POP2020": 0,
    "ne:POP2025": 0,
    "ne:POP2050": 0,
    "ne:POP_MAX": 151592,
    "ne:POP_MIN": 150435,
    "ne:POP_OTHER": 149097,
    "ne:RANK_MAX": 9,
    "ne:RANK_MIN": 9,
    "ne:SCALERANK": 7,
    "ne:SOV0NAME": "United Kingdom",
    "ne:SOV_A3": "GBR",
    "ne:TIMEZONE": "Europe/London",
    "ne:UN_ADM0": null,
    "ne:UN_FID": 0,
    "ne:UN_LAT": 0,
    "ne:UN_LONG": 0,
    "ne:WORLDCITY": 0,
    "qs:a0": "United Kingdom",
    "qs:a1": "*Dundee City",
    "qs:a1_lc": "GB11QJ0000",
    "qs:a1r": "0Scotland",
    "qs:a1r_lc": "GB11000000",
    "qs:adm0": "United Kingdom",
    "qs:la_lc": "*",
    "qs:level": "locality",
    "qs:loc": "Dundee",
    "qs:loc_alt": "Dundee",
    "qs:pop": 0,
    "qs:source": "RCustom EuroGlobalMap + UMZ Urban Polygons + Geonames + GeoPlanet",
    "qs:type": "urban core",
    "src:geom": "quattroshapes",
    "src:geom_alt": [
      "quattroshapes_pg"
    ],
    "src:lbl_centroid": "mapshaper",
    "src:population": "wikidata",
    "wd:latitude": 56.464,
    "wd:longitude": -2.97,
    "wd:wordcount": 13965,
    "wof:belongsto": [
      1880772989,
      102191581,
      85633159,
      1880762045,
      404227471,
      136253055,
      1360698883
    ],
    "wof:breaches": [],
    "wof:concordances": {
      "gn:id": 2650752,
      "gp:id": 18637,
      "qs_pg:id": 352015,
      "wd:id": "Q123709",
      "wk:page": "Dundee"
    },
    "wof:country": "GB",
    "wof:created": 1765384719,
    "wof:geom_alt": [
      "quattroshapes_pg"
    ],
    "wof:geomhash": "3b04120e8637a89880b8658e1e59284f",
    "wof:hierarchy": [
      {
        "continent_id": 102191581,
        "country_id": 85633159,
        "county_id": 1360698883,
        "empire_id": 136253055,
        "locality_id": 101750641,
        "macrocounty_id": 1880762045,
        "macroregion_id": 404227471,
        "region_id": 1880772989
      }
    ],
    "wof:id": 101750641,
    "wof:lastmodified": 1765384719,
    "wof:name": "Dundee",
    "wof:parent_id": 1360698883,
    "wof:placetype": "locality",
    "wof:population": 148280,
    "wof:population_rank": 9,
    "wof:repo": "whosonfirst-data-admin-gb",
    "wof:superseded_by": [],
    "wof:supersedes": [],
    "wof:tags": []
  },
  "bbox": [
    -3.056365,
    56.450936,
    -2.803594,
    56.499658
  ],
  "geometry": {"type":"Polygon","coordinates":[[[-2.989634,56.496791],[-2.996911,56.492139],[-2.983426,56.494864],[-2.969619,56.494557],[-2.955971,56.494024],[-2.950338,56.491778],[-2.949721,56.491532],[-2.949935,56.493597],[-2.924132,56.494607],[-2.918385,56.491948],[-2.895228,56.491289],[-2.894723,56.489266],[-2.928281,56.484866],[-2.950691,56.487955],[-2.972118,56.49091],[-2.974193,56.483167],[-2.95139,56.480379],[-2.945329,56.484738],[-2.919246,56.483612],[-2.897377,56.482667],[-2.886384,56.479489],[-2.883831,56.47875],[-2.857196,56.483846],[-2.842926,56.480158],[-2.83429,56.477925],[-2.832149,56.477371],[-2.833522,56.47817],[-2.840883,56.482458],[-2.818714,56.490366],[-2.81018,56.490185],[-2.805839,56.486761],[-2.803594,56.484989],[-2.827738,56.476735],[-2.838998,56.472885],[-2.868346,56.462838],[-2.887491,56.467492],[-2.889891,56.468076],[-2.902769,56.46775],[-2.914709,56.467447],[-2.949496,56.463052],[-2.961221,56.459255],[-2.975996,56.454473],[-2.97999,56.453179],[-2.986921,56.450936],[-2.98841,56.451481],[-2.989579,56.451908],[-2.99332,56.453277],[-2.997645,56.454859],[-3.029624,56.455406],[-3.040764,56.458506],[-3.038151,56.458973],[-3.030476,56.460344],[-3.056365,56.467349],[-3.055121,56.471091],[-3.048588,56.472319],[-3.048908,56.473945],[-3.049068,56.474756],[-3.055799,56.474773],[-3.055099,56.478905],[-3.0325,56.478302],[-3.030219,56.478242],[-3.019636,56.481719],[-3.019619,56.481724],[-3.017634,56.485966],[-3.023824,56.488444],[-3.006614,56.487158],[-3.00731,56.490249],[-3.021015,56.490751],[-3.019979,56.498328],[-3.012833,56.499658],[-3.002609,56.498514],[-2.989634,56.496791]]]}
}
