{
  "id": 101873731,
  "type": "Feature",
  "properties": {
    "edtf:cessation": "",
    "edtf:inception": "",
    "geom:area": 0,
    "geom:area_square_m": 0,
    "geom:bbox": "-6.519310,54.296974,-6.519310,54.296974",
    "geom:latitude": 54.296974,
    "geom:longitude": -6.51931,
    "gn:admin1_code": "NIR",
    "gn:admin2_code": "N09000002",
    "gn:asciiname": "Markethill",
    "gn:country_code": "GB",
    "gn:dem": 97,
    "gn:feature_class": "P",
    "gn:feature_code": "PPL",
    "gn:geonameid": 9319471,
    "gn:latitude": 54.29807,
    "gn:longitude": -6.52184,
    "gn:modification_date": "2016-12-04",
    "gn:name": "Markethill",
    "gn:population": 0,
    "gn:timezone": "Europe/London",
    "iso:country": "GB",
    "lbl:bbox": "-6.53931,54.276974,-6.49931,54.316974",
    "lbl:latitude": 54.296974,
    "lbl:longitude": -6.51931,
    "lbl:max_zoom": 18,
    "lbl:min_zoom": 13.5,
    "mps:latitude": 54.296974,
    "mps:longitude": -6.51931,
    "mz:hierarchy_label": 1,
    "mz:is_current": 1,
    "mz:min_zoom": 12,
    "name:eng_x_preferred": [
      "Markethill"
    ],
    "name:eus_x_preferred": [
      "Markethill"
    ],
    "name:fas_x_preferred": [
      "مارکتهیل"
    ],
    "name:fra_x_preferred": [
      "Markethill"
    ],
    "name:gla_x_preferred": [
      "Cnoc an Mhargaidh"
    ],
    "name:gle_x_preferred": [
      "Cnoc an Mhargaidh"
    ],
    "name:ita_x_preferred": [
      "Markethill"
    ],
    "name:msa_x_preferred": [
      "Markethill"
    ],
    "name:nld_x_preferred": [
      "Markethill"
    ],
    "name:pli_x_preferred": [
      "मर्केथिल्ल"
    ],
    "name:spa_x_preferred": [
      "Markethill"
    ],
    "name:zho_x_preferred": [
      "马特希尔"
    ],
    "qs:a0": "United Kingdom",
    "qs:a1": "*Armagh City and District",
    "qs:a1_lc": "N_A",
    "qs:a1r": "0Northern Ireland",
    "qs:a1r_lc": "N_A",
    "qs:adm0": "United Kingdom",
    "qs:la_lc": "*",
    "qs:level": "locality",
    "qs:loc": "Markethill",
    "qs:loc_alt": "Markethill",
    "qs:pop": 0,
    "qs:source": "RCustom EuroGlobalMap + UMZ Urban Polygons + Geonames + GeoPlanet",
    "qs:type": "buffered point",
    "src:geom": "whosonfirst",
    "src:geom_alt": [
      "quattroshapes_pg",
      "quattroshapes"
    ],
    "src:geom_via": "quattroshapes",
    "src:lbl_centroid": "mapshaper",
    "src:population": "wikidata",
    "wd:latitude": 54.2985,
    "wd:longitude": -6.5214,
    "wd:wordcount": 1045,
    "wof:belongsto": [
      1360699225,
      102191581,
      85633159,
      1880762227,
      404227473,
      136253055,
      1880762249
    ],
    "wof:breaches": [],
    "wof:concordances": {
      "gn:id": 2643026,
      "gp:id": 25541,
      "qs_pg:id": 277627,
      "wd:id": "Q1501581"
    },
    "wof:concordances_alt": {
      "gn:id": [
        9319471
      ],
      "qs_pg:id": [
        976169
      ]
    },
    "wof:country": "GB",
    "wof:created": 1765385086,
    "wof:geom_alt": [
      "quattroshapes",
      "quattroshapes_pg"
    ],
    "wof:geomhash": "229d9632dc62c9f01082831f05721dfb",
    "wof:hierarchy": [
      {
        "continent_id": 102191581,
        "country_id": 85633159,
        "county_id": 1880762249,
        "empire_id": 136253055,
        "locality_id": 101873731,
        "macrocounty_id": 1880762227,
        "macroregion_id": 404227473,
        "region_id": 1360699225
      }
    ],
    "wof:id": 101873731,
    "wof:lastmodified": 1765385086,
    "wof:name": "Markethill",
    "wof:parent_id": 1880762249,
    "wof:placetype": "locality",
    "wof:population": 1647,
    "wof:population_rank": 3,
    "wof:repo": "whosonfirst-data-admin-gb",
    "wof:superseded_by": [],
    "wof:supersedes": [
      1260008393
    ],
    "wof:tags": []
  },
  "bbox": [
    -6.51931,
    54.296974,
    -6.51931,
    54.296974
  ],
  "geometry": {"type":"Point","coordinates":[-6.51931,54.296974]}
}
