{
  "id": 1126000581,
  "type": "Feature",
  "properties": {
    "edtf:cessation": "",
    "edtf:inception": "",
    "geom:area": 0,
    "geom:area_square_m": 0,
    "geom:bbox": "-5.471970,55.589260,-5.471970,55.589260",
    "geom:latitude": 55.58926,
    "geom:longitude": -5.47197,
    "gn:country": "GB",
    "gn:fcode": "PPL",
    "gn:population": 497,
    "iso:country": "GB",
    "lbl:bbox": "-5.49197,55.56926,-5.45197,55.60926",
    "lbl:latitude": 55.58926,
    "lbl:longitude": -5.47197,
    "lbl:max_zoom": 17,
    "lbl:min_zoom": 12.5,
    "mz:hierarchy_label": 1,
    "mz:is_current": 1,
    "mz:min_zoom": 11,
    "mz:note": "Quattroshapes Point Gazetteer import 20170519",
    "name:bar_x_preferred": [
      "Carradale"
    ],
    "name:bel_x_preferred": [
      "Карадэйл"
    ],
    "name:bre_x_preferred": [
      "Càrradal"
    ],
    "name:ceb_x_preferred": [
      "Carradale"
    ],
    "name:cym_x_preferred": [
      "Carradale"
    ],
    "name:deu_x_preferred": [
      "Carradale"
    ],
    "name:eng_x_preferred": [
      "Carradale"
    ],
    "name:eus_x_preferred": [
      "Carradale"
    ],
    "name:fra_x_preferred": [
      "Carradale"
    ],
    "name:gla_x_preferred": [
      "Càradal"
    ],
    "name:gle_x_preferred": [
      "Cárradal"
    ],
    "name:gle_x_variant": [
      "Càradal"
    ],
    "name:nld_x_preferred": [
      "Carradale"
    ],
    "name:swe_x_preferred": [
      "Carradale"
    ],
    "name:ukr_x_preferred": [
      "Каррадейл"
    ],
    "name:zho_x_preferred": [
      "卡拉代尔"
    ],
    "qs_pg:aaroncc": "GB",
    "qs_pg:gn_country": "GB",
    "qs_pg:gn_fcode": "PPL",
    "qs_pg:gn_id": 2653694,
    "qs_pg:gn_pop": 497,
    "qs_pg:name": "Carradale",
    "qs_pg:name_adm0": "United Kingdom",
    "qs_pg:name_adm1": "Scotland",
    "qs_pg:photos": 454,
    "qs_pg:photos_1k": 92,
    "qs_pg:photos_9k": 2,
    "qs_pg:photos_9r": 5,
    "qs_pg:photos_all": 454,
    "qs_pg:photos_sr": 7,
    "qs_pg:pop_sr": 2,
    "qs_pg:qs_id": 290949,
    "qs_pg:qs_pg_placetype": "locality",
    "qs_pg:qs_pg_placetype_gp": "Town",
    "qs_pg:woe_adm0": 23424975,
    "qs_pg:woe_id": 15260,
    "src:geom": "qs_pg",
    "src:lbl_centroid": "qs_pg",
    "src:population": "wikidata",
    "woe:adm0_id": 23424975,
    "woe:name_adm0": "United Kingdom",
    "woe:name_adm1": "Scotland",
    "woe:placetype": "Town",
    "wof:belongsto": [
      1880772977,
      102191581,
      85633159,
      1880762047,
      404227471,
      136253055,
      1360698863
    ],
    "wof:breaches": [],
    "wof:concordances": {
      "gn:id": 2653694,
      "gp:id": 15260,
      "qs_pg:id": 290949,
      "wd:id": "Q3778473"
    },
    "wof:country": "GB",
    "wof:created": 1497299625,
    "wof:geomhash": "a9bde3f319c578d034ee9c98d3da8cad",
    "wof:hierarchy": [
      {
        "continent_id": 102191581,
        "country_id": 85633159,
        "county_id": 1360698863,
        "empire_id": 136253055,
        "locality_id": 1126000581,
        "macrocounty_id": 1880762047,
        "macroregion_id": 404227471,
        "region_id": 1880772977
      }
    ],
    "wof:id": 1126000581,
    "wof:lastmodified": 1765387480,
    "wof:name": "Carradale",
    "wof:parent_id": 1360698863,
    "wof:placetype": "locality",
    "wof:population": 578,
    "wof:population_rank": 2,
    "wof:repo": "whosonfirst-data-admin-gb",
    "wof:superseded_by": [],
    "wof:supersedes": [],
    "wof:tags": []
  },
  "bbox": [
    -5.47197,
    55.58926,
    -5.47197,
    55.58926
  ],
  "geometry": {"type":"Point","coordinates":[-5.47197,55.58926]}
}
