{
  "id": 1310440749,
  "type": "Feature",
  "properties": {
    "edtf:cessation": "",
    "edtf:inception": "",
    "geom:area": 0,
    "geom:area_square_m": 0,
    "geom:bbox": "-6.483330,54.166670,-6.483330,54.166670",
    "geom:latitude": 54.16667,
    "geom:longitude": -6.48333,
    "gn:admin1_code": "NIR",
    "gn:admin2_code": "N09000010",
    "gn:asciiname": "Belleek",
    "gn:cc2": "GB",
    "gn:country_code": "GB",
    "gn:dem": 262,
    "gn:feature_class": "P",
    "gn:feature_code": "PPL",
    "gn:geonameid": 2655965,
    "gn:latitude": 54.16667,
    "gn:longitude": -6.48333,
    "gn:modification_date": "2016-12-04",
    "gn:name": "Belleek",
    "gn:population": 0,
    "gn:timezone": "Europe/London",
    "iso:country": "GB",
    "lbl:bbox": "-6.50333,54.14667,-6.46333,54.18667",
    "lbl:max_zoom": 18,
    "lbl:min_zoom": 13.5,
    "mz:hierarchy_label": 1,
    "mz:is_current": -1,
    "mz:min_zoom": 12,
    "name:eus_x_preferred": [
      "Belleeks"
    ],
    "name:fas_x_preferred": [
      "بلیکز"
    ],
    "name:gla_x_preferred": [
      "Béal Leice"
    ],
    "name:gle_x_preferred": [
      "Béal Leice"
    ],
    "name:ita_x_preferred": [
      "Belleeks"
    ],
    "name:msa_x_preferred": [
      "Belleeks"
    ],
    "name:pli_x_preferred": [
      "बेल्लीक्स"
    ],
    "name:spa_x_preferred": [
      "Belleek"
    ],
    "name:und_x_variant": [
      "Baleek"
    ],
    "src:geom": "geonames",
    "src:population": "wikidata",
    "wof:belongsto": [
      1360699243,
      102191581,
      85633159,
      1880762239,
      404227473,
      136253055,
      1880762267
    ],
    "wof:breaches": [],
    "wof:concordances": {
      "gn:id": 2655965,
      "wk:page": "Belleeks"
    },
    "wof:country": "GB",
    "wof:created": 1765388832,
    "wof:geomhash": "983ff9b92767b3321b4d99191e5cbc6c",
    "wof:hierarchy": [
      {
        "continent_id": 102191581,
        "country_id": 85633159,
        "county_id": 1880762267,
        "empire_id": 136253055,
        "locality_id": 1310440749,
        "macrocounty_id": 1880762239,
        "macroregion_id": 404227473,
        "region_id": 1360699243
      }
    ],
    "wof:id": 1310440749,
    "wof:lastmodified": 1765388832,
    "wof:name": "Belleek",
    "wof:parent_id": 1880762267,
    "wof:placetype": "locality",
    "wof:population": 375,
    "wof:population_rank": 2,
    "wof:repo": "whosonfirst-data-admin-gb",
    "wof:superseded_by": [],
    "wof:supersedes": [],
    "wof:tags": []
  },
  "bbox": [
    -6.48333,
    54.16667,
    -6.48333,
    54.16667
  ],
  "geometry": {"type":"Point","coordinates":[-6.48333,54.16667]}
}
