{
  "id": 1126094011,
  "type": "Feature",
  "properties": {
    "edtf:cessation": "",
    "edtf:inception": "",
    "geom:area": 0,
    "geom:area_square_m": 0,
    "geom:bbox": "-2.219410,53.592450,-2.219410,53.592450",
    "geom:latitude": 53.59245,
    "geom:longitude": -2.21941,
    "gn:country": "GB",
    "gn:fcode": "PPLX",
    "gn:population": 28024,
    "iso:country": "GB",
    "lbl:bbox": "-2.22441,53.58745,-2.21441,53.59745",
    "lbl:latitude": 53.59245,
    "lbl:longitude": -2.21941,
    "lbl:max_zoom": 18,
    "mps:latitude": 53.592634,
    "mps:longitude": -2.21966,
    "mz:hierarchy_label": 1,
    "mz:is_current": -1,
    "mz:min_zoom": 15,
    "mz:note": "Quattroshapes Point Gazetteer import 20170519",
    "name:ast_x_preferred": [
      "Heywood"
    ],
    "name:azb_x_preferred": [
      "هیوود"
    ],
    "name:bel_x_preferred": [
      "Хэйвуд"
    ],
    "name:ben_x_preferred": [
      "উত্তর হেউড"
    ],
    "name:ceb_x_preferred": [
      "Heywood"
    ],
    "name:ces_x_preferred": [
      "Heywood"
    ],
    "name:cym_x_preferred": [
      "Heywood"
    ],
    "name:deu_x_preferred": [
      "Heywood"
    ],
    "name:eng_x_preferred": [
      "Monkey Town"
    ],
    "name:eng_x_variant": [
      "Heywood"
    ],
    "name:fas_x_preferred": [
      "هیوود، منچستر بزرگ"
    ],
    "name:fas_x_variant": [
      "هیوود"
    ],
    "name:fra_x_preferred": [
      "Heywood"
    ],
    "name:gle_x_preferred": [
      "Heywood"
    ],
    "name:guj_x_preferred": [
      "હેવુડ"
    ],
    "name:heb_x_preferred": [
      "הייווד"
    ],
    "name:ita_x_preferred": [
      "Heywood"
    ],
    "name:jpn_x_preferred": [
      "北ヘイウッド"
    ],
    "name:kan_x_preferred": [
      "ಹೇವುಡ್"
    ],
    "name:kor_x_preferred": [
      "헤이우드"
    ],
    "name:lit_x_preferred": [
      "Vest Helivudas"
    ],
    "name:lld_x_preferred": [
      "Heywood"
    ],
    "name:ltz_x_preferred": [
      "Heywood"
    ],
    "name:nld_x_preferred": [
      "Heywood"
    ],
    "name:nno_x_preferred": [
      "Heywood i Stor-Manchester"
    ],
    "name:nno_x_variant": [
      "Heywood"
    ],
    "name:nob_x_preferred": [
      "Heywood"
    ],
    "name:pol_x_preferred": [
      "Heywood"
    ],
    "name:por_x_preferred": [
      "Heywood"
    ],
    "name:ron_x_preferred": [
      "Heywood"
    ],
    "name:rus_x_preferred": [
      "Хейвуд"
    ],
    "name:slv_x_preferred": [
      "Heywood"
    ],
    "name:spa_x_preferred": [
      "Heywood"
    ],
    "name:swe_x_preferred": [
      "Heywood"
    ],
    "name:tam_x_preferred": [
      "ஹயவூட்"
    ],
    "name:tel_x_preferred": [
      "హే వుడ్"
    ],
    "name:ukr_x_preferred": [
      "Гейвуд"
    ],
    "name:urd_x_preferred": [
      "ہییوود"
    ],
    "name:zho_x_preferred": [
      "海伍德"
    ],
    "qs:a0": "United Kingdom",
    "qs:a1": "*Rochdale",
    "qs:a1_lc": "GB12BQ0000",
    "qs:a1r": "0England",
    "qs:a1r_lc": "GB12000000",
    "qs:adm0": "United Kingdom",
    "qs:la_lc": "*",
    "qs:level": "locality",
    "qs:loc": "Heywood",
    "qs:loc_alt": "Heywood",
    "qs:pop": 0,
    "qs:source": "RCustom EuroGlobalMap + UMZ Urban Polygons + Geonames + GeoPlanet",
    "qs:type": "buffered point",
    "qs_pg:aaroncc": "GB",
    "qs_pg:gn_country": "GB",
    "qs_pg:gn_fcode": "PPLX",
    "qs_pg:gn_id": 6691235,
    "qs_pg:gn_pop": 28024,
    "qs_pg:name": "Heywood",
    "qs_pg:photos_9r": 0,
    "qs_pg:photos_sr": 0,
    "qs_pg:pop_sr": 7,
    "qs_pg:qs_id": 1038706,
    "qs_pg:qs_pg_placetype": "neighbourhood",
    "src:geom": "qs_pg",
    "src:geom_via": "quattroshapes",
    "src:lbl_centroid": "qs_pg",
    "src:population": "wikidata",
    "wof:belongsto": [
      102191581,
      85633159,
      1880762163,
      404227469,
      101750565,
      136253055,
      1360699063,
      1880773095
    ],
    "wof:breaches": [],
    "wof:concordances": {
      "gn:id": 6691235,
      "gp:id": 23160,
      "qs_pg:id": 1038706,
      "wd:id": "Q1013970",
      "wk:page": "Heywood, Greater Manchester"
    },
    "wof:concordances_alt": {
      "gn:id": [
        6691235
      ],
      "qs_pg:id": [
        386571
      ]
    },
    "wof:country": "GB",
    "wof:created": 1497314770,
    "wof:geomhash": "85268180f52ad3c72ad5971d6d8e46b2",
    "wof:hierarchy": [
      {
        "continent_id": 102191581,
        "country_id": 85633159,
        "county_id": 1360699063,
        "empire_id": 136253055,
        "locality_id": 101750565,
        "macrocounty_id": 1880762163,
        "macroregion_id": 404227469,
        "neighbourhood_id": 1126094011,
        "region_id": 1880773095
      }
    ],
    "wof:id": 1126094011,
    "wof:lastmodified": 1765388071,
    "wof:name": "Heywood",
    "wof:parent_id": 101750565,
    "wof:placetype": "neighbourhood",
    "wof:population": 28205,
    "wof:population_rank": 7,
    "wof:repo": "whosonfirst-data-admin-gb",
    "wof:superseded_by": [],
    "wof:supersedes": [
      1360791041
    ],
    "wof:tags": []
  },
  "bbox": [
    -2.21941,
    53.59245,
    -2.21941,
    53.59245
  ],
  "geometry": {"type":"Point","coordinates":[-2.21941,53.59245]}
}
