{
  "id": 1360804457,
  "type": "Feature",
  "properties": {
    "edtf:cessation": "",
    "edtf:inception": "",
    "geom:area": 0,
    "geom:area_square_m": 0,
    "geom:bbox": "-2.059442,54.027536,-2.059442,54.027536",
    "geom:latitude": 54.027536,
    "geom:longitude": -2.059442,
    "gn:country": null,
    "iso:country": "GB",
    "lbl:bbox": "-2.064442,54.022536,-2.054442,54.032536",
    "lbl:latitude": 54.027536,
    "lbl:longitude": -2.059442,
    "lbl:max_zoom": 18,
    "mz:hierarchy_label": 1,
    "mz:is_current": 1,
    "mz:min_zoom": 15,
    "mz:note": "Quattroshapes Point Gazetteer import 20170519",
    "name:azb_x_preferred": [
      "هتون"
    ],
    "name:ben_x_preferred": [
      "হেট্টন"
    ],
    "name:bre_x_preferred": [
      "Hetton"
    ],
    "name:cat_x_preferred": [
      "Hetton"
    ],
    "name:ceb_x_preferred": [
      "Hetton"
    ],
    "name:ces_x_preferred": [
      "Hetton"
    ],
    "name:cos_x_preferred": [
      "Hetton"
    ],
    "name:cym_x_preferred": [
      "Hetton"
    ],
    "name:dan_x_preferred": [
      "Hetton"
    ],
    "name:deu_x_preferred": [
      "Hetton"
    ],
    "name:eng_x_preferred": [
      "Hetton"
    ],
    "name:est_x_preferred": [
      "Hetton"
    ],
    "name:fas_x_preferred": [
      "هتون"
    ],
    "name:fin_x_preferred": [
      "Hetton"
    ],
    "name:fra_x_preferred": [
      "Hetton"
    ],
    "name:gle_x_preferred": [
      "Hetton"
    ],
    "name:glg_x_preferred": [
      "Hetton"
    ],
    "name:guj_x_preferred": [
      "હેટન"
    ],
    "name:hrv_x_preferred": [
      "Hetton"
    ],
    "name:hun_x_preferred": [
      "Hetton"
    ],
    "name:ind_x_preferred": [
      "Hetton"
    ],
    "name:ita_x_preferred": [
      "Hetton"
    ],
    "name:jpn_x_preferred": [
      "ヘットン"
    ],
    "name:kan_x_preferred": [
      "ಹೆಟ್ಟನ್"
    ],
    "name:kor_x_preferred": [
      "헤턴"
    ],
    "name:lav_x_preferred": [
      "Hetton"
    ],
    "name:lit_x_preferred": [
      "Hetonas"
    ],
    "name:lld_x_preferred": [
      "Hetton"
    ],
    "name:ltz_x_preferred": [
      "Hetton"
    ],
    "name:nld_x_preferred": [
      "Hetton"
    ],
    "name:nrm_x_preferred": [
      "Hetton"
    ],
    "name:oci_x_preferred": [
      "Hetton"
    ],
    "name:pol_x_preferred": [
      "Hetton"
    ],
    "name:por_x_preferred": [
      "Hetton"
    ],
    "name:roh_x_preferred": [
      "Hetton"
    ],
    "name:ron_x_preferred": [
      "Hetton"
    ],
    "name:rus_x_preferred": [
      "Хеттон"
    ],
    "name:slk_x_preferred": [
      "Hetton"
    ],
    "name:slv_x_preferred": [
      "Hetton"
    ],
    "name:spa_x_preferred": [
      "Hetton"
    ],
    "name:swe_x_preferred": [
      "Hetton"
    ],
    "name:tah_x_preferred": [
      "Hetton"
    ],
    "name:tam_x_preferred": [
      "ஹார்ரோகடே"
    ],
    "name:tel_x_preferred": [
      "హేట్టన్"
    ],
    "name:tur_x_preferred": [
      "Hetton"
    ],
    "name:urd_x_preferred": [
      "ہیتٹن"
    ],
    "qs_pg:aaroncc": "GB",
    "qs_pg:gn_country": null,
    "qs_pg:name": "Hetton",
    "qs_pg:name_adm0": "United Kingdom",
    "qs_pg:name_adm1": "England",
    "qs_pg:photos": 57,
    "qs_pg:photos_1k": 12,
    "qs_pg:photos_9k": 1,
    "qs_pg:photos_9r": 2,
    "qs_pg:photos_all": 57,
    "qs_pg:photos_sr": 2,
    "qs_pg:pop_sr": 0,
    "qs_pg:qs_id": 976113,
    "qs_pg:qs_pg_placetype": "locality",
    "qs_pg:qs_pg_placetype_gp": "Town",
    "qs_pg:woe_adm0": 23424975,
    "qs_pg:woe_id": 23126,
    "src:geom": "qs_pg",
    "src:lbl_centroid": "qs_pg",
    "src:population": "wikidata",
    "woe:adm0_id": 23424975,
    "woe:name_adm0": "United Kingdom",
    "woe:name_adm1": "England",
    "woe:placetype": "Town",
    "wof:belongsto": [
      1880772891,
      102191581,
      1880762011,
      404442195,
      85633159,
      404227469,
      1360757599,
      136253055,
      1360698753
    ],
    "wof:breaches": [],
    "wof:concordances": {
      "gp:id": 23126,
      "qs_pg:id": 976113,
      "wd:id": "Q1898958"
    },
    "wof:country": "GB",
    "wof:created": 1497302592,
    "wof:geomhash": "f0a72db03f15c55388bf5d4ab3c19532",
    "wof:hierarchy": [
      {
        "continent_id": 102191581,
        "country_id": 85633159,
        "county_id": 1360698753,
        "empire_id": 136253055,
        "localadmin_id": 404442195,
        "locality_id": 1360757599,
        "macrocounty_id": 1880762011,
        "macroregion_id": 404227469,
        "neighbourhood_id": 1360804457,
        "region_id": 1880772891
      }
    ],
    "wof:id": 1360804457,
    "wof:lastmodified": 1765390288,
    "wof:name": "Hetton",
    "wof:parent_id": 1360757599,
    "wof:placetype": "neighbourhood",
    "wof:population": 155,
    "wof:population_rank": 1,
    "wof:repo": "whosonfirst-data-admin-gb",
    "wof:superseded_by": [],
    "wof:supersedes": [
      1126048737
    ],
    "wof:tags": []
  },
  "bbox": [
    -2.059442,
    54.027536,
    -2.059442,
    54.027536
  ],
  "geometry": {"type":"Point","coordinates":[-2.059442,54.027536]}
}
