{
  "id": 1125786491,
  "type": "Feature",
  "properties": {
    "edtf:cessation": "",
    "edtf:inception": "",
    "geom:area": 0,
    "geom:area_square_m": 0,
    "geom:bbox": "-3.016873,55.935945,-3.016873,55.935945",
    "geom:latitude": 55.935945,
    "geom:longitude": -3.016873,
    "gn:country": null,
    "iso:country": "GB",
    "lbl:bbox": "-3.036873,55.915945,-2.996873,55.955945",
    "lbl:latitude": 55.935945,
    "lbl:longitude": -3.016873,
    "lbl:max_zoom": 18,
    "lbl:min_zoom": 13.5,
    "mz:hierarchy_label": 1,
    "mz:is_current": 1,
    "mz:min_zoom": 12,
    "mz:note": "Quattroshapes Point Gazetteer import 20170519",
    "name:deu_x_preferred": [
      "Wallyford"
    ],
    "name:eng_x_preferred": [
      "Wallyford"
    ],
    "name:eus_x_preferred": [
      "Wallyford"
    ],
    "name:fra_x_preferred": [
      "Wallyford"
    ],
    "name:gla_x_preferred": [
      "Wallyford"
    ],
    "name:gle_x_preferred": [
      "Wallyford"
    ],
    "name:ita_x_preferred": [
      "Wallyford"
    ],
    "name:nld_x_preferred": [
      "Wallyford"
    ],
    "name:rus_x_preferred": [
      "Уэллифорд"
    ],
    "name:spa_x_preferred": [
      "Wallyford"
    ],
    "name:swe_x_preferred": [
      "Wallyford"
    ],
    "name:zho_x_preferred": [
      "沃利福德"
    ],
    "qs_pg:aaroncc": "GB",
    "qs_pg:gn_country": null,
    "qs_pg:name": "Wallyford",
    "qs_pg:name_adm0": "United Kingdom",
    "qs_pg:name_adm1": "Scotland",
    "qs_pg:photos": 337,
    "qs_pg:photos_1k": 68,
    "qs_pg:photos_9k": 1,
    "qs_pg:photos_9r": 5,
    "qs_pg:photos_all": 337,
    "qs_pg:photos_sr": 5,
    "qs_pg:pop_sr": 0,
    "qs_pg:qs_id": 1079737,
    "qs_pg:qs_pg_placetype": "locality",
    "qs_pg:qs_pg_placetype_gp": "Town",
    "qs_pg:woe_adm0": 23424975,
    "qs_pg:woe_id": 39035,
    "src:geom": "qs_pg",
    "src:lbl_centroid": "qs_pg",
    "src:population": "wikidata",
    "woe:adm0_id": 23424975,
    "woe:name_adm0": "United Kingdom",
    "woe:name_adm1": "Scotland",
    "woe:placetype": "Town",
    "wof:belongsto": [
      1880773107,
      102191581,
      85633159,
      1880762091,
      404227471,
      136253055,
      1360699017
    ],
    "wof:breaches": [],
    "wof:concordances": {
      "gp:id": 39035,
      "qs_pg:id": 1079737,
      "wd:id": "Q4017844"
    },
    "wof:country": "GB",
    "wof:created": 1497290701,
    "wof:geomhash": "5362d17952962dfb692ce0286046bfe8",
    "wof:hierarchy": [
      {
        "continent_id": 102191581,
        "country_id": 85633159,
        "county_id": 1360699017,
        "empire_id": 136253055,
        "locality_id": 1125786491,
        "macrocounty_id": 1880762091,
        "macroregion_id": 404227471,
        "region_id": 1880773107
      }
    ],
    "wof:id": 1125786491,
    "wof:lastmodified": 1765385309,
    "wof:name": "Wallyford",
    "wof:parent_id": 1360699017,
    "wof:placetype": "locality",
    "wof:population": 3260,
    "wof:population_rank": 4,
    "wof:repo": "whosonfirst-data-admin-gb",
    "wof:superseded_by": [],
    "wof:supersedes": [],
    "wof:tags": []
  },
  "bbox": [
    -3.016873,
    55.935945,
    -3.016873,
    55.935945
  ],
  "geometry": {"type":"Point","coordinates":[-3.016873,55.935945]}
}
