{
  "id": 1360795837,
  "type": "Feature",
  "properties": {
    "edtf:cessation": "",
    "edtf:inception": "",
    "geom:area": 0,
    "geom:area_square_m": 0,
    "geom:bbox": "-0.995249,51.397077,-0.995249,51.397077",
    "geom:latitude": 51.397077,
    "geom:longitude": -0.995249,
    "gn:country": null,
    "iso:country": "GB",
    "lbl:bbox": "-1.000249,51.392077,-0.990249,51.402077",
    "lbl:latitude": 51.397077,
    "lbl:longitude": -0.995249,
    "lbl:max_zoom": 18,
    "mz:hierarchy_label": 1,
    "mz:is_current": 1,
    "mz:min_zoom": 15,
    "mz:note": "Quattroshapes Point Gazetteer import 20170519",
    "name:ara_x_preferred": [
      "غرزلي"
    ],
    "name:arz_x_preferred": [
      "جرزلى"
    ],
    "name:cym_x_preferred": [
      "Grazeley"
    ],
    "name:eng_x_preferred": [
      "Grazeley"
    ],
    "name:fra_x_preferred": [
      "Grazeley"
    ],
    "name:gle_x_preferred": [
      "Grazeley"
    ],
    "name:nld_x_preferred": [
      "Grazeley"
    ],
    "name:pol_x_preferred": [
      "Grazeley"
    ],
    "qs_pg:aaroncc": "GB",
    "qs_pg:gn_country": null,
    "qs_pg:name": "Grazeley",
    "qs_pg:name_adm0": "United Kingdom",
    "qs_pg:name_adm1": "England",
    "qs_pg:photos": 77,
    "qs_pg:photos_1k": 16,
    "qs_pg:photos_9k": 1,
    "qs_pg:photos_9r": 3,
    "qs_pg:photos_all": 77,
    "qs_pg:photos_sr": 3,
    "qs_pg:pop_sr": 0,
    "qs_pg:qs_id": 1328346,
    "qs_pg:qs_pg_placetype": "locality",
    "qs_pg:qs_pg_placetype_gp": "Town",
    "qs_pg:woe_adm0": 23424975,
    "qs_pg:woe_id": 21540,
    "src:geom": "qs_pg",
    "src:lbl_centroid": "qs_pg",
    "src:population": "wikidata",
    "woe:adm0_id": 23424975,
    "woe:name_adm0": "United Kingdom",
    "woe:name_adm1": "England",
    "woe:placetype": "Town",
    "wof:belongsto": [
      1880772969,
      102191581,
      1880762165,
      404431865,
      85633159,
      404227469,
      1126031037,
      136253055,
      1360698967
    ],
    "wof:breaches": [],
    "wof:concordances": {
      "gp:id": 21540,
      "qs_pg:id": 1328346,
      "wd:id": "Q5598467"
    },
    "wof:country": "GB",
    "wof:created": 1497294435,
    "wof:geomhash": "c871e4d778fefff4d722189e3ff93d1e",
    "wof:hierarchy": [
      {
        "continent_id": 102191581,
        "country_id": 85633159,
        "county_id": 1360698967,
        "empire_id": 136253055,
        "localadmin_id": 404431865,
        "locality_id": 1126031037,
        "macrocounty_id": 1880762165,
        "macroregion_id": 404227469,
        "neighbourhood_id": 1360795837,
        "region_id": 1880772969
      }
    ],
    "wof:id": 1360795837,
    "wof:lastmodified": 1765389731,
    "wof:name": "Grazeley",
    "wof:parent_id": 1126031037,
    "wof:placetype": "neighbourhood",
    "wof:population": 280,
    "wof:population_rank": 2,
    "wof:repo": "whosonfirst-data-admin-gb",
    "wof:superseded_by": [],
    "wof:supersedes": [
      1125873713
    ],
    "wof:tags": []
  },
  "bbox": [
    -0.995249,
    51.397077,
    -0.995249,
    51.397077
  ],
  "geometry": {"type":"Point","coordinates":[-0.995249,51.397077]}
}
