{
  "id": 85790249,
  "type": "Feature",
  "properties": {
    "edtf:cessation": "",
    "edtf:inception": "",
    "geom:area": 0.0006105927660000202,
    "geom:area_square_m": 4693188.714963,
    "geom:bbox": "0.082397,51.553166,0.121910,51.581337",
    "geom:latitude": 51.566681930096244,
    "geom:longitude": 0.09962535938676575,
    "gn:latitude": 51.56404,
    "gn:longitude": 0.09631,
    "iso:country": "GB",
    "lbl:latitude": 51.570718,
    "lbl:longitude": 0.098673,
    "lbl:max_zoom": 18,
    "mps:latitude": 51.565367,
    "mps:longitude": 0.099924,
    "mz:hierarchy_label": 1,
    "mz:is_current": -1,
    "mz:is_funky": 0,
    "mz:is_hard_boundary": 0,
    "mz:is_landuse_aoi": 0,
    "mz:is_official": 0,
    "mz:max_zoom": 18,
    "mz:min_zoom": 14,
    "mz:tier_locality": 7,
    "mz:tier_metro": 1,
    "name:azb_x_preferred": [
      "سون کینقز"
    ],
    "name:eng_x_preferred": [
      "Seven Kings"
    ],
    "name:epo_x_preferred": [
      "Sep Reĝoj"
    ],
    "name:fas_x_preferred": [
      "سون کینگز"
    ],
    "name:fra_x_preferred": [
      "Seven Kings"
    ],
    "name:gle_x_preferred": [
      "Seven Kings"
    ],
    "name:hin_x_preferred": [
      "सेवन किंग्स"
    ],
    "name:ita_x_preferred": [
      "Seven Kings"
    ],
    "name:nld_x_preferred": [
      "Seven Kings"
    ],
    "name:pol_x_preferred": [
      "Seven Kings"
    ],
    "name:urd_x_preferred": [
      "سیون کنگز"
    ],
    "name:zho_x_preferred": [
      "七國王"
    ],
    "qs:gn_adm0_cc": "GB",
    "qs:gn_fcode": "PPLX",
    "qs:gn_local": 2643743,
    "qs:gn_namadm1": "ENG",
    "qs:gn_name": "Seven Kings",
    "qs:local_max": 40697,
    "qs:local_sum": 1675717,
    "qs:localhoods": 643,
    "qs:name": "Seven Kings",
    "qs:name_adm0": "United Kingdom",
    "qs:name_adm1": "England",
    "qs:name_adm2": "Greater London",
    "qs:name_lau": "London Borough of Redbridge",
    "qs:name_local": "London",
    "qs:photo_max": 83,
    "qs:photo_sum": 670,
    "qs:placetype": "Suburb",
    "qs:quad_count": 66,
    "qs:woe_adm0": 23424975,
    "qs:woe_adm1": 24554868,
    "qs:woe_adm2": 23416974,
    "qs:woe_funk": "Parented by a neighborhood",
    "qs:woe_lau": 12695835,
    "qs:woe_local": 44418,
    "qs:woe_ver": "7.10.0",
    "src:geom": "quattroshapes",
    "src:geom_alt": [
      "quattroshapes_pg"
    ],
    "src:lbl_centroid": "mz",
    "src:population": "wikidata",
    "wd:wordcount": 351,
    "wof:belongsto": [
      1880762729,
      102191581,
      1880762179,
      85633159,
      404227469,
      101750367,
      136253055,
      1158857291,
      1880771825
    ],
    "wof:breaches": [],
    "wof:concordances": {
      "gn:id": 2638188,
      "gp:id": 34390,
      "qs_pg:id": 1165421,
      "wd:id": "Q957351",
      "wk:page": "Seven Kings"
    },
    "wof:country": "GB",
    "wof:created": 1765391169,
    "wof:geom_alt": [
      "quattroshapes_pg"
    ],
    "wof:geomhash": "6465bc6203dddb91b54656cd2ce993cc",
    "wof:hierarchy": [
      {
        "borough_id": 1158857291,
        "continent_id": 102191581,
        "country_id": 85633159,
        "county_id": 1880771825,
        "empire_id": 136253055,
        "locality_id": 101750367,
        "macrocounty_id": 1880762179,
        "macroregion_id": 404227469,
        "neighbourhood_id": 85790249,
        "region_id": 1880762729
      }
    ],
    "wof:id": 85790249,
    "wof:lang": [
      "eng"
    ],
    "wof:lastmodified": 1765391169,
    "wof:name": "Seven Kings",
    "wof:parent_id": 1158857291,
    "wof:placetype": "neighbourhood",
    "wof:population": 15164,
    "wof:population_rank": 6,
    "wof:repo": "whosonfirst-data-admin-gb",
    "wof:superseded_by": [],
    "wof:supersedes": [],
    "wof:tags": []
  },
  "bbox": [
    0.082397,
    51.553166,
    0.12191,
    51.581337
  ],
  "geometry": {"type":"Polygon","coordinates":[[[0.101624,51.580483],[0.102154,51.57963],[0.10437,51.57963],[0.104792,51.57963],[0.105322,51.57707],[0.109863,51.57707],[0.115356,51.57707],[0.115356,51.57707],[0.116417,51.578776],[0.119789,51.578776],[0.12085,51.57707],[0.12085,51.57707],[0.12085,51.577069],[0.12191,51.575362],[0.12085,51.573656],[0.12085,51.573656],[0.115356,51.573656],[0.115356,51.570241],[0.115356,51.570241],[0.109863,51.570241],[0.109863,51.568358],[0.109863,51.566827],[0.109863,51.563412],[0.109863,51.559997],[0.109863,51.558466],[0.110761,51.557023],[0.110815,51.556582],[0.109863,51.556582],[0.10437,51.556582],[0.098877,51.556582],[0.098877,51.553167],[0.098877,51.553167],[0.093384,51.553167],[0.087891,51.553167],[0.085767,51.553167],[0.085767,51.553166],[0.084521,51.553166],[0.082397,51.556582],[0.082397,51.556582],[0.082397,51.558466],[0.082397,51.559997],[0.087891,51.559997],[0.087891,51.563412],[0.082397,51.563412],[0.082397,51.564944],[0.082397,51.565296],[0.082397,51.566827],[0.087891,51.566827],[0.087891,51.570241],[0.087891,51.570241],[0.092432,51.570241],[0.092878,51.572395],[0.093384,51.572802],[0.094351,51.57358],[0.094336,51.573656],[0.093384,51.573656],[0.093384,51.57707],[0.093384,51.578601],[0.093384,51.580483],[0.093384,51.580483],[0.097925,51.580483],[0.098455,51.581337],[0.098877,51.581337],[0.101093,51.581337],[0.101624,51.580483]]]}
}
