{
  "id": 85785551,
  "type": "Feature",
  "properties": {
    "edtf:cessation": "",
    "edtf:inception": "",
    "geom:area": 0.00025267838900000343,
    "geom:area_square_m": 1949122.758729,
    "geom:bbox": "-0.038452,51.394752,-0.014457,51.410633",
    "geom:latitude": 51.403808012383045,
    "geom:longitude": -0.025864354685685337,
    "gn:latitude": 51.40878,
    "gn:longitude": -0.02526,
    "gn:population": 82000,
    "iso:country": "GB",
    "lbl:latitude": 51.408513,
    "lbl:longitude": -0.022897,
    "lbl:max_zoom": 18,
    "mps:latitude": 51.404003,
    "mps:longitude": -0.024893,
    "mz:hierarchy_label": 1,
    "mz:is_current": 1,
    "mz:is_funky": 0,
    "mz:is_hard_boundary": 0,
    "mz:is_landuse_aoi": 0,
    "mz:is_official": 0,
    "mz:max_zoom": 18,
    "mz:min_zoom": 13,
    "mz:tier_locality": 7,
    "mz:tier_metro": 1,
    "name:ara_x_preferred": [
      "بكنهام"
    ],
    "name:azb_x_preferred": [
      "بکنهام"
    ],
    "name:bel_x_preferred": [
      "Бэкенхэм"
    ],
    "name:bre_x_preferred": [
      "Beckenham"
    ],
    "name:cat_x_preferred": [
      "Beckenham"
    ],
    "name:ceb_x_preferred": [
      "Beckenham"
    ],
    "name:ces_x_preferred": [
      "Beckenham"
    ],
    "name:cym_x_preferred": [
      "Beckenham"
    ],
    "name:deu_x_preferred": [
      "Beckenham"
    ],
    "name:eng_x_preferred": [
      "Beckenham"
    ],
    "name:fas_x_preferred": [
      "بکنهام"
    ],
    "name:fra_x_preferred": [
      "Beckenham"
    ],
    "name:gle_x_preferred": [
      "Beckenham"
    ],
    "name:heb_x_preferred": [
      "בקנהאם"
    ],
    "name:hin_x_preferred": [
      "बेकेनहम"
    ],
    "name:ita_x_preferred": [
      "Beckenham"
    ],
    "name:jpn_x_preferred": [
      "ベケナム"
    ],
    "name:jpn_x_variant": [
      "ベックナム"
    ],
    "name:kor_x_preferred": [
      "베켄햄"
    ],
    "name:msa_x_preferred": [
      "Beckenham"
    ],
    "name:nep_x_preferred": [
      "बेकेनह्याम"
    ],
    "name:nld_x_preferred": [
      "Beckenham"
    ],
    "name:nob_x_preferred": [
      "Beckenham"
    ],
    "name:nor_x_preferred": [
      "Beckenham"
    ],
    "name:oci_x_preferred": [
      "Beckenham"
    ],
    "name:pol_x_preferred": [
      "Beckenham"
    ],
    "name:por_x_preferred": [
      "Beckenham"
    ],
    "name:rus_x_preferred": [
      "Бекенхэм"
    ],
    "name:sco_x_preferred": [
      "Beckenham"
    ],
    "name:slv_x_preferred": [
      "Beckenham"
    ],
    "name:swe_x_preferred": [
      "Beckenham"
    ],
    "name:urd_x_preferred": [
      "بیکنہیم، لندن"
    ],
    "name:urd_x_variant": [
      "بیکنہیم"
    ],
    "name:vie_x_preferred": [
      "Beckenham"
    ],
    "name:zho_x_preferred": [
      "貝肯翰姆"
    ],
    "name:zho_x_variant": [
      "柏肯",
      "贝肯纳姆"
    ],
    "qs:gn_adm0_cc": "GB",
    "qs:gn_fcode": "PPL",
    "qs:gn_local": 2643743,
    "qs:gn_namadm1": "ENG",
    "qs:gn_name": "Beckenham",
    "qs:local_max": 40697,
    "qs:local_sum": 1675717,
    "qs:localhoods": 643,
    "qs:name": "Beckenham",
    "qs:name_adm0": "United Kingdom",
    "qs:name_adm1": "England",
    "qs:name_adm2": "Greater London",
    "qs:name_lau": "London Borough of Bromley",
    "qs:name_local": "London",
    "qs:photo_max": 299,
    "qs:photo_sum": 1858,
    "qs:placetype": "Suburb",
    "qs:quad_count": 43,
    "qs:woe_adm0": 23424975,
    "qs:woe_adm1": 24554868,
    "qs:woe_adm2": 23416974,
    "qs:woe_funk": "Grouping neighborhood",
    "qs:woe_lau": 12695824,
    "qs:woe_local": 44418,
    "qs:woe_ver": "7.10.0",
    "src:geom": "quattroshapes",
    "src:geom_alt": [
      "quattroshapes_pg"
    ],
    "src:lbl_centroid": "mz",
    "src:population": "wikidata",
    "wof:belongsto": [
      1880762729,
      102191581,
      1880762179,
      85633159,
      404227469,
      101750367,
      136253055,
      1158857297,
      1880771825
    ],
    "wof:breaches": [],
    "wof:concordances": {
      "gn:id": 2656065,
      "gp:id": 12185,
      "qs_pg:id": 239673,
      "wd:id": "Q123372",
      "wk:page": "Beckenham"
    },
    "wof:country": "GB",
    "wof:created": 1765390964,
    "wof:geom_alt": [
      "quattroshapes_pg"
    ],
    "wof:geomhash": "1651b820be3a07826bdd3790c06d8b18",
    "wof:hierarchy": [
      {
        "borough_id": 1158857297,
        "continent_id": 102191581,
        "country_id": 85633159,
        "county_id": 1880771825,
        "empire_id": 136253055,
        "locality_id": 101750367,
        "macrocounty_id": 1880762179,
        "macroregion_id": 404227469,
        "neighbourhood_id": 85785551,
        "region_id": 1880762729
      }
    ],
    "wof:id": 85785551,
    "wof:lang": [
      "eng"
    ],
    "wof:lastmodified": 1765390964,
    "wof:name": "Beckenham",
    "wof:parent_id": 1158857297,
    "wof:placetype": "neighbourhood",
    "wof:population": 46844,
    "wof:population_rank": 7,
    "wof:repo": "whosonfirst-data-admin-gb",
    "wof:superseded_by": [],
    "wof:supersedes": [],
    "wof:tags": []
  },
  "bbox": [
    -0.038452,
    51.394752,
    -0.014457,
    51.410633
  ],
  "geometry": {"type":"Polygon","coordinates":[[[-0.019111,51.409486],[-0.018396,51.409104],[-0.017203,51.409486],[-0.016479,51.409718],[-0.016238,51.409486],[-0.015526,51.406059],[-0.016479,51.40453],[-0.016479,51.404162],[-0.015526,51.402633],[-0.014457,51.400919],[-0.014457,51.400919],[-0.015526,51.399206],[-0.01606,51.398349],[-0.016479,51.398349],[-0.018692,51.398349],[-0.019226,51.397492],[-0.02083,51.394921],[-0.021147,51.394752],[-0.021973,51.395546],[-0.022214,51.395778],[-0.027466,51.395778],[-0.027466,51.395778],[-0.027466,51.398974],[-0.027707,51.399206],[-0.032959,51.399206],[-0.032959,51.399206],[-0.032959,51.401104],[-0.033913,51.402633],[-0.037498,51.402633],[-0.037498,51.402633],[-0.038452,51.402633],[-0.038452,51.404162],[-0.038452,51.40453],[-0.038452,51.406059],[-0.038452,51.407773],[-0.038452,51.409486],[-0.033913,51.409486],[-0.032959,51.409486],[-0.030212,51.409486],[-0.029678,51.410342],[-0.028477,51.410342],[-0.028477,51.410342],[-0.027466,51.410342],[-0.026331,51.410342],[-0.026093,51.410342],[-0.026093,51.40996],[-0.026093,51.409486],[-0.024719,51.409486],[-0.024242,51.409486],[-0.021973,51.409486],[-0.021257,51.410633],[-0.019111,51.409486]]]}
}
