{
  "id": 1360791005,
  "type": "Feature",
  "properties": {
    "edtf:cessation": "",
    "edtf:inception": "",
    "geom:area": 0,
    "geom:area_square_m": 0,
    "geom:bbox": "-1.453415,53.598446,-1.453415,53.598446",
    "geom:latitude": 53.598446,
    "geom:longitude": -1.453415,
    "gn:population": 9584,
    "iso:country": "GB",
    "lbl:bbox": "-1.458415,53.593446,-1.448415,53.603446",
    "lbl:latitude": 53.598446,
    "lbl:longitude": -1.453414,
    "lbl:max_zoom": 18,
    "mps:latitude": 53.598446,
    "mps:longitude": -1.453414,
    "mz:hierarchy_label": 1,
    "mz:is_current": 1,
    "mz:min_zoom": 15,
    "name:ceb_x_preferred": [
      "Royston"
    ],
    "name:deu_x_preferred": [
      "Royston"
    ],
    "name:eng_x_preferred": [
      "Royston"
    ],
    "name:fas_x_preferred": [
      "رویستون"
    ],
    "name:fra_x_preferred": [
      "Royston"
    ],
    "name:gle_x_preferred": [
      "Royston"
    ],
    "name:ita_x_preferred": [
      "Royston"
    ],
    "name:nld_x_preferred": [
      "Royston"
    ],
    "name:pol_x_preferred": [
      "Royston"
    ],
    "name:spa_x_preferred": [
      "Royston"
    ],
    "name:swe_x_preferred": [
      "Royston"
    ],
    "qs:a0": "United Kingdom",
    "qs:a1": "*Barnsley",
    "qs:a1_lc": "GB12CC0000",
    "qs:a1r": "0England",
    "qs:a1r_lc": "GB12000000",
    "qs:adm0": "United Kingdom",
    "qs:la_lc": "*",
    "qs:level": "locality",
    "qs:loc": "Royston",
    "qs:loc_alt": "Royston",
    "qs:pop": 0,
    "qs:source": "RCustom EuroGlobalMap + UMZ Urban Polygons + Geonames + GeoPlanet",
    "qs:type": "buffered point",
    "src:geom": "whosonfirst",
    "src:geom_alt": [
      "quattroshapes_pg",
      "quattroshapes"
    ],
    "src:geom_via": "quattroshapes",
    "src:lbl_centroid": "mapshaper",
    "src:population": "wikidata",
    "wof:belongsto": [
      1880772963,
      102191581,
      85633159,
      1880761997,
      404227469,
      1125860113,
      136253055,
      1360699091,
      101750543
    ],
    "wof:breaches": [],
    "wof:concordances": {
      "gn:id": 2639017,
      "gp:id": 33701,
      "qs_pg:id": 1071529,
      "wd:id": "Q1617071",
      "wk:page": "Royston, South Yorkshire"
    },
    "wof:country": "GB",
    "wof:created": 1765389446,
    "wof:geomhash": "59ae26456fbff440a4f6702a006e19dd",
    "wof:hierarchy": [
      {
        "continent_id": 102191581,
        "country_id": 85633159,
        "county_id": 1360699091,
        "empire_id": 136253055,
        "locality_id": 1125860113,
        "macrocounty_id": 1880761997,
        "macroregion_id": 404227469,
        "neighbourhood_id": 1360791005,
        "region_id": 1880772963
      },
      {
        "continent_id": 102191581,
        "country_id": 85633159,
        "county_id": 1360699091,
        "empire_id": 136253055,
        "locality_id": 101750543,
        "macrocounty_id": 1880761997,
        "macroregion_id": 404227469,
        "neighbourhood_id": 1360791005,
        "region_id": 1880772963
      }
    ],
    "wof:id": 1360791005,
    "wof:lastmodified": 1765389446,
    "wof:name": "Royston",
    "wof:parent_id": -1,
    "wof:placetype": "neighbourhood",
    "wof:population": 10728,
    "wof:population_rank": 6,
    "wof:repo": "whosonfirst-data-admin-gb",
    "wof:superseded_by": [],
    "wof:supersedes": [
      101872135
    ],
    "wof:tags": []
  },
  "bbox": [
    -1.453415,
    53.598446,
    -1.453415,
    53.598446
  ],
  "geometry": {"type":"Point","coordinates":[-1.453415,53.598446]}
}
