{
  "id": 1126009331,
  "type": "Feature",
  "properties": {
    "edtf:cessation": "",
    "edtf:inception": "",
    "geom:area": 0,
    "geom:area_square_m": 0,
    "geom:bbox": "-3.958414,56.211573,-3.958414,56.211573",
    "geom:latitude": 56.2115725,
    "geom:longitude": -3.958414,
    "gn:country": null,
    "iso:country": "GB",
    "lbl:bbox": "-3.978414,56.1915725,-3.938414,56.2315725",
    "lbl:latitude": 56.211573,
    "lbl:longitude": -3.958414,
    "lbl:max_zoom": 18,
    "lbl:min_zoom": 13.5,
    "mz:hierarchy_label": 1,
    "mz:is_current": 1,
    "mz:min_zoom": 12,
    "mz:note": "Quattroshapes Point Gazetteer import 20170519",
    "name:eng_x_preferred": [
      "Ashfield"
    ],
    "name:eus_x_preferred": [
      "Ashfield"
    ],
    "name:gle_x_preferred": [
      "Achadh an Uinnsinn"
    ],
    "qs_pg:aaroncc": "GB",
    "qs_pg:gn_country": null,
    "qs_pg:name": "Ashfield",
    "qs_pg:name_adm0": "United Kingdom",
    "qs_pg:name_adm1": "Scotland",
    "qs_pg:photos": 12,
    "qs_pg:photos_1k": 2,
    "qs_pg:photos_9k": 1,
    "qs_pg:photos_9r": 1,
    "qs_pg:photos_all": 12,
    "qs_pg:photos_sr": 1,
    "qs_pg:pop_sr": 0,
    "qs_pg:qs_id": 1324595,
    "qs_pg:qs_pg_placetype": "locality",
    "qs_pg:qs_pg_placetype_gp": "Town",
    "qs_pg:woe_adm0": 23424975,
    "qs_pg:woe_id": 11154,
    "src:geom": "qs_pg",
    "src:lbl_centroid": "qs_pg",
    "src:population": "wikidata",
    "woe:adm0_id": 23424975,
    "woe:name_adm0": "United Kingdom",
    "woe:name_adm1": "Scotland",
    "woe:placetype": "Town",
    "wof:belongsto": [
      1880762131,
      1360699003
    ],
    "wof:breaches": [],
    "wof:concordances": {
      "gp:id": 11154,
      "qs_pg:id": 1324595,
      "wd:id": "Q4804953"
    },
    "wof:country": "GB",
    "wof:created": 1497300171,
    "wof:geomhash": "cebc1a471fc7fcc667a748cff744271c",
    "wof:hierarchy": [
      {
        "continent_id": -1,
        "country_id": -1,
        "county_id": 1360699003,
        "locality_id": 1126009331,
        "macrocounty_id": 1880762131,
        "region_id": -1
      }
    ],
    "wof:id": 1126009331,
    "wof:lastmodified": 1765387538,
    "wof:name": "Ashfield",
    "wof:parent_id": 1360699003,
    "wof:placetype": "locality",
    "wof:population": 139,
    "wof:population_rank": 1,
    "wof:repo": "whosonfirst-data-admin-gb",
    "wof:superseded_by": [],
    "wof:supersedes": [],
    "wof:tags": []
  },
  "bbox": [
    -3.958414,
    56.2115725,
    -3.958414,
    56.2115725
  ],
  "geometry": {"type":"Point","coordinates":[-3.958414,56.2115725]}
}
