{
  "id": 1360712467,
  "type": "Feature",
  "properties": {
    "edtf:cessation": "",
    "edtf:inception": "",
    "geom:area": 0,
    "geom:area_square_m": 0,
    "geom:bbox": "-5.031670,51.885000,-5.031670,51.885000",
    "geom:latitude": 51.885,
    "geom:longitude": -5.03167,
    "gn:admin1_code": "WLS",
    "gn:admin2_code": "Y7",
    "gn:admin3_code": "00NS023",
    "gn:asciiname": "Hayscastle Cross",
    "gn:cc2": "GB",
    "gn:country_code": "GB",
    "gn:dem": 117,
    "gn:feature_class": "P",
    "gn:feature_code": "PPL",
    "gn:geonameid": 2647252,
    "gn:latitude": 51.885,
    "gn:longitude": -5.03167,
    "gn:modification_date": "2016-06-22",
    "gn:name": "Hayscastle Cross",
    "gn:population": 0,
    "gn:timezone": "Europe/London",
    "iso:country": "GB",
    "lbl:bbox": "-5.03667,51.88,-5.02667,51.89",
    "lbl:max_zoom": 18,
    "mz:hierarchy_label": 1,
    "mz:is_current": -1,
    "mz:min_zoom": 15,
    "name:bre_x_preferred": [
      "Cas-lai"
    ],
    "name:ceb_x_preferred": [
      "Hayscastle"
    ],
    "name:cor_x_preferred": [
      "Cas-lai"
    ],
    "name:cym_x_preferred": [
      "Cas-lai"
    ],
    "name:eus_x_preferred": [
      "Hayscastle"
    ],
    "name:fas_x_preferred": [
      "هیزکاستل"
    ],
    "name:fra_x_preferred": [
      "Hayscastle"
    ],
    "name:gla_x_preferred": [
      "Cas-lai"
    ],
    "name:gle_x_preferred": [
      "Cas-lai"
    ],
    "name:swe_x_preferred": [
      "Hayscastle"
    ],
    "name:und_x_variant": [
      "Hayscastle Cross"
    ],
    "src:geom": "geonames",
    "src:population": "wikidata",
    "wof:belongsto": [
      1880772913,
      102191581,
      1880762181,
      404444771,
      85633159,
      404227475,
      1226277931,
      136253055,
      1360698843
    ],
    "wof:breaches": [],
    "wof:concordances": {
      "gn:id": 2647252,
      "wk:page": "Hayscastle"
    },
    "wof:country": "GB",
    "wof:created": 1765389214,
    "wof:geomhash": "743e95d3dfbe29d76549b69b1ca23114",
    "wof:hierarchy": [
      {
        "continent_id": 102191581,
        "country_id": 85633159,
        "county_id": 1360698843,
        "empire_id": 136253055,
        "localadmin_id": 404444771,
        "locality_id": 1226277931,
        "macrocounty_id": 1880762181,
        "macroregion_id": 404227475,
        "neighbourhood_id": 1360712467,
        "region_id": 1880772913
      }
    ],
    "wof:id": 1360712467,
    "wof:lastmodified": 1765389214,
    "wof:name": "Hayscastle Cross",
    "wof:parent_id": 1226277931,
    "wof:placetype": "neighbourhood",
    "wof:population": 458,
    "wof:population_rank": 2,
    "wof:repo": "whosonfirst-data-admin-gb",
    "wof:superseded_by": [],
    "wof:supersedes": [
      1293127699
    ],
    "wof:tags": []
  },
  "bbox": [
    -5.03167,
    51.885,
    -5.03167,
    51.885
  ],
  "geometry": {"type":"Point","coordinates":[-5.03167,51.885]}
}
