{
  "id": 1360802633,
  "type": "Feature",
  "properties": {
    "edtf:cessation": "",
    "edtf:inception": "",
    "geom:area": 0,
    "geom:area_square_m": 0,
    "geom:bbox": "-1.300000,53.000000,-1.300000,53.000000",
    "geom:latitude": 53,
    "geom:longitude": -1.3,
    "gn:country": "GB",
    "gn:fcode": "PPL",
    "gn:population": 18612,
    "iso:country": "GB",
    "lbl:bbox": "-1.305,52.995,-1.295,53.005",
    "lbl:latitude": 53,
    "lbl:longitude": -1.3,
    "lbl:max_zoom": 18,
    "mz:hierarchy_label": 1,
    "mz:is_current": 1,
    "mz:min_zoom": 15,
    "mz:note": "Quattroshapes Point Gazetteer import 20170519",
    "name:ast_x_preferred": [
      "Eastwood"
    ],
    "name:azb_x_preferred": [
      "ایستوود"
    ],
    "name:bel_x_preferred": [
      "Іствуд"
    ],
    "name:ben_x_preferred": [
      "ইস্টউড"
    ],
    "name:cat_x_preferred": [
      "Eastwood"
    ],
    "name:ceb_x_preferred": [
      "Eastwood"
    ],
    "name:cym_x_preferred": [
      "Eastwood"
    ],
    "name:deu_x_preferred": [
      "Eastwood"
    ],
    "name:eng_x_preferred": [
      "Eastwood"
    ],
    "name:fas_x_preferred": [
      "ایستوود، ناتینگهام‌شر"
    ],
    "name:fas_x_variant": [
      "ایستوود"
    ],
    "name:fra_x_preferred": [
      "Eastwood"
    ],
    "name:gle_x_preferred": [
      "Eastwood"
    ],
    "name:guj_x_preferred": [
      "ઇસ્ટવુડ"
    ],
    "name:heb_x_preferred": [
      "איסטווד"
    ],
    "name:hun_x_preferred": [
      "Eastwood"
    ],
    "name:ita_x_preferred": [
      "Eastwood"
    ],
    "name:jpn_x_preferred": [
      "イーストウッド"
    ],
    "name:kan_x_preferred": [
      "ಈಸ್ಟ್ವುಡ್"
    ],
    "name:kor_x_preferred": [
      "이스트우드"
    ],
    "name:lit_x_preferred": [
      "Istvudas"
    ],
    "name:nan_x_preferred": [
      "Eastwood"
    ],
    "name:nld_x_preferred": [
      "Eastwood"
    ],
    "name:nno_x_preferred": [
      "Eastwood i Nottinghamshire"
    ],
    "name:pol_x_preferred": [
      "Eastwood"
    ],
    "name:por_x_preferred": [
      "Eastwood"
    ],
    "name:ron_x_preferred": [
      "Eastwood"
    ],
    "name:rus_x_preferred": [
      "Иствуд"
    ],
    "name:spa_x_preferred": [
      "Eastwood"
    ],
    "name:swe_x_preferred": [
      "Eastwood"
    ],
    "name:tam_x_preferred": [
      "ஈஸ்ட்வுட்"
    ],
    "name:tel_x_preferred": [
      "ఈస్ట్వుడ్"
    ],
    "name:tur_x_preferred": [
      "Eastwood"
    ],
    "name:ukr_x_preferred": [
      "Іствуд"
    ],
    "name:urd_x_preferred": [
      "ایسٹ وڈ"
    ],
    "name:vol_x_preferred": [
      "Eastwood"
    ],
    "name:zho_x_preferred": [
      "艾斯特伍德"
    ],
    "name:zho_x_variant": [
      "伊斯特伍德"
    ],
    "qs_pg:aaroncc": "GB",
    "qs_pg:gn_country": "GB",
    "qs_pg:gn_fcode": "PPL",
    "qs_pg:gn_id": 2650309,
    "qs_pg:gn_pop": 18612,
    "qs_pg:name": "Earlswood",
    "qs_pg:name_adm0": "United Kingdom",
    "qs_pg:name_adm1": "England",
    "qs_pg:photos": 488,
    "qs_pg:photos_1k": 99,
    "qs_pg:photos_9k": 2,
    "qs_pg:photos_9r": 5,
    "qs_pg:photos_all": 488,
    "qs_pg:photos_sr": 7,
    "qs_pg:pop_sr": 6,
    "qs_pg:qs_id": 246877,
    "qs_pg:qs_pg_placetype": "locality",
    "qs_pg:qs_pg_placetype_gp": "Town",
    "qs_pg:woe_adm0": 23424975,
    "qs_pg:woe_id": 18857,
    "src:geom": "qs_pg",
    "src:lbl_centroid": "qs_pg",
    "src:population": "wikidata",
    "woe:adm0_id": 23424975,
    "woe:name_adm0": "United Kingdom",
    "woe:name_adm1": "England",
    "woe:placetype": "Town",
    "wof:belongsto": [
      1880762689,
      102191581,
      1880762077,
      404446223,
      85633159,
      404227469,
      1125840097,
      136253055,
      1880771603
    ],
    "wof:breaches": [],
    "wof:concordances": {
      "gn:id": 2650309,
      "gp:id": 18857,
      "qs_pg:id": 246877,
      "wd:id": "Q2736112"
    },
    "wof:country": "GB",
    "wof:created": 1497300397,
    "wof:geomhash": "81ca79e5319771a53bc3ea594f249d23",
    "wof:hierarchy": [
      {
        "continent_id": 102191581,
        "country_id": 85633159,
        "county_id": 1880771603,
        "empire_id": 136253055,
        "localadmin_id": 404446223,
        "locality_id": 1125840097,
        "macrocounty_id": 1880762077,
        "macroregion_id": 404227469,
        "neighbourhood_id": 1360802633,
        "region_id": 1880762689
      }
    ],
    "wof:id": 1360802633,
    "wof:lastmodified": 1765390188,
    "wof:name": "Earlswood",
    "wof:parent_id": 1125840097,
    "wof:placetype": "neighbourhood",
    "wof:population": 18887,
    "wof:population_rank": 6,
    "wof:repo": "whosonfirst-data-admin-gb",
    "wof:superseded_by": [],
    "wof:supersedes": [
      1126013213
    ],
    "wof:tags": []
  },
  "bbox": [
    -1.3,
    53,
    -1.3,
    53
  ],
  "geometry": {"type":"Point","coordinates":[-1.3,53]}
}
