{
  "id": 1360808205,
  "type": "Feature",
  "properties": {
    "edtf:cessation": "",
    "edtf:inception": "",
    "geom:area": 0,
    "geom:area_square_m": 0,
    "geom:bbox": "-1.751290,50.993660,-1.751290,50.993660",
    "geom:latitude": 50.99366,
    "geom:longitude": -1.75129,
    "gn:admin1_code": "ENG",
    "gn:admin2_code": "P8",
    "gn:admin3_code": "00HY084",
    "gn:asciiname": "Downton",
    "gn:country_code": "GB",
    "gn:dem": 35,
    "gn:feature_class": "P",
    "gn:feature_code": "PPLA3",
    "gn:geonameid": 2651020,
    "gn:latitude": 50.99366,
    "gn:longitude": -1.75129,
    "gn:modification_date": "2017-06-12",
    "gn:name": "Downton",
    "gn:population": 2731,
    "gn:timezone": "Europe/London",
    "iso:country": "GB",
    "lbl:bbox": "-1.75629,50.98866,-1.74629,50.99866",
    "lbl:max_zoom": 18,
    "mz:hierarchy_label": 1,
    "mz:is_current": 1,
    "mz:min_zoom": 15,
    "name:ceb_x_preferred": [
      "Downton"
    ],
    "name:fra_x_preferred": [
      "Downton"
    ],
    "name:lat_x_preferred": [
      "Downton"
    ],
    "name:nld_x_preferred": [
      "Downton"
    ],
    "name:pol_x_preferred": [
      "Downton"
    ],
    "name:spa_x_preferred": [
      "Downton"
    ],
    "name:swe_x_preferred": [
      "Downton"
    ],
    "src:geom": "geonames",
    "src:population": "wikidata",
    "wof:belongsto": [
      1880773035,
      102191581,
      1880762017,
      404440121,
      85633159,
      404227469,
      1360755973,
      136253055,
      1360698937
    ],
    "wof:breaches": [],
    "wof:concordances": {
      "gn:id": 2651020,
      "wk:page": "Downton%2C_Wiltshire"
    },
    "wof:country": "GB",
    "wof:created": 1765390583,
    "wof:geomhash": "aaa48e5aae78788ef3c9a580c94b8019",
    "wof:hierarchy": [
      {
        "continent_id": 102191581,
        "country_id": 85633159,
        "county_id": 1360698937,
        "empire_id": 136253055,
        "localadmin_id": 404440121,
        "locality_id": 1360755973,
        "macrocounty_id": 1880762017,
        "macroregion_id": 404227469,
        "neighbourhood_id": 1360808205,
        "region_id": 1880773035
      }
    ],
    "wof:id": 1360808205,
    "wof:lastmodified": 1765390583,
    "wof:name": "Downton",
    "wof:parent_id": 1360755973,
    "wof:placetype": "neighbourhood",
    "wof:population": 3299,
    "wof:population_rank": 4,
    "wof:repo": "whosonfirst-data-admin-gb",
    "wof:superseded_by": [],
    "wof:supersedes": [
      1293617865
    ],
    "wof:tags": []
  },
  "bbox": [
    -1.75129,
    50.99366,
    -1.75129,
    50.99366
  ],
  "geometry": {"type":"Point","coordinates":[-1.75129,50.99366]}
}
