{
  "id": 85787971,
  "type": "Feature",
  "properties": {
    "edtf:cessation": "",
    "edtf:inception": "",
    "geom:area": 0.00029210852099998004,
    "geom:area_square_m": 2245041.119693,
    "geom:bbox": "-0.351563,51.561881,-0.324097,51.578776",
    "geom:latitude": 51.57030396436645,
    "geom:longitude": -0.33937563338397914,
    "iso:country": "GB",
    "lbl:latitude": 51.571438,
    "lbl:longitude": -0.33774,
    "lbl:max_zoom": 18,
    "mps:latitude": 51.570678,
    "mps:longitude": -0.341011,
    "mz:hierarchy_label": 1,
    "mz:is_current": -1,
    "mz:is_funky": 0,
    "mz:is_hard_boundary": 0,
    "mz:is_landuse_aoi": 0,
    "mz:is_official": 0,
    "mz:max_zoom": 18,
    "mz:min_zoom": 14,
    "mz:tier_locality": 7,
    "mz:tier_metro": 1,
    "name:ceb_x_preferred": [
      "Harrow on the Hill"
    ],
    "name:ces_x_preferred": [
      "Harrow"
    ],
    "name:cym_x_preferred": [
      "Harrow on the Hill"
    ],
    "name:eng_x_preferred": [
      "Harrow on the Hill"
    ],
    "name:fra_x_preferred": [
      "Harrow on the Hill"
    ],
    "name:fra_x_variant": [
      "Harrow"
    ],
    "name:gle_x_preferred": [
      "Harrow on the Hill"
    ],
    "name:guj_x_preferred": [
      "હેરો ઓન ધ હિલ"
    ],
    "name:hin_x_preferred": [
      "हैरो ऑन द हिल"
    ],
    "name:hun_x_preferred": [
      "Harrow kerület"
    ],
    "name:ita_x_preferred": [
      "Harrow on the Hill"
    ],
    "name:kan_x_preferred": [
      "ಹ್ಯಾರೋ ಆನ್ ದಿ ಹಿಲ್"
    ],
    "name:lat_x_preferred": [
      "Harrovia"
    ],
    "name:nld_x_preferred": [
      "Harrow"
    ],
    "name:nld_x_variant": [
      "Harrow on the Hill"
    ],
    "name:nor_x_preferred": [
      "Harrow"
    ],
    "name:pol_x_preferred": [
      "Harrow on the Hill"
    ],
    "name:por_x_preferred": [
      "Harrow on the Hill"
    ],
    "name:ron_x_preferred": [
      "Harrow"
    ],
    "name:rus_x_preferred": [
      "Харроу-он Хилл"
    ],
    "name:spa_x_preferred": [
      "Harrow on the Hill"
    ],
    "name:swe_x_preferred": [
      "Harrow on the Hill"
    ],
    "name:tam_x_preferred": [
      "ஹாரோ ஆன் ஹில்"
    ],
    "name:tam_x_variant": [
      "ஹாரோ  ஆன்  ஹில்"
    ],
    "name:tel_x_preferred": [
      "హారో ఆన్ ద హిల్"
    ],
    "name:urd_x_preferred": [
      "ہاروو آن تھے ہل"
    ],
    "qs:gn_adm0_cc": "GB",
    "qs:gn_fcode": "PPL",
    "qs:gn_local": 2643743,
    "qs:gn_namadm1": "ENG",
    "qs:gn_name": "Harrow on the Hill",
    "qs:local_max": 40697,
    "qs:local_sum": 1675717,
    "qs:localhoods": 643,
    "qs:name": "Harrow on the Hill",
    "qs:name_adm0": "United Kingdom",
    "qs:name_adm1": "England",
    "qs:name_adm2": "Greater London",
    "qs:name_lau": "London Borough of Harrow",
    "qs:name_local": "London",
    "qs:photo_max": 245,
    "qs:photo_sum": 1214,
    "qs:placetype": "Suburb",
    "qs:quad_count": 34,
    "qs:woe_adm0": 23424975,
    "qs:woe_adm1": 24554868,
    "qs:woe_adm2": 23416974,
    "qs:woe_funk": "Parented by a neighborhood",
    "qs:woe_lau": 12695829,
    "qs:woe_local": 44418,
    "qs:woe_ver": "7.10.0",
    "src:geom": "quattroshapes",
    "src:geom_alt": [
      "quattroshapes_pg"
    ],
    "src:lbl_centroid": "mz",
    "src:population": "wikidata",
    "wd:wordcount": 1185,
    "wof:belongsto": [
      1880762729,
      102191581,
      1880762179,
      85633159,
      404227469,
      101750367,
      136253055,
      1158857263,
      1880771825
    ],
    "wof:breaches": [],
    "wof:concordances": {
      "gn:id": 2647421,
      "gp:id": 22519,
      "qs_pg:id": 1074129,
      "wd:id": "Q608406",
      "wk:page": "Harrow on the Hill"
    },
    "wof:country": "GB",
    "wof:created": 1765391058,
    "wof:geom_alt": [
      "quattroshapes_pg"
    ],
    "wof:geomhash": "b888db0db79333ca96e9ea649e6bab29",
    "wof:hierarchy": [
      {
        "borough_id": 1158857263,
        "continent_id": 102191581,
        "country_id": 85633159,
        "county_id": 1880771825,
        "empire_id": 136253055,
        "locality_id": 101750367,
        "macrocounty_id": 1880762179,
        "macroregion_id": 404227469,
        "neighbourhood_id": 85787971,
        "region_id": 1880762729
      }
    ],
    "wof:id": 85787971,
    "wof:lang": [
      "eng"
    ],
    "wof:lastmodified": 1765391058,
    "wof:name": "Harrow on the Hill",
    "wof:parent_id": 1158857263,
    "wof:placetype": "neighbourhood",
    "wof:population": 12270,
    "wof:population_rank": 6,
    "wof:repo": "whosonfirst-data-admin-gb",
    "wof:superseded_by": [],
    "wof:supersedes": [],
    "wof:tags": []
  },
  "bbox": [
    -0.351563,
    51.561881,
    -0.324097,
    51.578776
  ],
  "geometry": {"type":"Polygon","coordinates":[[[-0.340576,51.578776],[-0.340576,51.577923],[-0.339441,51.577923],[-0.339203,51.577923],[-0.33783,51.577923],[-0.337592,51.577923],[-0.336456,51.577923],[-0.336456,51.57707],[-0.335083,51.57707],[-0.335083,51.576304],[-0.334498,51.575363],[-0.334483,51.575352],[-0.334131,51.573656],[-0.32959,51.573656],[-0.32959,51.573656],[-0.32959,51.570241],[-0.324097,51.570241],[-0.324097,51.570241],[-0.324097,51.566827],[-0.324097,51.566827],[-0.32959,51.566827],[-0.32959,51.563412],[-0.32959,51.563412],[-0.334131,51.563412],[-0.335083,51.561881],[-0.33783,51.563354],[-0.340576,51.561881],[-0.341528,51.563412],[-0.345117,51.563412],[-0.345117,51.563412],[-0.346069,51.563412],[-0.346069,51.564944],[-0.346069,51.565296],[-0.348816,51.566768],[-0.348816,51.566827],[-0.348816,51.568534],[-0.348816,51.570241],[-0.351562,51.570241],[-0.351562,51.571773],[-0.351563,51.573656],[-0.351563,51.573656],[-0.351562,51.575538],[-0.351562,51.57707],[-0.346069,51.57707],[-0.345539,51.577923],[-0.343853,51.577923],[-0.343323,51.578776],[-0.341052,51.578776],[-0.340576,51.578776]]]}
}
