{
  "id": 101872711,
  "type": "Feature",
  "properties": {
    "edtf:cessation": "",
    "edtf:inception": "",
    "geom:area": 0,
    "geom:area_square_m": 0,
    "geom:bbox": "-6.201142,57.412477,-6.201142,57.412477",
    "geom:latitude": 57.412477,
    "geom:longitude": -6.201142,
    "gn:population": 1886,
    "iso:country": "GB",
    "lbl:bbox": "-6.221142,57.392477,-6.181142,57.432477",
    "lbl:latitude": 57.412477,
    "lbl:longitude": -6.201142,
    "lbl:max_zoom": 16,
    "lbl:min_zoom": 12,
    "mps:latitude": 57.412477,
    "mps:longitude": -6.201142,
    "mz:hierarchy_label": 1,
    "mz:is_current": 1,
    "mz:min_zoom": 11,
    "name:ara_x_preferred": [
      "بورتري"
    ],
    "name:arz_x_preferred": [
      "بورترى"
    ],
    "name:ast_x_preferred": [
      "Portree"
    ],
    "name:bre_x_preferred": [
      "Port Rìgh"
    ],
    "name:bul_x_preferred": [
      "Портре"
    ],
    "name:cat_x_preferred": [
      "Portree"
    ],
    "name:ceb_x_preferred": [
      "Portree"
    ],
    "name:ces_x_preferred": [
      "Portree"
    ],
    "name:cym_x_preferred": [
      "Port Rìgh"
    ],
    "name:deu_x_preferred": [
      "Portree"
    ],
    "name:eng_x_preferred": [
      "Portree"
    ],
    "name:eus_x_preferred": [
      "Portree"
    ],
    "name:fas_x_preferred": [
      "پورتری"
    ],
    "name:fin_x_preferred": [
      "Port Rìgh"
    ],
    "name:fra_x_preferred": [
      "Portree"
    ],
    "name:gla_x_preferred": [
      "Port Rìgh"
    ],
    "name:gle_x_preferred": [
      "Port Rígh"
    ],
    "name:gle_x_variant": [
      "Port Rìgh"
    ],
    "name:heb_x_preferred": [
      "פורטרי"
    ],
    "name:isl_x_preferred": [
      "Portree"
    ],
    "name:ita_x_preferred": [
      "Portree"
    ],
    "name:jpn_x_preferred": [
      "ポーツリー"
    ],
    "name:nld_x_preferred": [
      "Portree"
    ],
    "name:nno_x_preferred": [
      "Portree"
    ],
    "name:nob_x_preferred": [
      "Portree"
    ],
    "name:nor_x_preferred": [
      "Portree"
    ],
    "name:oss_x_preferred": [
      "Портри"
    ],
    "name:pol_x_preferred": [
      "Portree"
    ],
    "name:por_x_preferred": [
      "Portree"
    ],
    "name:rus_x_preferred": [
      "Портри"
    ],
    "name:sco_x_preferred": [
      "Portree"
    ],
    "name:spa_x_preferred": [
      "Portree"
    ],
    "name:swe_x_preferred": [
      "Portree"
    ],
    "name:zea_x_preferred": [
      "Portree"
    ],
    "name:zho_x_preferred": [
      "波特里"
    ],
    "qs:a0": "United Kingdom",
    "qs:a1": "*Highland",
    "qs:a1_lc": "GB11QT0000",
    "qs:a1r": "0Scotland",
    "qs:a1r_lc": "GB11000000",
    "qs:adm0": "United Kingdom",
    "qs:id": 0,
    "qs:la_lc": "*",
    "qs:level": "locality",
    "qs:loc": "Portree",
    "qs:loc_alt": "Portree",
    "qs:pop": 0,
    "qs:source": "RCustom EuroGlobalMap + UMZ Urban Polygons + Geonames + GeoPlanet",
    "qs:type": "buffered point",
    "src:geom": "whosonfirst",
    "src:geom_alt": [
      "quattroshapes_pg",
      "quattroshapes"
    ],
    "src:geom_via": "quattroshapes",
    "src:lbl_centroid": "mapshaper",
    "src:population": "wikidata",
    "wd:latitude": 57.413056,
    "wd:longitude": -6.193611,
    "wd:wordcount": 490,
    "wof:belongsto": [
      1880762005,
      1360699045
    ],
    "wof:breaches": [],
    "wof:concordances": {
      "fct:id": "0aa613ee-8f76-11e1-848f-cfd5bf3ef515",
      "gn:id": 2640006,
      "gp:id": 32445,
      "qs_pg:id": 899685,
      "wd:id": "Q1010998",
      "wk:page": "Portree"
    },
    "wof:country": "GB",
    "wof:created": 1765384909,
    "wof:geom_alt": [
      "quattroshapes",
      "quattroshapes_pg"
    ],
    "wof:geomhash": "372c1a6bc0dbd409f5ceaba6b49ab136",
    "wof:hierarchy": [
      {
        "continent_id": -1,
        "country_id": -1,
        "county_id": 1360699045,
        "locality_id": 101872711,
        "macrocounty_id": 1880762005,
        "region_id": -1
      }
    ],
    "wof:id": 101872711,
    "wof:lang": [
      "eng"
    ],
    "wof:lastmodified": 1765384909,
    "wof:name": "Portree",
    "wof:parent_id": 1360699045,
    "wof:placetype": "locality",
    "wof:population": 2480,
    "wof:population_rank": 4,
    "wof:repo": "whosonfirst-data-admin-gb",
    "wof:superseded_by": [],
    "wof:supersedes": [],
    "wof:tags": []
  },
  "bbox": [
    -6.201142,
    57.412477,
    -6.201142,
    57.412477
  ],
  "geometry": {"type":"Point","coordinates":[-6.201142,57.412477]}
}
