{
  "id": 1125993769,
  "type": "Feature",
  "properties": {
    "edtf:cessation": "",
    "edtf:inception": "",
    "geom:area": 0,
    "geom:area_square_m": 0,
    "geom:bbox": "-4.405517,55.910102,-4.405517,55.910102",
    "geom:latitude": 55.910102,
    "geom:longitude": -4.405517,
    "gn:country": null,
    "iso:country": "GB",
    "lbl:bbox": "-4.425517,55.890102,-4.385517,55.930102",
    "lbl:latitude": 55.910102,
    "lbl:longitude": -4.405517,
    "lbl:max_zoom": 18,
    "lbl:min_zoom": 13.5,
    "mz:hierarchy_label": 1,
    "mz:is_current": 1,
    "mz:min_zoom": 12,
    "mz:note": "Quattroshapes Point Gazetteer import 20170519",
    "name:ara_x_preferred": [
      "كلايدبانك"
    ],
    "name:ast_x_preferred": [
      "Clydebank"
    ],
    "name:azb_x_preferred": [
      "کلایدبنک"
    ],
    "name:aze_x_preferred": [
      "Klaydbank"
    ],
    "name:ben_x_preferred": [
      "ক্লাইডিব্যাঙ্ক"
    ],
    "name:cat_x_preferred": [
      "Clydebank"
    ],
    "name:ceb_x_preferred": [
      "Clydebank"
    ],
    "name:ces_x_preferred": [
      "Clydebank"
    ],
    "name:cym_x_preferred": [
      "Clydebank"
    ],
    "name:dan_x_preferred": [
      "Clydebank"
    ],
    "name:deu_x_preferred": [
      "Clydebank"
    ],
    "name:eng_x_preferred": [
      "Clydebank"
    ],
    "name:epo_x_preferred": [
      "Clydebank"
    ],
    "name:est_x_preferred": [
      "Clydebank"
    ],
    "name:eus_x_preferred": [
      "Clydebank"
    ],
    "name:fas_x_preferred": [
      "کلایدبنک"
    ],
    "name:fin_x_preferred": [
      "Clydebank"
    ],
    "name:fra_x_preferred": [
      "Clydebank"
    ],
    "name:gla_x_preferred": [
      "Bruach Chluaidh"
    ],
    "name:gle_x_preferred": [
      "Bruach Chluaidh"
    ],
    "name:glg_x_preferred": [
      "Clydebank"
    ],
    "name:guj_x_preferred": [
      "ક્લાઇડબૅન્ક"
    ],
    "name:heb_x_preferred": [
      "קליידבנק"
    ],
    "name:ita_x_preferred": [
      "Clydebank"
    ],
    "name:jpn_x_preferred": [
      "クライドバンク"
    ],
    "name:kan_x_preferred": [
      "ಕ್ಲೈಡ್ಬ್ಯಾಂಕ್"
    ],
    "name:kor_x_preferred": [
      "클라이드뱅크"
    ],
    "name:lit_x_preferred": [
      "Klaidbankas"
    ],
    "name:msa_x_preferred": [
      "Clydebank"
    ],
    "name:nld_x_preferred": [
      "Clydebank"
    ],
    "name:nno_x_preferred": [
      "Clydebank"
    ],
    "name:nob_x_preferred": [
      "Clydebank"
    ],
    "name:pol_x_preferred": [
      "Clydebank"
    ],
    "name:por_x_preferred": [
      "Clydebank"
    ],
    "name:ron_x_preferred": [
      "Clydebank"
    ],
    "name:rus_x_preferred": [
      "Клайдбанк"
    ],
    "name:sco_x_preferred": [
      "Clydebank"
    ],
    "name:spa_x_preferred": [
      "Clydebank"
    ],
    "name:swe_x_preferred": [
      "Clydebank"
    ],
    "name:tam_x_preferred": [
      "சிலைட்பேங்க்"
    ],
    "name:tel_x_preferred": [
      "క్ల్య్డేబ్యాంక్"
    ],
    "name:ukr_x_preferred": [
      "Клайдбанк"
    ],
    "name:urd_x_preferred": [
      "کلیدیبانک"
    ],
    "name:zho_x_preferred": [
      "克萊德班克"
    ],
    "qs_pg:aaroncc": "GB",
    "qs_pg:gn_country": null,
    "qs_pg:name": "Clydebank",
    "qs_pg:name_adm0": "United Kingdom",
    "qs_pg:name_adm1": "Scotland",
    "qs_pg:photos": 815,
    "qs_pg:photos_1k": 165,
    "qs_pg:photos_9k": 30,
    "qs_pg:photos_9r": 15,
    "qs_pg:photos_all": 6847,
    "qs_pg:photos_sr": 9,
    "qs_pg:pop_sr": 0,
    "qs_pg:qs_id": 897895,
    "qs_pg:qs_pg_placetype": "locality",
    "qs_pg:qs_pg_placetype_gp": "Town",
    "qs_pg:woe_adm0": 23424975,
    "qs_pg:woe_id": 16406,
    "src:geom": "qs_pg",
    "src:lbl_centroid": "qs_pg",
    "src:population": "wikidata",
    "woe:adm0_id": 23424975,
    "woe:name_adm0": "United Kingdom",
    "woe:name_adm1": "Scotland",
    "woe:placetype": "Town",
    "wof:belongsto": [
      1880772937,
      102191581,
      85633159,
      1880762097,
      404227471,
      136253055,
      1360698819
    ],
    "wof:breaches": [],
    "wof:concordances": {
      "gp:id": 16406,
      "qs_pg:id": 897895,
      "wd:id": "Q996502"
    },
    "wof:country": "GB",
    "wof:created": 1497299188,
    "wof:geomhash": "d6d0a9cd4a3f4910feac84842d5e02d8",
    "wof:hierarchy": [
      {
        "continent_id": 102191581,
        "country_id": 85633159,
        "county_id": 1360698819,
        "empire_id": 136253055,
        "locality_id": 1125993769,
        "macrocounty_id": 1880762097,
        "macroregion_id": 404227471,
        "region_id": 1880772937
      }
    ],
    "wof:id": 1125993769,
    "wof:lastmodified": 1765387381,
    "wof:name": "Clydebank",
    "wof:parent_id": 1360698819,
    "wof:placetype": "locality",
    "wof:population": 26320,
    "wof:population_rank": 7,
    "wof:repo": "whosonfirst-data-admin-gb",
    "wof:superseded_by": [],
    "wof:supersedes": [],
    "wof:tags": []
  },
  "bbox": [
    -4.405517,
    55.910102,
    -4.405517,
    55.910102
  ],
  "geometry": {"type":"Point","coordinates":[-4.405517,55.910102]}
}
