{
  "id": 1360790689,
  "type": "Feature",
  "properties": {
    "edtf:cessation": "",
    "edtf:inception": "",
    "geom:area": 0,
    "geom:area_square_m": 0,
    "geom:bbox": "-0.959906,51.283127,-0.959906,51.283127",
    "geom:latitude": 51.283127,
    "geom:longitude": -0.959906,
    "iso:country": "GB",
    "lbl:bbox": "-0.964906,51.278127,-0.954906,51.288127",
    "lbl:latitude": 51.283128,
    "lbl:longitude": -0.959906,
    "lbl:max_zoom": 18,
    "mps:latitude": 51.283128,
    "mps:longitude": -0.959906,
    "mz:hierarchy_label": 1,
    "mz:is_current": 1,
    "mz:min_zoom": 15,
    "name:ben_x_preferred": [
      "হুক"
    ],
    "name:ceb_x_preferred": [
      "Hook"
    ],
    "name:cym_x_preferred": [
      "Hook"
    ],
    "name:deu_x_preferred": [
      "Hook"
    ],
    "name:eng_x_preferred": [
      "Hook"
    ],
    "name:fas_x_preferred": [
      "هوک"
    ],
    "name:fra_x_preferred": [
      "Hook"
    ],
    "name:gle_x_preferred": [
      "Hook"
    ],
    "name:guj_x_preferred": [
      "હૂક"
    ],
    "name:ita_x_preferred": [
      "Hook"
    ],
    "name:jpn_x_preferred": [
      "フック"
    ],
    "name:kan_x_preferred": [
      "ಹುಕ್"
    ],
    "name:kor_x_preferred": [
      "후크"
    ],
    "name:lit_x_preferred": [
      "Hukas"
    ],
    "name:lld_x_preferred": [
      "Hook"
    ],
    "name:nld_x_preferred": [
      "Hook"
    ],
    "name:nob_x_preferred": [
      "Hook"
    ],
    "name:pol_x_preferred": [
      "Hook"
    ],
    "name:por_x_preferred": [
      "Hook"
    ],
    "name:rus_x_preferred": [
      "Хук"
    ],
    "name:spa_x_preferred": [
      "Hook"
    ],
    "name:swe_x_preferred": [
      "Hook"
    ],
    "name:tam_x_preferred": [
      "ஹூக்"
    ],
    "name:tel_x_preferred": [
      "హుక్"
    ],
    "name:urd_x_preferred": [
      "ہوک"
    ],
    "name:zho_x_preferred": [
      "胡克镇"
    ],
    "qs:a0": "United Kingdom",
    "qs:a1": "*Hampshire",
    "qs:a1_lc": "GB12240000",
    "qs:a1r": "0England",
    "qs:a1r_lc": "GB12000000",
    "qs:adm0": "United Kingdom",
    "qs:la_lc": "*",
    "qs:level": "locality",
    "qs:loc": "Hook",
    "qs:loc_alt": "Hook",
    "qs:pop": 0,
    "qs:source": "RCustom EuroGlobalMap + UMZ Urban Polygons + Geonames + GeoPlanet",
    "qs:type": "buffered point",
    "src:geom": "whosonfirst",
    "src:geom_alt": [
      "quattroshapes_pg",
      "quattroshapes"
    ],
    "src:geom_via": "quattroshapes",
    "src:lbl_centroid": "mapshaper",
    "src:population": "wikidata",
    "wof:belongsto": [
      1880762717,
      102191581,
      1880762155,
      404431271,
      85633159,
      404227469,
      1326659339,
      136253055,
      1880771471
    ],
    "wof:breaches": [],
    "wof:concordances": {
      "fct:id": "0aa17ff0-8f76-11e1-848f-cfd5bf3ef515",
      "gn:id": 2646654,
      "gp:id": 23823,
      "qs_pg:id": 220094,
      "wd:id": "Q616126",
      "wk:page": "Hook, Hart"
    },
    "wof:country": "GB",
    "wof:created": 1765389420,
    "wof:geomhash": "c2d69c9fdb090f55e57e789e90cf0a25",
    "wof:hierarchy": [
      {
        "continent_id": 102191581,
        "country_id": 85633159,
        "county_id": 1880771471,
        "empire_id": 136253055,
        "localadmin_id": 404431271,
        "locality_id": 1326659339,
        "macrocounty_id": 1880762155,
        "macroregion_id": 404227469,
        "neighbourhood_id": 1360790689,
        "region_id": 1880762717
      }
    ],
    "wof:id": 1360790689,
    "wof:lang": [
      "eng"
    ],
    "wof:lastmodified": 1765389420,
    "wof:name": "Hook",
    "wof:parent_id": 1326659339,
    "wof:placetype": "neighbourhood",
    "wof:population": 9069,
    "wof:population_rank": 5,
    "wof:repo": "whosonfirst-data-admin-gb",
    "wof:superseded_by": [],
    "wof:supersedes": [
      101852435
    ],
    "wof:tags": []
  },
  "bbox": [
    -0.959906,
    51.283127,
    -0.959906,
    51.283127
  ],
  "geometry": {"type":"Point","coordinates":[-0.959906,51.283127]}
}
