{
  "id": 85787237,
  "type": "Feature",
  "properties": {
    "edtf:cessation": "",
    "edtf:inception": "",
    "geom:area": 0.0005064514020000265,
    "geom:area_square_m": 3815479.149347,
    "geom:bbox": "-1.950073,52.452662,-1.916000,52.475253",
    "geom:latitude": 52.46324259693494,
    "geom:longitude": -1.9326345555908138,
    "iso:country": "GB",
    "lbl:latitude": 52.462763,
    "lbl:longitude": -1.931178,
    "lbl:max_zoom": 18,
    "mps:latitude": 52.462702,
    "mps:longitude": -1.934014,
    "mz:hierarchy_label": 1,
    "mz:is_current": -1,
    "mz:is_funky": 0,
    "mz:is_hard_boundary": 0,
    "mz:is_landuse_aoi": 0,
    "mz:is_official": 0,
    "mz:max_zoom": 18,
    "mz:min_zoom": 13,
    "mz:tier_locality": 4,
    "mz:tier_metro": 1,
    "name:ast_x_preferred": [
      "Edgbaston"
    ],
    "name:azb_x_preferred": [
      "اجباستون"
    ],
    "name:aze_x_preferred": [
      "Edqbaston"
    ],
    "name:cat_x_preferred": [
      "Edgbaston"
    ],
    "name:cym_x_preferred": [
      "Edgbaston"
    ],
    "name:deu_x_preferred": [
      "Edgbaston"
    ],
    "name:eng_x_preferred": [
      "Edgbaston"
    ],
    "name:fas_x_preferred": [
      "اجباستون"
    ],
    "name:fin_x_preferred": [
      "Edgbaston"
    ],
    "name:fra_x_preferred": [
      "Edgbaston"
    ],
    "name:gle_x_preferred": [
      "Edgbaston"
    ],
    "name:heb_x_preferred": [
      "אדג'בסטון"
    ],
    "name:hin_x_preferred": [
      "एजबेस्टन"
    ],
    "name:ita_x_preferred": [
      "Edgbaston"
    ],
    "name:jpn_x_preferred": [
      "エジバストン"
    ],
    "name:lat_x_preferred": [
      "Edgbastonia"
    ],
    "name:lit_x_preferred": [
      "Edžbastonas"
    ],
    "name:nld_x_preferred": [
      "Edgbaston"
    ],
    "name:nno_x_preferred": [
      "Edgbaston"
    ],
    "name:nob_x_preferred": [
      "Edgbaston"
    ],
    "name:pol_x_preferred": [
      "Edgbaston"
    ],
    "name:rus_x_preferred": [
      "Эдгбастон"
    ],
    "name:spa_x_preferred": [
      "Edgbaston"
    ],
    "name:swe_x_preferred": [
      "Edgbaston"
    ],
    "name:urd_x_preferred": [
      "ایجبیسٹن"
    ],
    "name:zho_x_preferred": [
      "埃德巴斯頓"
    ],
    "name:zho_x_variant": [
      "埃奇巴斯顿"
    ],
    "qs:gn_adm0_cc": "GB",
    "qs:gn_fcode": "PPLX",
    "qs:gn_local": 2655604,
    "qs:gn_nam_loc": "preston bisset",
    "qs:gn_namadm1": "ENG",
    "qs:gn_name": "Edgbaston",
    "qs:local_max": 6560,
    "qs:local_sum": 113815,
    "qs:localhoods": 71,
    "qs:name": "Edgbaston",
    "qs:name_adm0": "United Kingdom",
    "qs:name_adm1": "England",
    "qs:name_adm2": "West Midlands",
    "qs:name_lau": "Birmingham City",
    "qs:name_local": "Birmingham",
    "qs:photo_max": 778,
    "qs:photo_sum": 3543,
    "qs:placetype": "Suburb",
    "qs:quad_count": 77,
    "qs:woe_adm0": 23424975,
    "qs:woe_adm1": 24554868,
    "qs:woe_adm2": 12602191,
    "qs:woe_lau": 12695863,
    "qs:woe_local": 12723,
    "qs:woe_ver": "7.10.0",
    "src:geom": "quattroshapes",
    "src:geom_alt": [
      "quattroshapes_pg"
    ],
    "src:lbl_centroid": "mz",
    "src:population": "wikidata",
    "wd:latitude": 52.45805,
    "wd:longitude": -1.919047,
    "wd:wordcount": 2242,
    "wof:belongsto": [
      1880773161,
      102191581,
      85633159,
      1880762069,
      404227469,
      101750467,
      136253055,
      1360699077
    ],
    "wof:breaches": [],
    "wof:concordances": {
      "gn:id": 2650236,
      "gp:id": 19323,
      "qs_pg:id": 218176,
      "wd:id": "Q3047556",
      "wk:page": "Edgbaston"
    },
    "wof:country": "GB",
    "wof:created": 1765391025,
    "wof:geom_alt": [
      "quattroshapes_pg"
    ],
    "wof:geomhash": "be248d8d857a4527e757752bf0899f55",
    "wof:hierarchy": [
      {
        "continent_id": 102191581,
        "country_id": 85633159,
        "county_id": 1360699077,
        "empire_id": 136253055,
        "locality_id": 101750467,
        "macrocounty_id": 1880762069,
        "macroregion_id": 404227469,
        "neighbourhood_id": 85787237,
        "region_id": 1880773161
      }
    ],
    "wof:id": 85787237,
    "wof:lang": [
      "eng"
    ],
    "wof:lastmodified": 1765391025,
    "wof:name": "Edgbaston",
    "wof:parent_id": 101750467,
    "wof:placetype": "neighbourhood",
    "wof:population": 42295,
    "wof:population_rank": 7,
    "wof:repo": "whosonfirst-data-admin-gb",
    "wof:superseded_by": [],
    "wof:supersedes": [],
    "wof:tags": []
  },
  "bbox": [
    -1.950073,
    52.452662,
    -1.916,
    52.475253
  ],
  "geometry": {"type":"Polygon","coordinates":[[[-1.93634,52.474416],[-1.93634,52.472743],[-1.933594,52.472743],[-1.933594,52.47107],[-1.930847,52.47107],[-1.928101,52.47107],[-1.925354,52.47107],[-1.922607,52.47107],[-1.919861,52.47107],[-1.917114,52.47107],[-1.917114,52.469397],[-1.917624,52.46856],[-1.919351,52.46856],[-1.919861,52.467724],[-1.919861,52.46605],[-1.919861,52.464377],[-1.919861,52.462704],[-1.917114,52.462704],[-1.916173,52.462704],[-1.916173,52.462704],[-1.916513,52.46103],[-1.916173,52.459357],[-1.916,52.458506],[-1.916251,52.457683],[-1.916408,52.457425],[-1.916447,52.457104],[-1.917114,52.456009],[-1.917114,52.456009],[-1.921666,52.456009],[-1.922006,52.454336],[-1.925354,52.454336],[-1.928101,52.454336],[-1.930847,52.454336],[-1.930847,52.452662],[-1.933594,52.452662],[-1.93587,52.452662],[-1.93634,52.452662],[-1.939087,52.452662],[-1.939087,52.453434],[-1.939087,52.454336],[-1.941833,52.454336],[-1.941833,52.456009],[-1.94458,52.456009],[-1.94458,52.459357],[-1.94458,52.46103],[-1.94509,52.461867],[-1.946817,52.461867],[-1.947327,52.462704],[-1.947327,52.464377],[-1.947327,52.46605],[-1.950073,52.46605],[-1.950073,52.469397],[-1.949132,52.469397],[-1.94458,52.469397],[-1.94458,52.471198],[-1.94458,52.472743],[-1.940028,52.472743],[-1.939605,52.474827],[-1.939087,52.475253],[-1.93685,52.475253],[-1.93634,52.474416]]]}
}
