{
  "id": 85684411,
  "type": "Feature",
  "properties": {
    "edtf:cessation": "",
    "edtf:deprecated": "2017-12-20",
    "edtf:inception": "",
    "geom:area": 0.005006541647000086,
    "geom:area_square_m": 38515237.51041,
    "geom:bbox": "-0.021199,51.495785,0.099865,51.563987",
    "geom:latitude": 51.526847305654655,
    "geom:longitude": 0.037630963378400994,
    "iso:country": "GB",
    "lbl:latitude": 51.525892,
    "lbl:longitude": 0.037603,
    "mps:latitude": 51.525892,
    "mps:longitude": 0.037603,
    "mz:hierarchy_label": 1,
    "mz:is_current": 0,
    "mz:is_funky": 1,
    "mz:max_zoom": 11,
    "mz:min_zoom": 11,
    "name:ara_x_preferred": [
      "نيوهام"
    ],
    "name:ben_x_preferred": [
      "নিউহ্যাম"
    ],
    "name:cat_x_preferred": [
      "Newham"
    ],
    "name:ces_x_preferred": [
      "Newham"
    ],
    "name:cym_x_preferred": [
      "Newham"
    ],
    "name:dan_x_preferred": [
      "Newham"
    ],
    "name:deu_x_preferred": [
      "London Borough of Newham"
    ],
    "name:ell_x_preferred": [
      "Νιούχαμ"
    ],
    "name:eng_x_preferred": [
      "Newham"
    ],
    "name:eus_x_preferred": [
      "Newham"
    ],
    "name:fas_x_preferred": [
      "منطقه نیوهام لندن"
    ],
    "name:fin_x_preferred": [
      "Newham"
    ],
    "name:fra_x_preferred": [
      "district londonien de Newham"
    ],
    "name:gle_x_preferred": [
      "Buirg Londan Newham"
    ],
    "name:guj_x_preferred": [
      "લંડન બોરો ઓફ ન્યૂહામ"
    ],
    "name:heb_x_preferred": [
      "ניוהאם"
    ],
    "name:hin_x_preferred": [
      "न्यूहैम बरो"
    ],
    "name:hun_x_preferred": [
      "Newham kerület"
    ],
    "name:hye_x_preferred": [
      "Նյուհեմ"
    ],
    "name:isl_x_preferred": [
      "Newham"
    ],
    "name:ita_x_preferred": [
      "Newham"
    ],
    "name:jpn_x_preferred": [
      "ニューハム・ロンドン特別区"
    ],
    "name:kan_x_preferred": [
      "ಲಂಡನ್ ಬರೋ ಆಫ್ ನ್ಯೂಹಾಮ್"
    ],
    "name:kor_x_preferred": [
      "뉴엄 구"
    ],
    "name:lat_x_preferred": [
      "Newham"
    ],
    "name:mar_x_preferred": [
      "न्यूहॅम"
    ],
    "name:nld_x_preferred": [
      "Newham"
    ],
    "name:nno_x_preferred": [
      "London Borough of Newham"
    ],
    "name:nob_x_preferred": [
      "Newham"
    ],
    "name:pnb_x_preferred": [
      "نیوہیم"
    ],
    "name:pol_x_preferred": [
      "London Borough of Newham"
    ],
    "name:por_x_preferred": [
      "Newham"
    ],
    "name:ron_x_preferred": [
      "Newham"
    ],
    "name:rus_x_preferred": [
      "Ньюэм"
    ],
    "name:spa_x_preferred": [
      "Newham"
    ],
    "name:srp_x_preferred": [
      "Лондонска општина Њуам"
    ],
    "name:swe_x_preferred": [
      "London Borough of Newham"
    ],
    "name:tam_x_preferred": [
      "லண்டன்  பாரூக்ஹ்    நியூஹாம்"
    ],
    "name:tel_x_preferred": [
      "లండన్ బోరోగ్ అఫ్ న్యూహం"
    ],
    "name:ukr_x_preferred": [
      "Ньюем"
    ],
    "name:urd_x_preferred": [
      "نیوہیم بورو"
    ],
    "name:vie_x_preferred": [
      "Khu Newham của Luân Đôn"
    ],
    "name:yid_x_preferred": [
      "לאנדאנער בארא פון נייהעם"
    ],
    "name:zho_x_preferred": [
      "紐漢區"
    ],
    "ne:abbrev": "Newham",
    "ne:adm0_a3": "GBR",
    "ne:adm0_label": "7",
    "ne:adm0_sr": "1",
    "ne:adm1_cod_1": "GBR-2770",
    "ne:adm1_code": "GBR-2770",
    "ne:admin": "United Kingdom",
    "ne:area_sqkm": "0.00000000000",
    "ne:check_me": "20",
    "ne:code_hasc": "GB.NH",
    "ne:code_local": "",
    "ne:datarank": "5",
    "ne:diss_me": "2770",
    "ne:featurecla": "Admin-1 scale rank",
    "ne:fips": "UK17",
    "ne:fips_alt": "UKI8",
    "ne:gadm_level": "2",
    "ne:geonunit": "England",
    "ne:gn_a1_code": "GB.",
    "ne:gn_id": "-2648110",
    "ne:gn_level": "-2",
    "ne:gn_name": "Greater London",
    "ne:gn_region": "",
    "ne:gns_adm1": "",
    "ne:gns_id": "-2604000",
    "ne:gns_lang": "eng",
    "ne:gns_level": "1",
    "ne:gns_name": "Newham, London Borough of",
    "ne:gns_region": "UK01",
    "ne:gu_a3": "ENG",
    "ne:hasc_maybe": "",
    "ne:iso_3166_2": "GB-",
    "ne:iso_a2": "GB",
    "ne:labelrank": "9",
    "ne:latitude": "51.52730000000",
    "ne:longitude": "0.04425350000",
    "ne:mapcolor13": 3,
    "ne:mapcolor9": 6,
    "ne:name": "Newham",
    "ne:name_alt": "",
    "ne:name_len": 6,
    "ne:name_local": "",
    "ne:note": "",
    "ne:postal": "NH",
    "ne:provnum_ne": "20038",
    "ne:region": "Greater London",
    "ne:region_cod": "",
    "ne:region_sub": "Greater London",
    "ne:sameascity": "-99",
    "ne:scalerank": "8",
    "ne:sov_a3": "GB1",
    "ne:sub_code": "",
    "ne:type": "London Borough",
    "ne:type_en": "London Borough",
    "ne:wikipedia": "",
    "ne:woe_id": 12695815,
    "ne:woe_label": "",
    "ne:woe_name": "London Borough of Newham",
    "qs:a0": "United Kingdom",
    "qs:a0_lc": "GB00000000",
    "qs:a1": "Newham",
    "qs:a1_alt": "Newham",
    "qs:a1_lc": "GB12BB0000",
    "qs:a1r": "England",
    "qs:a1r_alt": "England",
    "qs:a1r_lc": "GB12000000",
    "qs:adm0": "United Kingdom",
    "qs:adm0_a3": "GBR",
    "qs:level": "adm1",
    "qs:source": "EuroGlobalMap",
    "qs:type": "London Borough",
    "src:geom": "quattroshapes",
    "src:geom_alt": [],
    "src:lbl:centroid": "mapshaper",
    "src:population": "wikidata",
    "unlc:subdivision": "GB-NWM",
    "wof:belongsto": [
      102191581,
      85633159,
      404227469
    ],
    "wof:breaches": [],
    "wof:concordances": {
      "fips:code": "UK17",
      "gn:id": -2648110,
      "gp:id": 12695815,
      "hasc:id": "GB.NH",
      "unlc:id": "GB-NWM",
      "wd:id": "Q208139"
    },
    "wof:country": "GB",
    "wof:created": 1765390946,
    "wof:geomhash": "2c66d089c6619c562f3cbf4ace8db9bf",
    "wof:hierarchy": [
      {
        "continent_id": 102191581,
        "country_id": 85633159,
        "macroregion_id": 404227469,
        "region_id": 85684411
      }
    ],
    "wof:id": 85684411,
    "wof:lastmodified": 1765390946,
    "wof:name": "Newham",
    "wof:parent_id": 404227469,
    "wof:placetype": "region",
    "wof:population": 358645,
    "wof:population_rank": 10,
    "wof:repo": "whosonfirst-data-admin-gb",
    "wof:shortcode": "NH",
    "wof:subdivision": "GB-NWM",
    "wof:superseded_by": [
      1158857293
    ],
    "wof:supersedes": [],
    "wof:tags": []
  },
  "bbox": [
    -0.021199,
    51.495785,
    0.099865,
    51.563987
  ],
  "geometry": {"type":"Polygon","coordinates":[[[0.068394,51.544414],[0.066758,51.540714],[0.06915,51.537334],[0.068429,51.536869],[0.068795,51.536182],[0.069811,51.536037],[0.072772,51.530784],[0.072878,51.529255],[0.075336,51.529941],[0.07836,51.529258],[0.080619,51.527652],[0.085296,51.52589],[0.088757,51.52652],[0.092579,51.525738],[0.092516,51.522518],[0.094977,51.520534],[0.094946,51.517048],[0.096999,51.515671],[0.099865,51.51448],[0.099773,51.511898],[0.093228,51.511444],[0.090142,51.510654],[0.085014,51.507488],[0.079231,51.501079],[0.076707,51.499283],[0.073494,51.497917],[0.066436,51.496528],[0.041832,51.497036],[0.029114,51.495785],[0.025092,51.495945],[0.018127,51.497848],[0.015595,51.499252],[0.007663,51.505508],[0.009417,51.507099],[0.009688,51.508796],[0.006055,51.509975],[0.007816,51.512497],[0.006984,51.514126],[0.005943,51.514221],[0.004946,51.513462],[0.004145,51.510719],[0.002372,51.510795],[0.004177,51.514637],[0.003048,51.515674],[-0.002229,51.517959],[-0.003584,51.51773],[-0.004615,51.516632],[-0.005622,51.51675],[-0.006749,51.518745],[-0.008858,51.51989],[-0.007652,51.522873],[-0.008056,51.523739],[-0.007474,51.526302],[-0.010685,51.529354],[-0.013582,51.529838],[-0.017601,51.531669],[-0.018049,51.533424],[-0.021199,51.537018],[-0.019443,51.538231],[-0.017526,51.540973],[-0.016436,51.541401],[-0.016436,51.543277],[-0.019058,51.55162],[-0.017124,51.551708],[-0.016905,51.551403],[-0.010824,51.55262],[-0.009407,51.552215],[-0.008638,51.549927],[0.003147,51.552097],[0.005837,51.551864],[0.005568,51.550659],[0.009574,51.551235],[0.010887,51.552257],[0.009688,51.553432],[0.011176,51.554397],[0.011687,51.553917],[0.01464,51.554954],[0.01632,51.553222],[0.01701,51.55318],[0.021598,51.554878],[0.020407,51.556267],[0.022542,51.556164],[0.022641,51.556698],[0.023358,51.556823],[0.023829,51.555526],[0.025342,51.555546],[0.025408,51.554062],[0.032363,51.554588],[0.035412,51.555252],[0.046367,51.554813],[0.044127,51.557773],[0.042917,51.558372],[0.041995,51.561451],[0.050385,51.563987],[0.051433,51.56232],[0.054164,51.560856],[0.054531,51.559646],[0.056978,51.558696],[0.05719,51.558105],[0.060045,51.556514],[0.063656,51.557304],[0.066655,51.554725],[0.067013,51.553024],[0.067863,51.553058],[0.068783,51.547535],[0.068394,51.544414]]]}
}
