{
  "id": 1125995979,
  "type": "Feature",
  "properties": {
    "edtf:cessation": "",
    "edtf:inception": "",
    "geom:area": 0,
    "geom:area_square_m": 0,
    "geom:bbox": "-3.797490,55.819510,-3.797490,55.819510",
    "geom:latitude": 55.81951,
    "geom:longitude": -3.79749,
    "gn:country": "GB",
    "gn:fcode": "PPL",
    "gn:population": 8235,
    "iso:country": "GB",
    "lbl:bbox": "-3.81749,55.79951,-3.77749,55.83951",
    "lbl:latitude": 55.81951,
    "lbl:longitude": -3.79749,
    "lbl:max_zoom": 15,
    "lbl:min_zoom": 11,
    "mz:hierarchy_label": 1,
    "mz:is_current": 1,
    "mz:min_zoom": 11,
    "mz:note": "Quattroshapes Point Gazetteer import 20170519",
    "name:ast_x_preferred": [
      "Shotts"
    ],
    "name:bul_x_preferred": [
      "Шотц"
    ],
    "name:ceb_x_preferred": [
      "Shotts"
    ],
    "name:cym_x_preferred": [
      "Shotts"
    ],
    "name:deu_x_preferred": [
      "Shotts"
    ],
    "name:eng_x_preferred": [
      "Shotts"
    ],
    "name:eus_x_preferred": [
      "Shotts"
    ],
    "name:fas_x_preferred": [
      "شاتس"
    ],
    "name:fra_x_preferred": [
      "Shotts"
    ],
    "name:gla_x_preferred": [
      "Na Seots"
    ],
    "name:gle_x_preferred": [
      "Na Seots"
    ],
    "name:ita_x_preferred": [
      "Shotts"
    ],
    "name:jpn_x_preferred": [
      "ショッツ"
    ],
    "name:pol_x_preferred": [
      "Shotts"
    ],
    "name:rus_x_preferred": [
      "Шотс"
    ],
    "name:spa_x_preferred": [
      "Shotts"
    ],
    "name:swe_x_preferred": [
      "Shotts"
    ],
    "name:zho_x_preferred": [
      "肖茨"
    ],
    "qs_pg:aaroncc": "GB",
    "qs_pg:gn_country": "GB",
    "qs_pg:gn_fcode": "PPL",
    "qs_pg:gn_id": 8015341,
    "qs_pg:gn_pop": 8235,
    "qs_pg:name": "Shotts",
    "qs_pg:name_adm0": "United Kingdom",
    "qs_pg:name_adm1": "Scotland",
    "qs_pg:photos": 710,
    "qs_pg:photos_1k": 144,
    "qs_pg:photos_9k": 3,
    "qs_pg:photos_9r": 5,
    "qs_pg:photos_all": 710,
    "qs_pg:photos_sr": 8,
    "qs_pg:pop_sr": 5,
    "qs_pg:qs_id": 21474,
    "qs_pg:qs_pg_placetype": "locality",
    "qs_pg:qs_pg_placetype_gp": "Town",
    "qs_pg:woe_adm0": 23424975,
    "qs_pg:woe_id": 34745,
    "src:geom": "qs_pg",
    "src:lbl_centroid": "qs_pg",
    "src:population": "wikidata",
    "woe:adm0_id": 23424975,
    "woe:name_adm0": "United Kingdom",
    "woe:name_adm1": "Scotland",
    "woe:placetype": "Town",
    "wof:belongsto": [
      1880773061,
      102191581,
      85633159,
      1880762099,
      404227471,
      136253055,
      1360698949
    ],
    "wof:breaches": [],
    "wof:concordances": {
      "gn:id": 8015341,
      "gp:id": 34745,
      "qs_pg:id": 21474,
      "wd:id": "Q1009915"
    },
    "wof:country": "GB",
    "wof:created": 1497299334,
    "wof:geomhash": "9d4b7b5e213b160bdfde939d714bbf27",
    "wof:hierarchy": [
      {
        "continent_id": 102191581,
        "country_id": 85633159,
        "county_id": 1360698949,
        "empire_id": 136253055,
        "locality_id": 1125995979,
        "macrocounty_id": 1880762099,
        "macroregion_id": 404227471,
        "region_id": 1880773061
      }
    ],
    "wof:id": 1125995979,
    "wof:lastmodified": 1765387407,
    "wof:name": "Shotts",
    "wof:parent_id": 1360698949,
    "wof:placetype": "locality",
    "wof:population": 8570,
    "wof:population_rank": 5,
    "wof:repo": "whosonfirst-data-admin-gb",
    "wof:superseded_by": [],
    "wof:supersedes": [],
    "wof:tags": []
  },
  "bbox": [
    -3.79749,
    55.81951,
    -3.79749,
    55.81951
  ],
  "geometry": {"type":"Point","coordinates":[-3.79749,55.81951]}
}
