{
  "id": 1360806729,
  "type": "Feature",
  "properties": {
    "edtf:cessation": "",
    "edtf:inception": "",
    "geom:area": 0,
    "geom:area_square_m": 0,
    "geom:bbox": "-1.296280,53.898030,-1.296280,53.898030",
    "geom:latitude": 53.89803000000001,
    "geom:longitude": -1.29628,
    "gn:admin1_code": "ENG",
    "gn:admin2_code": "J7",
    "gn:admin3_code": "36UH",
    "gn:admin4_code": "36UH062",
    "gn:asciiname": "Newton Kyme",
    "gn:country_code": "GB",
    "gn:dem": 16,
    "gn:feature_class": "P",
    "gn:feature_code": "PPL",
    "gn:geonameid": 2641547,
    "gn:latitude": 53.89803,
    "gn:longitude": -1.29628,
    "gn:modification_date": "2018-07-03",
    "gn:name": "Newton Kyme",
    "gn:population": 0,
    "gn:timezone": "Europe/London",
    "iso:country": "GB",
    "lbl:bbox": "-1.30128,53.89303,-1.29128,53.90303",
    "lbl:max_zoom": 18,
    "mz:hierarchy_label": 1,
    "mz:is_current": 1,
    "mz:min_zoom": 15,
    "name:pol_x_preferred": [
      "Newton Kyme"
    ],
    "src:geom": "geonames",
    "src:population": "wikidata",
    "wof:belongsto": [
      404431935,
      1880762011,
      1360756703,
      1360698753
    ],
    "wof:breaches": [],
    "wof:concordances": {
      "gn:id": 2641547,
      "wk:page": "Newton_Kyme"
    },
    "wof:country": "GB",
    "wof:created": 1765390413,
    "wof:geomhash": "c2d57a1e6339b02c95bc60c6dc06e750",
    "wof:hierarchy": [
      {
        "continent_id": -1,
        "country_id": -1,
        "county_id": 1360698753,
        "localadmin_id": 404431935,
        "locality_id": 1360756703,
        "macrocounty_id": 1880762011,
        "neighbourhood_id": 1360806729,
        "region_id": -1
      }
    ],
    "wof:id": 1360806729,
    "wof:lastmodified": 1765390413,
    "wof:name": "Newton Kyme",
    "wof:parent_id": 1360756703,
    "wof:placetype": "neighbourhood",
    "wof:population": 275,
    "wof:population_rank": 2,
    "wof:repo": "whosonfirst-data-admin-gb",
    "wof:superseded_by": [],
    "wof:supersedes": [
      1226675345
    ],
    "wof:tags": []
  },
  "bbox": [
    -1.29628,
    53.89803000000001,
    -1.29628,
    53.89803000000001
  ],
  "geometry": {"type":"Point","coordinates":[-1.29628,53.89803000000001]}
}
