{
  "id": 101873879,
  "type": "Feature",
  "properties": {
    "edtf:cessation": "",
    "edtf:inception": "",
    "geom:area": 0,
    "geom:area_square_m": 0,
    "geom:bbox": "-6.653152,55.197731,-6.653152,55.197731",
    "geom:latitude": 55.197731,
    "geom:longitude": -6.653152,
    "gn:population": 6684,
    "iso:country": "GB",
    "lbl:bbox": "-6.673152,55.177731,-6.633152,55.217731",
    "lbl:latitude": 55.197731,
    "lbl:longitude": -6.653152,
    "lbl:max_zoom": 15,
    "lbl:min_zoom": 11,
    "mps:latitude": 55.197731,
    "mps:longitude": -6.653152,
    "mz:hierarchy_label": 1,
    "mz:is_current": 1,
    "mz:min_zoom": 11,
    "name:afr_x_preferred": [
      "Portrush"
    ],
    "name:ast_x_preferred": [
      "Portrush"
    ],
    "name:bul_x_preferred": [
      "Портръш"
    ],
    "name:cat_x_preferred": [
      "Portrush"
    ],
    "name:ceb_x_preferred": [
      "Portrush"
    ],
    "name:deu_x_preferred": [
      "Portrush"
    ],
    "name:eng_x_preferred": [
      "Portrush"
    ],
    "name:eus_x_preferred": [
      "Portrush"
    ],
    "name:fas_x_preferred": [
      "پورتراش"
    ],
    "name:fra_x_preferred": [
      "Portrush"
    ],
    "name:gla_x_preferred": [
      "Port Rois"
    ],
    "name:gle_x_preferred": [
      "Port Rois"
    ],
    "name:ita_x_preferred": [
      "Portrush"
    ],
    "name:jpn_x_preferred": [
      "ポートラッシュ"
    ],
    "name:msa_x_preferred": [
      "Portrush"
    ],
    "name:nld_x_preferred": [
      "Portrush"
    ],
    "name:nob_x_preferred": [
      "Portrush"
    ],
    "name:nor_x_preferred": [
      "Portrush"
    ],
    "name:pol_x_preferred": [
      "Portrush"
    ],
    "name:rus_x_preferred": [
      "Портраш"
    ],
    "name:spa_x_preferred": [
      "Portrush"
    ],
    "name:swe_x_preferred": [
      "Portrush"
    ],
    "name:zho_x_preferred": [
      "波特拉什"
    ],
    "qs:a0": "United Kingdom",
    "qs:a1": "*Coleraine",
    "qs:a1_lc": "N_A",
    "qs:a1r": "0Northern Ireland",
    "qs:a1r_lc": "N_A",
    "qs:adm0": "United Kingdom",
    "qs:la_lc": "*",
    "qs:level": "locality",
    "qs:loc": "Portrush",
    "qs:loc_alt": "Portrush",
    "qs:pop": 0,
    "qs:source": "RCustom EuroGlobalMap + UMZ Urban Polygons + Geonames + GeoPlanet",
    "qs:type": "buffered point",
    "src:geom": "whosonfirst",
    "src:geom_alt": [
      "quattroshapes_pg",
      "quattroshapes"
    ],
    "src:geom_via": "quattroshapes",
    "src:lbl_centroid": "mapshaper",
    "src:population": "wikidata",
    "wd:wordcount": 1738,
    "wof:belongsto": [
      1360699239,
      102191581,
      85633159,
      1880762225,
      404227473,
      136253055,
      1880762253
    ],
    "wof:breaches": [],
    "wof:concordances": {
      "gn:id": 2640004,
      "gp:id": 45086,
      "qs_pg:id": 467828,
      "wd:id": "Q1027679",
      "wk:page": "Portrush"
    },
    "wof:country": "GB",
    "wof:created": 1765385098,
    "wof:geom_alt": [
      "quattroshapes_pg",
      "quattroshapes"
    ],
    "wof:geomhash": "b8976479ce253a8ac2d95da2c7fa16c3",
    "wof:hierarchy": [
      {
        "continent_id": 102191581,
        "country_id": 85633159,
        "county_id": 1880762253,
        "empire_id": 136253055,
        "locality_id": 101873879,
        "macrocounty_id": 1880762225,
        "macroregion_id": 404227473,
        "region_id": 1360699239
      }
    ],
    "wof:id": 101873879,
    "wof:lastmodified": 1765385098,
    "wof:name": "Portrush",
    "wof:parent_id": 1880762253,
    "wof:placetype": "locality",
    "wof:population": 6150,
    "wof:population_rank": 5,
    "wof:repo": "whosonfirst-data-admin-gb",
    "wof:superseded_by": [],
    "wof:supersedes": [],
    "wof:tags": []
  },
  "bbox": [
    -6.653152,
    55.197731,
    -6.653152,
    55.197731
  ],
  "geometry": {"type":"Point","coordinates":[-6.653152,55.197731]}
}
