{
  "id": 85787291,
  "type": "Feature",
  "properties": {
    "edtf:cessation": "",
    "edtf:inception": "",
    "geom:area": 0.0009764538929999671,
    "geom:area_square_m": 7488017.92288,
    "geom:bbox": "-0.043945,51.657223,0.012747,51.684209",
    "geom:latitude": 51.671120917274806,
    "geom:longitude": -0.013899290614554569,
    "iso:country": "GB",
    "lbl:latitude": 51.67464,
    "lbl:longitude": -0.028686,
    "lbl:max_zoom": 18,
    "mps:latitude": 51.669036,
    "mps:longitude": -0.011081,
    "mz:hierarchy_label": 1,
    "mz:is_current": -1,
    "mz:is_funky": 0,
    "mz:is_hard_boundary": 0,
    "mz:is_landuse_aoi": 0,
    "mz:is_official": 0,
    "mz:max_zoom": 18,
    "mz:min_zoom": 14,
    "mz:tier_locality": 7,
    "mz:tier_metro": 1,
    "name:eng_x_preferred": [
      "Enfield Lock"
    ],
    "name:fra_x_preferred": [
      "Enfield Lock"
    ],
    "name:gle_x_preferred": [
      "Enfield Lock"
    ],
    "name:por_x_preferred": [
      "Enfield Lock"
    ],
    "name:urd_x_preferred": [
      "اینفیلڈ لاک"
    ],
    "name:zho_x_preferred": [
      "恩飛洛克"
    ],
    "src:geom": "quattroshapes",
    "src:geom_alt": [
      "quattroshapes_pg"
    ],
    "src:lbl_centroid": "mz",
    "src:population": "wikidata",
    "wd:wordcount": 688,
    "wof:belongsto": [
      1880762729,
      102191581,
      1880762179,
      85633159,
      404227469,
      101750367,
      136253055,
      1158857281,
      1880771825
    ],
    "wof:breaches": [],
    "wof:concordances": {
      "gn:id": 2649996,
      "gp:id": 19613,
      "qs_pg:id": 1287290,
      "wd:id": "Q5377308",
      "wk:page": "Enfield Lock"
    },
    "wof:country": "GB",
    "wof:created": 1765391029,
    "wof:geom_alt": [
      "quattroshapes_pg"
    ],
    "wof:geomhash": "c53ccea2d18cc30da68cf293cbf859a7",
    "wof:hierarchy": [
      {
        "borough_id": 1158857281,
        "continent_id": 102191581,
        "country_id": 85633159,
        "county_id": 1880771825,
        "empire_id": 136253055,
        "locality_id": 101750367,
        "macrocounty_id": 1880762179,
        "macroregion_id": 404227469,
        "neighbourhood_id": 85787291,
        "region_id": 1880762729
      }
    ],
    "wof:id": 85787291,
    "wof:lang": [
      "eng"
    ],
    "wof:lastmodified": 1765391029,
    "wof:name": "Enfield Lock",
    "wof:parent_id": 1158857281,
    "wof:placetype": "neighbourhood",
    "wof:population": 16469,
    "wof:population_rank": 6,
    "wof:repo": "whosonfirst-data-admin-gb",
    "wof:superseded_by": [],
    "wof:supersedes": [],
    "wof:tags": []
  },
  "bbox": [
    -0.043945,
    51.657223,
    0.012747,
    51.684209
  ],
  "geometry": {"type":"Polygon","coordinates":[[[-0.00058,51.68371],[-0,51.682774],[0,51.682774],[0.005493,51.682774],[0.005493,51.682774],[0.012579,51.682774],[0.012747,51.681071],[0.012717,51.680775],[0.011408,51.679368],[0.009296,51.675962],[0.006197,51.665968],[0.006098,51.665936],[0.005917,51.665741],[0.005493,51.665058],[-0.002114,51.658926],[-0.003379,51.658926],[-0.005493,51.657223],[-0.013204,51.657223],[-0.013522,51.658246],[-0.014366,51.658927],[-0.016479,51.658927],[-0.021973,51.658927],[-0.02303,51.657223],[-0.026409,51.657223],[-0.027466,51.658927],[-0.027466,51.658927],[-0.027466,51.662334],[-0.027466,51.662334],[-0.027466,51.665741],[-0.032959,51.665741],[-0.032959,51.665741],[-0.032959,51.66891],[-0.033205,51.669148],[-0.038452,51.669148],[-0.039112,51.668084],[-0.041093,51.669148],[-0.043945,51.669148],[-0.043945,51.670681],[-0.043945,51.672555],[-0.043945,51.672555],[-0.043945,51.672555],[-0.043285,51.67362],[-0.042889,51.676813],[-0.03968,51.677388],[-0.038452,51.679368],[-0.038452,51.679368],[-0.032959,51.679368],[-0.027466,51.679368],[-0.022923,51.679368],[-0.021973,51.680901],[-0.019121,51.679368],[-0.017581,51.67854],[-0.016726,51.679368],[-0.016479,51.679606],[-0.01574,51.679368],[-0.014551,51.678985],[-0.013838,51.679368],[-0.010986,51.680901],[-0.010986,51.682774],[-0.010986,51.682774],[-0.005493,51.682774],[-0.005493,51.682774],[-0.004913,51.68371],[-0.002747,51.684209],[-0.00058,51.68371]]]}
}
