{
  "id": 1360791057,
  "type": "Feature",
  "properties": {
    "edtf:cessation": "",
    "edtf:deprecated": "2024-01-19",
    "edtf:inception": "",
    "edtf:superseded": "2024-01-19",
    "geom:area": 0,
    "geom:area_square_m": 0,
    "geom:bbox": "-1.832282,53.847628,-1.832282,53.847628",
    "geom:latitude": 53.847628,
    "geom:longitude": -1.832282,
    "gn:population": 20327,
    "iso:country": "GB",
    "lbl:bbox": "-1.837282,53.842628,-1.827282,53.852628",
    "lbl:latitude": 53.847628,
    "lbl:longitude": -1.832282,
    "lbl:max_zoom": 18,
    "mps:latitude": 53.847628,
    "mps:longitude": -1.832282,
    "mz:hierarchy_label": 1,
    "mz:is_current": 0,
    "mz:min_zoom": 15,
    "name:ara_x_preferred": [
      "بينغلي"
    ],
    "name:arz_x_preferred": [
      "بينجلى"
    ],
    "name:ast_x_preferred": [
      "Bingley"
    ],
    "name:azb_x_preferred": [
      "بینقلی"
    ],
    "name:bar_x_preferred": [
      "Bingley"
    ],
    "name:bel_x_preferred": [
      "Бінглі"
    ],
    "name:ben_x_preferred": [
      "বিংলে"
    ],
    "name:bul_x_preferred": [
      "Бинглей"
    ],
    "name:cat_x_preferred": [
      "Bingley"
    ],
    "name:ceb_x_preferred": [
      "Bingley"
    ],
    "name:cym_x_preferred": [
      "Bingley"
    ],
    "name:deu_x_preferred": [
      "Bingley"
    ],
    "name:eng_x_preferred": [
      "Bingley"
    ],
    "name:fas_x_preferred": [
      "بینگلی"
    ],
    "name:fra_x_preferred": [
      "Bingley"
    ],
    "name:gle_x_preferred": [
      "Bingley"
    ],
    "name:guj_x_preferred": [
      "બિંગલી"
    ],
    "name:heb_x_preferred": [
      "בינגלי"
    ],
    "name:hye_x_preferred": [
      "Բինգլի"
    ],
    "name:ita_x_preferred": [
      "Bingley"
    ],
    "name:jpn_x_preferred": [
      "ビングリ―"
    ],
    "name:kan_x_preferred": [
      "ಬಿಂಗ್ಲೆ"
    ],
    "name:kor_x_preferred": [
      "브링글리"
    ],
    "name:lit_x_preferred": [
      "Binglis"
    ],
    "name:lld_x_preferred": [
      "Bingley"
    ],
    "name:nld_x_preferred": [
      "Bingley"
    ],
    "name:nno_x_preferred": [
      "Bingley"
    ],
    "name:pnb_x_preferred": [
      "بنگلے"
    ],
    "name:pol_x_preferred": [
      "Bingley"
    ],
    "name:por_x_preferred": [
      "Bingley"
    ],
    "name:rus_x_preferred": [
      "Бингли"
    ],
    "name:slv_x_preferred": [
      "Bingley"
    ],
    "name:spa_x_preferred": [
      "Bingley"
    ],
    "name:swe_x_preferred": [
      "Bingley"
    ],
    "name:szl_x_preferred": [
      "Bingley"
    ],
    "name:tam_x_preferred": [
      "பின்க்ளெய்"
    ],
    "name:tel_x_preferred": [
      "బింగ్లి"
    ],
    "name:tur_x_preferred": [
      "Bingley"
    ],
    "name:ukr_x_preferred": [
      "Бінглі"
    ],
    "name:urd_x_preferred": [
      "بینجلے"
    ],
    "name:zho_x_preferred": [
      "賓格利"
    ],
    "qs:a0": "United Kingdom",
    "qs:a1": "*Bradford",
    "qs:a1_lc": "GB12CX0000",
    "qs:a1r": "0England",
    "qs:a1r_lc": "GB12000000",
    "qs:adm0": "United Kingdom",
    "qs:la_lc": "*",
    "qs:level": "locality",
    "qs:loc": "Bingley",
    "qs:loc_alt": "Bingley",
    "qs:pop": 0,
    "qs:source": "RCustom EuroGlobalMap + UMZ Urban Polygons + Geonames + GeoPlanet",
    "qs:type": "buffered point",
    "src:geom": "whosonfirst",
    "src:geom_alt": [
      "quattroshapes_pg",
      "quattroshapes"
    ],
    "src:geom_via": "quattroshapes",
    "src:lbl_centroid": "mapshaper",
    "src:population": "wikidata",
    "wd:latitude": 53.846,
    "wd:longitude": -1.836,
    "wd:wordcount": 3054,
    "wof:belongsto": [
      102191581,
      85633159,
      1880762059,
      404227469,
      101750581,
      136253055,
      1360698963,
      1880773017
    ],
    "wof:breaches": [],
    "wof:concordances": {
      "gn:id": 2655642,
      "gp:id": 12658,
      "qs_pg:id": 239347,
      "wd:id": "Q863832",
      "wk:page": "Bingley"
    },
    "wof:country": "GB",
    "wof:created": 1765389450,
    "wof:geomhash": "9c3f564484b695cf76fb2edc510bec49",
    "wof:hierarchy": [
      {
        "continent_id": 102191581,
        "country_id": 85633159,
        "county_id": 1360698963,
        "empire_id": 136253055,
        "locality_id": 101750581,
        "macrocounty_id": 1880762059,
        "macroregion_id": 404227469,
        "neighbourhood_id": 1360791057,
        "region_id": 1880773017
      }
    ],
    "wof:id": 1360791057,
    "wof:lastmodified": 1765389450,
    "wof:name": "Bingley",
    "wof:parent_id": 101750581,
    "wof:placetype": "neighbourhood",
    "wof:population": 23274,
    "wof:population_rank": 7,
    "wof:repo": "whosonfirst-data-admin-gb",
    "wof:superseded_by": [
      1108949345
    ],
    "wof:supersedes": [
      101872249
    ],
    "wof:tags": []
  },
  "bbox": [
    -1.832282,
    53.847628,
    -1.832282,
    53.847628
  ],
  "geometry": {"type":"Point","coordinates":[-1.832282,53.847628]}
}
