{
  "id": 1360808237,
  "type": "Feature",
  "properties": {
    "edtf:cessation": "",
    "edtf:inception": "",
    "geom:area": 0,
    "geom:area_square_m": 0,
    "geom:bbox": "0.288220,52.699790,0.288220,52.699790",
    "geom:latitude": 52.69979,
    "geom:longitude": 0.28822,
    "gn:admin1_code": "ENG",
    "gn:admin2_code": "I9",
    "gn:admin3_code": "33UE",
    "gn:admin4_code": "33UE081",
    "gn:asciiname": "Tilney Saint Lawrence",
    "gn:cc2": "GB",
    "gn:country_code": "GB",
    "gn:dem": 2,
    "gn:feature_class": "P",
    "gn:feature_code": "PPL",
    "gn:geonameid": 2635817,
    "gn:latitude": 52.69979,
    "gn:longitude": 0.28822,
    "gn:modification_date": "2018-07-03",
    "gn:name": "Tilney Saint Lawrence",
    "gn:population": 0,
    "gn:timezone": "Europe/London",
    "iso:country": "GB",
    "lbl:bbox": "0.28322,52.69479,0.29322,52.70479",
    "lbl:max_zoom": 18,
    "mz:hierarchy_label": 1,
    "mz:is_current": 1,
    "mz:min_zoom": 15,
    "name:und_x_variant": [
      "Tilney"
    ],
    "src:geom": "geonames",
    "src:population": "wikidata",
    "wof:belongsto": [
      1880762699,
      102191581,
      1880762037,
      404440879,
      85633159,
      404227469,
      1360756543,
      136253055,
      1880771587
    ],
    "wof:breaches": [],
    "wof:concordances": {
      "gn:id": 2635817
    },
    "wof:country": "GB",
    "wof:created": 1765390586,
    "wof:geomhash": "121c62ccc46a9891371a296e2060cf2c",
    "wof:hierarchy": [
      {
        "continent_id": 102191581,
        "country_id": 85633159,
        "county_id": 1880771587,
        "empire_id": 136253055,
        "localadmin_id": 404440879,
        "locality_id": 1360756543,
        "macrocounty_id": 1880762037,
        "macroregion_id": 404227469,
        "neighbourhood_id": 1360808237,
        "region_id": 1880762699
      }
    ],
    "wof:id": 1360808237,
    "wof:lastmodified": 1765390586,
    "wof:name": "Tilney Saint Lawrence",
    "wof:parent_id": 1360756543,
    "wof:placetype": "neighbourhood",
    "wof:population": 1667,
    "wof:population_rank": 3,
    "wof:repo": "whosonfirst-data-admin-gb",
    "wof:superseded_by": [],
    "wof:supersedes": [
      1293716185
    ],
    "wof:tags": []
  },
  "bbox": [
    0.28822,
    52.69979,
    0.28822,
    52.69979
  ],
  "geometry": {"type":"Point","coordinates":[0.28822,52.69979]}
}
