{
  "id": 101872393,
  "type": "Feature",
  "properties": {
    "edtf:cessation": "",
    "edtf:inception": "",
    "geom:area": 0,
    "geom:area_square_m": 0,
    "geom:bbox": "-2.672495,55.578395,-2.672495,55.578395",
    "geom:latitude": 55.578395,
    "geom:longitude": -2.672495,
    "iso:country": "GB",
    "lbl:bbox": "-2.692495,55.558395,-2.652495,55.598395",
    "lbl:latitude": 55.578395,
    "lbl:longitude": -2.672494,
    "lbl:max_zoom": 18,
    "lbl:min_zoom": 13.5,
    "mps:latitude": 55.578395,
    "mps:longitude": -2.672494,
    "mz:hierarchy_label": 1,
    "mz:is_current": 1,
    "mz:min_zoom": 12,
    "name:ast_x_preferred": [
      "Newtown St Boswells"
    ],
    "name:aze_x_preferred": [
      "Nyutaun Sent Bosvels"
    ],
    "name:bre_x_preferred": [
      "Baile Ùr Chille Bhoisil"
    ],
    "name:ceb_x_preferred": [
      "Newtown St Boswells"
    ],
    "name:cym_x_preferred": [
      "Newtown St Boswells"
    ],
    "name:deu_x_preferred": [
      "Newtown St Boswells"
    ],
    "name:eng_x_preferred": [
      "Newtown St Boswells"
    ],
    "name:eus_x_preferred": [
      "Newtown St. Boswells"
    ],
    "name:fas_x_preferred": [
      "نیوتاون سنت بازولز"
    ],
    "name:fra_x_preferred": [
      "Newtown St Boswells"
    ],
    "name:fra_x_variant": [
      "Newtown St. Boswells"
    ],
    "name:gla_x_preferred": [
      "Baile Ùr Chille Bhoisil"
    ],
    "name:gle_x_preferred": [
      "Baile Úr Chille Bhoisil"
    ],
    "name:gle_x_variant": [
      "Baile Ùr Chille Bhoisil"
    ],
    "name:hbs_x_preferred": [
      "Newtown Saint Boswells"
    ],
    "name:ita_x_preferred": [
      "Newtown St. Boswells"
    ],
    "name:jpn_x_preferred": [
      "ニュータウン･セント･ボスウェルズ"
    ],
    "name:kor_x_preferred": [
      "뉴타운세인트보스웰스"
    ],
    "name:nld_x_preferred": [
      "Newtown St. Boswells"
    ],
    "name:nno_x_preferred": [
      "Newtown St. Boswells"
    ],
    "name:nob_x_preferred": [
      "Newtown St. Boswells"
    ],
    "name:nor_x_preferred": [
      "Newtown St. Boswells"
    ],
    "name:pol_x_preferred": [
      "Newtown St. Boswells"
    ],
    "name:pol_x_variant": [
      "Newtown St Boswells"
    ],
    "name:rus_x_preferred": [
      "Ньютаун-Сент-Босвеллс"
    ],
    "name:rus_x_variant": [
      "Ньютаун-Сент-Бозуэлс"
    ],
    "name:sco_x_preferred": [
      "Newtown St Boswells"
    ],
    "name:spa_x_preferred": [
      "Newtown St Boswells"
    ],
    "name:swe_x_preferred": [
      "Newtown St Boswells"
    ],
    "name:ukr_x_preferred": [
      "Ньютаун-Сент-Босвеллс"
    ],
    "name:zho_x_preferred": [
      "圣博斯韦尔斯新镇"
    ],
    "qs:a0": "United Kingdom",
    "qs:a1": "*Scottish Borders",
    "qs:a1_lc": "GB11QE0000",
    "qs:a1r": "0Scotland",
    "qs:a1r_lc": "GB11000000",
    "qs:adm0": "United Kingdom",
    "qs:id": 0,
    "qs:la_lc": "*",
    "qs:level": "locality",
    "qs:loc": "Newtown St Boswells",
    "qs:loc_alt": "Newtown St Boswells",
    "qs:pop": 0,
    "qs:source": "RCustom EuroGlobalMap + UMZ Urban Polygons + Geonames + GeoPlanet",
    "qs:type": "buffered point",
    "src:geom": "whosonfirst",
    "src:geom_alt": [
      "quattroshapes_pg",
      "quattroshapes"
    ],
    "src:geom_via": "quattroshapes",
    "src:lbl_centroid": "mapshaper",
    "src:population": "wikidata",
    "wd:latitude": 55.577222,
    "wd:longitude": -2.673056,
    "wd:wordcount": 372,
    "wof:belongsto": [
      1880773105,
      102191581,
      85633159,
      1880761991,
      404227471,
      1360699015
    ],
    "wof:breaches": [],
    "wof:concordances": {
      "gn:id": 2641513,
      "gp:id": 30307,
      "qs_pg:id": 210911,
      "wd:id": "Q917255"
    },
    "wof:country": "GB",
    "wof:created": 1765384885,
    "wof:geom_alt": [
      "quattroshapes",
      "quattroshapes_pg"
    ],
    "wof:geomhash": "93c4c0233cd9642bc08cbc8f6f368830",
    "wof:hierarchy": [
      {
        "continent_id": 102191581,
        "country_id": 85633159,
        "county_id": 1360699015,
        "locality_id": 101872393,
        "macrocounty_id": 1880761991,
        "macroregion_id": 404227471,
        "region_id": 1880773105
      }
    ],
    "wof:id": 101872393,
    "wof:lastmodified": 1765384885,
    "wof:name": "Newtown St Boswells",
    "wof:parent_id": 1360699015,
    "wof:placetype": "locality",
    "wof:population": 1662,
    "wof:population_rank": 3,
    "wof:repo": "whosonfirst-data-admin-gb",
    "wof:superseded_by": [],
    "wof:supersedes": [],
    "wof:tags": []
  },
  "bbox": [
    -2.672495,
    55.578395,
    -2.672495,
    55.578395
  ],
  "geometry": {"type":"Point","coordinates":[-2.672495,55.578395]}
}
