{
  "id": 85684273,
  "type": "Feature",
  "properties": {
    "edtf:cessation": "",
    "edtf:deprecated": "2017-12-20",
    "edtf:inception": "",
    "geom:area": 0.005045388980999995,
    "geom:area_square_m": 38756723.867441,
    "geom:bbox": "-0.062173,51.549927,0.025779,51.646526",
    "geom:latitude": 51.594029423218174,
    "geom:longitude": -0.012572956775834056,
    "iso:country": "GB",
    "lbl:latitude": 51.588133,
    "lbl:longitude": -0.01614,
    "mps:latitude": 51.588133,
    "mps:longitude": -0.01614,
    "mz:hierarchy_label": 1,
    "mz:is_current": 0,
    "mz:is_funky": 1,
    "mz:max_zoom": 11,
    "mz:min_zoom": 11,
    "name:bel_x_preferred": [
      "Уолтэм-Форэст"
    ],
    "name:ben_x_preferred": [
      "ওয়ালথম ফরেস্ট"
    ],
    "name:cat_x_preferred": [
      "Waltham Forest"
    ],
    "name:ces_x_preferred": [
      "Waltham Forest"
    ],
    "name:cym_x_preferred": [
      "Waltham Forest"
    ],
    "name:dan_x_preferred": [
      "Waltham Forest"
    ],
    "name:deu_x_preferred": [
      "London Borough of Waltham Forest"
    ],
    "name:eng_x_preferred": [
      "Waltham Forest"
    ],
    "name:eus_x_preferred": [
      "Waltham Forest"
    ],
    "name:fas_x_preferred": [
      "منطقه والتهام فورست لندن"
    ],
    "name:fin_x_preferred": [
      "Waltham Forest"
    ],
    "name:fra_x_preferred": [
      "district londonien de Waltham Forest"
    ],
    "name:gle_x_preferred": [
      "Buirg Londan Waltham Forest"
    ],
    "name:glg_x_preferred": [
      "Waltham Forest"
    ],
    "name:guj_x_preferred": [
      "લંડન બોરો ઓફ વોલ્થમ ફોરેસ્ટ"
    ],
    "name:heb_x_preferred": [
      "וולת'אם פורסט"
    ],
    "name:hin_x_preferred": [
      "वॉल्थम फ़ॉरस्ट बरो"
    ],
    "name:hun_x_preferred": [
      "Waltham Forest kerület"
    ],
    "name:isl_x_preferred": [
      "Waltham Forest"
    ],
    "name:ita_x_preferred": [
      "Waltham Forest"
    ],
    "name:jpn_x_preferred": [
      "ウォルサム・フォレスト・ロンドン特別区"
    ],
    "name:kan_x_preferred": [
      "ಲಂಡನ್ ಬರೋ ಆಫ್ ವಾಲ್ತ್ ಫಾರೆಸ್ಟ್"
    ],
    "name:kor_x_preferred": [
      "월섬포리스트 구"
    ],
    "name:lat_x_preferred": [
      "Waltham Forest"
    ],
    "name:nld_x_preferred": [
      "Waltham Forest"
    ],
    "name:nno_x_preferred": [
      "London Borough of Waltham Forest"
    ],
    "name:nob_x_preferred": [
      "Waltham Forest"
    ],
    "name:pnb_x_preferred": [
      "والٹہیم فوریسٹ"
    ],
    "name:pol_x_preferred": [
      "London Borough of Waltham Forest"
    ],
    "name:por_x_preferred": [
      "Waltham Forest"
    ],
    "name:ron_x_preferred": [
      "Waltham Forest"
    ],
    "name:rus_x_preferred": [
      "Уолтем-Форест"
    ],
    "name:spa_x_preferred": [
      "Waltham Forest"
    ],
    "name:srp_x_preferred": [
      "Лондонска општина Волтам Форест"
    ],
    "name:swe_x_preferred": [
      "London Borough of Waltham Forest"
    ],
    "name:tam_x_preferred": [
      "லண்டன்  பாரூக்ஹ்  ஆப் வாள்தாம் போரஸ்ட்"
    ],
    "name:tel_x_preferred": [
      "లండన్ బోరోగ్ అఫ్ వాల్తం ఫారెస్ట్"
    ],
    "name:tur_x_preferred": [
      "Waltham Forest"
    ],
    "name:ukr_x_preferred": [
      "Волтем-Форест"
    ],
    "name:urd_x_preferred": [
      "والٹہیم جنگل بورو"
    ],
    "name:yid_x_preferred": [
      "לאנדאנער בארא פון וואלטם פארעסט"
    ],
    "name:zho_x_preferred": [
      "沃爾瑟姆福里斯特區"
    ],
    "ne:abbrev": "Walt For",
    "ne:adm0_a3": "GBR",
    "ne:adm0_label": "7",
    "ne:adm0_sr": "1",
    "ne:adm1_cod_1": "GBR-2078",
    "ne:adm1_code": "GBR-2078",
    "ne:admin": "United Kingdom",
    "ne:area_sqkm": "0.00000000000",
    "ne:check_me": "20",
    "ne:code_hasc": "GB.WF",
    "ne:code_local": "",
    "ne:datarank": "5",
    "ne:diss_me": "2078",
    "ne:featurecla": "Admin-1 scale rank",
    "ne:fips": "UK17",
    "ne:fips_alt": "UKO9",
    "ne:gadm_level": "2",
    "ne:geonunit": "England",
    "ne:gn_a1_code": "GB.",
    "ne:gn_id": "-2648110",
    "ne:gn_level": "-2",
    "ne:gn_name": "Greater London",
    "ne:gn_region": "",
    "ne:gns_adm1": "",
    "ne:gns_id": "6077656",
    "ne:gns_lang": "ind",
    "ne:gns_level": "1",
    "ne:gns_name": "Waltham Forest, London Borough of",
    "ne:gns_region": "UK35",
    "ne:gu_a3": "ENG",
    "ne:hasc_maybe": "",
    "ne:iso_3166_2": "GB-",
    "ne:iso_a2": "GB",
    "ne:labelrank": "9",
    "ne:latitude": "51.59490000000",
    "ne:longitude": "-0.01255180000",
    "ne:mapcolor13": 3,
    "ne:mapcolor9": 6,
    "ne:name": "Waltham Forest",
    "ne:name_alt": "",
    "ne:name_len": 14,
    "ne:name_local": "",
    "ne:note": "",
    "ne:postal": "WF",
    "ne:provnum_ne": "20086",
    "ne:region": "Greater London",
    "ne:region_cod": "",
    "ne:region_sub": "Greater London",
    "ne:sameascity": "-99",
    "ne:scalerank": "8",
    "ne:sov_a3": "GB1",
    "ne:sub_code": "",
    "ne:type": "London Borough",
    "ne:type_en": "London Borough",
    "ne:wikipedia": "",
    "ne:woe_id": 12695838,
    "ne:woe_label": "",
    "ne:woe_name": "London Borough of Waltham Forest",
    "qs:a0": "United Kingdom",
    "qs:a0_lc": "GB00000000",
    "qs:a1": "Waltham Forest",
    "qs:a1_alt": "Waltham Forest",
    "qs:a1_lc": "GB12BH0000",
    "qs:a1r": "England",
    "qs:a1r_alt": "England",
    "qs:a1r_lc": "GB12000000",
    "qs:adm0": "United Kingdom",
    "qs:adm0_a3": "GBR",
    "qs:level": "adm1",
    "qs:source": "EuroGlobalMap",
    "qs:type": "London Borough",
    "src:geom": "quattroshapes",
    "src:geom_alt": [],
    "src:lbl:centroid": "mapshaper",
    "src:population": "wikidata",
    "unlc:subdivision": "GB-WFT",
    "wof:belongsto": [
      102191581,
      85633159,
      404227469
    ],
    "wof:breaches": [],
    "wof:concordances": {
      "fips:code": "UK17",
      "gn:id": -2648110,
      "gp:id": 12695838,
      "hasc:id": "GB.WF",
      "unlc:id": "GB-WFT",
      "wd:id": "Q40608"
    },
    "wof:country": "GB",
    "wof:created": 1765390944,
    "wof:geomhash": "f4a45430f4195476874ce932c067ec39",
    "wof:hierarchy": [
      {
        "continent_id": 102191581,
        "country_id": 85633159,
        "macroregion_id": 404227469,
        "region_id": 85684273
      }
    ],
    "wof:id": 85684273,
    "wof:lastmodified": 1765390944,
    "wof:name": "Waltham Forest",
    "wof:parent_id": 404227469,
    "wof:placetype": "region",
    "wof:population": 275887,
    "wof:population_rank": 10,
    "wof:repo": "whosonfirst-data-admin-gb",
    "wof:shortcode": "WF",
    "wof:subdivision": "GB-WFT",
    "wof:superseded_by": [
      1158857287
    ],
    "wof:supersedes": [],
    "wof:tags": []
  },
  "bbox": [
    -0.062173,
    51.549927,
    0.025779,
    51.646526
  ],
  "geometry": {"type":"Polygon","coordinates":[[[0.021859,51.62883],[0.021058,51.628906],[0.018594,51.622867],[0.014381,51.620304],[0.014566,51.618904],[0.008844,51.619079],[0.016319,51.616852],[0.021299,51.612274],[0.021258,51.610752],[0.019309,51.608223],[0.019517,51.607643],[0.012955,51.599239],[0.012039,51.592319],[0.013435,51.583786],[0.015568,51.583381],[0.015299,51.581707],[0.017479,51.577453],[0.017449,51.574409],[0.016525,51.572891],[0.018081,51.572017],[0.018965,51.57225],[0.019157,51.569916],[0.017733,51.569999],[0.019023,51.566505],[0.017816,51.565681],[0.014497,51.565601],[0.01482,51.559437],[0.017197,51.558796],[0.020407,51.556267],[0.021598,51.554878],[0.01701,51.55318],[0.01632,51.553222],[0.01464,51.554954],[0.011687,51.553917],[0.011176,51.554397],[0.009688,51.553432],[0.010887,51.552257],[0.009574,51.551235],[0.005568,51.550659],[0.005837,51.551864],[0.003147,51.552097],[-0.008638,51.549927],[-0.009407,51.552215],[-0.010824,51.55262],[-0.016905,51.551403],[-0.017124,51.551708],[-0.018417,51.555111],[-0.02385,51.557323],[-0.024368,51.558761],[-0.025942,51.559948],[-0.030053,51.561359],[-0.033244,51.560619],[-0.036352,51.561504],[-0.038662,51.561165],[-0.039931,51.561779],[-0.042271,51.561386],[-0.04504,51.561756],[-0.04714,51.562645],[-0.046662,51.56438],[-0.051111,51.567722],[-0.053095,51.568573],[-0.054227,51.570194],[-0.056335,51.570793],[-0.058367,51.572525],[-0.061119,51.577785],[-0.062173,51.579586],[-0.055963,51.583996],[-0.054664,51.585911],[-0.052101,51.587833],[-0.053313,51.589607],[-0.053343,51.590835],[-0.052187,51.594047],[-0.050234,51.596851],[-0.046404,51.599788],[-0.041383,51.605636],[-0.035212,51.60823],[-0.033955,51.609489],[-0.035509,51.611999],[-0.035322,51.612987],[-0.032355,51.616623],[-0.025935,51.621761],[-0.016842,51.633541],[-0.013212,51.639847],[-0.01222,51.646229],[-0.009175,51.646526],[-0.007305,51.64616],[-0.008406,51.644497],[-0.008152,51.643608],[-0.00452,51.643535],[-0.003944,51.642715],[-0.000455,51.643711],[0.000415,51.642235],[0.001466,51.641678],[0.009938,51.641449],[0.017461,51.640259],[0.02276,51.641113],[0.023123,51.637718],[0.025199,51.637287],[0.024753,51.636051],[0.025779,51.634563],[0.023883,51.630794],[0.021859,51.62883]]]}
}
