{
  "id": 1360809073,
  "type": "Feature",
  "properties": {
    "edtf:cessation": "",
    "edtf:inception": "",
    "geom:area": 0,
    "geom:area_square_m": 0,
    "geom:bbox": "-1.154850,51.312800,-1.154850,51.312800",
    "geom:latitude": 51.3128,
    "geom:longitude": -1.15485,
    "gn:admin1_code": "ENG",
    "gn:admin2_code": "F2",
    "gn:admin3_code": "24UB",
    "gn:admin4_code": "24UB051",
    "gn:asciiname": "Ramsdell",
    "gn:country_code": "GB",
    "gn:dem": 105,
    "gn:feature_class": "P",
    "gn:feature_code": "PPL",
    "gn:geonameid": 11593376,
    "gn:latitude": 51.3128,
    "gn:longitude": -1.15485,
    "gn:modification_date": "2017-06-22",
    "gn:name": "Ramsdell",
    "gn:population": 0,
    "gn:timezone": "Europe/London",
    "iso:country": "GB",
    "lbl:bbox": "-1.15985,51.3078,-1.14985,51.3178",
    "lbl:max_zoom": 18,
    "mz:hierarchy_label": 1,
    "mz:is_current": 1,
    "mz:min_zoom": 15,
    "name:cym_x_preferred": [
      "Ramsdell"
    ],
    "name:pol_x_preferred": [
      "Ramsdell"
    ],
    "src:geom": "geonames",
    "src:population": "wikidata",
    "wof:belongsto": [
      1880762717,
      102191581,
      1880762155,
      404433349,
      85633159,
      404227469,
      1125846829,
      136253055,
      1880771457
    ],
    "wof:breaches": [],
    "wof:concordances": {
      "gn:id": 11593376
    },
    "wof:country": "GB",
    "wof:created": 1765390674,
    "wof:geomhash": "79f3e638a98a3a2233d64e7a3bb67641",
    "wof:hierarchy": [
      {
        "continent_id": 102191581,
        "country_id": 85633159,
        "county_id": 1880771457,
        "empire_id": 136253055,
        "localadmin_id": 404433349,
        "locality_id": 1125846829,
        "macrocounty_id": 1880762155,
        "macroregion_id": 404227469,
        "neighbourhood_id": 1360809073,
        "region_id": 1880762717
      }
    ],
    "wof:id": 1360809073,
    "wof:lastmodified": 1765390674,
    "wof:name": "Ramsdell",
    "wof:parent_id": 1125846829,
    "wof:placetype": "neighbourhood",
    "wof:population": 75,
    "wof:population_rank": 1,
    "wof:repo": "whosonfirst-data-admin-gb",
    "wof:superseded_by": [],
    "wof:supersedes": [
      1343496567
    ],
    "wof:tags": []
  },
  "bbox": [
    -1.15485,
    51.3128,
    -1.15485,
    51.3128
  ],
  "geometry": {"type":"Point","coordinates":[-1.15485,51.3128]}
}
