{
  "id": 1360796717,
  "type": "Feature",
  "properties": {
    "edtf:cessation": "",
    "edtf:inception": "",
    "geom:area": 0,
    "geom:area_square_m": 0,
    "geom:bbox": "-0.267019,52.217336,-0.267019,52.217336",
    "geom:latitude": 52.217336,
    "geom:longitude": -0.267019,
    "gn:country": null,
    "iso:country": "GB",
    "lbl:bbox": "-0.272019,52.212336,-0.262019,52.222336",
    "lbl:latitude": 52.217336,
    "lbl:longitude": -0.267019,
    "lbl:max_zoom": 18,
    "mz:hierarchy_label": 1,
    "mz:is_current": 1,
    "mz:min_zoom": 15,
    "mz:note": "Quattroshapes Point Gazetteer import 20170519",
    "name:ara_x_preferred": [
      "اينسبوري"
    ],
    "name:arz_x_preferred": [
      "اينسبورى"
    ],
    "name:cym_x_preferred": [
      "Eynesbury"
    ],
    "name:eng_x_preferred": [
      "Eynesbury"
    ],
    "name:fra_x_preferred": [
      "Eynesbury"
    ],
    "name:gle_x_preferred": [
      "Eynesbury"
    ],
    "name:nld_x_preferred": [
      "Eynesbury"
    ],
    "name:pol_x_preferred": [
      "Eynesbury"
    ],
    "name:swe_x_preferred": [
      "Eynesbury"
    ],
    "qs_pg:aaroncc": "GB",
    "qs_pg:gn_country": null,
    "qs_pg:name": "Eynesbury",
    "qs_pg:name_adm0": "United Kingdom",
    "qs_pg:name_adm1": "England",
    "qs_pg:photos": 34,
    "qs_pg:photos_1k": 7,
    "qs_pg:photos_9k": 1,
    "qs_pg:photos_9r": 2,
    "qs_pg:photos_all": 34,
    "qs_pg:photos_sr": 2,
    "qs_pg:pop_sr": 0,
    "qs_pg:qs_id": 909103,
    "qs_pg:qs_pg_placetype": "locality",
    "qs_pg:qs_pg_placetype_gp": "Town",
    "qs_pg:woe_adm0": 23424975,
    "qs_pg:woe_id": 19816,
    "src:geom": "qs_pg",
    "src:lbl_centroid": "qs_pg",
    "src:population": "wikidata",
    "woe:adm0_id": 23424975,
    "woe:name_adm0": "United Kingdom",
    "woe:name_adm1": "England",
    "woe:placetype": "Town",
    "wof:belongsto": [
      1880762687,
      102191581,
      1880762143,
      404449225,
      85633159,
      404227469,
      1126031581,
      136253055,
      1880771371
    ],
    "wof:breaches": [],
    "wof:concordances": {
      "gp:id": 19816,
      "qs_pg:id": 909103,
      "wd:id": "Q4930029"
    },
    "wof:country": "GB",
    "wof:created": 1497295053,
    "wof:geomhash": "6639c7979b320e89ce1430994c253fcb",
    "wof:hierarchy": [
      {
        "continent_id": 102191581,
        "country_id": 85633159,
        "county_id": 1880771371,
        "empire_id": 136253055,
        "localadmin_id": 404449225,
        "locality_id": 1126031581,
        "macrocounty_id": 1880762143,
        "macroregion_id": 404227469,
        "neighbourhood_id": 1360796717,
        "region_id": 1880762687
      }
    ],
    "wof:id": 1360796717,
    "wof:lastmodified": 1765389801,
    "wof:name": "Eynesbury",
    "wof:parent_id": 1126031581,
    "wof:placetype": "neighbourhood",
    "wof:population": 1091,
    "wof:population_rank": 3,
    "wof:repo": "whosonfirst-data-admin-gb",
    "wof:superseded_by": [],
    "wof:supersedes": [
      1125885407
    ],
    "wof:tags": []
  },
  "bbox": [
    -0.267019,
    52.217336,
    -0.267019,
    52.217336
  ],
  "geometry": {"type":"Point","coordinates":[-0.267019,52.217336]}
}
