{
  "id": 101872519,
  "type": "Feature",
  "properties": {
    "edtf:cessation": "",
    "edtf:inception": "",
    "geom:area": 0,
    "geom:area_square_m": 0,
    "geom:bbox": "-4.888676,55.883024,-4.888676,55.883024",
    "geom:latitude": 55.883024,
    "geom:longitude": -4.888676,
    "gn:population": 2838,
    "iso:country": "GB",
    "lbl:bbox": "-4.908676,55.863024,-4.868676,55.903024",
    "lbl:latitude": 55.883024,
    "lbl:longitude": -4.888676,
    "lbl:max_zoom": 15,
    "lbl:min_zoom": 11.5,
    "mps:latitude": 55.883024,
    "mps:longitude": -4.888676,
    "mz:hierarchy_label": 1,
    "mz:is_current": 1,
    "mz:min_zoom": 11,
    "name:azb_x_preferred": [
      "ومیس بی"
    ],
    "name:cat_x_preferred": [
      "Wemyss Bay"
    ],
    "name:ceb_x_preferred": [
      "Wemyss Bay"
    ],
    "name:cym_x_preferred": [
      "Wemyss Bay"
    ],
    "name:deu_x_preferred": [
      "Wemyss Bay"
    ],
    "name:eng_x_preferred": [
      "Wemyss Bay"
    ],
    "name:eus_x_preferred": [
      "Wemyss Bay"
    ],
    "name:fas_x_preferred": [
      "ومیس بی"
    ],
    "name:fra_x_preferred": [
      "Wemyss Bay"
    ],
    "name:gla_x_preferred": [
      "Bàgh nan Uaimhean"
    ],
    "name:gle_x_preferred": [
      "Bagh nan Uaimhean"
    ],
    "name:gle_x_variant": [
      "Bàgh nan Uaimhean"
    ],
    "name:ita_x_preferred": [
      "Wemyss Bay"
    ],
    "name:jpn_x_preferred": [
      "ウィームス・ベイ"
    ],
    "name:nld_x_preferred": [
      "Wemyss Bay"
    ],
    "name:pnb_x_preferred": [
      "ویمائس بے"
    ],
    "name:spa_x_preferred": [
      "Wemyss Bay"
    ],
    "name:swe_x_preferred": [
      "Wemyss Bay"
    ],
    "qs:a0": "United Kingdom",
    "qs:a1": "*Inverclyde",
    "qs:a1_lc": "GB11QU0000",
    "qs:a1r": "0Scotland",
    "qs:a1r_lc": "GB11000000",
    "qs:adm0": "United Kingdom",
    "qs:id": 0,
    "qs:la_lc": "*",
    "qs:level": "locality",
    "qs:loc": "Wemyss Bay",
    "qs:loc_alt": "Wemyss Bay",
    "qs:pop": 0,
    "qs:source": "RCustom EuroGlobalMap + UMZ Urban Polygons + Geonames + GeoPlanet",
    "qs:type": "buffered point",
    "src:geom": "whosonfirst",
    "src:geom_alt": [
      "quattroshapes_pg",
      "quattroshapes"
    ],
    "src:geom_via": "quattroshapes",
    "src:lbl_centroid": "mapshaper",
    "src:population": "wikidata",
    "wd:latitude": 55.884,
    "wd:longitude": -4.887,
    "wd:wordcount": 937,
    "wof:belongsto": [
      1880773179,
      102191581,
      85633159,
      1880762039,
      404227471,
      136253055,
      1360699121
    ],
    "wof:breaches": [],
    "wof:concordances": {
      "gn:id": 2634545,
      "gp:id": 39496,
      "qs_pg:id": 467354,
      "wd:id": "Q1011545",
      "wk:page": "Wemyss Bay"
    },
    "wof:country": "GB",
    "wof:created": 1765384894,
    "wof:geom_alt": [
      "quattroshapes_pg",
      "quattroshapes"
    ],
    "wof:geomhash": "7a8a2d429f9274f0e80245fe38f67610",
    "wof:hierarchy": [
      {
        "continent_id": 102191581,
        "country_id": 85633159,
        "county_id": 1360699121,
        "empire_id": 136253055,
        "locality_id": 101872519,
        "macrocounty_id": 1880762039,
        "macroregion_id": 404227471,
        "region_id": 1880773179
      }
    ],
    "wof:id": 101872519,
    "wof:lastmodified": 1765384894,
    "wof:name": "Wemyss Bay",
    "wof:parent_id": 1360699121,
    "wof:placetype": "locality",
    "wof:population": 2430,
    "wof:population_rank": 4,
    "wof:repo": "whosonfirst-data-admin-gb",
    "wof:superseded_by": [],
    "wof:supersedes": [],
    "wof:tags": []
  },
  "bbox": [
    -4.888676,
    55.883024,
    -4.888676,
    55.883024
  ],
  "geometry": {"type":"Point","coordinates":[-4.888676,55.883024]}
}
