{
  "id": 85791901,
  "type": "Feature",
  "properties": {
    "edtf:cessation": "",
    "edtf:inception": "",
    "geom:area": 0.00014607725350006457,
    "geom:area_square_m": 1121822.120179,
    "geom:bbox": "-0.206542,51.604372,-0.186768,51.614327",
    "geom:latitude": 51.60871390388177,
    "geom:longitude": -0.19633759835629194,
    "iso:country": "GB",
    "lbl:latitude": 51.608196,
    "lbl:longitude": -0.19327,
    "lbl:max_zoom": 18,
    "mps:latitude": 51.607783,
    "mps:longitude": -0.196338,
    "mz:hierarchy_label": 1,
    "mz:is_current": -1,
    "mz:is_funky": 0,
    "mz:is_hard_boundary": 0,
    "mz:is_landuse_aoi": 0,
    "mz:is_official": 0,
    "mz:max_zoom": 18,
    "mz:min_zoom": 15,
    "mz:tier_locality": 7,
    "mz:tier_metro": 1,
    "name:ast_x_preferred": [
      "East Finchley"
    ],
    "name:azb_x_preferred": [
      "فینچلی شرقی"
    ],
    "name:bel_x_preferred": [
      "Іст-Фінчлі"
    ],
    "name:bul_x_preferred": [
      "Ийст Финчли"
    ],
    "name:cat_x_preferred": [
      "East Finchley"
    ],
    "name:eng_x_preferred": [
      "West Finchley"
    ],
    "name:eng_x_variant": [
      "W Finchley",
      "East Finchley",
      "Pleck"
    ],
    "name:fas_x_preferred": [
      "فینچلی شرقی"
    ],
    "name:fra_x_preferred": [
      "East Finchley"
    ],
    "name:gle_x_preferred": [
      "Finchley Thoir"
    ],
    "name:heb_x_preferred": [
      "מזרח פינצ'לי"
    ],
    "name:hin_x_preferred": [
      "ईस्ट फ़िंचली"
    ],
    "name:hye_x_preferred": [
      "Արևելյան Ֆինչլի"
    ],
    "name:ita_x_preferred": [
      "East Finchley"
    ],
    "name:jpn_x_preferred": [
      "イースト・フィンチリー"
    ],
    "name:lld_x_preferred": [
      "East Finchley"
    ],
    "name:nld_x_preferred": [
      "East Finchley"
    ],
    "name:pol_x_preferred": [
      "East Finchley"
    ],
    "name:rus_x_preferred": [
      "Ист-Финчли"
    ],
    "name:slv_x_preferred": [
      "East Finchley"
    ],
    "name:spa_x_preferred": [
      "East Finchley"
    ],
    "name:swe_x_preferred": [
      "East Finchley"
    ],
    "name:ukr_x_preferred": [
      "Іст-Фінчлі"
    ],
    "name:urd_x_preferred": [
      "ایسٹ فنچلے"
    ],
    "name:zho_x_preferred": [
      "東芬奇利"
    ],
    "qs:gn_adm0_cc": "GB",
    "qs:gn_fcode": "PPLX",
    "qs:gn_local": 2643743,
    "qs:gn_namadm1": "ENG",
    "qs:gn_name": "East Finchley",
    "qs:local_max": 40697,
    "qs:local_sum": 1675717,
    "qs:localhoods": 643,
    "qs:name": "West Finchley",
    "qs:name_adm0": "United Kingdom",
    "qs:name_adm1": "England",
    "qs:name_adm2": "Greater London",
    "qs:name_lau": "London Borough of Barnet",
    "qs:name_local": "London",
    "qs:photo_max": 39,
    "qs:photo_sum": 180,
    "qs:placetype": "Suburb",
    "qs:quad_count": 13,
    "qs:woe_adm0": 23424975,
    "qs:woe_adm1": 24554868,
    "qs:woe_adm2": 23416974,
    "qs:woe_lau": 12695821,
    "qs:woe_local": 44418,
    "qs:woe_ver": "7.10.0",
    "src:geom": "quattroshapes",
    "src:geom_alt": [
      "quattroshapes_pg"
    ],
    "src:lbl_centroid": "mz",
    "src:population": "wikidata",
    "wof:belongsto": [
      1880762729,
      102191581,
      1880762179,
      85633159,
      404227469,
      101750367,
      136253055,
      1158857285,
      1880771825
    ],
    "wof:breaches": [],
    "wof:concordances": {
      "gn:id": 2650444,
      "gp:id": 41693,
      "qs_pg:id": 112055,
      "wd:id": "Q149654",
      "wk:page": "East Finchley"
    },
    "wof:country": "GB",
    "wof:created": 1765391247,
    "wof:geom_alt": [
      "quattroshapes_pg"
    ],
    "wof:geomhash": "9de670a2f7df89a8bef04aa60cff535a",
    "wof:hierarchy": [
      {
        "borough_id": 1158857285,
        "continent_id": 102191581,
        "country_id": 85633159,
        "county_id": 1880771825,
        "empire_id": 136253055,
        "locality_id": 101750367,
        "macrocounty_id": 1880762179,
        "macroregion_id": 404227469,
        "neighbourhood_id": 85791901,
        "region_id": 1880762729
      }
    ],
    "wof:id": 85791901,
    "wof:lang": [
      "eng"
    ],
    "wof:lastmodified": 1765391247,
    "wof:name": "West Finchley",
    "wof:parent_id": 1158857285,
    "wof:placetype": "neighbourhood",
    "wof:population": 15989,
    "wof:population_rank": 6,
    "wof:repo": "whosonfirst-data-admin-gb",
    "wof:superseded_by": [],
    "wof:supersedes": [],
    "wof:tags": []
  },
  "bbox": [
    -0.206542,
    51.604372,
    -0.186768,
    51.614327
  ],
  "geometry": {"type":"Polygon","coordinates":[[[-0.205538,51.614327],[-0.2005,51.613168],[-0.198337,51.613666],[-0.197754,51.612727],[-0.196802,51.611195],[-0.193212,51.611195],[-0.192261,51.612727],[-0.189514,51.611252],[-0.186768,51.612727],[-0.186768,51.611195],[-0.186768,51.609489],[-0.186768,51.607783],[-0.186768,51.606077],[-0.186768,51.604372],[-0.189514,51.604372],[-0.192261,51.604372],[-0.197754,51.604372],[-0.198705,51.604372],[-0.198705,51.604372],[-0.203247,51.604372],[-0.203247,51.604372],[-0.203247,51.607546],[-0.203492,51.607783],[-0.206178,51.610377],[-0.206542,51.612139],[-0.206016,51.614117],[-0.205538,51.614327]]]}
}
