{
  "id": 1309841367,
  "type": "Feature",
  "properties": {
    "edtf:cessation": "",
    "edtf:inception": "",
    "geom:area": 0,
    "geom:area_square_m": 0,
    "geom:bbox": "-7.566670,54.566670,-7.566670,54.566670",
    "geom:latitude": 54.56667,
    "geom:longitude": -7.56667,
    "gn:admin1_code": "NIR",
    "gn:admin2_code": "N09000006",
    "gn:asciiname": "Lack",
    "gn:country_code": "GB",
    "gn:dem": 288,
    "gn:feature_class": "P",
    "gn:feature_code": "PPL",
    "gn:geonameid": 2645079,
    "gn:latitude": 54.56667,
    "gn:longitude": -7.56667,
    "gn:modification_date": "2016-12-04",
    "gn:name": "Lack",
    "gn:population": 0,
    "gn:timezone": "Europe/London",
    "iso:country": "GB",
    "lbl:bbox": "-7.58667,54.54667,-7.54667,54.58667",
    "lbl:max_zoom": 18,
    "lbl:min_zoom": 13.5,
    "mz:hierarchy_label": 1,
    "mz:is_current": -1,
    "mz:min_zoom": 12,
    "name:ceb_x_preferred": [
      "Lack"
    ],
    "name:deu_x_preferred": [
      "Lack"
    ],
    "name:fra_x_preferred": [
      "Lack"
    ],
    "name:hin_x_preferred": [
      "अभाव"
    ],
    "name:swe_x_preferred": [
      "Lack"
    ],
    "name:yid_x_preferred": [
      "חסרון"
    ],
    "src:geom": "geonames",
    "src:population": "wikidata",
    "wof:belongsto": [
      1360699235,
      102191581,
      85633159,
      1880762231,
      404227473,
      136253055,
      1880762257
    ],
    "wof:breaches": [],
    "wof:concordances": {
      "gn:id": 2645079
    },
    "wof:country": "GB",
    "wof:created": 1765388746,
    "wof:geomhash": "5e4a1913a160bd86d383b4c71d27ada2",
    "wof:hierarchy": [
      {
        "continent_id": 102191581,
        "country_id": 85633159,
        "county_id": 1880762257,
        "empire_id": 136253055,
        "locality_id": 1309841367,
        "macrocounty_id": 1880762231,
        "macroregion_id": 404227473,
        "region_id": 1360699235
      }
    ],
    "wof:id": 1309841367,
    "wof:lastmodified": 1765388746,
    "wof:name": "Lack",
    "wof:parent_id": 1880762257,
    "wof:placetype": "locality",
    "wof:population": 111,
    "wof:population_rank": 1,
    "wof:repo": "whosonfirst-data-admin-gb",
    "wof:superseded_by": [],
    "wof:supersedes": [],
    "wof:tags": []
  },
  "bbox": [
    -7.56667,
    54.56667,
    -7.56667,
    54.56667
  ],
  "geometry": {"type":"Point","coordinates":[-7.56667,54.56667]}
}
