{
  "id": 101872697,
  "type": "Feature",
  "properties": {
    "edtf:cessation": "",
    "edtf:inception": "",
    "geom:area": 0,
    "geom:area_square_m": 0,
    "geom:bbox": "-2.440682,57.231891,-2.440682,57.231891",
    "geom:latitude": 57.231891,
    "geom:longitude": -2.440682,
    "gn:population": 6000,
    "iso:country": "GB",
    "lbl:bbox": "-2.460682,57.211891,-2.420682,57.251891",
    "lbl:latitude": 57.231892,
    "lbl:longitude": -2.440682,
    "lbl:max_zoom": 15,
    "lbl:min_zoom": 11,
    "mps:latitude": 57.231892,
    "mps:longitude": -2.440682,
    "mz:hierarchy_label": 1,
    "mz:is_current": 1,
    "mz:min_zoom": 11,
    "name:ast_x_preferred": [
      "Kemnay"
    ],
    "name:bul_x_preferred": [
      "Кемнай"
    ],
    "name:ceb_x_preferred": [
      "Kemnay"
    ],
    "name:cym_x_preferred": [
      "Kemnay"
    ],
    "name:deu_x_preferred": [
      "Kemnay"
    ],
    "name:eng_x_preferred": [
      "Kemnay"
    ],
    "name:eus_x_preferred": [
      "Kemnay"
    ],
    "name:fas_x_preferred": [
      "کمنای"
    ],
    "name:fra_x_preferred": [
      "Kemnay"
    ],
    "name:gla_x_preferred": [
      "Ceann a' Mhuigh"
    ],
    "name:gle_x_preferred": [
      "Ceann a' Mhuigh"
    ],
    "name:nld_x_preferred": [
      "Kemnay"
    ],
    "name:rus_x_preferred": [
      "Кемнуэй"
    ],
    "name:sco_x_preferred": [
      "Kemnay"
    ],
    "name:spa_x_preferred": [
      "Kemnay"
    ],
    "name:swe_x_preferred": [
      "Kemnay"
    ],
    "qs:a0": "United Kingdom",
    "qs:a1": "*Aberdeenshire",
    "qs:a1_lc": "GB11QB0000",
    "qs:a1r": "0Scotland",
    "qs:a1r_lc": "GB11000000",
    "qs:adm0": "United Kingdom",
    "qs:id": 0,
    "qs:la_lc": "*",
    "qs:level": "locality",
    "qs:loc": "Kemnay",
    "qs:loc_alt": "Kemnay",
    "qs:pop": 0,
    "qs:source": "RCustom EuroGlobalMap + UMZ Urban Polygons + Geonames + GeoPlanet",
    "qs:type": "buffered point",
    "src:geom": "whosonfirst",
    "src:geom_alt": [
      "quattroshapes_pg",
      "quattroshapes"
    ],
    "src:geom_via": "quattroshapes",
    "src:lbl_centroid": "mapshaper",
    "src:population": "wikidata",
    "wd:latitude": 57.2339,
    "wd:longitude": -2.4489,
    "wd:wordcount": 446,
    "wof:belongsto": [
      1880773121,
      102191581,
      85633159,
      1880762109,
      404227471,
      136253055,
      1360699031
    ],
    "wof:breaches": [],
    "wof:concordances": {
      "gn:id": 2645836,
      "gp:id": 24755,
      "qs_pg:id": 966836,
      "wd:id": "Q1016999",
      "wk:page": "Kemnay"
    },
    "wof:country": "GB",
    "wof:created": 1765384908,
    "wof:geom_alt": [
      "quattroshapes",
      "quattroshapes_pg"
    ],
    "wof:geomhash": "50a05c9553911b9e35d3a1b6a2ddca51",
    "wof:hierarchy": [
      {
        "continent_id": 102191581,
        "country_id": 85633159,
        "county_id": 1360699031,
        "empire_id": 136253055,
        "locality_id": 101872697,
        "macrocounty_id": 1880762109,
        "macroregion_id": 404227471,
        "region_id": 1880773121
      }
    ],
    "wof:id": 101872697,
    "wof:lastmodified": 1765384908,
    "wof:name": "Kemnay",
    "wof:parent_id": 1360699031,
    "wof:placetype": "locality",
    "wof:population": 3870,
    "wof:population_rank": 4,
    "wof:repo": "whosonfirst-data-admin-gb",
    "wof:superseded_by": [],
    "wof:supersedes": [],
    "wof:tags": []
  },
  "bbox": [
    -2.440682,
    57.231891,
    -2.440682,
    57.231891
  ],
  "geometry": {"type":"Point","coordinates":[-2.440682,57.231891]}
}
