{
  "id": 85684071,
  "type": "Feature",
  "properties": {
    "edtf:cessation": "",
    "edtf:deprecated": "2017-12-20",
    "edtf:inception": "",
    "geom:area": 0.001922894261999951,
    "geom:area_square_m": 14785728.86295,
    "geom:bbox": "-0.142353,51.518539,-0.076294,51.575531",
    "geom:latitude": 51.54844685354576,
    "geom:longitude": -0.11018646087505991,
    "iso:country": "GB",
    "lbl:latitude": 51.548799,
    "lbl:longitude": -0.110205,
    "mps:latitude": 51.548799,
    "mps:longitude": -0.110205,
    "mz:hierarchy_label": 1,
    "mz:is_current": 0,
    "mz:is_funky": 1,
    "mz:max_zoom": 11,
    "mz:min_zoom": 11,
    "name:ara_x_preferred": [
      "إزلنغتون"
    ],
    "name:bel_x_preferred": [
      "Ізлінгтан"
    ],
    "name:cat_x_preferred": [
      "Islington"
    ],
    "name:ces_x_preferred": [
      "Islington"
    ],
    "name:cym_x_preferred": [
      "Islington"
    ],
    "name:dan_x_preferred": [
      "Islington"
    ],
    "name:deu_x_preferred": [
      "London Borough of Islington"
    ],
    "name:ell_x_preferred": [
      "Ίσλινγκτον"
    ],
    "name:eng_x_preferred": [
      "Islington"
    ],
    "name:est_x_preferred": [
      "Islingtoni linnaosa"
    ],
    "name:eus_x_preferred": [
      "Islington"
    ],
    "name:fas_x_preferred": [
      "منطقه ایزلینگتون لندن"
    ],
    "name:fin_x_preferred": [
      "Islington"
    ],
    "name:fra_x_preferred": [
      "district londonien d'Islington"
    ],
    "name:fry_x_preferred": [
      "Islington"
    ],
    "name:gle_x_preferred": [
      "Buirg Londan Islington"
    ],
    "name:heb_x_preferred": [
      "איזלינגטון"
    ],
    "name:hin_x_preferred": [
      "इस्लिंगटन बरो"
    ],
    "name:hun_x_preferred": [
      "Islington kerület"
    ],
    "name:hye_x_preferred": [
      "Իսլինգթոն"
    ],
    "name:isl_x_preferred": [
      "Islington"
    ],
    "name:ita_x_preferred": [
      "Borgo londinese di Islington"
    ],
    "name:jpn_x_preferred": [
      "イズリントン・ロンドン特別区"
    ],
    "name:kor_x_preferred": [
      "이즐링턴 구"
    ],
    "name:lat_x_preferred": [
      "Islington"
    ],
    "name:mkd_x_preferred": [
      "Излингтон"
    ],
    "name:nld_x_preferred": [
      "London Borough of Islington"
    ],
    "name:nno_x_preferred": [
      "London Borough of Islington"
    ],
    "name:nob_x_preferred": [
      "Islington"
    ],
    "name:oci_x_preferred": [
      "London Borough of Islington"
    ],
    "name:pnb_x_preferred": [
      "آئلنگٹن"
    ],
    "name:pol_x_preferred": [
      "London Borough of Islington"
    ],
    "name:por_x_preferred": [
      "Islington"
    ],
    "name:ron_x_preferred": [
      "Islington"
    ],
    "name:rus_x_preferred": [
      "Ислингтон"
    ],
    "name:sco_x_preferred": [
      "London Borough of Islington"
    ],
    "name:spa_x_preferred": [
      "Municipio de Islington"
    ],
    "name:srp_x_preferred": [
      "Лондонска општина Излингтон"
    ],
    "name:swe_x_preferred": [
      "London Borough of Islington"
    ],
    "name:ukr_x_preferred": [
      "Ізлінгтон"
    ],
    "name:urd_x_preferred": [
      "ازلنگٹن بورو"
    ],
    "name:vie_x_preferred": [
      "Khu Islington của Luân Đôn"
    ],
    "name:yid_x_preferred": [
      "לאנדאנער בארא פון איזלינגטאן"
    ],
    "name:zho_x_preferred": [
      "伊斯林頓倫敦自治市"
    ],
    "ne:abbrev": "Isling'n",
    "ne:adm0_a3": "GBR",
    "ne:adm0_label": "7",
    "ne:adm0_sr": "1",
    "ne:adm1_cod_1": "GBR-2071",
    "ne:adm1_code": "GBR-2071",
    "ne:admin": "United Kingdom",
    "ne:area_sqkm": "0.00000000000",
    "ne:check_me": "20",
    "ne:code_hasc": "GB.IT",
    "ne:code_local": "",
    "ne:datarank": "5",
    "ne:diss_me": "2071",
    "ne:featurecla": "Admin-1 scale rank",
    "ne:fips": "UK17",
    "ne:fips_alt": "UKG3",
    "ne:gadm_level": "2",
    "ne:geonunit": "England",
    "ne:gn_a1_code": "GB.",
    "ne:gn_id": "-2648110",
    "ne:gn_level": "-2",
    "ne:gn_name": "Greater London",
    "ne:gn_region": "",
    "ne:gns_adm1": "",
    "ne:gns_id": "6077598",
    "ne:gns_lang": "ind",
    "ne:gns_level": "1",
    "ne:gns_name": "Islington, London Borough of",
    "ne:gns_region": "UK35",
    "ne:gu_a3": "ENG",
    "ne:hasc_maybe": "",
    "ne:iso_3166_2": "GB-",
    "ne:iso_a2": "GB",
    "ne:labelrank": "9",
    "ne:latitude": "51.53960000000",
    "ne:longitude": "-0.09803760000",
    "ne:mapcolor13": 3,
    "ne:mapcolor9": 6,
    "ne:name": "Islington",
    "ne:name_alt": "",
    "ne:name_len": 9,
    "ne:name_local": "",
    "ne:note": "",
    "ne:postal": "IT",
    "ne:provnum_ne": "3",
    "ne:region": "Greater London",
    "ne:region_cod": "",
    "ne:region_sub": "Greater London",
    "ne:sameascity": "-99",
    "ne:scalerank": "8",
    "ne:sov_a3": "GB1",
    "ne:sub_code": "",
    "ne:type": "London Borough",
    "ne:type_en": "London Borough",
    "ne:wikipedia": "",
    "ne:woe_id": 12695811,
    "ne:woe_label": "",
    "ne:woe_name": "London Borough of Islington",
    "qs:a0": "United Kingdom",
    "qs:a0_lc": "GB00000000",
    "qs:a1": "Islington",
    "qs:a1_alt": "Islington",
    "qs:a1_lc": "GB12AU0000",
    "qs:a1r": "England",
    "qs:a1r_alt": "England",
    "qs:a1r_lc": "GB12000000",
    "qs:adm0": "United Kingdom",
    "qs:adm0_a3": "GBR",
    "qs:level": "adm1",
    "qs:source": "EuroGlobalMap",
    "qs:type": "London Borough",
    "src:geom": "quattroshapes",
    "src:geom_alt": [],
    "src:lbl:centroid": "mapshaper",
    "src:population": "wikidata",
    "unlc:subdivision": "GB-ISL",
    "wd:wordcount": 3576,
    "wof:belongsto": [
      102191581,
      85633159,
      404227469
    ],
    "wof:breaches": [],
    "wof:concordances": {
      "fips:code": "UK17",
      "gn:id": -2648110,
      "gp:id": 12695811,
      "hasc:id": "GB.IT",
      "unlc:id": "GB-ISL",
      "wd:id": "Q205817"
    },
    "wof:country": "GB",
    "wof:created": 1765390941,
    "wof:geomhash": "7b30b870f11ab200087fc3b662157045",
    "wof:hierarchy": [
      {
        "continent_id": 102191581,
        "country_id": 85633159,
        "macroregion_id": 404227469,
        "region_id": 85684071
      }
    ],
    "wof:id": 85684071,
    "wof:lastmodified": 1765390941,
    "wof:name": "Islington",
    "wof:parent_id": 404227469,
    "wof:placetype": "region",
    "wof:population": 220373,
    "wof:population_rank": 10,
    "wof:repo": "whosonfirst-data-admin-gb",
    "wof:shortcode": "IT",
    "wof:subdivision": "GB-ISL",
    "wof:superseded_by": [
      1158857275
    ],
    "wof:supersedes": [],
    "wof:tags": []
  },
  "bbox": [
    -0.142353,
    51.518539,
    -0.076294,
    51.575531
  ],
  "geometry": {"type":"Polygon","coordinates":[[[-0.104447,51.564705],[-0.098524,51.560837],[-0.095969,51.561226],[-0.091639,51.560222],[-0.090357,51.55767],[-0.090329,51.554424],[-0.08544,51.552162],[-0.079398,51.551662],[-0.076572,51.547931],[-0.076294,51.546421],[-0.076775,51.546077],[-0.083774,51.546604],[-0.083597,51.545063],[-0.086507,51.537399],[-0.09697,51.532982],[-0.09505,51.530052],[-0.095342,51.529194],[-0.088717,51.527443],[-0.087376,51.525955],[-0.084957,51.526203],[-0.084688,51.525413],[-0.08538,51.524509],[-0.085076,51.523922],[-0.08416,51.523899],[-0.085154,51.520332],[-0.086124,51.518734],[-0.08989,51.519962],[-0.089631,51.520687],[-0.092333,51.521],[-0.092452,51.521431],[-0.094272,51.521446],[-0.094997,51.52306],[-0.096406,51.522819],[-0.096716,51.52325],[-0.097871,51.522842],[-0.097228,51.521583],[-0.097583,51.520687],[-0.105287,51.518539],[-0.106979,51.522156],[-0.108207,51.522087],[-0.108893,51.522987],[-0.11232,51.523704],[-0.114144,51.525455],[-0.112871,51.526405],[-0.115369,51.527721],[-0.115954,51.529842],[-0.119833,51.530937],[-0.122493,51.530723],[-0.122338,51.536884],[-0.125023,51.541115],[-0.127141,51.547661],[-0.1301,51.549618],[-0.130964,51.55151],[-0.135193,51.554588],[-0.137116,51.555397],[-0.140969,51.560428],[-0.140619,51.564552],[-0.142353,51.569118],[-0.140644,51.569397],[-0.133333,51.572883],[-0.127433,51.574154],[-0.124616,51.574119],[-0.119523,51.575531],[-0.118939,51.574703],[-0.119473,51.574432],[-0.117173,51.573826],[-0.115615,51.572548],[-0.116065,51.572189],[-0.115342,51.571892],[-0.115024,51.570629],[-0.110644,51.568607],[-0.104447,51.564705]]]}
}
