{
  "id": 1125890077,
  "type": "Feature",
  "properties": {
    "edtf:cessation": "",
    "edtf:inception": "",
    "geom:area": 0,
    "geom:area_square_m": 0,
    "geom:bbox": "-7.200000,54.416670,-7.200000,54.416670",
    "geom:latitude": 54.41667,
    "geom:longitude": -7.2,
    "gn:country": "GB",
    "gn:fcode": "PPL",
    "gn:population": 0,
    "iso:country": "GB",
    "lbl:bbox": "-7.22,54.39667,-7.18,54.43667",
    "lbl:latitude": 54.41667,
    "lbl:longitude": -7.2,
    "lbl:max_zoom": 18,
    "lbl:min_zoom": 13.5,
    "mz:hierarchy_label": 1,
    "mz:is_current": 1,
    "mz:min_zoom": 12,
    "mz:note": "Quattroshapes Point Gazetteer import 20170519",
    "name:cat_x_preferred": [
      "Clogher"
    ],
    "name:ceb_x_preferred": [
      "Clogher"
    ],
    "name:ces_x_preferred": [
      "Clogher"
    ],
    "name:csb_x_preferred": [
      "Clogher"
    ],
    "name:deu_x_preferred": [
      "Clogher"
    ],
    "name:eng_x_preferred": [
      "Clogher"
    ],
    "name:eus_x_preferred": [
      "Clogher"
    ],
    "name:fas_x_preferred": [
      "کلوگر"
    ],
    "name:fra_x_preferred": [
      "Clogher"
    ],
    "name:gle_x_preferred": [
      "Clochar"
    ],
    "name:heb_x_preferred": [
      "קלוגר"
    ],
    "name:hun_x_preferred": [
      "Clogher"
    ],
    "name:ita_x_preferred": [
      "Clogher"
    ],
    "name:mkd_x_preferred": [
      "Клохер"
    ],
    "name:msa_x_preferred": [
      "Clogher"
    ],
    "name:nld_x_preferred": [
      "Clogher"
    ],
    "name:pli_x_preferred": [
      "क्लोघेर"
    ],
    "name:pol_x_preferred": [
      "Clogher"
    ],
    "name:rus_x_preferred": [
      "Клогер"
    ],
    "name:slk_x_preferred": [
      "Clogher"
    ],
    "name:spa_x_preferred": [
      "Clogher"
    ],
    "name:swe_x_preferred": [
      "Clogher"
    ],
    "name:szl_x_preferred": [
      "Clogher"
    ],
    "name:urd_x_preferred": [
      "کلاگر"
    ],
    "name:zho_x_preferred": [
      "克洛格"
    ],
    "qs_pg:aaroncc": "GB",
    "qs_pg:gn_country": "GB",
    "qs_pg:gn_fcode": "PPL",
    "qs_pg:gn_id": 2652805,
    "qs_pg:gn_pop": 0,
    "qs_pg:name": "Clogher",
    "qs_pg:name_adm0": "United Kingdom",
    "qs_pg:name_adm1": "Northern Ireland",
    "qs_pg:photos": 80,
    "qs_pg:photos_1k": 16,
    "qs_pg:photos_9k": 1,
    "qs_pg:photos_9r": 3,
    "qs_pg:photos_all": 80,
    "qs_pg:photos_sr": 3,
    "qs_pg:pop_sr": 0,
    "qs_pg:qs_id": 1260793,
    "qs_pg:qs_pg_placetype": "locality",
    "qs_pg:qs_pg_placetype_gp": "Town",
    "qs_pg:woe_adm0": 23424975,
    "qs_pg:woe_id": 44647,
    "src:geom": "qs_pg",
    "src:lbl_centroid": "qs_pg",
    "src:population": "wikidata",
    "woe:adm0_id": 23424975,
    "woe:name_adm0": "United Kingdom",
    "woe:name_adm1": "Northern Ireland",
    "woe:placetype": "Town",
    "wof:belongsto": [
      1360699235,
      102191581,
      85633159,
      1880762223,
      404227473,
      136253055,
      1880762263
    ],
    "wof:breaches": [],
    "wof:concordances": {
      "gn:id": 2652805,
      "gp:id": 44647,
      "qs_pg:id": 1260793,
      "wd:id": "Q2283248"
    },
    "wof:country": "GB",
    "wof:created": 1497295274,
    "wof:geomhash": "d2e1802a79ed2c5a558ccc247bf15bcb",
    "wof:hierarchy": [
      {
        "continent_id": 102191581,
        "country_id": 85633159,
        "county_id": 1880762263,
        "empire_id": 136253055,
        "locality_id": 1125890077,
        "macrocounty_id": 1880762223,
        "macroregion_id": 404227473,
        "region_id": 1360699235
      }
    ],
    "wof:id": 1125890077,
    "wof:lastmodified": 1765386301,
    "wof:name": "Clogher",
    "wof:parent_id": 1880762263,
    "wof:placetype": "locality",
    "wof:population": 717,
    "wof:population_rank": 2,
    "wof:repo": "whosonfirst-data-admin-gb",
    "wof:superseded_by": [],
    "wof:supersedes": [],
    "wof:tags": []
  },
  "bbox": [
    -7.2,
    54.41667,
    -7.2,
    54.41667
  ],
  "geometry": {"type":"Point","coordinates":[-7.2,54.41667]}
}
