{
  "id": 85788761,
  "type": "Feature",
  "properties": {
    "edtf:cessation": "",
    "edtf:inception": "",
    "geom:area": 0.00044778325800003203,
    "geom:area_square_m": 3441967.30668,
    "geom:bbox": "-0.028180,51.551635,0.005969,51.573656",
    "geom:latitude": 51.56301711785154,
    "geom:longitude": -0.009969127385809025,
    "gn:latitude": 51.55956,
    "gn:longitude": -0.00777,
    "iso:country": "GB",
    "lbl:latitude": 51.561239,
    "lbl:longitude": -0.008811,
    "lbl:max_zoom": 18,
    "mps:latitude": 51.563973,
    "mps:longitude": -0.01135,
    "mz:hierarchy_label": 1,
    "mz:is_current": 1,
    "mz:is_funky": 0,
    "mz:is_hard_boundary": 0,
    "mz:is_landuse_aoi": 0,
    "mz:is_official": 0,
    "mz:max_zoom": 18,
    "mz:min_zoom": 14,
    "mz:tier_locality": 7,
    "mz:tier_metro": 1,
    "name:afr_x_preferred": [
      "Leyton"
    ],
    "name:arz_x_preferred": [
      "لايتون"
    ],
    "name:azb_x_preferred": [
      "لیتون"
    ],
    "name:bel_x_preferred": [
      "Лейтан"
    ],
    "name:cat_x_preferred": [
      "Leyton"
    ],
    "name:cym_x_preferred": [
      "Leyton"
    ],
    "name:deu_x_preferred": [
      "Leyton"
    ],
    "name:eng_x_preferred": [
      "Leyton"
    ],
    "name:eus_x_preferred": [
      "Leyton"
    ],
    "name:fao_x_preferred": [
      "Leyton"
    ],
    "name:fas_x_preferred": [
      "لیتون، لندن بزرگ"
    ],
    "name:fas_x_variant": [
      "لیتون"
    ],
    "name:fra_x_preferred": [
      "Leyton"
    ],
    "name:gle_x_preferred": [
      "Leyton"
    ],
    "name:ita_x_preferred": [
      "Leyton"
    ],
    "name:jpn_x_preferred": [
      "レイトン"
    ],
    "name:kat_x_preferred": [
      "ლეიტონი"
    ],
    "name:lat_x_preferred": [
      "Leintuna"
    ],
    "name:nld_x_preferred": [
      "Leyton"
    ],
    "name:nno_x_preferred": [
      "Leyton"
    ],
    "name:nob_x_preferred": [
      "Leyton"
    ],
    "name:pol_x_preferred": [
      "Leyton"
    ],
    "name:ron_x_preferred": [
      "Leyton"
    ],
    "name:spa_x_preferred": [
      "Leyton"
    ],
    "name:swe_x_preferred": [
      "Leyton"
    ],
    "name:ukr_x_preferred": [
      "Лейтон"
    ],
    "name:urd_x_preferred": [
      "لیٹن"
    ],
    "name:yue_x_preferred": [
      "雷敦"
    ],
    "name:zho_x_preferred": [
      "萊頓"
    ],
    "name:zho_yue_x_preferred": [
      "雷敦"
    ],
    "qs:gn_adm0_cc": "GB",
    "qs:gn_fcode": "PPL",
    "qs:gn_local": 2643743,
    "qs:gn_namadm1": "ENG",
    "qs:gn_name": "Leyton",
    "qs:local_max": 40697,
    "qs:local_sum": 1675717,
    "qs:localhoods": 643,
    "qs:name": "Leyton",
    "qs:name_adm0": "United Kingdom",
    "qs:name_adm1": "England",
    "qs:name_adm2": "Greater London",
    "qs:name_lau": "London Borough of Waltham Forest",
    "qs:name_local": "London",
    "qs:photo_max": 578,
    "qs:photo_sum": 3103,
    "qs:placetype": "Suburb",
    "qs:quad_count": 89,
    "qs:woe_adm0": 23424975,
    "qs:woe_adm1": 24554868,
    "qs:woe_adm2": 23416974,
    "qs:woe_lau": 12695838,
    "qs:woe_local": 44418,
    "qs:woe_ver": "7.10.0",
    "reversegeo:latitude": 51.563973,
    "reversegeo:longitude": -0.01135,
    "src:geom": "mz",
    "src:geom_alt": [
      "quattroshapes_pg",
      "quattroshapes"
    ],
    "src:lbl_centroid": "mz",
    "src:population": "wikidata",
    "wd:wordcount": 3312,
    "wof:belongsto": [
      1880762729,
      102191581,
      1880762179,
      85633159,
      404227469,
      101750367,
      136253055,
      1158857287,
      1880771825
    ],
    "wof:breaches": [],
    "wof:concordances": {
      "gn:id": 2644542,
      "gp:id": 26213,
      "qs_pg:id": 220682,
      "wd:id": "Q2750829",
      "wk:page": "Leyton"
    },
    "wof:country": "GB",
    "wof:created": 1765391097,
    "wof:geom_alt": [
      "quattroshapes_pg",
      "quattroshapes"
    ],
    "wof:geomhash": "da41ff69613c85099bd44693fe4aa985",
    "wof:hierarchy": [
      {
        "borough_id": 1158857287,
        "continent_id": 102191581,
        "country_id": 85633159,
        "county_id": 1880771825,
        "empire_id": 136253055,
        "locality_id": 101750367,
        "macrocounty_id": 1880762179,
        "macroregion_id": 404227469,
        "neighbourhood_id": 85788761,
        "region_id": 1880762729
      }
    ],
    "wof:id": 85788761,
    "wof:lang": [
      "eng"
    ],
    "wof:lastmodified": 1765391097,
    "wof:name": "Leyton",
    "wof:parent_id": 1158857287,
    "wof:placetype": "neighbourhood",
    "wof:population": 14184,
    "wof:population_rank": 6,
    "wof:repo": "whosonfirst-data-admin-gb",
    "wof:superseded_by": [],
    "wof:supersedes": [],
    "wof:tags": []
  },
  "bbox": [
    -0.02818,
    51.551635,
    0.005969,
    51.573656
  ],
  "geometry": {"type":"MultiPolygon","coordinates":[[[[-0.004779,51.57139],[-0.002747,51.5703],[-0.000714,51.57139],[-0,51.570241],[0,51.568534],[0.002747,51.568534],[0.002747,51.567593],[0.004174,51.566827],[0.004532,51.566636],[0.005009,51.566789],[0.005493,51.5664],[0.005746,51.566197],[0.005969,51.56512],[0.005493,51.564354],[0.005493,51.563412],[0.005493,51.561705],[0.002747,51.561705],[0.002747,51.559997],[0.002747,51.559939],[0.00092,51.558959],[0.00111,51.557436],[0.001428,51.556582],[0.000714,51.555434],[0.000598,51.554874],[0,51.554874],[-0.002747,51.554874],[-0.002747,51.553167],[-0.002747,51.553108],[-0.005493,51.551635],[-0.00824,51.553108],[-0.00824,51.553167],[-0.00824,51.554874],[-0.010986,51.554874],[-0.011517,51.554021],[-0.013202,51.554021],[-0.013733,51.554874],[-0.016003,51.554874],[-0.016479,51.554874],[-0.018362,51.554874],[-0.018471,51.555176],[-0.018828,51.55534],[-0.01916,51.555492],[-0.019226,51.555523],[-0.019226,51.55564],[-0.019226,51.556582],[-0.021542,51.556582],[-0.021934,51.556757],[-0.021973,51.556776],[-0.021973,51.55829],[-0.024201,51.55829],[-0.024204,51.558297],[-0.024278,51.558486],[-0.024378,51.558656],[-0.024447,51.558748],[-0.024545,51.558878],[-0.024656,51.558982],[-0.024759,51.559072],[-0.02495,51.559238],[-0.025139,51.559397],[-0.025534,51.559692],[-0.025891,51.559923],[-0.026201,51.560065],[-0.026372,51.560142],[-0.026506,51.560203],[-0.026853,51.560367],[-0.027532,51.560676],[-0.027891,51.560808],[-0.027998,51.560853],[-0.02818,51.561146],[-0.028064,51.561705],[-0.027466,51.561705],[-0.024719,51.561705],[-0.024719,51.563412],[-0.024719,51.563471],[-0.021973,51.564944],[-0.021973,51.566827],[-0.021973,51.566827],[-0.021973,51.56871],[-0.021973,51.570241],[-0.021021,51.570241],[-0.017431,51.570241],[-0.017078,51.571949],[-0.016479,51.571949],[-0.013733,51.571949],[-0.013733,51.573656],[-0.010986,51.573656],[-0.00824,51.573656],[-0.00824,51.571949],[-0.005493,51.571949],[-0.004895,51.571949],[-0.004779,51.57139]]]]}
}
