{
  "id": 1125985615,
  "type": "Feature",
  "properties": {
    "edtf:cessation": "",
    "edtf:inception": "",
    "geom:area": 0,
    "geom:area_square_m": 0,
    "geom:bbox": "-5.536060,56.180940,-5.536060,56.180940",
    "geom:latitude": 56.18094,
    "geom:longitude": -5.53606,
    "gn:country": "GB",
    "gn:fcode": "PPL",
    "gn:population": 0,
    "iso:country": "GB",
    "lbl:bbox": "-5.55606,56.16094,-5.51606,56.20094",
    "lbl:latitude": 56.18094,
    "lbl:longitude": -5.53606,
    "lbl:max_zoom": 18,
    "lbl:min_zoom": 13.5,
    "mz:hierarchy_label": 1,
    "mz:is_current": 1,
    "mz:min_zoom": 12,
    "mz:note": "Quattroshapes Point Gazetteer import 20170519",
    "name:deu_x_preferred": [
      "Ardfern"
    ],
    "name:eng_x_preferred": [
      "Ardfern"
    ],
    "name:eus_x_preferred": [
      "Ardfern"
    ],
    "name:fra_x_preferred": [
      "Ardfern"
    ],
    "name:gla_x_preferred": [
      "Àird Fheàrna"
    ],
    "name:gle_x_preferred": [
      "Aird Fheárna"
    ],
    "name:gle_x_variant": [
      "Àird Fheàrna"
    ],
    "name:nld_x_preferred": [
      "Ardfern"
    ],
    "name:swe_x_preferred": [
      "Ardfern"
    ],
    "qs_pg:aaroncc": "GB",
    "qs_pg:gn_country": "GB",
    "qs_pg:gn_fcode": "PPL",
    "qs_pg:gn_id": 2657184,
    "qs_pg:gn_pop": 0,
    "qs_pg:name": "Ardfern",
    "qs_pg:name_adm0": "United Kingdom",
    "qs_pg:name_adm1": "Scotland",
    "qs_pg:photos": 279,
    "qs_pg:photos_1k": 57,
    "qs_pg:photos_9k": 1,
    "qs_pg:photos_9r": 4,
    "qs_pg:photos_all": 279,
    "qs_pg:photos_sr": 5,
    "qs_pg:pop_sr": 0,
    "qs_pg:qs_id": 1301335,
    "qs_pg:qs_pg_placetype": "locality",
    "qs_pg:qs_pg_placetype_gp": "Town",
    "qs_pg:woe_adm0": 23424975,
    "qs_pg:woe_id": 10936,
    "src:geom": "qs_pg",
    "src:lbl_centroid": "qs_pg",
    "src:population": "wikidata",
    "woe:adm0_id": 23424975,
    "woe:name_adm0": "United Kingdom",
    "woe:name_adm1": "Scotland",
    "woe:placetype": "Town",
    "wof:belongsto": [
      1880772977,
      102191581,
      85633159,
      1880762047,
      404227471,
      136253055,
      1360698863
    ],
    "wof:breaches": [],
    "wof:concordances": {
      "gn:id": 2657184,
      "gp:id": 10936,
      "qs_pg:id": 1301335,
      "wd:id": "Q723319"
    },
    "wof:country": "GB",
    "wof:created": 1497298789,
    "wof:geomhash": "9cb578c999ae738eab65ef8b50b2824f",
    "wof:hierarchy": [
      {
        "continent_id": 102191581,
        "country_id": 85633159,
        "county_id": 1360698863,
        "empire_id": 136253055,
        "locality_id": 1125985615,
        "macrocounty_id": 1880762047,
        "macroregion_id": 404227471,
        "region_id": 1880772977
      }
    ],
    "wof:id": 1125985615,
    "wof:lastmodified": 1765387306,
    "wof:name": "Ardfern",
    "wof:parent_id": 1360698863,
    "wof:placetype": "locality",
    "wof:population": 400,
    "wof:population_rank": 2,
    "wof:repo": "whosonfirst-data-admin-gb",
    "wof:superseded_by": [],
    "wof:supersedes": [],
    "wof:tags": []
  },
  "bbox": [
    -5.53606,
    56.18094,
    -5.53606,
    56.18094
  ],
  "geometry": {"type":"Point","coordinates":[-5.53606,56.18094]}
}
