{
  "id": 1125914387,
  "type": "Feature",
  "properties": {
    "edtf:cessation": "",
    "edtf:inception": "",
    "geom:area": 0,
    "geom:area_square_m": 0,
    "geom:bbox": "-4.638290,56.100910,-4.638290,56.100910",
    "geom:latitude": 56.10091,
    "geom:longitude": -4.63829,
    "gn:country": "GB",
    "gn:fcode": "PPL",
    "gn:population": 0,
    "iso:country": "GB",
    "lbl:bbox": "-4.65829,56.08091,-4.61829,56.12091",
    "lbl:latitude": 56.10091,
    "lbl:longitude": -4.63829,
    "lbl:max_zoom": 18,
    "lbl:min_zoom": 13.5,
    "mz:hierarchy_label": 1,
    "mz:is_current": 1,
    "mz:min_zoom": 12,
    "mz:note": "Quattroshapes Point Gazetteer import 20170519",
    "name:afr_x_preferred": [
      "Luss"
    ],
    "name:deu_x_preferred": [
      "Luss"
    ],
    "name:eng_x_preferred": [
      "Luss"
    ],
    "name:eus_x_preferred": [
      "Luss"
    ],
    "name:fas_x_preferred": [
      "لاس"
    ],
    "name:fra_x_preferred": [
      "Luss"
    ],
    "name:gla_x_preferred": [
      "Lus"
    ],
    "name:gle_x_preferred": [
      "Lus"
    ],
    "name:heb_x_preferred": [
      "סשה לוס"
    ],
    "name:ita_x_preferred": [
      "Luss"
    ],
    "name:jpn_x_preferred": [
      "ルス"
    ],
    "name:nld_x_preferred": [
      "Luss"
    ],
    "name:pol_x_preferred": [
      "Luss"
    ],
    "name:por_x_preferred": [
      "Luss"
    ],
    "name:rus_x_preferred": [
      "Ласс"
    ],
    "name:swe_x_preferred": [
      "Luss"
    ],
    "qs_pg:aaroncc": "GB",
    "qs_pg:gn_country": "GB",
    "qs_pg:gn_fcode": "PPL",
    "qs_pg:gn_id": 2643351,
    "qs_pg:gn_pop": 0,
    "qs_pg:name": "Luss",
    "qs_pg:name_adm0": "United Kingdom",
    "qs_pg:name_adm1": "Scotland",
    "qs_pg:photos": 3859,
    "qs_pg:photos_1k": 782,
    "qs_pg:photos_9k": 17,
    "qs_pg:photos_9r": 12,
    "qs_pg:photos_all": 3859,
    "qs_pg:photos_sr": 22,
    "qs_pg:pop_sr": 0,
    "qs_pg:qs_id": 391122,
    "qs_pg:qs_pg_placetype": "locality",
    "qs_pg:qs_pg_placetype_gp": "Town",
    "qs_pg:woe_adm0": 23424975,
    "qs_pg:woe_id": 27990,
    "src:geom": "qs_pg",
    "src:lbl_centroid": "qs_pg",
    "src:population": "wikidata",
    "woe:adm0_id": 23424975,
    "woe:name_adm0": "United Kingdom",
    "woe:name_adm1": "Scotland",
    "woe:placetype": "Town",
    "wof:belongsto": [
      1880772977,
      102191581,
      85633159,
      1880762047,
      404227471,
      136253055,
      1360698863
    ],
    "wof:breaches": [],
    "wof:concordances": {
      "gn:id": 2643351,
      "gp:id": 27990,
      "qs_pg:id": 391122,
      "wd:id": "Q1016323"
    },
    "wof:country": "GB",
    "wof:created": 1497296264,
    "wof:geomhash": "5629070e1e8c5b832a82d732c980e983",
    "wof:hierarchy": [
      {
        "continent_id": 102191581,
        "country_id": 85633159,
        "county_id": 1360698863,
        "empire_id": 136253055,
        "locality_id": 1125914387,
        "macrocounty_id": 1880762047,
        "macroregion_id": 404227471,
        "region_id": 1880772977
      }
    ],
    "wof:id": 1125914387,
    "wof:lastmodified": 1765386624,
    "wof:name": "Luss",
    "wof:parent_id": 1360698863,
    "wof:placetype": "locality",
    "wof:population": 450,
    "wof:population_rank": 2,
    "wof:repo": "whosonfirst-data-admin-gb",
    "wof:superseded_by": [],
    "wof:supersedes": [],
    "wof:tags": []
  },
  "bbox": [
    -4.63829,
    56.10091,
    -4.63829,
    56.10091
  ],
  "geometry": {"type":"Point","coordinates":[-4.63829,56.10091]}
}
