{
  "id": 1243201003,
  "type": "Feature",
  "properties": {
    "edtf:cessation": "",
    "edtf:inception": "",
    "geom:area": 0,
    "geom:area_square_m": 0,
    "geom:bbox": "-2.737190,55.518240,-2.737190,55.518240",
    "geom:latitude": 55.51824,
    "geom:longitude": -2.73719,
    "gn:admin1_code": "SCT",
    "gn:admin2_code": "T9",
    "gn:asciiname": "Lilliesleaf",
    "gn:country_code": "GB",
    "gn:dem": 150,
    "gn:feature_class": "P",
    "gn:feature_code": "PPL",
    "gn:geonameid": 2644507,
    "gn:latitude": 55.51824,
    "gn:longitude": -2.73719,
    "gn:modification_date": "2011-03-03",
    "gn:name": "Lilliesleaf",
    "gn:population": 0,
    "gn:timezone": "Europe/London",
    "iso:country": "GB",
    "lbl:bbox": "-2.75719,55.49824,-2.71719,55.53824",
    "lbl:max_zoom": 18,
    "lbl:min_zoom": 13.5,
    "mz:hierarchy_label": 1,
    "mz:is_current": -1,
    "mz:min_zoom": 12,
    "name:ceb_x_preferred": [
      "Lilliesleaf"
    ],
    "name:eus_x_preferred": [
      "Lilliesleaf"
    ],
    "name:gla_x_preferred": [
      "Lilliesleaf"
    ],
    "name:swe_x_preferred": [
      "Lilliesleaf"
    ],
    "src:geom": "geonames",
    "src:population": "wikidata",
    "wof:belongsto": [
      1880773105,
      102191581,
      85633159,
      1880761991,
      404227471,
      1360699015
    ],
    "wof:breaches": [],
    "wof:concordances": {
      "gn:id": 2644507,
      "wk:page": "Lilliesleaf"
    },
    "wof:country": "GB",
    "wof:created": 1765388362,
    "wof:geomhash": "737b5e1f4c3c2660626b920ec1044009",
    "wof:hierarchy": [
      {
        "continent_id": 102191581,
        "country_id": 85633159,
        "county_id": 1360699015,
        "locality_id": 1243201003,
        "macrocounty_id": 1880761991,
        "macroregion_id": 404227471,
        "region_id": 1880773105
      }
    ],
    "wof:id": 1243201003,
    "wof:lastmodified": 1765388362,
    "wof:name": "Lilliesleaf",
    "wof:parent_id": 1360699015,
    "wof:placetype": "locality",
    "wof:population": 365,
    "wof:population_rank": 2,
    "wof:repo": "whosonfirst-data-admin-gb",
    "wof:superseded_by": [],
    "wof:supersedes": [],
    "wof:tags": []
  },
  "bbox": [
    -2.73719,
    55.51824,
    -2.73719,
    55.51824
  ],
  "geometry": {"type":"Point","coordinates":[-2.73719,55.51824]}
}
