{
  "id": 85860347,
  "type": "Feature",
  "properties": {
    "edtf:cessation": "",
    "edtf:inception": "",
    "geom:area": 0.0002294456960000409,
    "geom:area_square_m": 1762811.564245,
    "geom:bbox": "-0.098877,51.578776,-0.079651,51.594135",
    "geom:latitude": 51.586328426722076,
    "geom:longitude": -0.09022380714747522,
    "iso:country": "GB",
    "lbl:latitude": 51.588365,
    "lbl:longitude": -0.090809,
    "lbl:max_zoom": 18,
    "mps:latitude": 51.586455,
    "mps:longitude": -0.091368,
    "mz:hierarchy_label": 1,
    "mz:is_current": 1,
    "mz:is_funky": 0,
    "mz:is_hard_boundary": 0,
    "mz:is_landuse_aoi": 0,
    "mz:is_official": 0,
    "mz:max_zoom": 18,
    "mz:min_zoom": 15,
    "mz:tier_locality": 7,
    "mz:tier_metro": 1,
    "name:eng_x_preferred": [
      "West Green"
    ],
    "name:eng_x_variant": [
      "W Green"
    ],
    "name:fra_x_preferred": [
      "West Green"
    ],
    "name:gle_x_preferred": [
      "West Green"
    ],
    "name:ita_x_preferred": [
      "West Green"
    ],
    "name:urd_x_preferred": [
      "ویسٹ گرین"
    ],
    "qs:gn_id": 0,
    "qs:id": 0,
    "qs:local_max": 40697,
    "qs:local_sum": 1675717,
    "qs:localhoods": 643,
    "qs:name": "West Green",
    "qs:name_adm0": "United Kingdom",
    "qs:name_adm1": "England",
    "qs:name_adm2": "Greater London",
    "qs:name_lau": "London Borough of Haringey",
    "qs:name_local": "London",
    "qs:photo_max": 213,
    "qs:photo_sum": 1378,
    "qs:placetype": "Suburb",
    "qs:quad_count": 42,
    "qs:woe_adm0": 23424975,
    "qs:woe_adm1": 24554868,
    "qs:woe_adm2": 23416974,
    "qs:woe_lau": 12695810,
    "qs:woe_local": 44418,
    "qs:woe_ver": "7.10.0",
    "src:geom": "quattroshapes",
    "src:geom_alt": [],
    "src:lbl_centroid": "mz",
    "src:population": "wikidata",
    "wof:belongsto": [
      1880762729,
      102191581,
      1880762179,
      85633159,
      404227469,
      101750367,
      136253055,
      1158857279,
      1880771825
    ],
    "wof:breaches": [],
    "wof:concordances": {
      "fct:id": "0ab4607a-8f76-11e1-848f-cfd5bf3ef515",
      "gn:id": 6621550,
      "gp:id": 20428,
      "qs_pg:id": 1141109,
      "wd:id": "Q4019077",
      "wk:page": "West Green, West Sussex"
    },
    "wof:country": "GB",
    "wof:created": 1765391325,
    "wof:geomhash": "e0bd3308fa94b5ea944a1c6576091584",
    "wof:hierarchy": [
      {
        "borough_id": 1158857279,
        "continent_id": 102191581,
        "country_id": 85633159,
        "county_id": 1880771825,
        "empire_id": 136253055,
        "locality_id": 101750367,
        "macrocounty_id": 1880762179,
        "macroregion_id": 404227469,
        "neighbourhood_id": 85860347,
        "region_id": 1880762729
      }
    ],
    "wof:id": 85860347,
    "wof:lang": [
      "eng"
    ],
    "wof:lastmodified": 1765391325,
    "wof:name": "West Green",
    "wof:parent_id": 1158857279,
    "wof:placetype": "neighbourhood",
    "wof:population": 13372,
    "wof:population_rank": 6,
    "wof:repo": "whosonfirst-data-admin-gb",
    "wof:superseded_by": [],
    "wof:supersedes": [],
    "wof:tags": []
  },
  "bbox": [
    -0.098877,
    51.578776,
    -0.079651,
    51.594135
  ],
  "geometry": {"type":"Polygon","coordinates":[[[-0.087891,51.594135],[-0.087891,51.591576],[-0.085674,51.591576],[-0.085144,51.590723],[-0.085144,51.589016],[-0.082397,51.589016],[-0.082397,51.58731],[-0.079651,51.58731],[-0.079651,51.585603],[-0.079651,51.583897],[-0.079651,51.58219],[-0.079651,51.580483],[-0.082397,51.580483],[-0.085144,51.580483],[-0.085674,51.57963],[-0.08736,51.57963],[-0.087891,51.578776],[-0.090637,51.578776],[-0.093384,51.578776],[-0.093384,51.580483],[-0.09613,51.580483],[-0.09613,51.58219],[-0.098401,51.58219],[-0.098401,51.58219],[-0.098877,51.58219],[-0.098877,51.582956],[-0.098877,51.583897],[-0.098877,51.585603],[-0.098877,51.58731],[-0.098877,51.589016],[-0.098877,51.590723],[-0.098877,51.592429],[-0.098877,51.594135],[-0.09613,51.594135],[-0.093384,51.594135],[-0.087891,51.594135]]]}
}
