{
  "id": 1125802347,
  "type": "Feature",
  "properties": {
    "edtf:cessation": "",
    "edtf:inception": "",
    "geom:area": 0,
    "geom:area_square_m": 0,
    "geom:bbox": "-5.823320,56.972190,-5.823320,56.972190",
    "geom:latitude": 56.97219,
    "geom:longitude": -5.82332,
    "gn:country": "GB",
    "gn:fcode": "PPL",
    "gn:population": 0,
    "iso:country": "GB",
    "lbl:bbox": "-5.84332,56.95219,-5.80332,56.99219",
    "lbl:latitude": 56.97219,
    "lbl:longitude": -5.82332,
    "lbl:max_zoom": 18,
    "lbl:min_zoom": 13.5,
    "mz:hierarchy_label": 1,
    "mz:is_current": 1,
    "mz:min_zoom": 12,
    "mz:note": "Quattroshapes Point Gazetteer import 20170519",
    "name:cat_x_preferred": [
      "Morar"
    ],
    "name:ceb_x_preferred": [
      "Morar"
    ],
    "name:deu_x_preferred": [
      "Morar"
    ],
    "name:eng_x_preferred": [
      "Morar"
    ],
    "name:eus_x_preferred": [
      "Morar"
    ],
    "name:gla_x_preferred": [
      "Mòrar"
    ],
    "name:gle_x_preferred": [
      "Mórar"
    ],
    "name:gle_x_variant": [
      "Mòrar"
    ],
    "name:nld_x_preferred": [
      "Morar"
    ],
    "name:pnb_x_preferred": [
      "مارر"
    ],
    "name:swe_x_preferred": [
      "Morar"
    ],
    "name:ukr_x_preferred": [
      "Морар"
    ],
    "qs_pg:aaroncc": "GB",
    "qs_pg:gn_country": "GB",
    "qs_pg:gn_fcode": "PPL",
    "qs_pg:gn_id": 6692509,
    "qs_pg:gn_pop": 0,
    "qs_pg:name": "Morar",
    "qs_pg:name_adm0": "United Kingdom",
    "qs_pg:name_adm1": "Scotland",
    "qs_pg:photos": 540,
    "qs_pg:photos_1k": 109,
    "qs_pg:photos_9k": 2,
    "qs_pg:photos_9r": 5,
    "qs_pg:photos_all": 540,
    "qs_pg:photos_sr": 7,
    "qs_pg:pop_sr": 0,
    "qs_pg:qs_id": 1164750,
    "qs_pg:qs_pg_placetype": "locality",
    "qs_pg:qs_pg_placetype_gp": "Town",
    "qs_pg:woe_adm0": 23424975,
    "qs_pg:woe_id": 29299,
    "src:geom": "qs_pg",
    "src:lbl_centroid": "qs_pg",
    "src:population": "wikidata",
    "woe:adm0_id": 23424975,
    "woe:name_adm0": "United Kingdom",
    "woe:name_adm1": "Scotland",
    "woe:placetype": "Town",
    "wof:belongsto": [
      1880762005,
      1360699045
    ],
    "wof:breaches": [],
    "wof:concordances": {
      "gn:id": 6692509,
      "gp:id": 29299,
      "qs_pg:id": 1164750,
      "wd:id": "Q1947185"
    },
    "wof:country": "GB",
    "wof:created": 1497291322,
    "wof:geomhash": "9a23ab861d0b4f315ce93b5fcab60d1b",
    "wof:hierarchy": [
      {
        "continent_id": -1,
        "country_id": -1,
        "county_id": 1360699045,
        "locality_id": 1125802347,
        "macrocounty_id": 1880762005,
        "region_id": -1
      }
    ],
    "wof:id": 1125802347,
    "wof:lastmodified": 1765385575,
    "wof:name": "Morar",
    "wof:parent_id": 1360699045,
    "wof:placetype": "locality",
    "wof:population": 257,
    "wof:population_rank": 2,
    "wof:repo": "whosonfirst-data-admin-gb",
    "wof:superseded_by": [],
    "wof:supersedes": [],
    "wof:tags": []
  },
  "bbox": [
    -5.82332,
    56.97219,
    -5.82332,
    56.97219
  ],
  "geometry": {"type":"Point","coordinates":[-5.82332,56.97219]}
}
