{
  "id": 420784511,
  "type": "Feature",
  "properties": {
    "edtf:cessation": "",
    "edtf:inception": "",
    "geom:area": 0,
    "geom:area_square_m": 0,
    "geom:bbox": "-2.233126,53.417107,-2.233126,53.417107",
    "geom:latitude": 53.417107,
    "geom:longitude": -2.233126,
    "gn:admin1_code": "ENG",
    "gn:admin2_code": "I2",
    "gn:admin3_code": "00BN001",
    "gn:asciiname": "Didsbury",
    "gn:country_code": "GB",
    "gn:dem": 40,
    "gn:feature_class": "P",
    "gn:feature_code": "PPL",
    "gn:geonameid": 6620310,
    "gn:latitude": 53.41698,
    "gn:longitude": -2.23145,
    "gn:modification_date": "2011-03-03",
    "gn:name": "Didsbury",
    "gn:population": 14292,
    "gn:timezone": "Europe/London",
    "iso:country": "GB",
    "lbl:bbox": "-2.23812593657,53.4121065552,-2.22812593657,53.4221065552",
    "lbl:latitude": 53.417107,
    "lbl:longitude": -2.233126,
    "lbl:max_zoom": 18,
    "mz:hierarchy_label": 1,
    "mz:is_current": -1,
    "mz:is_funky": 0,
    "mz:is_hard_boundary": 0,
    "mz:is_landuse_aoi": 0,
    "mz:is_official": 0,
    "mz:max_zoom": 18,
    "mz:min_zoom": 13,
    "mz:tier_locality": 0,
    "name:ast_x_preferred": [
      "Didsbury"
    ],
    "name:cat_x_preferred": [
      "Didsbury"
    ],
    "name:ceb_x_preferred": [
      "Didsbury"
    ],
    "name:cym_x_preferred": [
      "Didsbury"
    ],
    "name:deu_x_preferred": [
      "Didsbury"
    ],
    "name:ell_x_preferred": [
      "Ντίντσμπουρι"
    ],
    "name:eng_x_preferred": [
      "Didsbury"
    ],
    "name:fas_x_preferred": [
      "دیدزبری"
    ],
    "name:fra_x_preferred": [
      "Didsbury"
    ],
    "name:gle_x_preferred": [
      "Didsbury"
    ],
    "name:heb_x_preferred": [
      "דידסבורי"
    ],
    "name:ita_x_preferred": [
      "Didsbury"
    ],
    "name:jpn_x_preferred": [
      "ディズベリ"
    ],
    "name:lld_x_preferred": [
      "Didsbury"
    ],
    "name:nld_x_preferred": [
      "Didsbury"
    ],
    "name:nob_x_preferred": [
      "Didsbury"
    ],
    "name:pol_x_preferred": [
      "Didsbury"
    ],
    "name:por_x_preferred": [
      "Didsbury"
    ],
    "name:rus_x_preferred": [
      "Дидсбери"
    ],
    "name:sco_x_preferred": [
      "Didsbury"
    ],
    "name:spa_x_preferred": [
      "Didsbury"
    ],
    "name:swe_x_preferred": [
      "Didsbury"
    ],
    "name:zho_x_preferred": [
      "迪兹伯利"
    ],
    "src:geom": "unknown",
    "src:population": "wikidata",
    "wd:wordcount": 5429,
    "wof:belongsto": [
      102191581,
      85633159,
      1880762163,
      404227469,
      101750525,
      136253055,
      1360698893,
      1880773095
    ],
    "wof:breaches": [],
    "wof:concordances": {
      "gn:id": 6620310,
      "gp:id": 18170,
      "qs_pg:id": 1074121,
      "wd:id": "Q1210672",
      "wk:page": "Didsbury"
    },
    "wof:concordances_alt": {
      "gn:id": [
        6620310
      ]
    },
    "wof:country": "GB",
    "wof:created": 1458871929,
    "wof:geomhash": "ed3cab30462be25a30c31e835379401b",
    "wof:hierarchy": [
      {
        "continent_id": 102191581,
        "country_id": 85633159,
        "county_id": 1360698893,
        "empire_id": 136253055,
        "locality_id": 101750525,
        "macrocounty_id": 1880762163,
        "macroregion_id": 404227469,
        "neighbourhood_id": 420784511,
        "region_id": 1880773095
      }
    ],
    "wof:id": 420784511,
    "wof:lastmodified": 1765390911,
    "wof:name": "Didsbury",
    "wof:parent_id": 101750525,
    "wof:placetype": "neighbourhood",
    "wof:population": 26788,
    "wof:population_rank": 7,
    "wof:repo": "whosonfirst-data-admin-gb",
    "wof:superseded_by": [],
    "wof:supersedes": [
      1360806553
    ],
    "wof:tags": []
  },
  "bbox": [
    -2.233126,
    53.417107,
    -2.233126,
    53.417107
  ],
  "geometry": {"type":"Point","coordinates":[-2.233126,53.417107]}
}
