{
  "id": 85791541,
  "type": "Feature",
  "properties": {
    "edtf:cessation": "",
    "edtf:inception": "",
    "geom:area": 0.00029992268149999255,
    "geom:area_square_m": 2314894.306826,
    "geom:bbox": "-0.021973,51.363393,-0.005493,51.387209",
    "geom:latitude": 51.37578532156804,
    "geom:longitude": -0.013194400149679911,
    "gn:latitude": 51.36667,
    "gn:longitude": -0.01667,
    "gn:population": 14276,
    "iso:country": "GB",
    "lbl:latitude": 51.37296,
    "lbl:longitude": -0.008634,
    "lbl:max_zoom": 18,
    "mps:latitude": 51.376221,
    "mps:longitude": -0.01335,
    "mz:hierarchy_label": 1,
    "mz:is_current": 1,
    "mz:is_funky": 0,
    "mz:is_hard_boundary": 0,
    "mz:is_landuse_aoi": 0,
    "mz:is_official": 0,
    "mz:max_zoom": 18,
    "mz:min_zoom": 15,
    "mz:tier_locality": 7,
    "mz:tier_metro": 1,
    "name:bel_x_preferred": [
      "Уэст-Уікэм"
    ],
    "name:cat_x_preferred": [
      "West Wickham"
    ],
    "name:ceb_x_preferred": [
      "West Wickham"
    ],
    "name:deu_x_preferred": [
      "West Wickham"
    ],
    "name:eng_x_preferred": [
      "West Wickham"
    ],
    "name:fra_x_preferred": [
      "West Wickham"
    ],
    "name:gle_x_preferred": [
      "West Wickham"
    ],
    "name:hin_x_preferred": [
      "वेस्ट विकहम"
    ],
    "name:jpn_x_preferred": [
      "ウェストウィッカム"
    ],
    "name:jpn_x_variant": [
      "ウェスト・ウィッカム"
    ],
    "name:kor_x_preferred": [
      "웨스트윅햄"
    ],
    "name:pol_x_preferred": [
      "West Wickham"
    ],
    "name:rus_x_preferred": [
      "Вест-Уикхэм"
    ],
    "name:spa_x_preferred": [
      "West Wickham"
    ],
    "name:swe_x_preferred": [
      "West Wickham"
    ],
    "name:urd_x_preferred": [
      "ویسٹ وکہم"
    ],
    "name:zho_x_preferred": [
      "西威肯汉"
    ],
    "name:zho_x_variant": [
      "西威克姆"
    ],
    "qs:gn_adm0_cc": "GB",
    "qs:gn_fcode": "PPL",
    "qs:gn_local": 2643743,
    "qs:gn_namadm1": "ENG",
    "qs:gn_name": "West Wickham",
    "qs:local_max": 40697,
    "qs:local_sum": 1675717,
    "qs:localhoods": 643,
    "qs:name": "West Wickham",
    "qs:name_adm0": "United Kingdom",
    "qs:name_adm1": "England",
    "qs:name_adm2": "Greater London",
    "qs:name_lau": "London Borough of Bromley",
    "qs:name_local": "London",
    "qs:photo_max": 146,
    "qs:photo_sum": 342,
    "qs:placetype": "Suburb",
    "qs:quad_count": 20,
    "qs:woe_adm0": 23424975,
    "qs:woe_adm1": 24554868,
    "qs:woe_adm2": 23416974,
    "qs:woe_funk": "Grouping neighborhood",
    "qs:woe_lau": 12695824,
    "qs:woe_local": 44418,
    "qs:woe_ver": "7.10.0",
    "src:geom": "quattroshapes",
    "src:geom_alt": [
      "quattroshapes_pg"
    ],
    "src:lbl_centroid": "mz",
    "src:population": "wikidata",
    "wd:wordcount": 953,
    "wof:belongsto": [
      1880762729,
      102191581,
      1880762179,
      85633159,
      404227469,
      101750367,
      136253055,
      1158857297,
      1880771825
    ],
    "wof:breaches": [],
    "wof:concordances": {
      "gn:id": 2634234,
      "gp:id": 39838,
      "qs_pg:id": 1315139,
      "wd:id": "Q124021",
      "wk:page": "West Wickham"
    },
    "wof:country": "GB",
    "wof:created": 1765391229,
    "wof:geom_alt": [
      "quattroshapes_pg"
    ],
    "wof:geomhash": "90dc1a0c80a1be0e3f1033b93e1d4a14",
    "wof:hierarchy": [
      {
        "borough_id": 1158857297,
        "continent_id": 102191581,
        "country_id": 85633159,
        "county_id": 1880771825,
        "empire_id": 136253055,
        "locality_id": 101750367,
        "macrocounty_id": 1880762179,
        "macroregion_id": 404227469,
        "neighbourhood_id": 85791541,
        "region_id": 1880762729
      }
    ],
    "wof:id": 85791541,
    "wof:lang": [
      "eng"
    ],
    "wof:lastmodified": 1765391229,
    "wof:name": "West Wickham",
    "wof:parent_id": 1158857297,
    "wof:placetype": "neighbourhood",
    "wof:population": 14884,
    "wof:population_rank": 6,
    "wof:repo": "whosonfirst-data-admin-gb",
    "wof:superseded_by": [],
    "wof:supersedes": [],
    "wof:tags": []
  },
  "bbox": [
    -0.021973,
    51.363393,
    -0.005493,
    51.387209
  ],
  "geometry": {"type":"Polygon","coordinates":[[[-0.008356,51.368351],[-0.009072,51.367969],[-0.009974,51.368258],[-0.010986,51.366636],[-0.011999,51.365015],[-0.012901,51.365304],[-0.013616,51.364921],[-0.016479,51.363393],[-0.019226,51.364859],[-0.019226,51.364921],[-0.019226,51.366636],[-0.021489,51.370262],[-0.01997,51.372],[-0.021973,51.375209],[-0.021973,51.375209],[-0.021973,51.378638],[-0.021973,51.378638],[-0.021973,51.378638],[-0.019833,51.382067],[-0.019226,51.382553],[-0.019226,51.382623],[-0.016479,51.385263],[-0.016479,51.385495],[-0.010986,51.385495],[-0.010986,51.385495],[-0.009917,51.387209],[-0.005609,51.387209],[-0.005493,51.3869],[-0.005493,51.385495],[-0.005493,51.382067],[-0.005493,51.382067],[-0.005493,51.378638],[-0.005493,51.378638],[-0.005493,51.375209],[-0.005493,51.375209],[-0.005493,51.37178],[-0.005493,51.37178],[-0.005493,51.36988],[-0.005493,51.368351],[-0.008356,51.368351]]]}
}
