{
  "id": 1125866045,
  "type": "Feature",
  "properties": {
    "edtf:cessation": "",
    "edtf:inception": "",
    "geom:area": 0,
    "geom:area_square_m": 0,
    "geom:bbox": "-3.033770,56.171490,-3.033770,56.171490",
    "geom:latitude": 56.17149,
    "geom:longitude": -3.03377,
    "gn:country": "GB",
    "gn:fcode": "PPL",
    "gn:population": 16063,
    "iso:country": "GB",
    "lbl:bbox": "-3.05377,56.15149,-3.01377,56.19149",
    "lbl:latitude": 56.17149,
    "lbl:longitude": -3.03377,
    "lbl:max_zoom": 15,
    "lbl:min_zoom": 11.5,
    "mz:hierarchy_label": 1,
    "mz:is_current": 1,
    "mz:min_zoom": 11,
    "mz:note": "Quattroshapes Point Gazetteer import 20170519",
    "name:ast_x_preferred": [
      "Buckhaven"
    ],
    "name:ben_x_preferred": [
      "বাকহ্যাভেন"
    ],
    "name:ceb_x_preferred": [
      "Buckhaven"
    ],
    "name:cym_x_preferred": [
      "Buckhaven"
    ],
    "name:deu_x_preferred": [
      "Buckhaven"
    ],
    "name:eng_x_preferred": [
      "Buckhaven"
    ],
    "name:eus_x_preferred": [
      "Buckhaven"
    ],
    "name:fas_x_preferred": [
      "باکهون"
    ],
    "name:fra_x_preferred": [
      "Buckhaven"
    ],
    "name:gla_x_preferred": [
      "Baile 'Ic Eòghainn"
    ],
    "name:gle_x_preferred": [
      "Baile 'Ic Eóghainn"
    ],
    "name:guj_x_preferred": [
      "બકહેવન"
    ],
    "name:ita_x_preferred": [
      "Buckhaven"
    ],
    "name:jpn_x_preferred": [
      "バックヘイブン"
    ],
    "name:kan_x_preferred": [
      "ಬಕ್ಹೇವನ್"
    ],
    "name:kor_x_preferred": [
      "버캐븐"
    ],
    "name:lit_x_preferred": [
      "Bakheivenas"
    ],
    "name:nld_x_preferred": [
      "Buckhaven"
    ],
    "name:por_x_preferred": [
      "Buckhaven"
    ],
    "name:rus_x_preferred": [
      "Бакхейвен"
    ],
    "name:sco_x_preferred": [
      "Buckhynde"
    ],
    "name:spa_x_preferred": [
      "Buckhaven"
    ],
    "name:swe_x_preferred": [
      "Buckhaven"
    ],
    "name:tam_x_preferred": [
      "பக்ஹேவன்"
    ],
    "name:tel_x_preferred": [
      "బుక్హవెన్"
    ],
    "name:ukr_x_preferred": [
      "Бакгейвен"
    ],
    "name:urd_x_preferred": [
      "بوکہاوین"
    ],
    "name:zho_x_preferred": [
      "巴克黑文"
    ],
    "qs_pg:aaroncc": "GB",
    "qs_pg:gn_country": "GB",
    "qs_pg:gn_fcode": "PPL",
    "qs_pg:gn_id": 2654415,
    "qs_pg:gn_pop": 16063,
    "qs_pg:name": "Buckhaven",
    "qs_pg:name_adm0": "United Kingdom",
    "qs_pg:name_adm1": "Scotland",
    "qs_pg:photos_9r": 0,
    "qs_pg:photos_sr": 0,
    "qs_pg:pop_sr": 6,
    "qs_pg:qs_id": 178864,
    "qs_pg:qs_pg_placetype": "locality",
    "qs_pg:qs_pg_placetype_gp": "Town",
    "qs_pg:woe_adm0": 23424975,
    "qs_pg:woe_id": 14380,
    "src:geom": "qs_pg",
    "src:lbl_centroid": "qs_pg",
    "src:population": "wikidata",
    "woe:adm0_id": 23424975,
    "woe:name_adm0": "United Kingdom",
    "woe:name_adm1": "Scotland",
    "woe:placetype": "Town",
    "wof:belongsto": [
      1880762125,
      1360699123
    ],
    "wof:breaches": [],
    "wof:concordances": {
      "gn:id": 2654415,
      "gp:id": 14380,
      "qs_pg:id": 178864,
      "wd:id": "Q1016877"
    },
    "wof:country": "GB",
    "wof:created": 1497294043,
    "wof:geomhash": "b33424adbcf01abd6da862ebae0a15a0",
    "wof:hierarchy": [
      {
        "continent_id": -1,
        "country_id": -1,
        "county_id": 1360699123,
        "locality_id": 1125866045,
        "macrocounty_id": 1880762125,
        "region_id": -1
      }
    ],
    "wof:id": 1125866045,
    "wof:lastmodified": 1765385959,
    "wof:name": "Buckhaven",
    "wof:parent_id": 1360699123,
    "wof:placetype": "locality",
    "wof:population": 4220,
    "wof:population_rank": 4,
    "wof:repo": "whosonfirst-data-admin-gb",
    "wof:superseded_by": [],
    "wof:supersedes": [],
    "wof:tags": []
  },
  "bbox": [
    -3.03377,
    56.17149,
    -3.03377,
    56.17149
  ],
  "geometry": {"type":"Point","coordinates":[-3.03377,56.17149]}
}
