{
  "id": 420784543,
  "type": "Feature",
  "properties": {
    "edtf:cessation": "",
    "edtf:inception": "",
    "geom:area": 0,
    "geom:area_square_m": 0,
    "geom:bbox": "-2.353818,53.445777,-2.353818,53.445777",
    "geom:latitude": 53.445777,
    "geom:longitude": -2.353818,
    "iso:country": "GB",
    "lbl:bbox": "-2.35881825041,53.4407771387,-2.34881825041,53.4507771387",
    "lbl:latitude": 53.445777,
    "lbl:longitude": -2.353818,
    "lbl:max_zoom": 18,
    "mz:hierarchy_label": 1,
    "mz:is_current": -1,
    "mz:is_funky": 0,
    "mz:is_hard_boundary": 0,
    "mz:is_landuse_aoi": 0,
    "mz:is_official": 0,
    "mz:max_zoom": 18,
    "mz:min_zoom": 13,
    "mz:tier_locality": 0,
    "name:ara_x_preferred": [
      "أورمستون"
    ],
    "name:arz_x_preferred": [
      "اورمستين"
    ],
    "name:ast_x_preferred": [
      "Urmston"
    ],
    "name:bul_x_preferred": [
      "Урмстон"
    ],
    "name:ceb_x_preferred": [
      "Urmston"
    ],
    "name:cym_x_preferred": [
      "Urmston"
    ],
    "name:deu_x_preferred": [
      "Urmston"
    ],
    "name:eng_x_preferred": [
      "Rivergate"
    ],
    "name:eng_x_variant": [
      "Urmston"
    ],
    "name:fas_x_preferred": [
      "اورمستون"
    ],
    "name:fra_x_preferred": [
      "Urmston"
    ],
    "name:gle_x_preferred": [
      "Urmston"
    ],
    "name:heb_x_preferred": [
      "אורמסטון"
    ],
    "name:ita_x_preferred": [
      "Urmston"
    ],
    "name:jpn_x_preferred": [
      "アームストン"
    ],
    "name:lld_x_preferred": [
      "Urmston"
    ],
    "name:pol_x_preferred": [
      "Urmston"
    ],
    "name:rus_x_preferred": [
      "Армстрон"
    ],
    "name:spa_x_preferred": [
      "Urmston"
    ],
    "name:swe_x_preferred": [
      "Urmston"
    ],
    "name:zho_x_preferred": [
      "曼徹斯特"
    ],
    "name:zho_x_variant": [
      "暗士頓"
    ],
    "src:geom": "unknown",
    "src:population": "wikidata",
    "wd:wordcount": 4252,
    "wof:belongsto": [
      1880773095,
      102191581,
      1880762163,
      1360817437,
      85633159,
      404227469,
      1125957071,
      136253055,
      1360698935
    ],
    "wof:breaches": [],
    "wof:concordances": {
      "wd:id": "Q4006479"
    },
    "wof:country": "GB",
    "wof:created": 1458871930,
    "wof:geomhash": "9d2bfde6a280705c9eaaf84a8cdd3450",
    "wof:hierarchy": [
      {
        "continent_id": 102191581,
        "country_id": 85633159,
        "county_id": 1360698935,
        "empire_id": 136253055,
        "localadmin_id": 1360817437,
        "locality_id": 1125957071,
        "macrocounty_id": 1880762163,
        "macroregion_id": 404227469,
        "neighbourhood_id": 420784543,
        "region_id": 1880773095
      }
    ],
    "wof:id": 420784543,
    "wof:lastmodified": 1765390912,
    "wof:name": "Urmston",
    "wof:parent_id": 1125957071,
    "wof:placetype": "neighbourhood",
    "wof:population": 41731,
    "wof:population_rank": 7,
    "wof:repo": "whosonfirst-data-admin-gb",
    "wof:superseded_by": [],
    "wof:supersedes": [],
    "wof:tags": []
  },
  "bbox": [
    -2.353818,
    53.445777,
    -2.353818,
    53.445777
  ],
  "geometry": {"type":"Point","coordinates":[-2.353818,53.445777]}
}
