{
  "id": 85860029,
  "type": "Feature",
  "properties": {
    "edtf:cessation": "",
    "edtf:inception": "",
    "geom:area": 0.0003924253350000084,
    "geom:area_square_m": 3029203.860231,
    "geom:bbox": "0.071411,51.361492,0.101018,51.382067",
    "geom:latitude": 51.371887242342396,
    "geom:longitude": 0.086489051301024,
    "iso:country": "GB",
    "lbl:latitude": 51.374,
    "lbl:longitude": 0.077803,
    "lbl:max_zoom": 18,
    "mps:latitude": 51.371802,
    "mps:longitude": 0.087687,
    "mz:hierarchy_label": 1,
    "mz:is_current": 1,
    "mz:is_funky": 0,
    "mz:is_hard_boundary": 0,
    "mz:is_landuse_aoi": 0,
    "mz:is_official": 0,
    "mz:max_zoom": 18,
    "mz:min_zoom": 15,
    "mz:tier_locality": 7,
    "mz:tier_metro": 1,
    "name:eng_x_preferred": [
      "Crofton"
    ],
    "name:fra_x_preferred": [
      "Crofton"
    ],
    "name:gle_x_preferred": [
      "Crofton"
    ],
    "name:hin_x_preferred": [
      "क्रॉफ़्टन"
    ],
    "name:urd_x_preferred": [
      "کروفٹن، لندن"
    ],
    "name:urd_x_variant": [
      "کروفٹن"
    ],
    "src:geom": "quattroshapes",
    "src:geom_alt": [
      "quattroshapes_pg"
    ],
    "src:lbl_centroid": "mz",
    "src:population": "wikidata",
    "wof:belongsto": [
      1880762729,
      102191581,
      1880762179,
      85633159,
      404227469,
      101750367,
      136253055,
      1158857297,
      1880771825
    ],
    "wof:breaches": [],
    "wof:concordances": {
      "gn:id": 2651825,
      "gp:id": 20089334,
      "qs_pg:id": 905606,
      "wd:id": "Q3634018",
      "wk:page": "Croxton, Cambridgeshire"
    },
    "wof:country": "GB",
    "wof:created": 1765391312,
    "wof:geom_alt": [
      "quattroshapes_pg"
    ],
    "wof:geomhash": "c33a23ad08e682684c9c03b87c5fad76",
    "wof:hierarchy": [
      {
        "borough_id": 1158857297,
        "continent_id": 102191581,
        "country_id": 85633159,
        "county_id": 1880771825,
        "empire_id": 136253055,
        "locality_id": 101750367,
        "macrocounty_id": 1880762179,
        "macroregion_id": 404227469,
        "neighbourhood_id": 85860029,
        "region_id": 1880762729
      }
    ],
    "wof:id": 85860029,
    "wof:lang": [
      "eng"
    ],
    "wof:lastmodified": 1765391312,
    "wof:name": "Crofton",
    "wof:parent_id": 1158857297,
    "wof:placetype": "neighbourhood",
    "wof:population": 14632,
    "wof:population_rank": 6,
    "wof:repo": "whosonfirst-data-admin-gb",
    "wof:superseded_by": [],
    "wof:supersedes": [],
    "wof:tags": []
  },
  "bbox": [
    0.071411,
    51.361492,
    0.101018,
    51.382067
  ],
  "geometry": {"type":"Polygon","coordinates":[[[0.088613,51.378638],[0.090637,51.37799],[0.092662,51.378638],[0.093384,51.37887],[0.093384,51.378638],[0.093384,51.376924],[0.093384,51.375209],[0.09613,51.375209],[0.09613,51.373495],[0.098877,51.373495],[0.099474,51.373495],[0.099831,51.37178],[0.099296,51.370923],[0.099831,51.368351],[0.100308,51.366058],[0.101018,51.364921],[0.101018,51.364921],[0.098877,51.361492],[0.098877,51.361492],[0.093384,51.361492],[0.087891,51.361492],[0.087891,51.361492],[0.087891,51.364921],[0.082397,51.364921],[0.082397,51.364921],[0.082397,51.368351],[0.076904,51.368351],[0.076904,51.368351],[0.075834,51.370066],[0.072482,51.370066],[0.071411,51.37178],[0.071411,51.37178],[0.071411,51.375209],[0.071411,51.375209],[0.071411,51.378638],[0.071411,51.378638],[0.076904,51.378638],[0.076904,51.382067],[0.076904,51.382067],[0.082397,51.382067],[0.087891,51.382067],[0.087891,51.382067],[0.087891,51.37887],[0.088613,51.378638]]]}
}
