{
  "id": 1360806563,
  "type": "Feature",
  "properties": {
    "edtf:cessation": "",
    "edtf:inception": "",
    "geom:area": 0,
    "geom:area_square_m": 0,
    "geom:bbox": "-0.650000,53.300000,-0.650000,53.300000",
    "geom:latitude": 53.3,
    "geom:longitude": -0.65,
    "gn:admin1_code": "ENG",
    "gn:admin2_code": "H7",
    "gn:admin3_code": "32UH",
    "gn:admin4_code": "32UH104",
    "gn:asciiname": "Sturton",
    "gn:country_code": "GB",
    "gn:dem": 10,
    "gn:feature_class": "P",
    "gn:feature_code": "PPL",
    "gn:geonameid": 2636581,
    "gn:latitude": 53.3,
    "gn:longitude": -0.65,
    "gn:modification_date": "2018-07-03",
    "gn:name": "Sturton",
    "gn:population": 0,
    "gn:timezone": "Europe/London",
    "iso:country": "GB",
    "lbl:bbox": "-0.655,53.295,-0.645,53.305",
    "lbl:max_zoom": 18,
    "mz:hierarchy_label": 1,
    "mz:is_current": 1,
    "mz:min_zoom": 15,
    "src:geom": "geonames",
    "src:population": "wikidata",
    "wof:belongsto": [
      1880762701,
      102191581,
      1880762033,
      404442839,
      85633159,
      404227469,
      1360758013,
      136253055,
      1880771569
    ],
    "wof:breaches": [],
    "wof:concordances": {
      "gn:id": 2636581
    },
    "wof:country": "GB",
    "wof:created": 1765390398,
    "wof:geomhash": "074bbb54930eb4b5ec1c5f5340271fb9",
    "wof:hierarchy": [
      {
        "continent_id": 102191581,
        "country_id": 85633159,
        "county_id": 1880771569,
        "empire_id": 136253055,
        "localadmin_id": 404442839,
        "locality_id": 1360758013,
        "macrocounty_id": 1880762033,
        "macroregion_id": 404227469,
        "neighbourhood_id": 1360806563,
        "region_id": 1880762701
      }
    ],
    "wof:id": 1360806563,
    "wof:lastmodified": 1765390398,
    "wof:name": "Sturton",
    "wof:parent_id": 1360758013,
    "wof:placetype": "neighbourhood",
    "wof:population": 1485,
    "wof:population_rank": 3,
    "wof:repo": "whosonfirst-data-admin-gb",
    "wof:superseded_by": [],
    "wof:supersedes": [
      1226271391
    ],
    "wof:tags": []
  },
  "bbox": [
    -0.65,
    53.3,
    -0.65,
    53.3
  ],
  "geometry": {"type":"Point","coordinates":[-0.65,53.3]}
}
