{
  "id": 85792111,
  "type": "Feature",
  "properties": {
    "edtf:cessation": "",
    "edtf:inception": "",
    "geom:area": 0.0003474946975000714,
    "geom:area_square_m": 2563030.775307,
    "geom:bbox": "-2.909872,53.373498,-2.877487,53.388165",
    "geom:latitude": 53.380767702023604,
    "geom:longitude": -2.8923449043454053,
    "gn:latitude": 53.78333,
    "gn:longitude": -2.56667,
    "iso:country": "GB",
    "lbl:latitude": 53.381123,
    "lbl:longitude": -2.894483,
    "lbl:max_zoom": 18,
    "mps:latitude": 53.380012,
    "mps:longitude": -2.892338,
    "mz:hierarchy_label": 1,
    "mz:is_current": -1,
    "mz:is_funky": 0,
    "mz:is_hard_boundary": 0,
    "mz:is_landuse_aoi": 1,
    "mz:is_official": 0,
    "mz:max_zoom": 18,
    "mz:min_zoom": 14,
    "mz:note": "park",
    "mz:tier_locality": 4,
    "mz:tier_metro": 1,
    "name:arz_x_preferred": [
      "بالديرستونى"
    ],
    "name:ben_x_preferred": [
      "বল্ডারস্টোন"
    ],
    "name:bul_x_preferred": [
      "Балдерстоне"
    ],
    "name:ceb_x_preferred": [
      "Balderstone"
    ],
    "name:cym_x_preferred": [
      "Balderstone"
    ],
    "name:deu_x_preferred": [
      "Balderstone"
    ],
    "name:eng_x_preferred": [
      "Calderstones"
    ],
    "name:eng_x_variant": [
      "Balderstone"
    ],
    "name:fra_x_preferred": [
      "Balderstone"
    ],
    "name:gle_x_preferred": [
      "Balderstone"
    ],
    "name:guj_x_preferred": [
      "બાલ્ડરસ્ટોન"
    ],
    "name:ita_x_preferred": [
      "Balderstone"
    ],
    "name:jpn_x_preferred": [
      "ボルダーストーン"
    ],
    "name:kan_x_preferred": [
      "ಬಾಲ್ಡರ್ಟೋನ್"
    ],
    "name:kor_x_preferred": [
      "발더스톤"
    ],
    "name:lit_x_preferred": [
      "Balderstaunas"
    ],
    "name:nld_x_preferred": [
      "Balderstone"
    ],
    "name:pol_x_preferred": [
      "Balderstone"
    ],
    "name:por_x_preferred": [
      "Balderstone"
    ],
    "name:rus_x_preferred": [
      "Болдерстоун"
    ],
    "name:spa_x_preferred": [
      "Balderstone"
    ],
    "name:swe_x_preferred": [
      "Balderstone"
    ],
    "name:tam_x_preferred": [
      "பல்தேர்ஸ்டோன்"
    ],
    "name:tel_x_preferred": [
      "బాల్దర్ స్టోన్"
    ],
    "name:tur_x_preferred": [
      "Balderstone"
    ],
    "name:urd_x_preferred": [
      "بالدیرسٹنی"
    ],
    "qs:gn_fcode": "PPL",
    "qs:gn_local": 0,
    "qs:gn_namadm1": "ENG",
    "qs:gn_name": "Balderstone",
    "qs:local_max": 5855,
    "qs:local_sum": 84556,
    "qs:localhoods": 70,
    "qs:name": "Calderstones",
    "qs:name_adm0": "United Kingdom",
    "qs:name_adm1": "England",
    "qs:name_adm2": "Merseyside",
    "qs:name_lau": "Liverpool City",
    "qs:name_local": "Liverpool",
    "qs:photo_max": 384,
    "qs:photo_sum": 1567,
    "qs:placetype": "Suburb",
    "qs:quad_count": 48,
    "qs:woe_adm0": 23424975,
    "qs:woe_adm1": 24554868,
    "qs:woe_adm2": 12602161,
    "qs:woe_lau": 12695850,
    "qs:woe_local": 26734,
    "qs:woe_ver": "7.10.0",
    "src:geom": "quattroshapes",
    "src:geom_alt": [
      "quattroshapes_pg"
    ],
    "src:lbl_centroid": "mz",
    "src:population": "wikidata",
    "wof:belongsto": [
      1880773063,
      102191581,
      85633159,
      1880762035,
      404227469,
      101750547,
      136253055,
      1360698971
    ],
    "wof:breaches": [],
    "wof:concordances": {
      "gn:id": 2656596,
      "gp:id": 43221,
      "qs_pg:id": 294226,
      "wd:id": "Q375460",
      "wk:page": "Balderstone, Lancashire"
    },
    "wof:country": "GB",
    "wof:created": 1765391256,
    "wof:geom_alt": [
      "quattroshapes_pg"
    ],
    "wof:geomhash": "df9abf8a60bdfa9ac1df29c585a80c1d",
    "wof:hierarchy": [
      {
        "continent_id": 102191581,
        "country_id": 85633159,
        "county_id": 1360698971,
        "empire_id": 136253055,
        "locality_id": 101750547,
        "macrocounty_id": 1880762035,
        "macroregion_id": 404227469,
        "neighbourhood_id": 85792111,
        "region_id": 1880773063
      }
    ],
    "wof:id": 85792111,
    "wof:lang": [
      "eng"
    ],
    "wof:lastmodified": 1765391256,
    "wof:name": "Calderstones",
    "wof:parent_id": 101750547,
    "wof:placetype": "neighbourhood",
    "wof:population": 405,
    "wof:population_rank": 2,
    "wof:repo": "whosonfirst-data-admin-gb",
    "wof:superseded_by": [],
    "wof:supersedes": [],
    "wof:tags": []
  },
  "bbox": [
    -2.909872,
    53.373498,
    -2.877487,
    53.388165
  ],
  "geometry": {"type":"Polygon","coordinates":[[[-2.889404,53.388165],[-2.888473,53.386605],[-2.883911,53.386605],[-2.878418,53.386605],[-2.878418,53.386605],[-2.878418,53.383609],[-2.878138,53.383328],[-2.877487,53.380052],[-2.877487,53.380052],[-2.877813,53.378413],[-2.877487,53.376775],[-2.877487,53.376775],[-2.878418,53.375214],[-2.881165,53.376749],[-2.883911,53.375214],[-2.883911,53.375058],[-2.883911,53.373498],[-2.886658,53.373498],[-2.889404,53.373498],[-2.890335,53.373498],[-2.890335,53.373498],[-2.893966,53.373498],[-2.893966,53.373498],[-2.894897,53.373498],[-2.894897,53.374317],[-2.897155,53.374317],[-2.897644,53.375136],[-2.898133,53.375956],[-2.900391,53.375956],[-2.900833,53.375956],[-2.901322,53.376775],[-2.905604,53.376775],[-2.905884,53.376494],[-2.906722,53.376775],[-2.909825,53.377815],[-2.909872,53.377971],[-2.90863,53.380052],[-2.90863,53.38169],[-2.905884,53.38169],[-2.90493,53.38329],[-2.904953,53.383328],[-2.905884,53.383328],[-2.905884,53.386605],[-2.901321,53.386605],[-2.900391,53.388165],[-2.897644,53.38663],[-2.894897,53.388165],[-2.893967,53.386605],[-2.893944,53.386566],[-2.892895,53.386214],[-2.892197,53.386605],[-2.889404,53.388165]]]}
}
