{
  "id": 1360808177,
  "type": "Feature",
  "properties": {
    "edtf:cessation": "",
    "edtf:inception": "",
    "geom:area": 0,
    "geom:area_square_m": 0,
    "geom:bbox": "-2.954810,53.900040,-2.954810,53.900040",
    "geom:latitude": 53.90004,
    "geom:longitude": -2.95481,
    "gn:admin1_code": "ENG",
    "gn:admin2_code": "H2",
    "gn:admin3_code": "30UQ",
    "gn:admin4_code": "30UQ019",
    "gn:asciiname": "Stalmine",
    "gn:country_code": "GB",
    "gn:dem": 13,
    "gn:feature_class": "P",
    "gn:feature_code": "PPL",
    "gn:geonameid": 11593817,
    "gn:latitude": 53.90004,
    "gn:longitude": -2.95481,
    "gn:modification_date": "2017-06-26",
    "gn:name": "Stalmine",
    "gn:population": 0,
    "gn:timezone": "Europe/London",
    "iso:country": "GB",
    "lbl:bbox": "-2.95981,53.89504,-2.94981,53.90504",
    "lbl:max_zoom": 18,
    "mz:hierarchy_label": 1,
    "mz:is_current": 1,
    "mz:min_zoom": 15,
    "name:pol_x_preferred": [
      "Stalmine"
    ],
    "name:spa_x_preferred": [
      "Stalmine"
    ],
    "name:swe_x_preferred": [
      "Stalmine"
    ],
    "src:geom": "geonames",
    "src:population": "wikidata",
    "wof:belongsto": [
      1880762711,
      102191581,
      1880762053,
      404430785,
      85633159,
      404227469,
      1360754945,
      136253055,
      1880771545
    ],
    "wof:breaches": [],
    "wof:concordances": {
      "gn:id": 11593817
    },
    "wof:country": "GB",
    "wof:created": 1765390581,
    "wof:geomhash": "1e3150a5b294c0f2b5ef3385b00a129b",
    "wof:hierarchy": [
      {
        "continent_id": 102191581,
        "country_id": 85633159,
        "county_id": 1880771545,
        "empire_id": 136253055,
        "localadmin_id": 404430785,
        "locality_id": 1360754945,
        "macrocounty_id": 1880762053,
        "macroregion_id": 404227469,
        "neighbourhood_id": 1360808177,
        "region_id": 1880762711
      }
    ],
    "wof:id": 1360808177,
    "wof:lastmodified": 1765390581,
    "wof:name": "Stalmine",
    "wof:parent_id": 1360754945,
    "wof:placetype": "neighbourhood",
    "wof:population": 1087,
    "wof:population_rank": 3,
    "wof:repo": "whosonfirst-data-admin-gb",
    "wof:superseded_by": [],
    "wof:supersedes": [
      1293516331
    ],
    "wof:tags": []
  },
  "bbox": [
    -2.95481,
    53.90004,
    -2.95481,
    53.90004
  ],
  "geometry": {"type":"Point","coordinates":[-2.95481,53.90004]}
}
