{
  "id": 1360807663,
  "type": "Feature",
  "properties": {
    "edtf:cessation": "",
    "edtf:inception": "",
    "geom:area": 0,
    "geom:area_square_m": 0,
    "geom:bbox": "0.325510,51.446330,0.325510,51.446330",
    "geom:latitude": 51.44633,
    "geom:longitude": 0.32551,
    "gn:admin1_code": "ENG",
    "gn:admin2_code": "G5",
    "gn:admin3_code": "29UG",
    "gn:asciiname": "Northfleet",
    "gn:country_code": "GB",
    "gn:dem": 22,
    "gn:feature_class": "P",
    "gn:feature_code": "PPL",
    "gn:geonameid": 2641354,
    "gn:latitude": 51.44633,
    "gn:longitude": 0.32551,
    "gn:modification_date": "2011-02-05",
    "gn:name": "Northfleet",
    "gn:population": 0,
    "gn:timezone": "Europe/London",
    "iso:country": "GB",
    "lbl:bbox": "0.32051,51.44133,0.33051,51.45133",
    "lbl:max_zoom": 18,
    "mz:hierarchy_label": 1,
    "mz:is_current": 1,
    "mz:min_zoom": 15,
    "name:azb_x_preferred": [
      "نورثفلیت"
    ],
    "name:cym_x_preferred": [
      "Northfleet"
    ],
    "name:deu_x_preferred": [
      "Northfleet"
    ],
    "name:ell_x_preferred": [
      "Νόρθφλιτ"
    ],
    "name:fas_x_preferred": [
      "نورثفلیت"
    ],
    "name:fra_x_preferred": [
      "Northfleet"
    ],
    "name:ita_x_preferred": [
      "Northfleet"
    ],
    "name:nld_x_preferred": [
      "Northfleet"
    ],
    "name:pol_x_preferred": [
      "Northfleet"
    ],
    "name:spa_x_preferred": [
      "Northfleet"
    ],
    "name:vol_x_preferred": [
      "Northfleet"
    ],
    "src:geom": "geonames",
    "src:population": "wikidata",
    "wof:belongsto": [
      1880762705,
      102191581,
      85633159,
      1880762057,
      404227469,
      1126050113,
      136253055,
      1880771527
    ],
    "wof:breaches": [],
    "wof:concordances": {
      "gn:id": 2641354,
      "wk:page": "Northfleet"
    },
    "wof:country": "GB",
    "wof:created": 1765390526,
    "wof:geomhash": "3325aa32da9b88e508504edf97e3dc9d",
    "wof:hierarchy": [
      {
        "continent_id": 102191581,
        "country_id": 85633159,
        "county_id": 1880771527,
        "empire_id": 136253055,
        "locality_id": 1126050113,
        "macrocounty_id": 1880762057,
        "macroregion_id": 404227469,
        "neighbourhood_id": 1360807663,
        "region_id": 1880762705
      }
    ],
    "wof:id": 1360807663,
    "wof:lastmodified": 1765390526,
    "wof:name": "Northfleet",
    "wof:parent_id": 1126050113,
    "wof:placetype": "neighbourhood",
    "wof:population": 29900,
    "wof:population_rank": 7,
    "wof:repo": "whosonfirst-data-admin-gb",
    "wof:superseded_by": [],
    "wof:supersedes": [
      1276471429
    ],
    "wof:tags": []
  },
  "bbox": [
    0.32551,
    51.44633,
    0.32551,
    51.44633
  ],
  "geometry": {"type":"Point","coordinates":[0.32551,51.44633]}
}
