{
  "id": 101873509,
  "type": "Feature",
  "properties": {
    "edtf:cessation": "",
    "edtf:inception": "",
    "geom:area": 0,
    "geom:area_square_m": 0,
    "geom:bbox": "-3.883900,55.644189,-3.883900,55.644189",
    "geom:latitude": 55.644189,
    "geom:longitude": -3.8839,
    "gn:population": 3823,
    "iso:country": "GB",
    "lbl:bbox": "-3.9039,55.624189,-3.8639,55.664189",
    "lbl:latitude": 55.644189,
    "lbl:longitude": -3.8839,
    "lbl:max_zoom": 15,
    "lbl:min_zoom": 11.5,
    "mps:latitude": 55.644189,
    "mps:longitude": -3.8839,
    "mz:hierarchy_label": 1,
    "mz:is_current": 1,
    "mz:min_zoom": 11,
    "name:ara_x_preferred": [
      "ليسماهاغو"
    ],
    "name:arz_x_preferred": [
      "ليسماهاجو"
    ],
    "name:ast_x_preferred": [
      "Lesmahagow"
    ],
    "name:azb_x_preferred": [
      "لسماهاقو"
    ],
    "name:ceb_x_preferred": [
      "Lesmahagow"
    ],
    "name:cym_x_preferred": [
      "Lesmahagow"
    ],
    "name:eng_x_preferred": [
      "Lesmahagow"
    ],
    "name:eus_x_preferred": [
      "Lesmahagow"
    ],
    "name:fas_x_preferred": [
      "لسماهاگو"
    ],
    "name:fra_x_preferred": [
      "Lesmahagow"
    ],
    "name:gla_x_preferred": [
      "Lios Mo h-Eagu"
    ],
    "name:gla_x_variant": [
      "Lios MoFhèige"
    ],
    "name:gle_x_preferred": [
      "Lios MoChuda"
    ],
    "name:gle_x_variant": [
      "Lios MoFhèige"
    ],
    "name:hun_x_preferred": [
      "Lesmahagow"
    ],
    "name:ita_x_preferred": [
      "Lesmahagow"
    ],
    "name:jpn_x_preferred": [
      "レズマヘイゴウ"
    ],
    "name:nld_x_preferred": [
      "Lesmahagow"
    ],
    "name:sco_x_preferred": [
      "Lesmahagae"
    ],
    "name:spa_x_preferred": [
      "Lesmahagow"
    ],
    "name:swe_x_preferred": [
      "Lesmahagow"
    ],
    "name:zho_x_preferred": [
      "萊斯馬哈格"
    ],
    "qs:a0": "United Kingdom",
    "qs:a1": "*South Lanarkshire",
    "qs:a1_lc": "GB11RF0000",
    "qs:a1r": "0Scotland",
    "qs:a1r_lc": "GB11000000",
    "qs:adm0": "United Kingdom",
    "qs:id": 0,
    "qs:la_lc": "*",
    "qs:level": "locality",
    "qs:loc": "Lesmahagow",
    "qs:loc_alt": "Lesmahagow",
    "qs:pop": 0,
    "qs:source": "RCustom EuroGlobalMap + UMZ Urban Polygons + Geonames + GeoPlanet",
    "qs:type": "buffered point",
    "src:geom": "whosonfirst",
    "src:geom_alt": [
      "quattroshapes_pg",
      "quattroshapes"
    ],
    "src:geom_via": "quattroshapes",
    "src:lbl_centroid": "mapshaper",
    "src:population": "wikidata",
    "wd:latitude": 55.638,
    "wd:longitude": -3.887,
    "wd:wordcount": 678,
    "wof:belongsto": [
      1880773061,
      102191581,
      85633159,
      1880762099,
      404227471,
      136253055,
      1360698969
    ],
    "wof:breaches": [],
    "wof:concordances": {
      "gn:id": 2644600,
      "gp:id": 26136,
      "qs_pg:id": 245575,
      "wd:id": "Q1010552",
      "wk:page": "Lesmahagow"
    },
    "wof:country": "GB",
    "wof:created": 1765385070,
    "wof:geom_alt": [
      "quattroshapes",
      "quattroshapes_pg"
    ],
    "wof:geomhash": "7ec018ced0b9dcc1a7d21e9de63f0614",
    "wof:hierarchy": [
      {
        "continent_id": 102191581,
        "country_id": 85633159,
        "county_id": 1360698969,
        "empire_id": 136253055,
        "locality_id": 101873509,
        "macrocounty_id": 1880762099,
        "macroregion_id": 404227471,
        "region_id": 1880773061
      }
    ],
    "wof:id": 101873509,
    "wof:lastmodified": 1765385070,
    "wof:name": "Lesmahagow",
    "wof:parent_id": 1360698969,
    "wof:placetype": "locality",
    "wof:population": 4350,
    "wof:population_rank": 4,
    "wof:repo": "whosonfirst-data-admin-gb",
    "wof:superseded_by": [],
    "wof:supersedes": [],
    "wof:tags": []
  },
  "bbox": [
    -3.8839,
    55.644189,
    -3.8839,
    55.644189
  ],
  "geometry": {"type":"Point","coordinates":[-3.8839,55.644189]}
}
