{
  "id": 1343887297,
  "type": "Feature",
  "properties": {
    "edtf:cessation": "",
    "edtf:inception": "",
    "geom:area": 0,
    "geom:area_square_m": 0,
    "geom:bbox": "-2.938810,55.338760,-2.938810,55.338760",
    "geom:latitude": 55.33876,
    "geom:longitude": -2.93881,
    "gn:admin1_code": "SCT",
    "gn:admin2_code": "T9",
    "gn:asciiname": "Teviothead",
    "gn:country_code": "GB",
    "gn:dem": 178,
    "gn:feature_class": "P",
    "gn:feature_code": "PPL",
    "gn:geonameid": 2636073,
    "gn:latitude": 55.33876,
    "gn:longitude": -2.93881,
    "gn:modification_date": "2011-03-03",
    "gn:name": "Teviothead",
    "gn:population": 0,
    "gn:timezone": "Europe/London",
    "iso:country": "GB",
    "lbl:bbox": "-2.95881,55.31876,-2.91881,55.35876",
    "lbl:max_zoom": 18,
    "lbl:min_zoom": 13.5,
    "mz:hierarchy_label": 1,
    "mz:is_current": -1,
    "mz:min_zoom": 12,
    "name:ceb_x_preferred": [
      "Teviothead"
    ],
    "name:eus_x_preferred": [
      "Teviothead"
    ],
    "name:fas_x_preferred": [
      "تویوتد"
    ],
    "name:gla_x_preferred": [
      "Ceann Tìobhiot"
    ],
    "name:gle_x_preferred": [
      "Ceann Tíobhiot"
    ],
    "name:ita_x_preferred": [
      "Teviothead"
    ],
    "name:sco_x_preferred": [
      "Teviotheid"
    ],
    "name:swe_x_preferred": [
      "Teviothead"
    ],
    "src:geom": "geonames",
    "src:population": "wikidata",
    "wof:belongsto": [
      1880773105,
      102191581,
      85633159,
      1880761991,
      404227471,
      1360699015
    ],
    "wof:breaches": [],
    "wof:concordances": {
      "gn:id": 2636073,
      "wk:page": "Teviothead"
    },
    "wof:country": "GB",
    "wof:created": 1765389044,
    "wof:geomhash": "01b7a6e6a233f5deb128cf81c9f8bbe7",
    "wof:hierarchy": [
      {
        "continent_id": 102191581,
        "country_id": 85633159,
        "county_id": 1360699015,
        "locality_id": 1343887297,
        "macrocounty_id": 1880761991,
        "macroregion_id": 404227471,
        "region_id": 1880773105
      }
    ],
    "wof:id": 1343887297,
    "wof:lastmodified": 1765389044,
    "wof:name": "Teviothead",
    "wof:parent_id": 1360699015,
    "wof:placetype": "locality",
    "wof:population": 198,
    "wof:population_rank": 1,
    "wof:repo": "whosonfirst-data-admin-gb",
    "wof:superseded_by": [],
    "wof:supersedes": [],
    "wof:tags": []
  },
  "bbox": [
    -2.93881,
    55.33876,
    -2.93881,
    55.33876
  ],
  "geometry": {"type":"Point","coordinates":[-2.93881,55.33876]}
}
