{
  "id": 1360806127,
  "type": "Feature",
  "properties": {
    "edtf:cessation": "",
    "edtf:inception": "",
    "geom:area": 0,
    "geom:area_square_m": 0,
    "geom:bbox": "-2.950000,52.000000,-2.950000,52.000000",
    "geom:latitude": 52,
    "geom:longitude": -2.95,
    "gn:admin1_code": "ENG",
    "gn:admin2_code": "F7",
    "gn:admin3_code": "00GA185",
    "gn:asciiname": "Saint Margaret",
    "gn:country_code": "GB",
    "gn:dem": 219,
    "gn:feature_class": "P",
    "gn:feature_code": "PPL",
    "gn:geonameid": 2638750,
    "gn:latitude": 52,
    "gn:longitude": -2.95,
    "gn:modification_date": "2016-06-22",
    "gn:name": "Saint Margaret",
    "gn:population": 0,
    "gn:timezone": "Europe/London",
    "iso:country": "GB",
    "lbl:bbox": "-2.955,51.995,-2.945,52.005",
    "lbl:max_zoom": 18,
    "mz:hierarchy_label": 1,
    "mz:is_current": 1,
    "mz:min_zoom": 15,
    "name:bre_x_preferred": [
      "Santez Marc'harid"
    ],
    "name:ces_x_preferred": [
      "Svatá Markéta"
    ],
    "name:deu_x_preferred": [
      "Heilige Margareta"
    ],
    "name:epo_x_preferred": [
      "Sankta Margareta"
    ],
    "name:hrv_x_preferred": [
      "Sveta Margareta"
    ],
    "name:hun_x_preferred": [
      "Szent Margit"
    ],
    "name:nds_x_preferred": [
      "St. Margaret"
    ],
    "name:pol_x_preferred": [
      "Święta Małgorzata"
    ],
    "name:rus_x_preferred": [
      "Святая Маргарита"
    ],
    "name:slk_x_preferred": [
      "Svätá Margita"
    ],
    "name:ukr_x_preferred": [
      "Свята Маргарита"
    ],
    "src:geom": "geonames",
    "src:population": "wikidata",
    "wof:belongsto": [
      1880773139,
      102191581,
      1880762015,
      404439307,
      85633159,
      404227469,
      1360755331,
      136253055,
      1360699053
    ],
    "wof:breaches": [],
    "wof:concordances": {
      "gn:id": 2638750
    },
    "wof:country": "GB",
    "wof:created": 1765390355,
    "wof:geomhash": "52c4fdbae150c3f22d564db557be1881",
    "wof:hierarchy": [
      {
        "continent_id": 102191581,
        "country_id": 85633159,
        "county_id": 1360699053,
        "empire_id": 136253055,
        "localadmin_id": 404439307,
        "locality_id": 1360755331,
        "macrocounty_id": 1880762015,
        "macroregion_id": 404227469,
        "neighbourhood_id": 1360806127,
        "region_id": 1880773139
      }
    ],
    "wof:id": 1360806127,
    "wof:lastmodified": 1765390355,
    "wof:name": "Saint Margaret",
    "wof:parent_id": 1360755331,
    "wof:placetype": "neighbourhood",
    "wof:population": 171,
    "wof:population_rank": 1,
    "wof:repo": "whosonfirst-data-admin-gb",
    "wof:superseded_by": [],
    "wof:supersedes": [
      1209134725
    ],
    "wof:tags": []
  },
  "bbox": [
    -2.95,
    52,
    -2.95,
    52
  ],
  "geometry": {"type":"Point","coordinates":[-2.95,52]}
}
