{
  "id": 1125960641,
  "type": "Feature",
  "properties": {
    "edtf:cessation": "",
    "edtf:inception": "",
    "geom:area": 0,
    "geom:area_square_m": 0,
    "geom:bbox": "-2.937170,56.212610,-2.937170,56.212610",
    "geom:latitude": 56.21261,
    "geom:longitude": -2.93717,
    "gn:country": "GB",
    "gn:fcode": "PPL",
    "gn:population": 0,
    "iso:country": "GB",
    "lbl:bbox": "-2.95717,56.19261,-2.91717,56.23261",
    "lbl:latitude": 56.21261,
    "lbl:longitude": -2.93717,
    "lbl:max_zoom": 18,
    "lbl:min_zoom": 13.5,
    "mz:hierarchy_label": 1,
    "mz:is_current": 1,
    "mz:min_zoom": 12,
    "mz:note": "Quattroshapes Point Gazetteer import 20170519",
    "name:deu_x_preferred": [
      "Lower Largo"
    ],
    "name:eng_x_preferred": [
      "Lower Largo"
    ],
    "name:epo_x_preferred": [
      "Lower Largo"
    ],
    "name:eus_x_preferred": [
      "Lower Largo"
    ],
    "name:fas_x_preferred": [
      "لور لارگو"
    ],
    "name:fra_x_preferred": [
      "Lower Largo"
    ],
    "name:ita_x_preferred": [
      "Lower Largo"
    ],
    "name:jpn_x_preferred": [
      "ローワー・ラーゴ"
    ],
    "name:nld_x_preferred": [
      "Lower Largo"
    ],
    "name:pol_x_preferred": [
      "Lower Largo"
    ],
    "name:rus_x_preferred": [
      "Лоуэр Ларго"
    ],
    "name:rus_x_variant": [
      "Лоуэр-Ларго"
    ],
    "name:spa_x_preferred": [
      "Lower Largo"
    ],
    "name:und_x_variant": [
      "Largo"
    ],
    "name:urd_x_preferred": [
      "زیریں لارگو"
    ],
    "qs_pg:aaroncc": "GB",
    "qs_pg:gn_country": "GB",
    "qs_pg:gn_fcode": "PPL",
    "qs_pg:gn_id": 2643511,
    "qs_pg:gn_pop": 0,
    "qs_pg:name": "Lower Largo",
    "qs_pg:name_adm0": "United Kingdom",
    "qs_pg:name_adm1": "Scotland",
    "qs_pg:photos": 714,
    "qs_pg:photos_1k": 145,
    "qs_pg:photos_9k": 3,
    "qs_pg:photos_9r": 5,
    "qs_pg:photos_all": 714,
    "qs_pg:photos_sr": 8,
    "qs_pg:pop_sr": 0,
    "qs_pg:qs_id": 408513,
    "qs_pg:qs_pg_placetype": "locality",
    "qs_pg:qs_pg_placetype_gp": "Town",
    "qs_pg:woe_adm0": 23424975,
    "qs_pg:woe_id": 27743,
    "src:geom": "qs_pg",
    "src:lbl_centroid": "qs_pg",
    "src:population": "wikidata",
    "woe:adm0_id": 23424975,
    "woe:name_adm0": "United Kingdom",
    "woe:name_adm1": "Scotland",
    "woe:placetype": "Town",
    "wof:belongsto": [
      1880762125,
      1360699123
    ],
    "wof:breaches": [],
    "wof:concordances": {
      "gn:id": 2643511,
      "gp:id": 27743,
      "qs_pg:id": 408513,
      "wd:id": "Q1993058"
    },
    "wof:country": "GB",
    "wof:created": 1497297784,
    "wof:geomhash": "1f7a061808296b08c79787ca303c3251",
    "wof:hierarchy": [
      {
        "continent_id": -1,
        "country_id": -1,
        "county_id": 1360699123,
        "locality_id": 1125960641,
        "macrocounty_id": 1880762125,
        "region_id": -1
      }
    ],
    "wof:id": 1125960641,
    "wof:lastmodified": 1765386999,
    "wof:name": "Lower Largo",
    "wof:parent_id": 1360699123,
    "wof:placetype": "locality",
    "wof:population": 1920,
    "wof:population_rank": 3,
    "wof:repo": "whosonfirst-data-admin-gb",
    "wof:superseded_by": [],
    "wof:supersedes": [],
    "wof:tags": []
  },
  "bbox": [
    -2.93717,
    56.21261,
    -2.93717,
    56.21261
  ],
  "geometry": {"type":"Point","coordinates":[-2.93717,56.21261]}
}
