{
  "id": 1108937057,
  "type": "Feature",
  "properties": {
    "edtf:cessation": "",
    "edtf:inception": "",
    "geom:area": 0,
    "geom:area_square_m": 0,
    "geom:bbox": "-1.517087,54.972331,-1.517087,54.972331",
    "geom:latitude": 54.972331,
    "geom:longitude": -1.517087,
    "gn:country": "GB",
    "gn:fcode": "PPL",
    "gn:population": 18808,
    "iso:country": "GB",
    "lbl:bbox": "-1.52208668569,54.9673306682,-1.51208668569,54.9773306682",
    "lbl:latitude": 54.972331,
    "lbl:longitude": -1.517087,
    "lbl:max_zoom": 18,
    "mz:hierarchy_label": 1,
    "mz:is_current": -1,
    "mz:is_funky": 0,
    "mz:is_hard_boundary": 0,
    "mz:is_landuse_aoi": 0,
    "mz:is_official": 0,
    "mz:max_zoom": 18,
    "mz:min_zoom": 13,
    "mz:note": "Quattroshapes Point Gazetteer import 20170519",
    "mz:tier_metro": 15,
    "name:ast_x_preferred": [
      "Hebburn"
    ],
    "name:bul_x_preferred": [
      "Хебурн"
    ],
    "name:ceb_x_preferred": [
      "Hebburn"
    ],
    "name:cym_x_preferred": [
      "Hebburn"
    ],
    "name:deu_x_preferred": [
      "Hebburn"
    ],
    "name:eng_x_preferred": [
      "Hebburn"
    ],
    "name:fas_x_preferred": [
      "هبورن"
    ],
    "name:fra_x_preferred": [
      "Hebburn"
    ],
    "name:gle_x_preferred": [
      "Hebburn"
    ],
    "name:ita_x_preferred": [
      "Hebburn"
    ],
    "name:jpn_x_preferred": [
      "ヘバーン"
    ],
    "name:lld_x_preferred": [
      "Hebburn"
    ],
    "name:nld_x_preferred": [
      "Hebburn"
    ],
    "name:nld_x_variant": [
      "Darrington"
    ],
    "name:nno_x_preferred": [
      "Hebburn"
    ],
    "name:pol_x_preferred": [
      "Hebburn"
    ],
    "name:swe_x_preferred": [
      "Hebburn"
    ],
    "name:ukr_x_preferred": [
      "Геббурн"
    ],
    "name:und_x_variant": [
      "Hebburn-on-Tyne"
    ],
    "name:zho_x_preferred": [
      "赫伯恩"
    ],
    "qs_pg:aaroncc": "GB",
    "qs_pg:gn_country": "GB",
    "qs_pg:gn_fcode": "PPL",
    "qs_pg:gn_id": 2647209,
    "qs_pg:gn_pop": 18808,
    "qs_pg:name": "Hebburn",
    "qs_pg:name_adm0": "United Kingdom",
    "qs_pg:name_adm1": "England",
    "qs_pg:photos": 280,
    "qs_pg:photos_1k": 57,
    "qs_pg:photos_9k": 1,
    "qs_pg:photos_9r": 4,
    "qs_pg:photos_all": 280,
    "qs_pg:photos_sr": 5,
    "qs_pg:pop_sr": 6,
    "qs_pg:qs_id": 1071365,
    "qs_pg:qs_pg_placetype": "locality",
    "qs_pg:qs_pg_placetype_gp": "Town",
    "qs_pg:woe_adm0": 23424975,
    "qs_pg:woe_id": 22894,
    "src:geom": "unknown",
    "src:lbl_centroid": "mz",
    "src:population": "wikidata",
    "woe:adm0_id": 23424975,
    "woe:name_adm0": "United Kingdom",
    "woe:name_adm1": "England",
    "woe:placetype": "Town",
    "wof:belongsto": [
      102191581,
      85633159,
      1880762063,
      404227469,
      101750613,
      136253055,
      1360698861,
      1880773053
    ],
    "wof:breaches": [],
    "wof:concordances": {
      "gn:id": 2647209,
      "gp:id": 22894,
      "qs_pg:id": 1071365,
      "wd:id": "Q984308"
    },
    "wof:country": "GB",
    "wof:created": 1491359411,
    "wof:geomhash": "94a69f3b5d217d9b05f51bf67ce85ab3",
    "wof:hierarchy": [
      {
        "continent_id": 102191581,
        "country_id": 85633159,
        "county_id": 1360698861,
        "empire_id": 136253055,
        "locality_id": 101750613,
        "macrocounty_id": 1880762063,
        "macroregion_id": 404227469,
        "neighbourhood_id": 1108937057,
        "region_id": 1880773053
      }
    ],
    "wof:id": 1108937057,
    "wof:lastmodified": 1765385139,
    "wof:name": "Hebburn",
    "wof:parent_id": 101750613,
    "wof:placetype": "neighbourhood",
    "wof:population": 16492,
    "wof:population_rank": 6,
    "wof:repo": "whosonfirst-data-admin-gb",
    "wof:superseded_by": [],
    "wof:supersedes": [
      1360805457
    ],
    "wof:tags": []
  },
  "bbox": [
    -1.517087,
    54.972331,
    -1.517087,
    54.972331
  ],
  "geometry": {"type":"Point","coordinates":[-1.517087,54.972331]}
}
