{
  "id": 1125831419,
  "type": "Feature",
  "properties": {
    "edtf:cessation": "",
    "edtf:inception": "",
    "geom:area": 0,
    "geom:area_square_m": 0,
    "geom:bbox": "-3.062700,58.636850,-3.062700,58.636850",
    "geom:latitude": 58.63685,
    "geom:longitude": -3.0627,
    "gn:country": "GB",
    "gn:fcode": "PPL",
    "gn:population": 0,
    "iso:country": "GB",
    "lbl:bbox": "-3.0827,58.61685,-3.0427,58.65685",
    "lbl:latitude": 58.63685,
    "lbl:longitude": -3.0627,
    "lbl:max_zoom": 18,
    "lbl:min_zoom": 13.5,
    "mz:hierarchy_label": 1,
    "mz:is_current": 1,
    "mz:min_zoom": 12,
    "mz:note": "Quattroshapes Point Gazetteer import 20170519",
    "name:cat_x_preferred": [
      "John o' Groats"
    ],
    "name:ceb_x_preferred": [
      "John o' Groats"
    ],
    "name:dan_x_preferred": [
      "John O'Groats"
    ],
    "name:deu_x_preferred": [
      "John o’ Groats"
    ],
    "name:eng_x_preferred": [
      "John o' Groats"
    ],
    "name:epo_x_preferred": [
      "John o' Groats"
    ],
    "name:eus_x_preferred": [
      "John o' Groats"
    ],
    "name:fra_x_preferred": [
      "John o' Groats"
    ],
    "name:gla_x_preferred": [
      "Taigh Iain Ghròt"
    ],
    "name:gle_x_preferred": [
      "Taigh Iain Ghrót"
    ],
    "name:gle_x_variant": [
      "Taigh Iain Ghròt"
    ],
    "name:isl_x_preferred": [
      "John o’ Groats"
    ],
    "name:ita_x_preferred": [
      "John o' Groats"
    ],
    "name:jpn_x_preferred": [
      "ジョン・オ・グローツ"
    ],
    "name:kor_x_preferred": [
      "존오그로츠"
    ],
    "name:nld_x_preferred": [
      "John o' Groats"
    ],
    "name:nno_x_preferred": [
      "John o' Groats"
    ],
    "name:nob_x_preferred": [
      "John o' Groats"
    ],
    "name:pol_x_preferred": [
      "John o'Groats"
    ],
    "name:por_x_preferred": [
      "John o' Groats"
    ],
    "name:sco_x_preferred": [
      "John o Groats"
    ],
    "name:sco_x_variant": [
      "The Groats"
    ],
    "name:spa_x_preferred": [
      "John o' Groats"
    ],
    "name:swe_x_preferred": [
      "John o' Groats"
    ],
    "name:zho_x_preferred": [
      "約翰奧格羅茨"
    ],
    "qs_pg:aaroncc": "GB",
    "qs_pg:gn_country": "GB",
    "qs_pg:gn_fcode": "PPL",
    "qs_pg:gn_id": 7870366,
    "qs_pg:gn_pop": 0,
    "qs_pg:name": "John o'Groats",
    "qs_pg:name_adm0": "United Kingdom",
    "qs_pg:name_adm1": "Scotland",
    "qs_pg:photos": 2445,
    "qs_pg:photos_1k": 495,
    "qs_pg:photos_9k": 11,
    "qs_pg:photos_9r": 10,
    "qs_pg:photos_all": 2445,
    "qs_pg:photos_sr": 17,
    "qs_pg:pop_sr": 0,
    "qs_pg:qs_id": 1091156,
    "qs_pg:qs_pg_placetype": "locality",
    "qs_pg:qs_pg_placetype_gp": "Town",
    "qs_pg:woe_adm0": 23424975,
    "qs_pg:woe_id": 24640,
    "src:geom": "qs_pg",
    "src:lbl_centroid": "qs_pg",
    "src:population": "wikidata",
    "woe:adm0_id": 23424975,
    "woe:name_adm0": "United Kingdom",
    "woe:name_adm1": "Scotland",
    "woe:placetype": "Town",
    "wof:belongsto": [
      1880762005,
      1360699045
    ],
    "wof:breaches": [],
    "wof:concordances": {
      "gn:id": 7870366,
      "gp:id": 24640,
      "qs_pg:id": 1091156,
      "wd:id": "Q987766"
    },
    "wof:country": "GB",
    "wof:created": 1497292516,
    "wof:geomhash": "14dbe67dd3eb025beeca8bd98bb54d35",
    "wof:hierarchy": [
      {
        "continent_id": -1,
        "country_id": -1,
        "county_id": 1360699045,
        "locality_id": 1125831419,
        "macrocounty_id": 1880762005,
        "region_id": -1
      }
    ],
    "wof:id": 1125831419,
    "wof:lastmodified": 1765385705,
    "wof:name": "John o'Groats",
    "wof:parent_id": 1360699045,
    "wof:placetype": "locality",
    "wof:population": 300,
    "wof:population_rank": 2,
    "wof:repo": "whosonfirst-data-admin-gb",
    "wof:superseded_by": [],
    "wof:supersedes": [],
    "wof:tags": []
  },
  "bbox": [
    -3.0627,
    58.63685,
    -3.0627,
    58.63685
  ],
  "geometry": {"type":"Point","coordinates":[-3.0627,58.63685]}
}
