{
  "id": 1125799979,
  "type": "Feature",
  "properties": {
    "edtf:cessation": "",
    "edtf:inception": "",
    "geom:area": 0,
    "geom:area_square_m": 0,
    "geom:bbox": "-5.019820,54.971040,-5.019820,54.971040",
    "geom:latitude": 54.97104,
    "geom:longitude": -5.01982,
    "gn:country": "GB",
    "gn:fcode": "PPL",
    "gn:population": 3757,
    "iso:country": "GB",
    "lbl:bbox": "-5.03982,54.95104,-4.99982,54.99104",
    "lbl:latitude": 54.97104,
    "lbl:longitude": -5.01982,
    "lbl:max_zoom": 15,
    "lbl:min_zoom": 11.5,
    "mz:hierarchy_label": 1,
    "mz:is_current": 1,
    "mz:min_zoom": 11,
    "mz:note": "Quattroshapes Point Gazetteer import 20170519",
    "name:azb_x_preferred": [
      "کایرنراین"
    ],
    "name:ceb_x_preferred": [
      "Cairnryan"
    ],
    "name:cym_x_preferred": [
      "Cairnryan"
    ],
    "name:deu_x_preferred": [
      "Cairnryan"
    ],
    "name:eng_x_preferred": [
      "Cairnryan"
    ],
    "name:est_x_preferred": [
      "Cairnryan"
    ],
    "name:eus_x_preferred": [
      "Cairnryan"
    ],
    "name:fas_x_preferred": [
      "کایرنراین"
    ],
    "name:fra_x_preferred": [
      "Cairnryan"
    ],
    "name:gla_x_preferred": [
      "Machair an Sgithich"
    ],
    "name:gle_x_preferred": [
      "Machair an Sgithich"
    ],
    "name:gle_x_variant": [
      "Càrn Rìoghain"
    ],
    "name:ita_x_preferred": [
      "Cairnryan"
    ],
    "name:jpn_x_preferred": [
      "ケイルンライアン"
    ],
    "name:nld_x_preferred": [
      "Cairnryan"
    ],
    "name:sco_x_preferred": [
      "The Cairn"
    ],
    "name:swe_x_preferred": [
      "Cairnryan"
    ],
    "qs_pg:aaroncc": "GB",
    "qs_pg:gn_country": "GB",
    "qs_pg:gn_fcode": "PPL",
    "qs_pg:gn_id": 2654054,
    "qs_pg:gn_pop": 3757,
    "qs_pg:name": "Cairnryan",
    "qs_pg:name_adm0": "United Kingdom",
    "qs_pg:name_adm1": "Scotland",
    "qs_pg:photos": 360,
    "qs_pg:photos_1k": 73,
    "qs_pg:photos_9k": 2,
    "qs_pg:photos_9r": 5,
    "qs_pg:photos_all": 360,
    "qs_pg:photos_sr": 6,
    "qs_pg:pop_sr": 4,
    "qs_pg:qs_id": 1082067,
    "qs_pg:qs_pg_placetype": "locality",
    "qs_pg:qs_pg_placetype_gp": "Town",
    "qs_pg:woe_adm0": 23424975,
    "qs_pg:woe_id": 14876,
    "src:geom": "qs_pg",
    "src:lbl_centroid": "qs_pg",
    "src:population": "wikidata",
    "woe:adm0_id": 23424975,
    "woe:name_adm0": "United Kingdom",
    "woe:name_adm1": "Scotland",
    "woe:placetype": "Town",
    "wof:belongsto": [
      1880762171,
      1360699039
    ],
    "wof:breaches": [],
    "wof:concordances": {
      "gn:id": 2654054,
      "gp:id": 14876,
      "qs_pg:id": 1082067,
      "wd:id": "Q3250447"
    },
    "wof:country": "GB",
    "wof:created": 1497291219,
    "wof:geomhash": "0109f087b2cc4867c4702cd35ed45baf",
    "wof:hierarchy": [
      {
        "continent_id": -1,
        "country_id": -1,
        "county_id": 1360699039,
        "locality_id": 1125799979,
        "macrocounty_id": 1880762171,
        "region_id": -1
      }
    ],
    "wof:id": 1125799979,
    "wof:lastmodified": 1765385425,
    "wof:name": "Cairnryan",
    "wof:parent_id": 1360699039,
    "wof:placetype": "locality",
    "wof:population": 142,
    "wof:population_rank": 1,
    "wof:repo": "whosonfirst-data-admin-gb",
    "wof:superseded_by": [],
    "wof:supersedes": [],
    "wof:tags": []
  },
  "bbox": [
    -5.01982,
    54.97104,
    -5.01982,
    54.97104
  ],
  "geometry": {"type":"Point","coordinates":[-5.01982,54.97104]}
}
