{
  "id": 85787827,
  "type": "Feature",
  "properties": {
    "edtf:cessation": "",
    "edtf:inception": "",
    "geom:area": 0.0006654823684999891,
    "geom:area_square_m": 5110638.404306,
    "geom:bbox": "0.071173,51.593938,0.133912,51.616311",
    "geom:latitude": 51.606223240263404,
    "geom:longitude": 0.09759166116633024,
    "gn:latitude": 51.60836,
    "gn:longitude": 0.10716,
    "gn:population": 7071,
    "iso:country": "GB",
    "lbl:latitude": 51.610868,
    "lbl:longitude": 0.107362,
    "lbl:max_zoom": 18,
    "mps:latitude": 51.607782,
    "mps:longitude": 0.094976,
    "mz:hierarchy_label": 1,
    "mz:is_current": 1,
    "mz:is_funky": 0,
    "mz:is_hard_boundary": 0,
    "mz:is_landuse_aoi": 0,
    "mz:is_official": 0,
    "mz:max_zoom": 18,
    "mz:min_zoom": 14,
    "mz:tier_locality": 7,
    "mz:tier_metro": 1,
    "name:bre_x_preferred": [
      "Hainault"
    ],
    "name:bul_x_preferred": [
      "Хаинаулт"
    ],
    "name:cat_x_preferred": [
      "Hainault"
    ],
    "name:ceb_x_preferred": [
      "Hainault"
    ],
    "name:cos_x_preferred": [
      "Hainault"
    ],
    "name:dan_x_preferred": [
      "Hainault"
    ],
    "name:deu_x_preferred": [
      "Hainault"
    ],
    "name:eng_x_preferred": [
      "Hainault"
    ],
    "name:fra_x_preferred": [
      "Hainault"
    ],
    "name:gle_x_preferred": [
      "Hainault"
    ],
    "name:hin_x_preferred": [
      "हेनॉल्ट"
    ],
    "name:ind_x_preferred": [
      "Hainault"
    ],
    "name:ita_x_preferred": [
      "Hainault"
    ],
    "name:nds_x_preferred": [
      "Hainault"
    ],
    "name:nld_x_preferred": [
      "Hainault"
    ],
    "name:nno_x_preferred": [
      "Hainault"
    ],
    "name:nob_x_preferred": [
      "Hainault"
    ],
    "name:pol_x_preferred": [
      "Hainault"
    ],
    "name:por_x_preferred": [
      "Hainault"
    ],
    "name:ron_x_preferred": [
      "Hainault"
    ],
    "name:spa_x_preferred": [
      "Hainault"
    ],
    "name:swe_x_preferred": [
      "Hainault"
    ],
    "name:tah_x_preferred": [
      "Hainault"
    ],
    "name:urd_x_preferred": [
      "ہینالٹ"
    ],
    "name:zho_x_preferred": [
      "海諾特"
    ],
    "name:zho_x_variant": [
      "黑诺特"
    ],
    "src:geom": "quattroshapes",
    "src:geom_alt": [
      "quattroshapes_pg"
    ],
    "src:lbl_centroid": "mz",
    "src:population": "wikidata",
    "wof:belongsto": [
      1880762729,
      102191581,
      1880762179,
      85633159,
      404227469,
      101750367,
      136253055,
      1158857291,
      1880771825
    ],
    "wof:breaches": [],
    "wof:concordances": {
      "gn:id": 6690865,
      "gp:id": 22139,
      "qs_pg:id": 241757,
      "wd:id": "Q5639401",
      "wk:page": "Hainault, London"
    },
    "wof:country": "GB",
    "wof:created": 1765391052,
    "wof:geom_alt": [
      "quattroshapes_pg"
    ],
    "wof:geomhash": "449df69c8dff520bf989964de1af2cb5",
    "wof:hierarchy": [
      {
        "borough_id": 1158857291,
        "continent_id": 102191581,
        "country_id": 85633159,
        "county_id": 1880771825,
        "empire_id": 136253055,
        "locality_id": 101750367,
        "macrocounty_id": 1880762179,
        "macroregion_id": 404227469,
        "neighbourhood_id": 85787827,
        "region_id": 1880762729
      }
    ],
    "wof:id": 85787827,
    "wof:lang": [
      "eng"
    ],
    "wof:lastmodified": 1765391052,
    "wof:name": "Hainault",
    "wof:parent_id": 1158857291,
    "wof:placetype": "neighbourhood",
    "wof:population": 12953,
    "wof:population_rank": 6,
    "wof:repo": "whosonfirst-data-admin-gb",
    "wof:superseded_by": [],
    "wof:supersedes": [],
    "wof:tags": []
  },
  "bbox": [
    0.071173,
    51.593938,
    0.133912,
    51.616311
  ],
  "geometry": {"type":"Polygon","coordinates":[[[0.097818,51.616311],[0.098877,51.614606],[0.098877,51.614606],[0.098877,51.614606],[0.099752,51.613196],[0.100181,51.6129],[0.103311,51.6129],[0.10437,51.611195],[0.10437,51.611195],[0.109863,51.611195],[0.109863,51.611195],[0.111981,51.611195],[0.112819,51.61052],[0.113028,51.609847],[0.118616,51.608848],[0.119372,51.606414],[0.11979,51.606077],[0.12085,51.604372],[0.123174,51.600629],[0.123596,51.601308],[0.126343,51.603519],[0.133808,51.603519],[0.133912,51.602004],[0.126898,51.593938],[0.123066,51.600107],[0.122764,51.600107],[0.12085,51.600723],[0.120114,51.60096],[0.118103,51.601607],[0.116092,51.60096],[0.115356,51.600723],[0.115111,51.60096],[0.109863,51.60096],[0.109279,51.60002],[0.107117,51.599522],[0.106064,51.599764],[0.105322,51.60096],[0.10437,51.60096],[0.098877,51.60096],[0.098877,51.601813],[0.097399,51.600623],[0.097142,51.599797],[0.09613,51.599254],[0.093492,51.599254],[0.093384,51.599428],[0.092432,51.60096],[0.092378,51.601047],[0.088684,51.602236],[0.087891,51.60096],[0.087891,51.60096],[0.087015,51.59955],[0.086586,51.599254],[0.082397,51.599254],[0.077964,51.599254],[0.076904,51.60096],[0.072363,51.60096],[0.072363,51.60096],[0.071411,51.60096],[0.071411,51.604372],[0.071656,51.604372],[0.071173,51.606705],[0.071519,51.609488],[0.073726,51.609488],[0.079435,51.612553],[0.079866,51.613246],[0.084929,51.615964],[0.085144,51.616311],[0.093384,51.616311],[0.097818,51.616311]]]}
}
