{
  "id": 101872545,
  "type": "Feature",
  "properties": {
    "edtf:cessation": "",
    "edtf:inception": "",
    "geom:area": 0,
    "geom:area_square_m": 0,
    "geom:bbox": "-3.737924,56.152678,-3.737924,56.152678",
    "geom:latitude": 56.152678,
    "geom:longitude": -3.737924,
    "iso:country": "GB",
    "lbl:bbox": "-3.757924,56.132678,-3.717924,56.172678",
    "lbl:latitude": 56.152678,
    "lbl:longitude": -3.737924,
    "lbl:max_zoom": 18,
    "lbl:min_zoom": 13.5,
    "mps:latitude": 56.152678,
    "mps:longitude": -3.737924,
    "mz:hierarchy_label": 1,
    "mz:is_current": 1,
    "mz:min_zoom": 12,
    "name:ast_x_preferred": [
      "Tillicoultry"
    ],
    "name:ceb_x_preferred": [
      "Tillicoultry"
    ],
    "name:cym_x_preferred": [
      "Tillicoultry"
    ],
    "name:deu_x_preferred": [
      "Tillicoultry"
    ],
    "name:eng_x_preferred": [
      "Tillicoultry"
    ],
    "name:eus_x_preferred": [
      "Tillicoultry"
    ],
    "name:fas_x_preferred": [
      "تیلی‌کولتری"
    ],
    "name:fra_x_preferred": [
      "Tillicoultry"
    ],
    "name:gla_x_preferred": [
      "Tulach Cultraidh"
    ],
    "name:gla_x_variant": [
      "Tulach Cultaire"
    ],
    "name:gle_x_preferred": [
      "Tulach Cultraidh"
    ],
    "name:heb_x_preferred": [
      "טיליקולטרי"
    ],
    "name:ita_x_preferred": [
      "Tillicoultry"
    ],
    "name:nld_x_preferred": [
      "Tillicoultry"
    ],
    "name:pol_x_preferred": [
      "Tillicoultry"
    ],
    "name:rus_x_preferred": [
      "Тилликолтри"
    ],
    "name:sco_x_preferred": [
      "Tillicoultry"
    ],
    "name:sco_x_variant": [
      "Tillicoutrie"
    ],
    "name:spa_x_preferred": [
      "Tillicoultry"
    ],
    "name:swe_x_preferred": [
      "Tillicoultry"
    ],
    "name:zho_x_preferred": [
      "蒂利库特里"
    ],
    "qs:a0": "United Kingdom",
    "qs:a1": "*Clackmannanshire",
    "qs:a1_lc": "GB11QF0000",
    "qs:a1r": "0Scotland",
    "qs:a1r_lc": "GB11000000",
    "qs:adm0": "United Kingdom",
    "qs:id": 0,
    "qs:la_lc": "*",
    "qs:level": "locality",
    "qs:loc": "Tillicoultry",
    "qs:loc_alt": "Tillicoultry",
    "qs:pop": 0,
    "qs:source": "RCustom EuroGlobalMap + UMZ Urban Polygons + Geonames + GeoPlanet",
    "qs:type": "buffered point",
    "src:geom": "whosonfirst",
    "src:geom_alt": [
      "quattroshapes_pg",
      "quattroshapes"
    ],
    "src:geom_via": "quattroshapes",
    "src:lbl_centroid": "mapshaper",
    "src:population": "wikidata",
    "wd:latitude": 56.1533,
    "wd:longitude": -3.74194,
    "wd:wordcount": 1805,
    "wof:belongsto": [
      1880762127,
      1360699079
    ],
    "wof:breaches": [],
    "wof:concordances": {
      "gn:id": 2635829,
      "gp:id": 37599,
      "qs_pg:id": 467034,
      "wd:id": "Q1021170",
      "wk:page": "Tillicoultry"
    },
    "wof:country": "GB",
    "wof:created": 1765384896,
    "wof:geom_alt": [
      "quattroshapes_pg",
      "quattroshapes"
    ],
    "wof:geomhash": "94740add09589a7b8cf895c684a6aa9b",
    "wof:hierarchy": [
      {
        "continent_id": -1,
        "country_id": -1,
        "county_id": 1360699079,
        "locality_id": 101872545,
        "macrocounty_id": 1880762127,
        "region_id": -1
      }
    ],
    "wof:id": 101872545,
    "wof:lastmodified": 1765384896,
    "wof:name": "Tillicoultry",
    "wof:parent_id": 1360699079,
    "wof:placetype": "locality",
    "wof:population": 4650,
    "wof:population_rank": 4,
    "wof:repo": "whosonfirst-data-admin-gb",
    "wof:superseded_by": [],
    "wof:supersedes": [],
    "wof:tags": []
  },
  "bbox": [
    -3.737924,
    56.152678,
    -3.737924,
    56.152678
  ],
  "geometry": {"type":"Point","coordinates":[-3.737924,56.152678]}
}
