{
  "id": 1125972677,
  "type": "Feature",
  "properties": {
    "edtf:cessation": "",
    "edtf:inception": "",
    "geom:area": 0,
    "geom:area_square_m": 0,
    "geom:bbox": "-3.406500,56.348420,-3.406500,56.348420",
    "geom:latitude": 56.34842,
    "geom:longitude": -3.4065,
    "gn:country": "GB",
    "gn:fcode": "PPL",
    "gn:population": 2231,
    "iso:country": "GB",
    "lbl:bbox": "-3.4265,56.32842,-3.3865,56.36842",
    "lbl:latitude": 56.34842,
    "lbl:longitude": -3.4065,
    "lbl:max_zoom": 15,
    "lbl:min_zoom": 11.5,
    "mz:hierarchy_label": 1,
    "mz:is_current": 1,
    "mz:min_zoom": 11,
    "mz:note": "Quattroshapes Point Gazetteer import 20170519",
    "name:ast_x_preferred": [
      "Bridge of Earn"
    ],
    "name:ceb_x_preferred": [
      "Bridge of Earn"
    ],
    "name:cym_x_preferred": [
      "Bridge of Earn"
    ],
    "name:deu_x_preferred": [
      "Bridge of Earn"
    ],
    "name:eng_x_preferred": [
      "Bridge of Earn"
    ],
    "name:eus_x_preferred": [
      "Bridge of Earn"
    ],
    "name:fas_x_preferred": [
      "بریج آو ارن"
    ],
    "name:gla_x_preferred": [
      "Drochaid Èireann"
    ],
    "name:gle_x_preferred": [
      "Drochaid Éireann"
    ],
    "name:gle_x_variant": [
      "Drochaid Èireann"
    ],
    "name:ita_x_preferred": [
      "Bridge of Earn"
    ],
    "name:jpn_x_preferred": [
      "ブリッジ・オブ・ヤーン"
    ],
    "name:nld_x_preferred": [
      "Bridge of Earn"
    ],
    "name:pol_x_preferred": [
      "Bridge of Earn"
    ],
    "name:sco_x_preferred": [
      "Bridge of Earn"
    ],
    "name:sco_x_variant": [
      "Brig o Earn"
    ],
    "name:spa_x_preferred": [
      "Bridge of Earn"
    ],
    "name:swe_x_preferred": [
      "Bridge of Earn"
    ],
    "qs_pg:aaroncc": "GB",
    "qs_pg:gn_country": "GB",
    "qs_pg:gn_fcode": "PPL",
    "qs_pg:gn_id": 2654742,
    "qs_pg:gn_pop": 2231,
    "qs_pg:name": "Bridge of Earn",
    "qs_pg:name_adm0": "United Kingdom",
    "qs_pg:name_adm1": "Scotland",
    "qs_pg:photos": 132,
    "qs_pg:photos_1k": 27,
    "qs_pg:photos_9k": 1,
    "qs_pg:photos_9r": 3,
    "qs_pg:photos_all": 132,
    "qs_pg:photos_sr": 3,
    "qs_pg:pop_sr": 4,
    "qs_pg:qs_id": 1191521,
    "qs_pg:qs_pg_placetype": "locality",
    "qs_pg:qs_pg_placetype_gp": "Town",
    "qs_pg:woe_adm0": 23424975,
    "qs_pg:woe_id": 13840,
    "src:geom": "qs_pg",
    "src:lbl_centroid": "qs_pg",
    "src:population": "wikidata",
    "woe:adm0_id": 23424975,
    "woe:name_adm0": "United Kingdom",
    "woe:name_adm1": "Scotland",
    "woe:placetype": "Town",
    "wof:belongsto": [
      1880772947,
      102191581,
      85633159,
      1880762043,
      404227471,
      136253055,
      1360698829
    ],
    "wof:breaches": [],
    "wof:concordances": {
      "gn:id": 2654742,
      "gp:id": 13840,
      "qs_pg:id": 1191521,
      "wd:id": "Q1016971"
    },
    "wof:country": "GB",
    "wof:created": 1497298233,
    "wof:geomhash": "37bef9330418a3c9aa8d11cbeccef7db",
    "wof:hierarchy": [
      {
        "continent_id": 102191581,
        "country_id": 85633159,
        "county_id": 1360698829,
        "empire_id": 136253055,
        "locality_id": 1125972677,
        "macrocounty_id": 1880762043,
        "macroregion_id": 404227471,
        "region_id": 1880772947
      }
    ],
    "wof:id": 1125972677,
    "wof:lastmodified": 1765387132,
    "wof:name": "Bridge of Earn",
    "wof:parent_id": 1360698829,
    "wof:placetype": "locality",
    "wof:population": 2990,
    "wof:population_rank": 4,
    "wof:repo": "whosonfirst-data-admin-gb",
    "wof:superseded_by": [],
    "wof:supersedes": [],
    "wof:tags": []
  },
  "bbox": [
    -3.4065,
    56.34842,
    -3.4065,
    56.34842
  ],
  "geometry": {"type":"Point","coordinates":[-3.4065,56.34842]}
}
