{
  "id": 1360806207,
  "type": "Feature",
  "properties": {
    "edtf:cessation": "",
    "edtf:inception": "",
    "geom:area": 0,
    "geom:area_square_m": 0,
    "geom:bbox": "1.267380,51.848190,1.267380,51.848190",
    "geom:latitude": 51.84819,
    "geom:longitude": 1.26738,
    "gn:admin1_code": "ENG",
    "gn:admin2_code": "E4",
    "gn:admin3_code": "22UN",
    "gn:admin4_code": "22UN008",
    "gn:asciiname": "Walton-on-the-Naze",
    "gn:country_code": "GB",
    "gn:dem": 5,
    "gn:feature_class": "P",
    "gn:feature_code": "PPL",
    "gn:geonameid": 2634826,
    "gn:latitude": 51.84819,
    "gn:longitude": 1.26738,
    "gn:modification_date": "2018-07-03",
    "gn:name": "Walton-on-the-Naze",
    "gn:population": 17458,
    "gn:timezone": "Europe/London",
    "iso:country": "GB",
    "lbl:bbox": "1.26238,51.84319,1.27238,51.85319",
    "lbl:max_zoom": 18,
    "mz:hierarchy_label": 1,
    "mz:is_current": 1,
    "mz:min_zoom": 15,
    "name:afr_x_preferred": [
      "Walton-on-the-Naze"
    ],
    "name:ceb_x_preferred": [
      "Walton-on-the-Naze"
    ],
    "name:cym_x_preferred": [
      "Walton-on-the-Naze"
    ],
    "name:deu_x_preferred": [
      "Walton-on-the-Naze"
    ],
    "name:eng_x_preferred": [
      "Walton-on-the-Naze"
    ],
    "name:epo_x_preferred": [
      "Walton-on-the-Naze"
    ],
    "name:fas_x_preferred": [
      "والتون-آن-د- نیز"
    ],
    "name:fra_x_preferred": [
      "Walton-on-the-Naze"
    ],
    "name:gle_x_preferred": [
      "Walton-on-the-Naze"
    ],
    "name:ita_x_preferred": [
      "Walton-on-the-Naze"
    ],
    "name:nld_x_preferred": [
      "Walton-on-the-Naze"
    ],
    "name:nno_x_preferred": [
      "Walton-on-the-Naze"
    ],
    "name:pol_x_preferred": [
      "Walton-on-the-Naze"
    ],
    "name:ron_x_preferred": [
      "Walton-on-the-Naze"
    ],
    "name:spa_x_preferred": [
      "Walton-on-the-Naze"
    ],
    "name:swe_x_preferred": [
      "Walton-on-the-Naze"
    ],
    "name:urd_x_preferred": [
      "والٹن-آن-دی-نیز"
    ],
    "name:vol_x_preferred": [
      "Walton-on-the-Naze"
    ],
    "src:geom": "geonames",
    "src:population": "wikidata",
    "wof:belongsto": [
      1880762723,
      102191581,
      1880762159,
      404444203,
      85633159,
      404227469,
      1360758743,
      136253055,
      1880771425
    ],
    "wof:breaches": [],
    "wof:concordances": {
      "gn:id": 2634826,
      "wk:page": "Walton-on-the-Naze"
    },
    "wof:country": "GB",
    "wof:created": 1765390362,
    "wof:geomhash": "8535d0366c3717c5094d6bb8972bcad0",
    "wof:hierarchy": [
      {
        "continent_id": 102191581,
        "country_id": 85633159,
        "county_id": 1880771425,
        "empire_id": 136253055,
        "localadmin_id": 404444203,
        "locality_id": 1360758743,
        "macrocounty_id": 1880762159,
        "macroregion_id": 404227469,
        "neighbourhood_id": 1360806207,
        "region_id": 1880762723
      }
    ],
    "wof:id": 1360806207,
    "wof:lastmodified": 1765390362,
    "wof:name": "Walton-on-the-Naze",
    "wof:parent_id": 1360758743,
    "wof:placetype": "neighbourhood",
    "wof:population": 12054,
    "wof:population_rank": 6,
    "wof:repo": "whosonfirst-data-admin-gb",
    "wof:superseded_by": [],
    "wof:supersedes": [
      1209444263
    ],
    "wof:tags": []
  },
  "bbox": [
    1.26738,
    51.84819,
    1.26738,
    51.84819
  ],
  "geometry": {"type":"Point","coordinates":[1.26738,51.84819]}
}
