{
  "id": 101872397,
  "type": "Feature",
  "properties": {
    "edtf:cessation": "",
    "edtf:inception": "",
    "geom:area": 0,
    "geom:area_square_m": 0,
    "geom:bbox": "-2.782441,55.429410,-2.782441,55.429410",
    "geom:latitude": 55.42941,
    "geom:longitude": -2.782441,
    "iso:country": "GB",
    "lbl:bbox": "-2.802441,55.40941,-2.762441,55.44941",
    "lbl:latitude": 55.42941,
    "lbl:longitude": -2.782441,
    "lbl:max_zoom": 18,
    "lbl:min_zoom": 13.5,
    "mps:latitude": 55.42941,
    "mps:longitude": -2.782441,
    "mz:hierarchy_label": 1,
    "mz:is_current": 1,
    "mz:min_zoom": 12,
    "name:afr_x_preferred": [
      "Hawick"
    ],
    "name:ara_x_preferred": [
      "هاويك"
    ],
    "name:ast_x_preferred": [
      "Hawick"
    ],
    "name:ben_x_preferred": [
      "হ্যাউইক"
    ],
    "name:cat_x_preferred": [
      "Hawick"
    ],
    "name:ceb_x_preferred": [
      "Hawick"
    ],
    "name:cym_x_preferred": [
      "Hawick"
    ],
    "name:deu_x_preferred": [
      "Hawick"
    ],
    "name:ell_x_preferred": [
      "Χόικ"
    ],
    "name:eng_x_preferred": [
      "Hawick"
    ],
    "name:eus_x_preferred": [
      "Hawick"
    ],
    "name:fas_x_preferred": [
      "هاویک"
    ],
    "name:fra_x_preferred": [
      "Hawick"
    ],
    "name:gla_x_preferred": [
      "Hamhaig"
    ],
    "name:gle_x_preferred": [
      "Hamhaig"
    ],
    "name:guj_x_preferred": [
      "હોવિક"
    ],
    "name:ita_x_preferred": [
      "Hawick"
    ],
    "name:jpn_x_preferred": [
      "ホイック"
    ],
    "name:kan_x_preferred": [
      "ಹಾವಿಕ್"
    ],
    "name:kor_x_preferred": [
      "하익"
    ],
    "name:lat_x_preferred": [
      "Hawick"
    ],
    "name:lit_x_preferred": [
      "Hovikas"
    ],
    "name:nld_x_preferred": [
      "Hawick"
    ],
    "name:nno_x_preferred": [
      "Hawick"
    ],
    "name:nob_x_preferred": [
      "Hawick"
    ],
    "name:nor_x_preferred": [
      "Hawick"
    ],
    "name:pol_x_preferred": [
      "Hawick"
    ],
    "name:por_x_preferred": [
      "Hawick"
    ],
    "name:rus_x_preferred": [
      "Хоик"
    ],
    "name:sco_x_preferred": [
      "Haaick"
    ],
    "name:spa_x_preferred": [
      "Hawick"
    ],
    "name:swe_x_preferred": [
      "Hawick"
    ],
    "name:tam_x_preferred": [
      "ஹாவிக்"
    ],
    "name:tel_x_preferred": [
      "హవిక్"
    ],
    "name:ukr_x_preferred": [
      "Хоїк"
    ],
    "name:urd_x_preferred": [
      "ہاویک"
    ],
    "name:zho_x_preferred": [
      "霍伊克"
    ],
    "qs:a0": "United Kingdom",
    "qs:a1": "*Scottish Borders",
    "qs:a1_lc": "GB11QE0000",
    "qs:a1r": "0Scotland",
    "qs:a1r_lc": "GB11000000",
    "qs:adm0": "United Kingdom",
    "qs:id": 0,
    "qs:la_lc": "*",
    "qs:level": "locality",
    "qs:loc": "Hawick",
    "qs:loc_alt": "Hawick",
    "qs:pop": 0,
    "qs:source": "RCustom EuroGlobalMap + UMZ Urban Polygons + Geonames + GeoPlanet",
    "qs:type": "buffered point",
    "src:geom": "whosonfirst",
    "src:geom_alt": [
      "quattroshapes_pg",
      "quattroshapes"
    ],
    "src:geom_via": "quattroshapes",
    "src:lbl_centroid": "mapshaper",
    "src:population": "wikidata",
    "wd:latitude": 55.424722,
    "wd:longitude": -2.784444,
    "wd:wordcount": 1102,
    "wof:belongsto": [
      1880773105,
      102191581,
      85633159,
      1880761991,
      404227471,
      1360699015
    ],
    "wof:breaches": [],
    "wof:concordances": {
      "fct:id": "0aa5d64a-8f76-11e1-848f-cfd5bf3ef515",
      "gn:id": 2647297,
      "gp:id": 22703,
      "qs_pg:id": 899160,
      "wd:id": "Q407183",
      "wk:page": "Hawick"
    },
    "wof:country": "GB",
    "wof:created": 1765384885,
    "wof:geom_alt": [
      "quattroshapes_pg",
      "quattroshapes"
    ],
    "wof:geomhash": "ba787ac997ae7560189bcd79ae547e6f",
    "wof:hierarchy": [
      {
        "continent_id": 102191581,
        "country_id": 85633159,
        "county_id": 1360699015,
        "locality_id": 101872397,
        "macrocounty_id": 1880761991,
        "macroregion_id": 404227471,
        "region_id": 1880773105
      }
    ],
    "wof:id": 101872397,
    "wof:lang": [
      "eng"
    ],
    "wof:lastmodified": 1765384885,
    "wof:name": "Hawick",
    "wof:parent_id": 1360699015,
    "wof:placetype": "locality",
    "wof:population": 13740,
    "wof:population_rank": 6,
    "wof:repo": "whosonfirst-data-admin-gb",
    "wof:superseded_by": [],
    "wof:supersedes": [],
    "wof:tags": []
  },
  "bbox": [
    -2.782441,
    55.42941,
    -2.782441,
    55.42941
  ],
  "geometry": {"type":"Point","coordinates":[-2.782441,55.42941]}
}
