{
  "id": 1360806277,
  "type": "Feature",
  "properties": {
    "edtf:cessation": "",
    "edtf:inception": "",
    "geom:area": 0,
    "geom:area_square_m": 0,
    "geom:bbox": "0.136640,52.745850,0.136640,52.745850",
    "geom:latitude": 52.74585,
    "geom:longitude": 0.13664,
    "gn:admin1_code": "ENG",
    "gn:admin2_code": "H7",
    "gn:admin3_code": "32UF",
    "gn:admin4_code": "32UF020",
    "gn:asciiname": "Tydd Saint Mary",
    "gn:country_code": "GB",
    "gn:dem": 5,
    "gn:feature_class": "P",
    "gn:feature_code": "PPL",
    "gn:geonameid": 2635283,
    "gn:latitude": 52.74585,
    "gn:longitude": 0.13664,
    "gn:modification_date": "2018-07-03",
    "gn:name": "Tydd Saint Mary",
    "gn:population": 0,
    "gn:timezone": "Europe/London",
    "iso:country": "GB",
    "lbl:bbox": "0.13164,52.74085,0.14164,52.75085",
    "lbl:max_zoom": 18,
    "mz:hierarchy_label": 1,
    "mz:is_current": 1,
    "mz:min_zoom": 15,
    "name:und_x_variant": [
      "Tydd",
      "Tydd Saint Mary"
    ],
    "src:geom": "geonames",
    "src:population": "wikidata",
    "wof:belongsto": [
      1880762701,
      102191581,
      1880762033,
      404448967,
      85633159,
      404227469,
      1360757729,
      136253055,
      1880771575
    ],
    "wof:breaches": [],
    "wof:concordances": {
      "gn:id": 2635283
    },
    "wof:country": "GB",
    "wof:created": 1765390370,
    "wof:geomhash": "464dbc0d8a491413b958261a9cb2f197",
    "wof:hierarchy": [
      {
        "continent_id": 102191581,
        "country_id": 85633159,
        "county_id": 1880771575,
        "empire_id": 136253055,
        "localadmin_id": 404448967,
        "locality_id": 1360757729,
        "macrocounty_id": 1880762033,
        "macroregion_id": 404227469,
        "neighbourhood_id": 1360806277,
        "region_id": 1880762701
      }
    ],
    "wof:id": 1360806277,
    "wof:lastmodified": 1765390370,
    "wof:name": "Tydd Saint Mary",
    "wof:parent_id": 1360757729,
    "wof:placetype": "neighbourhood",
    "wof:population": 1097,
    "wof:population_rank": 3,
    "wof:repo": "whosonfirst-data-admin-gb",
    "wof:superseded_by": [],
    "wof:supersedes": [
      1209744673
    ],
    "wof:tags": []
  },
  "bbox": [
    0.13664,
    52.74585,
    0.13664,
    52.74585
  ],
  "geometry": {"type":"Point","coordinates":[0.13664,52.74585]}
}
