{
  "id": 1126025251,
  "type": "Feature",
  "properties": {
    "edtf:cessation": "",
    "edtf:inception": "",
    "geom:area": 0,
    "geom:area_square_m": 0,
    "geom:bbox": "-5.570190,56.695760,-5.570190,56.695760",
    "geom:latitude": 56.69576,
    "geom:longitude": -5.57019,
    "gn:country": "GB",
    "gn:fcode": "PPL",
    "gn:population": 0,
    "iso:country": "GB",
    "lbl:bbox": "-5.59019,56.67576,-5.55019,56.71576",
    "lbl:latitude": 56.69576,
    "lbl:longitude": -5.57019,
    "lbl:max_zoom": 18,
    "lbl:min_zoom": 13.5,
    "mz:hierarchy_label": 1,
    "mz:is_current": 1,
    "mz:min_zoom": 12,
    "mz:note": "Quattroshapes Point Gazetteer import 20170519",
    "name:deu_x_preferred": [
      "Strontian"
    ],
    "name:eng_x_preferred": [
      "Strontian"
    ],
    "name:eus_x_preferred": [
      "Strontian"
    ],
    "name:fra_x_preferred": [
      "Strontian"
    ],
    "name:gla_x_preferred": [
      "Sròn an t-Sìthein"
    ],
    "name:gle_x_preferred": [
      "Srón an t-Síthein"
    ],
    "name:heb_x_preferred": [
      "סטרונטיאן"
    ],
    "name:ita_x_preferred": [
      "Strontian"
    ],
    "name:jpn_x_preferred": [
      "ストロンティーアン"
    ],
    "name:nld_x_preferred": [
      "Strontian"
    ],
    "name:sco_x_preferred": [
      "Strontian"
    ],
    "name:spa_x_preferred": [
      "Estroncia"
    ],
    "name:swe_x_preferred": [
      "Strontian"
    ],
    "name:vie_x_preferred": [
      "Strontian"
    ],
    "name:zho_x_preferred": [
      "斯托申"
    ],
    "qs_pg:aaroncc": "GB",
    "qs_pg:gn_country": "GB",
    "qs_pg:gn_fcode": "PPL",
    "qs_pg:gn_id": 2636621,
    "qs_pg:gn_pop": 0,
    "qs_pg:name": "Strontian",
    "qs_pg:name_adm0": "United Kingdom",
    "qs_pg:name_adm1": "Scotland",
    "qs_pg:photos": 450,
    "qs_pg:photos_1k": 91,
    "qs_pg:photos_9k": 2,
    "qs_pg:photos_9r": 5,
    "qs_pg:photos_all": 450,
    "qs_pg:photos_sr": 6,
    "qs_pg:pop_sr": 0,
    "qs_pg:qs_id": 889953,
    "qs_pg:qs_pg_placetype": "locality",
    "qs_pg:qs_pg_placetype_gp": "Town",
    "qs_pg:woe_adm0": 23424975,
    "qs_pg:woe_id": 36517,
    "src:geom": "qs_pg",
    "src:lbl_centroid": "qs_pg",
    "src:population": "wikidata",
    "woe:adm0_id": 23424975,
    "woe:name_adm0": "United Kingdom",
    "woe:name_adm1": "Scotland",
    "woe:placetype": "Town",
    "wof:belongsto": [
      1880762005,
      1360699045
    ],
    "wof:breaches": [],
    "wof:concordances": {
      "gn:id": 2636621,
      "gp:id": 36517,
      "qs_pg:id": 889953,
      "wd:id": "Q503042"
    },
    "wof:country": "GB",
    "wof:created": 1497301101,
    "wof:geomhash": "9212e3e4ea1ee61b5d8ecf6b32b35cf1",
    "wof:hierarchy": [
      {
        "continent_id": -1,
        "country_id": -1,
        "county_id": 1360699045,
        "locality_id": 1126025251,
        "macrocounty_id": 1880762005,
        "region_id": -1
      }
    ],
    "wof:id": 1126025251,
    "wof:lastmodified": 1765387686,
    "wof:name": "Strontian",
    "wof:parent_id": 1360699045,
    "wof:placetype": "locality",
    "wof:population": 350,
    "wof:population_rank": 2,
    "wof:repo": "whosonfirst-data-admin-gb",
    "wof:superseded_by": [],
    "wof:supersedes": [],
    "wof:tags": []
  },
  "bbox": [
    -5.57019,
    56.69576,
    -5.57019,
    56.69576
  ],
  "geometry": {"type":"Point","coordinates":[-5.57019,56.69576]}
}
