{
  "id": 1293029717,
  "type": "Feature",
  "properties": {
    "edtf:cessation": "",
    "edtf:inception": "",
    "geom:area": 0,
    "geom:area_square_m": 0,
    "geom:bbox": "-3.416670,55.616670,-3.416670,55.616670",
    "geom:latitude": 55.61666999999999,
    "geom:longitude": -3.41667,
    "gn:admin1_code": "SCT",
    "gn:admin2_code": "T9",
    "gn:asciiname": "Broughton",
    "gn:country_code": "GB",
    "gn:dem": 222,
    "gn:feature_class": "P",
    "gn:feature_code": "PPL",
    "gn:geonameid": 2654503,
    "gn:latitude": 55.61667,
    "gn:longitude": -3.41667,
    "gn:modification_date": "2012-02-01",
    "gn:name": "Broughton",
    "gn:population": 0,
    "gn:timezone": "Europe/London",
    "iso:country": "GB",
    "lbl:bbox": "-3.43667,55.59667,-3.39667,55.63667",
    "lbl:max_zoom": 18,
    "lbl:min_zoom": 13.5,
    "mz:hierarchy_label": 1,
    "mz:is_current": -1,
    "mz:min_zoom": 12,
    "name:deu_x_preferred": [
      "Broughton"
    ],
    "name:eus_x_preferred": [
      "Broughton"
    ],
    "name:gla_x_preferred": [
      "Broughton"
    ],
    "name:pol_x_preferred": [
      "Broughton"
    ],
    "name:spa_x_preferred": [
      "Broughton"
    ],
    "src:geom": "geonames",
    "src:population": "wikidata",
    "wof:belongsto": [
      1880761991,
      1360699015
    ],
    "wof:breaches": [],
    "wof:concordances": {
      "gn:id": 2654503,
      "wk:page": "Broughton%2C_Scottish_Borders"
    },
    "wof:country": "GB",
    "wof:created": 1765388638,
    "wof:geomhash": "88f7ca39283d7ba861ff36b20aac9be5",
    "wof:hierarchy": [
      {
        "continent_id": -1,
        "country_id": -1,
        "county_id": 1360699015,
        "locality_id": 1293029717,
        "macrocounty_id": 1880761991,
        "region_id": -1
      }
    ],
    "wof:id": 1293029717,
    "wof:lastmodified": 1765388638,
    "wof:name": "Broughton",
    "wof:parent_id": 1360699015,
    "wof:placetype": "locality",
    "wof:population": 306,
    "wof:population_rank": 2,
    "wof:repo": "whosonfirst-data-admin-gb",
    "wof:superseded_by": [],
    "wof:supersedes": [],
    "wof:tags": []
  },
  "bbox": [
    -3.41667,
    55.61666999999999,
    -3.41667,
    55.61666999999999
  ],
  "geometry": {"type":"Point","coordinates":[-3.41667,55.61666999999999]}
}
