{
  "id": 85684467,
  "type": "Feature",
  "properties": {
    "edtf:cessation": "",
    "edtf:deprecated": "2017-12-20",
    "edtf:inception": "",
    "geom:area": 0.002790805796499951,
    "geom:area_square_m": 21474899.182466,
    "geom:bbox": "-0.080139,51.484569,0.009688,51.544643",
    "geom:latitude": 51.515795391768684,
    "geom:longitude": -0.0346095338991617,
    "iso:country": "GB",
    "lbl:latitude": 51.523177,
    "lbl:longitude": -0.03154,
    "mps:latitude": 51.523177,
    "mps:longitude": -0.03154,
    "mz:hierarchy_label": 1,
    "mz:is_current": 0,
    "mz:is_funky": 1,
    "mz:max_zoom": 11,
    "mz:min_zoom": 11,
    "name:afr_x_preferred": [
      "London Borough of Tower Hamlets"
    ],
    "name:ara_x_preferred": [
      "حي تاور هامليتس، لندن"
    ],
    "name:bel_x_preferred": [
      "Таўэр-Хэмлетс"
    ],
    "name:ben_x_preferred": [
      "টাওয়ার হ্যামলেট্‌স"
    ],
    "name:cat_x_preferred": [
      "Tower Hamlets"
    ],
    "name:ces_x_preferred": [
      "Tower Hamlets"
    ],
    "name:cym_x_preferred": [
      "Tower Hamlets"
    ],
    "name:dan_x_preferred": [
      "Tower Hamlets"
    ],
    "name:deu_x_preferred": [
      "London Borough of Tower Hamlets"
    ],
    "name:eng_x_preferred": [
      "Tower Hamlets"
    ],
    "name:est_x_preferred": [
      "Tower Hamlets"
    ],
    "name:eus_x_preferred": [
      "Tower Hamlets"
    ],
    "name:fas_x_preferred": [
      "منطقه تاور هملتس لندن"
    ],
    "name:fin_x_preferred": [
      "Tower Hamlets"
    ],
    "name:fra_x_preferred": [
      "Tower Hamlets"
    ],
    "name:gle_x_preferred": [
      "Buirg Londan Tower Hamlets"
    ],
    "name:glg_x_preferred": [
      "Tower Hamlets"
    ],
    "name:guj_x_preferred": [
      "લંડન બોરો ઓફ ટાવર હેમ્લેટ્સ"
    ],
    "name:heb_x_preferred": [
      "טאוור האמלטס"
    ],
    "name:hin_x_preferred": [
      "टावर हैमलट्स बरो"
    ],
    "name:isl_x_preferred": [
      "Tower Hamlets"
    ],
    "name:ita_x_preferred": [
      "Tower Hamlets"
    ],
    "name:jpn_x_preferred": [
      "タワーハムレッツ・ロンドン特別区"
    ],
    "name:kan_x_preferred": [
      "ಲಂಡನ್ ಬರೋ ಆಫ್ ಟವರ್ ಹ್ಯಾಮ್ಲೆಟ್ಸ್"
    ],
    "name:kor_x_preferred": [
      "타워햄리츠 구"
    ],
    "name:lat_x_preferred": [
      "Tower Hamlets"
    ],
    "name:nld_x_preferred": [
      "Tower Hamlets"
    ],
    "name:nno_x_preferred": [
      "London Borough of Tower Hamlets"
    ],
    "name:nob_x_preferred": [
      "Tower Hamlets"
    ],
    "name:pnb_x_preferred": [
      "ہیملٹس ٹاور"
    ],
    "name:pol_x_preferred": [
      "London Borough of Tower Hamlets"
    ],
    "name:por_x_preferred": [
      "Tower Hamlets"
    ],
    "name:ron_x_preferred": [
      "Tower Hamlets"
    ],
    "name:rus_x_preferred": [
      "Тауэр-Хэмлетс"
    ],
    "name:sco_x_preferred": [
      "London Borough of Tower Hamlets"
    ],
    "name:spa_x_preferred": [
      "Tower Hamlets"
    ],
    "name:swe_x_preferred": [
      "London Borough of Tower Hamlets"
    ],
    "name:tam_x_preferred": [
      "லண்டன்  பாரூக்ஹ்  ஆப்  டவர்  ஹாம்லெட்ஸ்"
    ],
    "name:tel_x_preferred": [
      "లండన్ బోరోగ్ అఫ్ టవర్ హమ్లెట్స్"
    ],
    "name:ukr_x_preferred": [
      "Тауер-Гемлетс"
    ],
    "name:urd_x_preferred": [
      "ٹاور ہیملٹس بورو"
    ],
    "name:vls_x_preferred": [
      "Tower Hamlets"
    ],
    "name:yid_x_preferred": [
      "לאנדאנער בארא פון טאר האמלעטס"
    ],
    "name:zho_x_preferred": [
      "塔村區"
    ],
    "ne:abbrev": "T Hamlet",
    "ne:adm0_a3": "GBR",
    "ne:adm0_label": "7",
    "ne:adm0_sr": "1",
    "ne:adm1_cod_1": "GBR-2077",
    "ne:adm1_code": "GBR-2077",
    "ne:admin": "United Kingdom",
    "ne:area_sqkm": "0.00000000000",
    "ne:check_me": "20",
    "ne:code_hasc": "GB.TH",
    "ne:code_local": "",
    "ne:datarank": "5",
    "ne:diss_me": "2077",
    "ne:featurecla": "Admin-1 scale rank",
    "ne:fips": "UK17",
    "ne:fips_alt": "UKO5",
    "ne:gadm_level": "2",
    "ne:geonunit": "England",
    "ne:gn_a1_code": "GB.",
    "ne:gn_id": "-2648110",
    "ne:gn_level": "-2",
    "ne:gn_name": "Greater London",
    "ne:gn_region": "",
    "ne:gns_adm1": "",
    "ne:gns_id": "-2610063",
    "ne:gns_lang": "cym",
    "ne:gns_level": "1",
    "ne:gns_name": "Tower Hamlets, London Borough of",
    "ne:gns_region": "UK01",
    "ne:gu_a3": "ENG",
    "ne:hasc_maybe": "",
    "ne:iso_3166_2": "GB-",
    "ne:iso_a2": "GB",
    "ne:labelrank": "9",
    "ne:latitude": "51.51620000000",
    "ne:longitude": "-0.02629780000",
    "ne:mapcolor13": 3,
    "ne:mapcolor9": 6,
    "ne:name": "Tower Hamlets",
    "ne:name_alt": "",
    "ne:name_len": 13,
    "ne:name_local": "",
    "ne:note": "",
    "ne:postal": "TH",
    "ne:provnum_ne": "3",
    "ne:region": "Greater London",
    "ne:region_cod": "",
    "ne:region_sub": "Greater London",
    "ne:sameascity": "-99",
    "ne:scalerank": "8",
    "ne:sov_a3": "GB1",
    "ne:sub_code": "",
    "ne:type": "London Borough",
    "ne:type_en": "London Borough",
    "ne:wikipedia": "",
    "ne:woe_id": 12695817,
    "ne:woe_label": "",
    "ne:woe_name": "London Borough of Tower Hamlets",
    "qs:a0": "United Kingdom",
    "qs:a0_lc": "GB00000000",
    "qs:a1": "Tower Hamlets",
    "qs:a1_alt": "Tower Hamlets",
    "qs:a1_lc": "GB12BG0000",
    "qs:a1r": "England",
    "qs:a1r_alt": "England",
    "qs:a1r_lc": "GB12000000",
    "qs:adm0": "United Kingdom",
    "qs:adm0_a3": "GBR",
    "qs:level": "adm1",
    "qs:source": "EuroGlobalMap",
    "qs:type": "London Borough",
    "src:geom": "quattroshapes",
    "src:geom_alt": [],
    "src:lbl:centroid": "mapshaper",
    "src:population": "wikidata",
    "unlc:subdivision": "GB-TWH",
    "wof:belongsto": [
      102191581,
      85633159,
      404227469
    ],
    "wof:breaches": [],
    "wof:concordances": {
      "fips:code": "UK17",
      "gn:id": -2648110,
      "gp:id": 12695817,
      "hasc:id": "GB.TH",
      "unlc:id": "GB-TWH",
      "wd:id": "Q208152"
    },
    "wof:country": "GB",
    "wof:created": 1765390947,
    "wof:geomhash": "d06fabf94c0eddf40eed02f1ee0b24aa",
    "wof:hierarchy": [
      {
        "continent_id": 102191581,
        "country_id": 85633159,
        "macroregion_id": 404227469,
        "region_id": 85684467
      }
    ],
    "wof:id": 85684467,
    "wof:lastmodified": 1765390947,
    "wof:name": "Tower Hamlets",
    "wof:parent_id": 404227469,
    "wof:placetype": "region",
    "wof:population": 325789,
    "wof:population_rank": 10,
    "wof:repo": "whosonfirst-data-admin-gb",
    "wof:shortcode": "TH",
    "wof:subdivision": "GB-TWH",
    "wof:superseded_by": [
      1158857269
    ],
    "wof:supersedes": [],
    "wof:tags": []
  },
  "bbox": [
    -0.080139,
    51.484569,
    0.009688,
    51.544643
  ],
  "geometry": {"type":"Polygon","coordinates":[[[-0.016436,51.543277],[-0.016436,51.541401],[-0.017526,51.540973],[-0.019443,51.538231],[-0.021199,51.537018],[-0.018049,51.533424],[-0.017601,51.531669],[-0.013582,51.529838],[-0.010685,51.529354],[-0.007474,51.526302],[-0.008056,51.523739],[-0.007652,51.522873],[-0.008858,51.51989],[-0.006749,51.518745],[-0.005622,51.51675],[-0.004615,51.516632],[-0.003584,51.51773],[-0.002229,51.517959],[0.003048,51.515674],[0.004177,51.514637],[0.002372,51.510795],[0.004145,51.510719],[0.004946,51.513462],[0.005943,51.514221],[0.006984,51.514126],[0.007816,51.512497],[0.006055,51.509975],[0.009688,51.508796],[0.009417,51.507099],[0.007663,51.505508],[0.00402,51.506744],[0.001019,51.50655],[-0.001543,51.505646],[-0.004192,51.50317],[-0.005124,51.500969],[-0.004539,51.499],[-0.000351,51.491386],[-0.001345,51.488418],[-0.005491,51.485904],[-0.012733,51.484569],[-0.018353,51.484947],[-0.023453,51.48682],[-0.027242,51.489414],[-0.029883,51.493561],[-0.029464,51.503978],[-0.030269,51.505733],[-0.03159,51.506546],[-0.038822,51.508575],[-0.043285,51.50848],[-0.046332,51.507496],[-0.054811,51.502792],[-0.059463,51.501713],[-0.065854,51.502521],[-0.080139,51.506847],[-0.079447,51.507805],[-0.078781,51.509411],[-0.076848,51.510467],[-0.076111,51.510467],[-0.075467,51.509735],[-0.072845,51.510063],[-0.0727,51.510803],[-0.073906,51.51445],[-0.077307,51.517395],[-0.078019,51.518966],[-0.079366,51.518844],[-0.078408,51.521507],[-0.076123,51.522152],[-0.075655,51.523586],[-0.075852,51.524318],[-0.076379,51.524284],[-0.076252,51.527145],[-0.077189,51.527294],[-0.074586,51.529789],[-0.072202,51.530838],[-0.066249,51.531223],[-0.065076,51.533218],[-0.064916,51.532898],[-0.062174,51.533245],[-0.062774,51.534633],[-0.062406,51.535515],[-0.059845,51.534157],[-0.055184,51.535084],[-0.052775,51.534885],[-0.05233,51.535911],[-0.050893,51.536457],[-0.04751,51.535526],[-0.044797,51.535804],[-0.040671,51.538101],[-0.037299,51.541229],[-0.037698,51.541794],[-0.033157,51.544643],[-0.029684,51.543094],[-0.029024,51.542282],[-0.025286,51.543216],[-0.019321,51.543541],[-0.016436,51.543277]]]}
}
