{
  "id": 85792575,
  "type": "Feature",
  "properties": {
    "edtf:cessation": "",
    "edtf:inception": "",
    "geom:area": 0.00015336586299995633,
    "geom:area_square_m": 1064097.308826,
    "geom:bbox": "-4.185234,55.859899,-4.168447,55.874005",
    "geom:latitude": 55.86735983238751,
    "geom:longitude": -4.176814356713451,
    "gn:id": "",
    "iso:country": "GB",
    "lbl:latitude": 55.865269,
    "lbl:longitude": -4.166455,
    "lbl:max_zoom": 18,
    "mps:latitude": 55.867095,
    "mps:longitude": -4.176654,
    "mz:hierarchy_label": 1,
    "mz:is_current": -1,
    "mz:is_funky": 0,
    "mz:is_hard_boundary": 0,
    "mz:is_landuse_aoi": 0,
    "mz:is_official": 0,
    "mz:max_zoom": 18,
    "mz:min_zoom": 15,
    "mz:tier_locality": 4,
    "mz:tier_metro": 1,
    "name:eng_x_preferred": [
      "Cranhill"
    ],
    "name:eus_x_preferred": [
      "Cranhill"
    ],
    "name:jpn_x_preferred": [
      "クランヒル"
    ],
    "qs:gn_id": 0,
    "qs:gn_local": 0,
    "qs:local_max": 6837,
    "qs:local_sum": 153221,
    "qs:localhoods": 91,
    "qs:name": "Cranhill",
    "qs:name_adm0": "United Kingdom",
    "qs:name_adm1": "Scotland",
    "qs:name_adm2": "Strathclyde",
    "qs:name_lau": "Glasgow City",
    "qs:name_local": "Glasgow",
    "qs:photo_max": 160,
    "qs:photo_sum": 185,
    "qs:placetype": "Suburb",
    "qs:quad_count": 7,
    "qs:woe_adm0": 23424975,
    "qs:woe_adm1": 12578048,
    "qs:woe_adm2": 12602207,
    "qs:woe_lau": 12696198,
    "qs:woe_local": 21125,
    "qs:woe_ver": "7.10.0",
    "src:geom": "quattroshapes",
    "src:geom_alt": [
      "quattroshapes_pg"
    ],
    "src:lbl_centroid": "mz",
    "src:population": "wikidata",
    "wd:wordcount": 1533,
    "wof:belongsto": [
      1880772925,
      102191581,
      85633159,
      1880762095,
      404227471,
      1175612707,
      136253055,
      1360698797
    ],
    "wof:breaches": [],
    "wof:concordances": {
      "gp:id": 43599,
      "qs_pg:id": 465916,
      "wd:id": "Q5182117"
    },
    "wof:country": "GB",
    "wof:created": 1765391278,
    "wof:geom_alt": [
      "quattroshapes_pg"
    ],
    "wof:geomhash": "8e8401dfc02d9d5805e2aec16054a238",
    "wof:hierarchy": [
      {
        "continent_id": 102191581,
        "country_id": 85633159,
        "county_id": 1360698797,
        "empire_id": 136253055,
        "locality_id": 1175612707,
        "macrocounty_id": 1880762095,
        "macroregion_id": 404227471,
        "neighbourhood_id": 85792575,
        "region_id": 1880772925
      }
    ],
    "wof:id": 85792575,
    "wof:lang": [
      "eng"
    ],
    "wof:lastmodified": 1765391278,
    "wof:name": "Cranhill",
    "wof:parent_id": 1175612707,
    "wof:placetype": "neighbourhood",
    "wof:population": 4600,
    "wof:population_rank": 4,
    "wof:repo": "whosonfirst-data-admin-gb",
    "wof:superseded_by": [],
    "wof:supersedes": [],
    "wof:tags": []
  },
  "bbox": [
    -4.185234,
    55.859899,
    -4.168447,
    55.874005
  ],
  "geometry": {"type":"Polygon","coordinates":[[[-4.175218,55.872965],[-4.174805,55.872229],[-4.174805,55.872229],[-4.169312,55.872229],[-4.169312,55.872229],[-4.168447,55.870688],[-4.169311,55.869147],[-4.169312,55.869147],[-4.169312,55.866065],[-4.169312,55.866065],[-4.171041,55.862982],[-4.173075,55.862982],[-4.176535,55.859899],[-4.178568,55.859899],[-4.180298,55.862982],[-4.180298,55.862982],[-4.180711,55.863719],[-4.184794,55.864758],[-4.185234,55.866065],[-4.185061,55.867606],[-4.185234,55.869147],[-4.184794,55.870453],[-4.180711,55.871493],[-4.180298,55.872229],[-4.180298,55.872229],[-4.180298,55.872229],[-4.179301,55.874005],[-4.175218,55.872965]]]}
}
