{
  "id": 101872547,
  "type": "Feature",
  "properties": {
    "edtf:cessation": "",
    "edtf:inception": "",
    "geom:area": 0,
    "geom:area_square_m": 0,
    "geom:bbox": "-3.797649,56.152542,-3.797649,56.152542",
    "geom:latitude": 56.152542,
    "geom:longitude": -3.797649,
    "gn:population": 5130,
    "iso:country": "GB",
    "lbl:bbox": "-3.817649,56.132542,-3.777649,56.172542",
    "lbl:latitude": 56.152542,
    "lbl:longitude": -3.797649,
    "lbl:max_zoom": 15,
    "lbl:min_zoom": 11,
    "mps:latitude": 56.152542,
    "mps:longitude": -3.797649,
    "mz:hierarchy_label": 1,
    "mz:is_current": 1,
    "mz:min_zoom": 11,
    "name:ast_x_preferred": [
      "Alva"
    ],
    "name:bul_x_preferred": [
      "Алва"
    ],
    "name:ceb_x_preferred": [
      "Alva"
    ],
    "name:cym_x_preferred": [
      "Alva"
    ],
    "name:deu_x_preferred": [
      "Alva"
    ],
    "name:eng_x_preferred": [
      "Alva"
    ],
    "name:epo_x_preferred": [
      "Alva"
    ],
    "name:eus_x_preferred": [
      "Alva"
    ],
    "name:fas_x_preferred": [
      "الوا"
    ],
    "name:fra_x_preferred": [
      "Alva"
    ],
    "name:gla_x_preferred": [
      "Allmhagh Beag"
    ],
    "name:gle_x_preferred": [
      "Allamhagh Beag"
    ],
    "name:ita_x_preferred": [
      "Alva"
    ],
    "name:nld_x_preferred": [
      "Alva"
    ],
    "name:nno_x_preferred": [
      "Alva i Skottland"
    ],
    "name:nob_x_preferred": [
      "Alva"
    ],
    "name:nor_x_preferred": [
      "Alva"
    ],
    "name:pol_x_preferred": [
      "Alva"
    ],
    "name:rus_x_preferred": [
      "Элва"
    ],
    "name:sco_x_preferred": [
      "Alva"
    ],
    "name:spa_x_preferred": [
      "Alva"
    ],
    "name:swe_x_preferred": [
      "Alva"
    ],
    "name:ukr_x_preferred": [
      "Алва"
    ],
    "name:zho_x_preferred": [
      "阿爾瓦"
    ],
    "qs:a0": "United Kingdom",
    "qs:a1": "*Clackmannanshire",
    "qs:a1_lc": "GB11QF0000",
    "qs:a1r": "0Scotland",
    "qs:a1r_lc": "GB11000000",
    "qs:adm0": "United Kingdom",
    "qs:id": 0,
    "qs:la_lc": "*",
    "qs:level": "locality",
    "qs:loc": "Alva",
    "qs:loc_alt": "Alva",
    "qs:pop": 0,
    "qs:source": "RCustom EuroGlobalMap + UMZ Urban Polygons + Geonames + GeoPlanet",
    "qs:type": "buffered point",
    "src:geom": "whosonfirst",
    "src:geom_alt": [
      "quattroshapes_pg",
      "quattroshapes"
    ],
    "src:geom_via": "quattroshapes",
    "src:lbl_centroid": "mapshaper",
    "src:population": "wikidata",
    "wd:latitude": 56.153,
    "wd:longitude": -3.79957,
    "wd:wordcount": 918,
    "wof:belongsto": [
      1880762127,
      1360699079
    ],
    "wof:breaches": [],
    "wof:concordances": {
      "gn:id": 2657397,
      "gp:id": 10729,
      "qs_pg:id": 141021,
      "wd:id": "Q448127",
      "wk:page": "Alva, Clackmannanshire"
    },
    "wof:country": "GB",
    "wof:created": 1765384896,
    "wof:geom_alt": [
      "quattroshapes",
      "quattroshapes_pg"
    ],
    "wof:geomhash": "2131afc21b5f1dce83f9a4b81067879e",
    "wof:hierarchy": [
      {
        "continent_id": -1,
        "country_id": -1,
        "county_id": 1360699079,
        "locality_id": 101872547,
        "macrocounty_id": 1880762127,
        "region_id": -1
      }
    ],
    "wof:id": 101872547,
    "wof:lastmodified": 1765384896,
    "wof:name": "Alva",
    "wof:parent_id": 1360699079,
    "wof:placetype": "locality",
    "wof:population": 4600,
    "wof:population_rank": 4,
    "wof:repo": "whosonfirst-data-admin-gb",
    "wof:superseded_by": [],
    "wof:supersedes": [],
    "wof:tags": []
  },
  "bbox": [
    -3.797649,
    56.152542,
    -3.797649,
    56.152542
  ],
  "geometry": {"type":"Point","coordinates":[-3.797649,56.152542]}
}
