{
  "id": 85792931,
  "type": "Feature",
  "properties": {
    "edtf:cessation": "",
    "edtf:inception": "",
    "geom:area": 0.00019266914899998772,
    "geom:area_square_m": 1406756.167012,
    "geom:bbox": "-1.549072,53.805517,-1.521606,53.815247",
    "geom:latitude": 53.81060271482354,
    "geom:longitude": -1.5360937744216434,
    "gn:latitude": 54.79594,
    "gn:longitude": -1.59139,
    "iso:country": "GB",
    "lbl:latitude": 53.809437,
    "lbl:longitude": -1.529864,
    "lbl:max_zoom": 18,
    "mps:latitude": 53.811193,
    "mps:longitude": -1.539102,
    "mz:hierarchy_label": 1,
    "mz:is_current": -1,
    "mz:is_funky": 0,
    "mz:is_hard_boundary": 0,
    "mz:is_landuse_aoi": 0,
    "mz:is_official": 0,
    "mz:max_zoom": 18,
    "mz:min_zoom": 15,
    "mz:tier_locality": 4,
    "mz:tier_metro": 30,
    "name:ben_x_preferred": [
      "ফ্রেমওয়েলগেট মুর"
    ],
    "name:ceb_x_preferred": [
      "Framwellgate Moor"
    ],
    "name:deu_x_preferred": [
      "Framwellgate Moore"
    ],
    "name:eng_x_preferred": [
      "Sheepscar"
    ],
    "name:eng_x_variant": [
      "Framwellgate Moor"
    ],
    "name:fra_x_preferred": [
      "Framwellgate Moor"
    ],
    "name:gle_x_preferred": [
      "Framwellgate Moor"
    ],
    "name:guj_x_preferred": [
      "ફ્રેમવેલગેટ મૂર"
    ],
    "name:jpn_x_preferred": [
      "フラムウェルゲート・ムーア"
    ],
    "name:kan_x_preferred": [
      "ಫ್ರಮ್ವೆಲ್ಗೇಟ್ ಮೂರ್"
    ],
    "name:kor_x_preferred": [
      "프램웰게이트 무어"
    ],
    "name:lit_x_preferred": [
      "Framvelgeit Muras"
    ],
    "name:nan_x_preferred": [
      "Framwellgate Moor"
    ],
    "name:nld_x_preferred": [
      "Framwellgate Moor"
    ],
    "name:pol_x_preferred": [
      "Framwellgate Moor"
    ],
    "name:por_x_preferred": [
      "Framwellgate Moor"
    ],
    "name:rus_x_preferred": [
      "Фрамвелгейт-Мур"
    ],
    "name:spa_x_preferred": [
      "Framwellgate Moor"
    ],
    "name:swe_x_preferred": [
      "Framwellgate Moor"
    ],
    "name:tam_x_preferred": [
      "பிராமவெல்கட் மூர்"
    ],
    "name:tur_x_preferred": [
      "Framwellgate Moor"
    ],
    "name:urd_x_preferred": [
      "فرامویلجاتی مور"
    ],
    "qs:gn_adm0_cc": "GB",
    "qs:gn_fcode": "PPL",
    "qs:gn_local": 2644688,
    "qs:gn_nam_loc": "Leeds",
    "qs:gn_namadm1": "ENG",
    "qs:gn_name": "Sheepscar",
    "qs:local_max": 6349,
    "qs:local_sum": 80165,
    "qs:localhoods": 52,
    "qs:name": "Sheepscar",
    "qs:name_adm0": "United Kingdom",
    "qs:name_adm1": "England",
    "qs:name_adm2": "West Yorkshire",
    "qs:name_lau": "Leeds City",
    "qs:name_local": "Leeds",
    "qs:photo_max": 137,
    "qs:photo_sum": 537,
    "qs:placetype": "Suburb",
    "qs:quad_count": 36,
    "qs:woe_adm0": 23424975,
    "qs:woe_adm1": 24554868,
    "qs:woe_adm2": 12602197,
    "qs:woe_lau": 12695873,
    "qs:woe_local": 26042,
    "qs:woe_ver": "7.10.0",
    "src:geom": "quattroshapes",
    "src:geom_alt": [
      "quattroshapes_pg"
    ],
    "src:lbl_centroid": "mz",
    "src:population": "wikidata",
    "wof:belongsto": [
      1880773017,
      102191581,
      85633159,
      1880762059,
      404227469,
      101750579,
      136253055,
      1360698749
    ],
    "wof:breaches": [],
    "wof:concordances": {
      "gn:id": 2638087,
      "gp:id": 43840,
      "qs_pg:id": 891312,
      "wd:id": "Q5478082",
      "wk:page": "Framwellgate Moor"
    },
    "wof:country": "GB",
    "wof:created": 1765391288,
    "wof:geom_alt": [
      "quattroshapes_pg"
    ],
    "wof:geomhash": "19b4fdc7c95633a0384c259e4f7ad30d",
    "wof:hierarchy": [
      {
        "continent_id": 102191581,
        "country_id": 85633159,
        "county_id": 1360698749,
        "empire_id": 136253055,
        "locality_id": 101750579,
        "macrocounty_id": 1880762059,
        "macroregion_id": 404227469,
        "neighbourhood_id": 85792931,
        "region_id": 1880773017
      }
    ],
    "wof:id": 85792931,
    "wof:lang": [
      "eng"
    ],
    "wof:lastmodified": 1765391288,
    "wof:name": "Sheepscar",
    "wof:parent_id": 101750579,
    "wof:placetype": "neighbourhood",
    "wof:population": 6445,
    "wof:population_rank": 5,
    "wof:repo": "whosonfirst-data-admin-gb",
    "wof:superseded_by": [],
    "wof:supersedes": [],
    "wof:tags": []
  },
  "bbox": [
    -1.549072,
    53.805517,
    -1.521606,
    53.815247
  ],
  "geometry": {"type":"Polygon","coordinates":[[[-1.546326,53.815247],[-1.543579,53.815247],[-1.540833,53.815247],[-1.538086,53.815247],[-1.537479,53.815247],[-1.537391,53.814802],[-1.535339,53.813643],[-1.533287,53.814802],[-1.532593,53.813626],[-1.529846,53.813626],[-1.5271,53.813626],[-1.526405,53.814802],[-1.524353,53.813643],[-1.524353,53.813626],[-1.524353,53.812004],[-1.524353,53.810382],[-1.521606,53.810382],[-1.521606,53.807139],[-1.524353,53.807139],[-1.524353,53.805517],[-1.5271,53.805517],[-1.5271,53.807139],[-1.529846,53.807139],[-1.532593,53.807139],[-1.535339,53.807139],[-1.538086,53.807139],[-1.540833,53.807139],[-1.543579,53.807139],[-1.549072,53.807139],[-1.549072,53.807976],[-1.549072,53.808761],[-1.549072,53.810382],[-1.549072,53.811167],[-1.549072,53.812004],[-1.549072,53.813626],[-1.546326,53.813626],[-1.546326,53.815247]]]}
}
