{
  "id": 1360790837,
  "type": "Feature",
  "properties": {
    "edtf:cessation": "",
    "edtf:inception": "",
    "geom:area": 0,
    "geom:area_square_m": 0,
    "geom:bbox": "-1.218194,52.663961,-1.218194,52.663961",
    "geom:latitude": 52.663961,
    "geom:longitude": -1.218194,
    "iso:country": "GB",
    "lbl:bbox": "-1.223194,52.658961,-1.213194,52.668961",
    "lbl:latitude": 52.663961,
    "lbl:longitude": -1.218194,
    "lbl:max_zoom": 18,
    "mps:latitude": 52.663961,
    "mps:longitude": -1.218194,
    "mz:hierarchy_label": 1,
    "mz:is_current": 1,
    "mz:min_zoom": 15,
    "name:ben_x_preferred": [
      "গ্রোবি"
    ],
    "name:bul_x_preferred": [
      "Гробй"
    ],
    "name:ceb_x_preferred": [
      "Groby"
    ],
    "name:cym_x_preferred": [
      "Groby"
    ],
    "name:deu_x_preferred": [
      "Groby"
    ],
    "name:eng_x_preferred": [
      "Groby"
    ],
    "name:fas_x_preferred": [
      "گروبی"
    ],
    "name:fra_x_preferred": [
      "Groby"
    ],
    "name:gle_x_preferred": [
      "Groby"
    ],
    "name:guj_x_preferred": [
      "ગ્રોબી"
    ],
    "name:ita_x_preferred": [
      "Groby"
    ],
    "name:jpn_x_preferred": [
      "グロビー"
    ],
    "name:kan_x_preferred": [
      "ಗ್ರೊಬಿ"
    ],
    "name:kor_x_preferred": [
      "그로비"
    ],
    "name:lit_x_preferred": [
      "Grobis"
    ],
    "name:lld_x_preferred": [
      "Groby"
    ],
    "name:nld_x_preferred": [
      "Groby"
    ],
    "name:pol_x_preferred": [
      "Groby"
    ],
    "name:por_x_preferred": [
      "Groby"
    ],
    "name:rus_x_preferred": [
      "Гроуби"
    ],
    "name:spa_x_preferred": [
      "Groby"
    ],
    "name:swe_x_preferred": [
      "Groby"
    ],
    "name:tam_x_preferred": [
      "குரொபி"
    ],
    "name:tel_x_preferred": [
      "గోర్బి"
    ],
    "name:tur_x_preferred": [
      "Groby"
    ],
    "name:urd_x_preferred": [
      "جروبی"
    ],
    "name:zho_x_preferred": [
      "格罗比"
    ],
    "qs:a0": "United Kingdom",
    "qs:a1": "*Leicestershire",
    "qs:a1_lc": "GB12310000",
    "qs:a1r": "0England",
    "qs:a1r_lc": "GB12000000",
    "qs:adm0": "United Kingdom",
    "qs:la_lc": "*",
    "qs:level": "locality",
    "qs:loc": "Groby",
    "qs:loc_alt": "Groby",
    "qs:pop": 0,
    "qs:source": "RCustom EuroGlobalMap + UMZ Urban Polygons + Geonames + GeoPlanet",
    "qs:type": "buffered point",
    "src:geom": "whosonfirst",
    "src:geom_alt": [
      "quattroshapes_pg",
      "quattroshapes"
    ],
    "src:geom_via": "quattroshapes",
    "src:lbl_centroid": "mapshaper",
    "src:population": "wikidata",
    "wd:latitude": 52.658239,
    "wd:longitude": -1.232669,
    "wd:wordcount": 1496,
    "wof:belongsto": [
      1880773085,
      102191581,
      1880762051,
      404431459,
      85633159,
      404227469,
      1293425191,
      136253055,
      1880771557
    ],
    "wof:breaches": [],
    "wof:concordances": {
      "gn:id": 6691579,
      "gp:id": 21931,
      "qs_pg:id": 6,
      "wd:id": "Q984128",
      "wk:page": "Groby"
    },
    "wof:concordances_alt": {
      "qs_pg:id": 1082238
    },
    "wof:country": "GB",
    "wof:created": 1765389433,
    "wof:geomhash": "9836802a6a8a97d41433d48c214c04ae",
    "wof:hierarchy": [
      {
        "continent_id": 102191581,
        "country_id": 85633159,
        "county_id": 1880771557,
        "empire_id": 136253055,
        "localadmin_id": 404431459,
        "locality_id": 1293425191,
        "macrocounty_id": 1880762051,
        "macroregion_id": 404227469,
        "neighbourhood_id": 1360790837,
        "region_id": 1880773085
      }
    ],
    "wof:id": 1360790837,
    "wof:lastmodified": 1765389433,
    "wof:name": "Groby",
    "wof:parent_id": 1293425191,
    "wof:placetype": "neighbourhood",
    "wof:population": 7387,
    "wof:population_rank": 5,
    "wof:repo": "whosonfirst-data-admin-gb",
    "wof:superseded_by": [],
    "wof:supersedes": [
      101853611
    ],
    "wof:tags": []
  },
  "bbox": [
    -1.218194,
    52.663961,
    -1.218194,
    52.663961
  ],
  "geometry": {"type":"Point","coordinates":[-1.218194,52.663961]}
}
