{
  "id": 1746419833,
  "type": "Feature",
  "properties": {
    "date:inception_lower": "1957-01-01",
    "date:inception_upper": "1957-12-31",
    "edtf:cessation": "",
    "edtf:inception": "1957",
    "geom:area": 0,
    "geom:bbox": "-3.538779,51.857088,-3.538779,51.857088",
    "geom:latitude": 51.857088,
    "geom:longitude": -3.538779,
    "iso:country": "GB",
    "lbl:latitude": 51.857088,
    "lbl:longitude": -3.538779,
    "mps:latitude": 51.857088,
    "mps:longitude": -3.538779,
    "mz:hierarchy_label": 1,
    "mz:is_current": 1,
    "mz:is_landuse_aoi": 1,
    "name:bre_x_preferred": [
      "Parc Cenedlaethol Bannau Brycheiniog"
    ],
    "name:ceb_x_preferred": [
      "Brecon Beacons National Park"
    ],
    "name:ces_x_preferred": [
      "Národní park Brecon Beacons"
    ],
    "name:cor_x_preferred": [
      "Park Kenedhlek Bannyow Brycheiniog"
    ],
    "name:cym_x_preferred": [
      "Parc Cenedlaethol Bannau Brycheiniog"
    ],
    "name:dan_x_preferred": [
      "Brecon Beacons National Park"
    ],
    "name:eng_x_preferred": [
      "Brecon Beacons National Park"
    ],
    "name:eng_x_variant": [
      "Brecon Beacons"
    ],
    "name:eus_x_preferred": [
      "Brecon Beacons Parke Nazionala"
    ],
    "name:fin_x_preferred": [
      "Brecon Beacons"
    ],
    "name:fra_x_preferred": [
      "parc national des Brecon Beacons"
    ],
    "name:gle_x_preferred": [
      "Parc Cenedlaethol Bannau Brycheiniog"
    ],
    "name:heb_x_preferred": [
      "ברקון ביקונס"
    ],
    "name:ind_x_preferred": [
      "Taman Nasional Brecon Beacons"
    ],
    "name:isl_x_preferred": [
      "Brecon Beacons-þjóðgarðurinn"
    ],
    "name:kaz_x_preferred": [
      "Брекон-Биконс ұлттық саябағы"
    ],
    "name:kor_x_preferred": [
      "바나이브러헤이니오그 국립공원"
    ],
    "name:nld_x_preferred": [
      "Nationaal park Brecon Beacons"
    ],
    "name:nno_x_preferred": [
      "Brecon Beacons nasjonalpark"
    ],
    "name:nob_x_preferred": [
      "Brecon Beacons National Park"
    ],
    "name:pol_x_preferred": [
      "Park Narodowy Brecon Beacons"
    ],
    "name:ron_x_preferred": [
      "Parcul Național Brecon Beacons"
    ],
    "name:swe_x_preferred": [
      "Brecon Beacons National Park"
    ],
    "name:vie_x_preferred": [
      "Vườn quốc gia Brecon Beacons"
    ],
    "src:geom": "whosonfirst",
    "src:lbl_centroid": "whosonfirst",
    "src:population": "wikidata",
    "wof:belongsto": [
      1880773075,
      102191581,
      1880762123,
      404443153,
      85633159,
      404227475,
      1125803517,
      136253055,
      1360698985
    ],
    "wof:breaches": [],
    "wof:concordances": {
      "wd:id": "Q15052206"
    },
    "wof:country": "GB",
    "wof:created": 1633031161,
    "wof:geomhash": "04b48f6213c47893791f894a473f101a",
    "wof:hierarchy": [
      {
        "campus_id": 1746419833,
        "continent_id": 102191581,
        "country_id": 85633159,
        "county_id": 1360698985,
        "empire_id": 136253055,
        "localadmin_id": 404443153,
        "locality_id": 1125803517,
        "macrocounty_id": 1880762123,
        "macroregion_id": 404227475,
        "neighbourhood_id": -1,
        "region_id": 1880773075
      }
    ],
    "wof:id": 1746419833,
    "wof:lastmodified": 1765390717,
    "wof:name": "Brecon Beacons National Park",
    "wof:parent_id": 1125803517,
    "wof:placetype": "campus",
    "wof:placetype_local": "National Park",
    "wof:population": 33485,
    "wof:population_rank": 7,
    "wof:repo": "whosonfirst-data-admin-gb",
    "wof:superseded_by": [],
    "wof:supersedes": [],
    "wof:tags": []
  },
  "bbox": [
    -3.538779,
    51.857088,
    -3.538779,
    51.857088
  ],
  "geometry": {"type":"Point","coordinates":[-3.538779,51.857088]}
}
