{
  "id": 1360790891,
  "type": "Feature",
  "properties": {
    "edtf:cessation": "",
    "edtf:inception": "",
    "geom:area": 0,
    "geom:area_square_m": 0,
    "geom:bbox": "0.601538,51.652880,0.601538,51.652880",
    "geom:latitude": 51.65288,
    "geom:longitude": 0.601538,
    "iso:country": "GB",
    "lbl:bbox": "0.596538,51.64788,0.606538,51.65788",
    "lbl:latitude": 51.652881,
    "lbl:longitude": 0.601539,
    "lbl:max_zoom": 18,
    "mps:latitude": 51.652881,
    "mps:longitude": 0.601539,
    "mz:hierarchy_label": 1,
    "mz:is_current": 1,
    "mz:min_zoom": 15,
    "name:ast_x_preferred": [
      "South Woodham Ferrers"
    ],
    "name:azb_x_preferred": [
      "ساوت وودهام فررز"
    ],
    "name:ben_x_preferred": [
      "সাউথ উডহ্যাম ফের‍্যারস"
    ],
    "name:ceb_x_preferred": [
      "South Woodham Ferrers"
    ],
    "name:cym_x_preferred": [
      "South Woodham Ferrers"
    ],
    "name:deu_x_preferred": [
      "South Woodham Ferrers"
    ],
    "name:eng_x_preferred": [
      "South Woodham Ferrers"
    ],
    "name:fas_x_preferred": [
      "ساوت وودهام فررز"
    ],
    "name:fra_x_preferred": [
      "South Woodham Ferrers"
    ],
    "name:gle_x_preferred": [
      "Woodham Ferrers Theas"
    ],
    "name:guj_x_preferred": [
      "દક્ષિણ વુડહામ ફેરર્સ"
    ],
    "name:ita_x_preferred": [
      "South Woodham Ferrers"
    ],
    "name:jpn_x_preferred": [
      "南ウッドハム・フェラーズ"
    ],
    "name:kan_x_preferred": [
      "ಸೌತ್ ವುಡಮ್ ಫೆರೆರ್ಸ್"
    ],
    "name:kor_x_preferred": [
      "사우스 우드햄 페어러스"
    ],
    "name:lit_x_preferred": [
      "Saut Vudham Ferersas"
    ],
    "name:lld_x_preferred": [
      "South Woodham Ferrers"
    ],
    "name:nan_x_preferred": [
      "South Woodham Ferrers"
    ],
    "name:nld_x_preferred": [
      "South Woodham Ferrers"
    ],
    "name:nno_x_preferred": [
      "South Woodham Ferrers"
    ],
    "name:pol_x_preferred": [
      "South Woodham Ferrers"
    ],
    "name:por_x_preferred": [
      "South Woodham Ferrers"
    ],
    "name:ron_x_preferred": [
      "South Woodham Ferrers"
    ],
    "name:rus_x_preferred": [
      "Саус-Вудхэм-Феррес"
    ],
    "name:spa_x_preferred": [
      "South Woodham Ferrers"
    ],
    "name:swe_x_preferred": [
      "South Woodham Ferrers"
    ],
    "name:tam_x_preferred": [
      "கிழக்கு வுட்ஹாம் பெற்ரேர்ஸ்"
    ],
    "name:tel_x_preferred": [
      "సౌత్ వుడ్హమ్ ఫెర్రర్స్"
    ],
    "name:tur_x_preferred": [
      "South Woodham Ferrers"
    ],
    "name:urd_x_preferred": [
      "ساؤتھ وودہام فیریرس"
    ],
    "name:vol_x_preferred": [
      "South Woodham Ferrers"
    ],
    "qs:a0": "United Kingdom",
    "qs:a1": "*Essex",
    "qs:a1_lc": "GB12220000",
    "qs:a1r": "0England",
    "qs:a1r_lc": "GB12000000",
    "qs:adm0": "United Kingdom",
    "qs:la_lc": "*",
    "qs:level": "locality",
    "qs:loc": "South Woodham Ferrers",
    "qs:loc_alt": "South Woodham Ferrers",
    "qs:pop": 0,
    "qs:source": "RCustom EuroGlobalMap + UMZ Urban Polygons + Geonames + GeoPlanet",
    "qs:type": "buffered point",
    "src:geom": "whosonfirst",
    "src:geom_alt": [
      "quattroshapes_pg",
      "quattroshapes"
    ],
    "src:geom_via": "quattroshapes",
    "src:lbl_centroid": "mapshaper",
    "src:population": "wikidata",
    "wd:latitude": 51.651,
    "wd:longitude": 0.6124,
    "wd:wordcount": 1087,
    "wof:belongsto": [
      1880762723,
      102191581,
      1880762159,
      404449417,
      85633159,
      404227469,
      1326465781,
      136253055,
      1880771431
    ],
    "wof:breaches": [],
    "wof:concordances": {
      "gn:id": 2633649,
      "gp:id": 35349,
      "qs_pg:id": 22718,
      "wd:id": "Q2338468",
      "wk:page": "South Woodham Ferrers"
    },
    "wof:concordances_alt": {
      "qs_pg:id": 1040730
    },
    "wof:country": "GB",
    "wof:created": 1765389438,
    "wof:geomhash": "0d8d99e5b1b82367d250ee57598d96d6",
    "wof:hierarchy": [
      {
        "continent_id": 102191581,
        "country_id": 85633159,
        "county_id": 1880771431,
        "empire_id": 136253055,
        "localadmin_id": 404449417,
        "locality_id": 1326465781,
        "macrocounty_id": 1880762159,
        "macroregion_id": 404227469,
        "neighbourhood_id": 1360790891,
        "region_id": 1880762723
      }
    ],
    "wof:id": 1360790891,
    "wof:lastmodified": 1765389438,
    "wof:name": "South Woodham Ferrers",
    "wof:parent_id": 1326465781,
    "wof:placetype": "neighbourhood",
    "wof:population": 16026,
    "wof:population_rank": 6,
    "wof:repo": "whosonfirst-data-admin-gb",
    "wof:superseded_by": [],
    "wof:supersedes": [
      101854727
    ],
    "wof:tags": []
  },
  "bbox": [
    0.601538,
    51.65288,
    0.601538,
    51.65288
  ],
  "geometry": {"type":"Point","coordinates":[0.601538,51.65288]}
}
