{
  "id": 101873831,
  "type": "Feature",
  "properties": {
    "edtf:cessation": "",
    "edtf:inception": "",
    "geom:area": 0,
    "geom:area_square_m": 0,
    "geom:bbox": "-6.783825,54.791031,-6.783825,54.791031",
    "geom:latitude": 54.791031,
    "geom:longitude": -6.783825,
    "iso:country": "GB",
    "lbl:bbox": "-6.803825,54.771031,-6.763825,54.811031",
    "lbl:latitude": 54.791031,
    "lbl:longitude": -6.783824,
    "lbl:max_zoom": 18,
    "lbl:min_zoom": 13.5,
    "mps:latitude": 54.791031,
    "mps:longitude": -6.783824,
    "mz:hierarchy_label": 1,
    "mz:is_current": 1,
    "mz:min_zoom": 12,
    "name:ceb_x_preferred": [
      "Draperstown"
    ],
    "name:eng_x_preferred": [
      "Draperstown"
    ],
    "name:eus_x_preferred": [
      "Draperstown"
    ],
    "name:fas_x_preferred": [
      "دریپرزتاون"
    ],
    "name:fra_x_preferred": [
      "Draperstown"
    ],
    "name:gla_x_preferred": [
      "Baile na Croise"
    ],
    "name:gle_x_preferred": [
      "Baile na Croise"
    ],
    "name:ita_x_preferred": [
      "Draperstown"
    ],
    "name:msa_x_preferred": [
      "Draperstown"
    ],
    "name:nld_x_preferred": [
      "Draperstown"
    ],
    "name:nob_x_preferred": [
      "Draperstown"
    ],
    "name:nor_x_preferred": [
      "Draperstown"
    ],
    "name:pli_x_preferred": [
      "द्रपेर्स्तोवं"
    ],
    "name:spa_x_preferred": [
      "Draperstown"
    ],
    "name:spa_x_variant": [
      "Ballinascreen"
    ],
    "name:swe_x_preferred": [
      "Draperstown"
    ],
    "qs:a0": "United Kingdom",
    "qs:a1": "*Magherafelt",
    "qs:a1_lc": "N_A",
    "qs:a1r": "0Northern Ireland",
    "qs:a1r_lc": "N_A",
    "qs:adm0": "United Kingdom",
    "qs:la_lc": "*",
    "qs:level": "locality",
    "qs:loc": "Draperstown",
    "qs:loc_alt": "Draperstown",
    "qs:pop": 0,
    "qs:source": "RCustom EuroGlobalMap + UMZ Urban Polygons + Geonames + GeoPlanet",
    "qs:type": "buffered point",
    "src:geom": "whosonfirst",
    "src:geom_alt": [
      "quattroshapes_pg",
      "quattroshapes"
    ],
    "src:geom_via": "quattroshapes",
    "src:lbl_centroid": "mapshaper",
    "src:population": "wikidata",
    "wd:latitude": 54.7936,
    "wd:longitude": -6.78417,
    "wd:wordcount": 968,
    "wof:belongsto": [
      1360699235,
      102191581,
      85633159,
      1880762223,
      404227473,
      136253055,
      1880762263
    ],
    "wof:breaches": [],
    "wof:concordances": {
      "gn:id": 2651013,
      "gp:id": 44744,
      "qs_pg:id": 231940,
      "wd:id": "Q2460535",
      "wk:page": "Draperstown"
    },
    "wof:country": "GB",
    "wof:created": 1765385094,
    "wof:geom_alt": [
      "quattroshapes_pg",
      "quattroshapes"
    ],
    "wof:geomhash": "ab250edc236c2464a0eaebe7fec12e52",
    "wof:hierarchy": [
      {
        "continent_id": 102191581,
        "country_id": 85633159,
        "county_id": 1880762263,
        "empire_id": 136253055,
        "locality_id": 101873831,
        "macrocounty_id": 1880762223,
        "macroregion_id": 404227473,
        "region_id": 1360699235
      }
    ],
    "wof:id": 101873831,
    "wof:lastmodified": 1765385094,
    "wof:name": "Draperstown",
    "wof:parent_id": 1880762263,
    "wof:placetype": "locality",
    "wof:population": 1777,
    "wof:population_rank": 3,
    "wof:repo": "whosonfirst-data-admin-gb",
    "wof:superseded_by": [],
    "wof:supersedes": [],
    "wof:tags": []
  },
  "bbox": [
    -6.783825,
    54.791031,
    -6.783825,
    54.791031
  ],
  "geometry": {"type":"Point","coordinates":[-6.783825,54.791031]}
}
