{
  "id": 85860731,
  "type": "Feature",
  "properties": {
    "edtf:cessation": "",
    "edtf:inception": "",
    "geom:area": 0.0005368595249999541,
    "geom:area_square_m": 4135280.083135,
    "geom:bbox": "-0.406494,51.455900,-0.379028,51.482440",
    "geom:latitude": 51.46834534464032,
    "geom:longitude": -0.3911537975088924,
    "iso:country": "GB",
    "lbl:latitude": 51.470802,
    "lbl:longitude": -0.392984,
    "lbl:max_zoom": 18,
    "mps:latitude": 51.468245,
    "mps:longitude": -0.390891,
    "mz:hierarchy_label": 1,
    "mz:is_current": -1,
    "mz:is_funky": 0,
    "mz:is_hard_boundary": 0,
    "mz:is_landuse_aoi": 0,
    "mz:is_official": 0,
    "mz:max_zoom": 18,
    "mz:min_zoom": 14,
    "mz:tier_locality": 7,
    "mz:tier_metro": 1,
    "name:ara_x_preferred": [
      "غرب هاونزلو"
    ],
    "name:cat_x_preferred": [
      "Hounslow West"
    ],
    "name:ces_x_preferred": [
      "Hounslow West"
    ],
    "name:deu_x_preferred": [
      "Hounslow West"
    ],
    "name:eng_x_preferred": [
      "Hounslow West"
    ],
    "name:eng_x_variant": [
      "Hounslow West tube station"
    ],
    "name:epo_x_preferred": [
      "Hounslow West"
    ],
    "name:fas_x_preferred": [
      "ایستگاه متروی هانزلو غربی"
    ],
    "name:fin_x_preferred": [
      "Hounslow Westin metroasema"
    ],
    "name:fra_x_preferred": [
      "Hounslow West"
    ],
    "name:gan_x_preferred": [
      "行斯婁韋斯杜站"
    ],
    "name:hin_x_preferred": [
      "हाउंस्लो वेस्ट"
    ],
    "name:hun_x_preferred": [
      "Hounslow West"
    ],
    "name:ita_x_preferred": [
      "Hounslow West"
    ],
    "name:jpn_x_preferred": [
      "ハウンズロー・ウェスト駅"
    ],
    "name:nld_x_preferred": [
      "Hounslow West"
    ],
    "name:nno_x_preferred": [
      "Hounslow West undergrunnsstasjon"
    ],
    "name:nob_x_preferred": [
      "Hounslow West undergrunnsstasjon"
    ],
    "name:pol_x_preferred": [
      "Hounslow West"
    ],
    "name:spa_x_preferred": [
      "Hounslow West"
    ],
    "name:ukr_x_preferred": [
      "Гаунслоу-Вест"
    ],
    "name:ukr_x_variant": [
      "Хаунслоу-Вест"
    ],
    "name:urd_x_preferred": [
      "ہونسلو ویسٹ ٹیوب اسٹیشن"
    ],
    "name:yid_x_preferred": [
      "האנסלוי מערב"
    ],
    "name:yue_x_preferred": [
      "豪士羅西站"
    ],
    "name:zho_x_preferred": [
      "豪恩斯洛西站"
    ],
    "qs:gn_adm0_cc": "GB",
    "qs:gn_fcode": "PPLX",
    "qs:gn_local": 2643743,
    "qs:gn_namadm1": "ENG",
    "qs:gn_name": "Hounslow West",
    "qs:local_max": 40697,
    "qs:local_sum": 1675717,
    "qs:localhoods": 643,
    "qs:name": "Hounslow West",
    "qs:name_adm0": "United Kingdom",
    "qs:name_adm1": "England",
    "qs:name_adm2": "Greater London",
    "qs:name_lau": "London Borough of Hounslow",
    "qs:name_local": "London",
    "qs:photo_max": 55,
    "qs:photo_sum": 479,
    "qs:placetype": "Suburb",
    "qs:quad_count": 36,
    "qs:woe_adm0": 23424975,
    "qs:woe_adm1": 24554868,
    "qs:woe_adm2": 23416974,
    "qs:woe_funk": "Parented by a neighborhood",
    "qs:woe_lau": 12695832,
    "qs:woe_local": 44418,
    "qs:woe_ver": "7.10.0",
    "src:geom": "quattroshapes",
    "src:geom_alt": [
      "quattroshapes_pg"
    ],
    "src:lbl_centroid": "mz",
    "src:population": "wikidata",
    "wof:belongsto": [
      1880762729,
      102191581,
      1880762179,
      85633159,
      404227469,
      101750367,
      136253055,
      1158857259,
      1880771825
    ],
    "wof:breaches": [],
    "wof:concordances": {
      "gn:id": 6690873,
      "gp:id": 20089529,
      "qs_pg:id": 1179361,
      "wd:id": "Q978377",
      "wk:page": "Hounslow West tube station"
    },
    "wof:country": "GB",
    "wof:created": 1765391338,
    "wof:geom_alt": [
      "quattroshapes_pg"
    ],
    "wof:geomhash": "0d7cf955967a594d0da00930fee39686",
    "wof:hierarchy": [
      {
        "borough_id": 1158857259,
        "continent_id": 102191581,
        "country_id": 85633159,
        "county_id": 1880771825,
        "empire_id": 136253055,
        "locality_id": 101750367,
        "macrocounty_id": 1880762179,
        "macroregion_id": 404227469,
        "neighbourhood_id": 85860731,
        "region_id": 1880762729
      }
    ],
    "wof:id": 85860731,
    "wof:lang": [
      "eng"
    ],
    "wof:lastmodified": 1765391338,
    "wof:name": "Hounslow West",
    "wof:parent_id": 1158857259,
    "wof:placetype": "neighbourhood",
    "wof:population": 12658,
    "wof:population_rank": 6,
    "wof:repo": "whosonfirst-data-admin-gb",
    "wof:superseded_by": [],
    "wof:supersedes": [],
    "wof:tags": []
  },
  "bbox": [
    -0.406494,
    51.4559,
    -0.379028,
    51.48244
  ],
  "geometry": {"type":"Polygon","coordinates":[[[-0.390673,51.48244],[-0.390015,51.481383],[-0.390015,51.481383],[-0.384521,51.481383],[-0.384521,51.481383],[-0.384521,51.477962],[-0.379028,51.477962],[-0.379028,51.477962],[-0.379028,51.47454],[-0.379028,51.47454],[-0.379028,51.471119],[-0.379028,51.471119],[-0.379028,51.467697],[-0.379028,51.467697],[-0.379028,51.464275],[-0.379028,51.464275],[-0.379028,51.460852],[-0.379028,51.460852],[-0.379028,51.45743],[-0.379028,51.45743],[-0.383568,51.45743],[-0.384521,51.4559],[-0.387268,51.457369],[-0.390015,51.4559],[-0.390968,51.45743],[-0.395508,51.45743],[-0.395508,51.45743],[-0.396392,51.458849],[-0.396816,51.459141],[-0.399935,51.459141],[-0.401001,51.460852],[-0.405541,51.460852],[-0.405541,51.460852],[-0.406494,51.460852],[-0.406494,51.462382],[-0.406494,51.464275],[-0.406494,51.464275],[-0.406494,51.467697],[-0.406494,51.467697],[-0.406494,51.469589],[-0.406494,51.471119],[-0.401001,51.471119],[-0.401001,51.47454],[-0.400048,51.47454],[-0.400032,51.474618],[-0.399082,51.474923],[-0.398254,51.476251],[-0.398254,51.477962],[-0.398254,51.478022],[-0.395508,51.479492],[-0.395508,51.479853],[-0.395508,51.481383],[-0.392649,51.481383],[-0.390673,51.48244]]]}
}
