{
  "id": 85785335,
  "type": "Feature",
  "properties": {
    "edtf:cessation": "",
    "edtf:inception": "",
    "geom:area": 0.0007175876350000582,
    "geom:area_square_m": 5504890.963989,
    "geom:bbox": "-0.250467,51.637307,-0.208740,51.676473",
    "geom:latitude": 51.65427157287291,
    "geom:longitude": -0.23008063629926295,
    "gn:latitude": 51.8,
    "gn:longitude": -1.06667,
    "iso:country": "GB",
    "lbl:latitude": 51.645288,
    "lbl:longitude": -0.233399,
    "lbl:max_zoom": 18,
    "mps:latitude": 51.650389,
    "mps:longitude": -0.22864,
    "mz:hierarchy_label": 1,
    "mz:is_current": 1,
    "mz:is_funky": 0,
    "mz:is_hard_boundary": 0,
    "mz:is_landuse_aoi": 0,
    "mz:is_official": 0,
    "mz:max_zoom": 18,
    "mz:min_zoom": 16,
    "mz:tier_locality": 7,
    "mz:tier_metro": 1,
    "name:cym_x_preferred": [
      "Arkley"
    ],
    "name:eng_x_preferred": [
      "Arkley"
    ],
    "name:fas_x_preferred": [
      "آرکلی"
    ],
    "name:fin_x_preferred": [
      "Arkley"
    ],
    "name:fra_x_preferred": [
      "Arkley"
    ],
    "name:gle_x_preferred": [
      "Arkley"
    ],
    "name:hin_x_preferred": [
      "आर्क्ली"
    ],
    "name:jpn_x_preferred": [
      "アークリー"
    ],
    "name:nld_x_preferred": [
      "Arkley"
    ],
    "name:nob_x_preferred": [
      "Arkley"
    ],
    "name:slv_x_preferred": [
      "Arkley"
    ],
    "name:swe_x_preferred": [
      "Arkley"
    ],
    "name:und_x_variant": [
      "Oakley"
    ],
    "name:urd_x_preferred": [
      "آرکلے، لندن"
    ],
    "name:urd_x_variant": [
      "آرکلے"
    ],
    "src:geom": "quattroshapes",
    "src:geom_alt": [
      "quattroshapes_pg"
    ],
    "src:lbl_centroid": "mz",
    "src:population": "wikidata",
    "wof:belongsto": [
      1880762729,
      102191581,
      1880762179,
      85633159,
      404227469,
      101750367,
      136253055,
      1158857285,
      1880771825
    ],
    "wof:breaches": [],
    "wof:concordances": {
      "gn:id": 2641122,
      "gp:id": 11021,
      "qs_pg:id": 473629,
      "wd:id": "Q150201",
      "wk:page": "Oakley, Buckinghamshire"
    },
    "wof:country": "GB",
    "wof:created": 1765390955,
    "wof:geom_alt": [
      "quattroshapes_pg"
    ],
    "wof:geomhash": "2f6ce8468dbabfec432fc89341df8684",
    "wof:hierarchy": [
      {
        "borough_id": 1158857285,
        "continent_id": 102191581,
        "country_id": 85633159,
        "county_id": 1880771825,
        "empire_id": 136253055,
        "locality_id": 101750367,
        "macrocounty_id": 1880762179,
        "macroregion_id": 404227469,
        "neighbourhood_id": 85785335,
        "region_id": 1880762729
      }
    ],
    "wof:id": 85785335,
    "wof:lang": [
      "eng"
    ],
    "wof:lastmodified": 1765390955,
    "wof:name": "Arkley",
    "wof:parent_id": 1158857285,
    "wof:placetype": "neighbourhood",
    "wof:population": 1129,
    "wof:population_rank": 3,
    "wof:repo": "whosonfirst-data-admin-gb",
    "wof:superseded_by": [],
    "wof:supersedes": [],
    "wof:tags": []
  },
  "bbox": [
    -0.250467,
    51.637307,
    -0.20874,
    51.676473
  ],
  "geometry": {"type":"Polygon","coordinates":[[[-0.236812,51.662138],[-0.232827,51.658927],[-0.230713,51.658927],[-0.230713,51.658927],[-0.22522,51.658927],[-0.22522,51.658927],[-0.224163,51.657223],[-0.219833,51.657223],[-0.219727,51.657052],[-0.214972,51.655519],[-0.214233,51.655519],[-0.214233,51.655281],[-0.214233,51.653644],[-0.213282,51.652111],[-0.20874,51.652111],[-0.20874,51.650578],[-0.20874,51.648703],[-0.20874,51.648703],[-0.209322,51.647765],[-0.212917,51.646937],[-0.213211,51.646621],[-0.213705,51.645294],[-0.213599,51.64444],[-0.212545,51.64359],[-0.211487,51.641885],[-0.211487,51.640181],[-0.21327,51.637307],[-0.214233,51.638238],[-0.214479,51.638476],[-0.219727,51.638476],[-0.22522,51.638476],[-0.22522,51.638476],[-0.227335,51.641885],[-0.227966,51.642393],[-0.230713,51.640181],[-0.235148,51.640181],[-0.236206,51.641885],[-0.236206,51.641885],[-0.237264,51.64359],[-0.240642,51.64359],[-0.241699,51.645294],[-0.241699,51.645294],[-0.242757,51.646998],[-0.241699,51.648703],[-0.241699,51.648703],[-0.241699,51.648703],[-0.239163,51.65279],[-0.241024,51.658786],[-0.240995,51.658927],[-0.240106,51.661076],[-0.241699,51.662789],[-0.24922,51.666831],[-0.250467,51.670852],[-0.249411,51.674258],[-0.241699,51.674258],[-0.238953,51.676473],[-0.230592,51.669732],[-0.230834,51.668563],[-0.236812,51.662138]]]}
}
