{
  "id": 1360793401,
  "type": "Feature",
  "properties": {
    "edtf:cessation": "",
    "edtf:inception": "",
    "geom:area": 0,
    "geom:area_square_m": 0,
    "geom:bbox": "-1.967048,53.461186,-1.967048,53.461186",
    "geom:latitude": 53.461186,
    "geom:longitude": -1.967048,
    "gn:country": null,
    "iso:country": "GB",
    "lbl:bbox": "-1.972048,53.456186,-1.962048,53.466186",
    "lbl:latitude": 53.461186,
    "lbl:longitude": -1.967048,
    "lbl:max_zoom": 18,
    "mz:hierarchy_label": 1,
    "mz:is_current": 1,
    "mz:min_zoom": 15,
    "mz:note": "Quattroshapes Point Gazetteer import 20170519",
    "name:ast_x_preferred": [
      "Hadfield"
    ],
    "name:cym_x_preferred": [
      "Hadfield"
    ],
    "name:eng_x_preferred": [
      "Hadfield"
    ],
    "name:fas_x_preferred": [
      "هدفیلد"
    ],
    "name:fra_x_preferred": [
      "Hadfield"
    ],
    "name:gle_x_preferred": [
      "Hadfield"
    ],
    "name:ita_x_preferred": [
      "Hadfield"
    ],
    "name:jpn_x_preferred": [
      "ハドフィールド"
    ],
    "name:lld_x_preferred": [
      "Hadfield"
    ],
    "name:nld_x_preferred": [
      "Hadfield"
    ],
    "name:pol_x_preferred": [
      "Hadfield"
    ],
    "name:zho_x_preferred": [
      "哈德菲德"
    ],
    "qs_pg:aaroncc": "GB",
    "qs_pg:gn_country": null,
    "qs_pg:name": "Hadfield",
    "qs_pg:name_adm0": "United Kingdom",
    "qs_pg:name_adm1": "England",
    "qs_pg:photos": 301,
    "qs_pg:photos_1k": 61,
    "qs_pg:photos_9k": 1,
    "qs_pg:photos_9r": 5,
    "qs_pg:photos_all": 301,
    "qs_pg:photos_sr": 5,
    "qs_pg:pop_sr": 0,
    "qs_pg:qs_id": 219390,
    "qs_pg:qs_pg_placetype": "locality",
    "qs_pg:qs_pg_placetype_gp": "Town",
    "qs_pg:woe_adm0": 23424975,
    "qs_pg:woe_id": 22107,
    "src:geom": "qs_pg",
    "src:lbl_centroid": "qs_pg",
    "src:population": "wikidata",
    "woe:adm0_id": 23424975,
    "woe:name_adm0": "United Kingdom",
    "woe:name_adm1": "England",
    "woe:placetype": "Town",
    "wof:belongsto": [
      1880762707,
      102191581,
      85633159,
      1880762133,
      404227469,
      1125944783,
      136253055,
      1880771377
    ],
    "wof:breaches": [],
    "wof:concordances": {
      "gp:id": 22107,
      "qs_pg:id": 219390,
      "wd:id": "Q1612071"
    },
    "wof:country": "GB",
    "wof:created": 1497291564,
    "wof:geomhash": "c3ea27538459656efee0be4ae98a2c86",
    "wof:hierarchy": [
      {
        "continent_id": 102191581,
        "country_id": 85633159,
        "county_id": 1880771377,
        "empire_id": 136253055,
        "locality_id": 1125944783,
        "macrocounty_id": 1880762133,
        "macroregion_id": 404227469,
        "neighbourhood_id": 1360793401,
        "region_id": 1880762707
      }
    ],
    "wof:id": 1360793401,
    "wof:lastmodified": 1765389591,
    "wof:name": "Hadfield",
    "wof:parent_id": 1125944783,
    "wof:placetype": "neighbourhood",
    "wof:population": 6763,
    "wof:population_rank": 5,
    "wof:repo": "whosonfirst-data-admin-gb",
    "wof:superseded_by": [],
    "wof:supersedes": [
      1125808639
    ],
    "wof:tags": []
  },
  "bbox": [
    -1.967048,
    53.461186,
    -1.967048,
    53.461186
  ],
  "geometry": {"type":"Point","coordinates":[-1.967048,53.461186]}
}
