{
  "id": 1125973833,
  "type": "Feature",
  "properties": {
    "edtf:cessation": "",
    "edtf:inception": "",
    "geom:area": 0,
    "geom:area_square_m": 0,
    "geom:bbox": "-2.089640,57.248430,-2.089640,57.248430",
    "geom:latitude": 57.24843,
    "geom:longitude": -2.08964,
    "gn:country": "GB",
    "gn:fcode": "PPL",
    "gn:population": 0,
    "iso:country": "GB",
    "lbl:bbox": "-2.10964,57.22843,-2.06964,57.26843",
    "lbl:latitude": 57.24843,
    "lbl:longitude": -2.08964,
    "lbl:max_zoom": 18,
    "lbl:min_zoom": 13.5,
    "mz:hierarchy_label": 1,
    "mz:is_current": 1,
    "mz:min_zoom": 12,
    "mz:note": "Quattroshapes Point Gazetteer import 20170519",
    "name:cat_x_preferred": [
      "Belhelvie"
    ],
    "name:eng_x_preferred": [
      "Belhelvie"
    ],
    "name:eus_x_preferred": [
      "Belhelvie"
    ],
    "name:fra_x_preferred": [
      "Belhelvie"
    ],
    "name:gla_x_preferred": [
      "Baile Shealbhaich"
    ],
    "name:gle_x_preferred": [
      "Baile Shealbhaigh"
    ],
    "name:gle_x_variant": [
      "Baile Shealbhaich"
    ],
    "name:ita_x_preferred": [
      "Belhelvie"
    ],
    "name:jpn_x_preferred": [
      "ベルヘルヴィー"
    ],
    "name:nld_x_preferred": [
      "Belhelvie"
    ],
    "name:rus_x_preferred": [
      "Белелви"
    ],
    "name:swe_x_preferred": [
      "Belhelvie"
    ],
    "qs_pg:aaroncc": "GB",
    "qs_pg:gn_country": "GB",
    "qs_pg:gn_fcode": "PPL",
    "qs_pg:gn_id": 2655978,
    "qs_pg:gn_pop": 0,
    "qs_pg:name": "Belhelvie",
    "qs_pg:name_adm0": "United Kingdom",
    "qs_pg:name_adm1": "Scotland",
    "qs_pg:photos": 195,
    "qs_pg:photos_1k": 40,
    "qs_pg:photos_9k": 1,
    "qs_pg:photos_9r": 4,
    "qs_pg:photos_all": 195,
    "qs_pg:photos_sr": 4,
    "qs_pg:pop_sr": 0,
    "qs_pg:qs_id": 1338059,
    "qs_pg:qs_pg_placetype": "locality",
    "qs_pg:qs_pg_placetype_gp": "Town",
    "qs_pg:woe_adm0": 23424975,
    "qs_pg:woe_id": 12293,
    "src:geom": "qs_pg",
    "src:lbl_centroid": "qs_pg",
    "src:population": "wikidata",
    "woe:adm0_id": 23424975,
    "woe:name_adm0": "United Kingdom",
    "woe:name_adm1": "Scotland",
    "woe:placetype": "Town",
    "wof:belongsto": [
      1880773121,
      102191581,
      85633159,
      1880762109,
      404227471,
      136253055,
      1360699031
    ],
    "wof:breaches": [],
    "wof:concordances": {
      "gn:id": 2655978,
      "gp:id": 12293,
      "qs_pg:id": 1338059,
      "wd:id": "Q4882715"
    },
    "wof:country": "GB",
    "wof:created": 1497298272,
    "wof:geomhash": "fbd2a82bf0033eab327ec7283af81227",
    "wof:hierarchy": [
      {
        "continent_id": 102191581,
        "country_id": 85633159,
        "county_id": 1360699031,
        "empire_id": 136253055,
        "locality_id": 1125973833,
        "macrocounty_id": 1880762109,
        "macroregion_id": 404227471,
        "region_id": 1880773121
      }
    ],
    "wof:id": 1125973833,
    "wof:lastmodified": 1765387158,
    "wof:name": "Belhelvie",
    "wof:parent_id": 1360699031,
    "wof:placetype": "locality",
    "wof:population": 3802,
    "wof:population_rank": 4,
    "wof:repo": "whosonfirst-data-admin-gb",
    "wof:superseded_by": [],
    "wof:supersedes": [],
    "wof:tags": []
  },
  "bbox": [
    -2.08964,
    57.24843,
    -2.08964,
    57.24843
  ],
  "geometry": {"type":"Point","coordinates":[-2.08964,57.24843]}
}
