{
  "id": 420782307,
  "type": "Feature",
  "properties": {
    "edtf:cessation": "",
    "edtf:inception": "",
    "geom:area": 0,
    "geom:area_square_m": 0,
    "geom:bbox": "-2.149144,52.456631,-2.149144,52.456631",
    "geom:latitude": 52.456631,
    "geom:longitude": -2.149144,
    "iso:country": "GB",
    "lbl:bbox": "-2.15414402781,52.4516314335,-2.14414402781,52.4616314335",
    "lbl:latitude": 52.456631,
    "lbl:longitude": -2.149144,
    "lbl:max_zoom": 18,
    "mz:hierarchy_label": 1,
    "mz:is_current": -1,
    "mz:is_funky": 0,
    "mz:is_hard_boundary": 0,
    "mz:is_landuse_aoi": 0,
    "mz:is_official": 0,
    "mz:max_zoom": 18,
    "mz:min_zoom": 12,
    "mz:tier_locality": 0,
    "name:ast_x_preferred": [
      "Stourbridge"
    ],
    "name:azb_x_preferred": [
      "استاوربریج"
    ],
    "name:bul_x_preferred": [
      "Стоурбридге"
    ],
    "name:bul_x_variant": [
      "Стаурбридж"
    ],
    "name:ceb_x_preferred": [
      "Stourbridge"
    ],
    "name:cym_x_preferred": [
      "Stourbridge"
    ],
    "name:deu_x_preferred": [
      "Stourbridge"
    ],
    "name:eng_x_preferred": [
      "Stourbridge"
    ],
    "name:fas_x_preferred": [
      "استاوربریج"
    ],
    "name:fra_x_preferred": [
      "Stourbridge"
    ],
    "name:gle_x_preferred": [
      "Stourbridge"
    ],
    "name:glg_x_preferred": [
      "Stourbridge"
    ],
    "name:heb_x_preferred": [
      "סטורברידג'"
    ],
    "name:ita_x_preferred": [
      "Stourbridge"
    ],
    "name:jpn_x_preferred": [
      "スタウアブリッジ"
    ],
    "name:lit_x_preferred": [
      "Stauerbridžas"
    ],
    "name:lld_x_preferred": [
      "Stourbridge"
    ],
    "name:nld_x_preferred": [
      "Stourbridge"
    ],
    "name:nno_x_preferred": [
      "Stourbridge"
    ],
    "name:nob_x_preferred": [
      "Stourbridge"
    ],
    "name:nor_x_preferred": [
      "Stourbridge"
    ],
    "name:pol_x_preferred": [
      "Stourbridge"
    ],
    "name:ron_x_preferred": [
      "Stourbridge"
    ],
    "name:rus_x_preferred": [
      "Стаурбридж"
    ],
    "name:sco_x_preferred": [
      "Stourbridge"
    ],
    "name:spa_x_preferred": [
      "Stourbridge"
    ],
    "name:srp_x_preferred": [
      "Стауербриџ"
    ],
    "name:swe_x_preferred": [
      "Stourbridge"
    ],
    "name:tat_x_preferred": [
      "Стаурбриҗ"
    ],
    "name:tha_x_preferred": [
      "สเตาร์บริดจ์"
    ],
    "name:ukr_x_preferred": [
      "Стаурбридж"
    ],
    "name:zho_x_preferred": [
      "斯陶爾布里奇"
    ],
    "name:zho_x_variant": [
      "史度布里奇鎮",
      "斯陶尔布里奇"
    ],
    "src:geom": "unknown",
    "src:population": "wikidata",
    "wd:latitude": 52.770833,
    "wd:longitude": -1.255278,
    "wd:wordcount": 4011,
    "wof:belongsto": [
      1360817295,
      1880762069,
      1125999239,
      1360698933
    ],
    "wof:breaches": [],
    "wof:concordances": {
      "wd:id": "Q661707"
    },
    "wof:country": "GB",
    "wof:created": 1458871837,
    "wof:geomhash": "715a596ea82775a1941326818e933186",
    "wof:hierarchy": [
      {
        "continent_id": -1,
        "country_id": -1,
        "county_id": 1360698933,
        "localadmin_id": 1360817295,
        "locality_id": 1125999239,
        "macrocounty_id": 1880762069,
        "neighbourhood_id": 420782307,
        "region_id": -1
      }
    ],
    "wof:id": 420782307,
    "wof:lastmodified": 1765390908,
    "wof:name": "Stourbridge",
    "wof:parent_id": 1125999239,
    "wof:placetype": "neighbourhood",
    "wof:population": 63298,
    "wof:population_rank": 8,
    "wof:repo": "whosonfirst-data-admin-gb",
    "wof:superseded_by": [],
    "wof:supersedes": [],
    "wof:tags": []
  },
  "bbox": [
    -2.149144,
    52.456631,
    -2.149144,
    52.456631
  ],
  "geometry": {"type":"Point","coordinates":[-2.149144,52.456631]}
}
