{
  "id": 1293135987,
  "type": "Feature",
  "properties": {
    "edtf:cessation": "",
    "edtf:inception": "",
    "geom:area": 0,
    "geom:area_square_m": 0,
    "geom:bbox": "-4.057300,55.827370,-4.057300,55.827370",
    "geom:latitude": 55.82737,
    "geom:longitude": -4.0573,
    "gn:admin1_code": "SCT",
    "gn:admin2_code": "V8",
    "gn:asciiname": "Viewpark",
    "gn:country_code": "GB",
    "gn:dem": 71,
    "gn:feature_class": "P",
    "gn:feature_code": "PPL",
    "gn:geonameid": 11592296,
    "gn:latitude": 55.82737,
    "gn:longitude": -4.0573,
    "gn:modification_date": "2017-06-14",
    "gn:name": "Viewpark",
    "gn:population": 16020,
    "gn:timezone": "Europe/London",
    "iso:country": "GB",
    "lbl:bbox": "-4.0773,55.80737,-4.0373,55.84737",
    "lbl:max_zoom": 15,
    "lbl:min_zoom": 10.5,
    "mz:hierarchy_label": 1,
    "mz:is_current": -1,
    "mz:min_zoom": 10,
    "name:eus_x_preferred": [
      "Viewpark"
    ],
    "name:spa_x_preferred": [
      "Viewpark"
    ],
    "name:ukr_x_preferred": [
      "В'юпарк"
    ],
    "src:geom": "geonames",
    "src:population": "wikidata",
    "wof:belongsto": [
      1880773061,
      102191581,
      85633159,
      1880762099,
      404227471,
      136253055,
      1360698949
    ],
    "wof:breaches": [],
    "wof:concordances": {
      "gn:id": 11592296,
      "wk:page": "Viewpark"
    },
    "wof:country": "GB",
    "wof:created": 1765388653,
    "wof:geomhash": "07a2dd1213bc9b2df16f0b587e73bd31",
    "wof:hierarchy": [
      {
        "continent_id": 102191581,
        "country_id": 85633159,
        "county_id": 1360698949,
        "empire_id": 136253055,
        "locality_id": 1293135987,
        "macrocounty_id": 1880762099,
        "macroregion_id": 404227471,
        "region_id": 1880773061
      }
    ],
    "wof:id": 1293135987,
    "wof:lastmodified": 1765388653,
    "wof:name": "Viewpark",
    "wof:parent_id": 1360698949,
    "wof:placetype": "locality",
    "wof:population": 15770,
    "wof:population_rank": 6,
    "wof:repo": "whosonfirst-data-admin-gb",
    "wof:superseded_by": [],
    "wof:supersedes": [],
    "wof:tags": []
  },
  "bbox": [
    -4.0573,
    55.82737,
    -4.0573,
    55.82737
  ],
  "geometry": {"type":"Point","coordinates":[-4.0573,55.82737]}
}
