{
  "id": 101750623,
  "type": "Feature",
  "properties": {
    "edtf:cessation": "",
    "edtf:inception": "",
    "geom:area": 0.002601791842000004,
    "geom:area_square_m": 18101430.542665,
    "geom:bbox": "-4.237981,55.735070,-4.134637,55.780057",
    "geom:latitude": 55.76077899858736,
    "geom:longitude": -4.184362765856678,
    "iso:country": "GB",
    "lbl:latitude": 55.760011,
    "lbl:longitude": -4.184363,
    "lbl:max_zoom": 18,
    "lbl:min_zoom": 13.5,
    "mps:latitude": 55.760011,
    "mps:longitude": -4.184363,
    "mz:hierarchy_label": 1,
    "mz:is_current": 1,
    "mz:min_zoom": 12,
    "name:ast_x_preferred": [
      "East Kilbride"
    ],
    "name:azb_x_preferred": [
      "ایست کیلبراید"
    ],
    "name:aze_x_preferred": [
      "İst Kilbrayd"
    ],
    "name:aze_x_variant": [
      "İst-Kilbrayd"
    ],
    "name:bel_x_preferred": [
      "Іст-Кілбрайд"
    ],
    "name:ben_x_preferred": [
      "ইস্ট কিলব্রাইড"
    ],
    "name:bul_x_preferred": [
      "Ист Килбрайд"
    ],
    "name:cat_x_preferred": [
      "East Kilbride"
    ],
    "name:ceb_x_preferred": [
      "East Kilbride"
    ],
    "name:ces_x_preferred": [
      "East Kilbride"
    ],
    "name:cym_x_preferred": [
      "East Kilbride"
    ],
    "name:dan_x_preferred": [
      "East Kilbride"
    ],
    "name:deu_x_preferred": [
      "East Kilbride"
    ],
    "name:eng_x_preferred": [
      "East Kilbride"
    ],
    "name:epo_x_preferred": [
      "East Kilbride"
    ],
    "name:eus_x_preferred": [
      "East Kilbride"
    ],
    "name:fas_x_preferred": [
      "ایست کیلبراید"
    ],
    "name:fra_x_preferred": [
      "East Kilbride"
    ],
    "name:gla_x_preferred": [
      "Cille Bhrìghde an Ear"
    ],
    "name:gle_x_preferred": [
      "Cille Bhríghde an Ear"
    ],
    "name:gle_x_variant": [
      "Cille Bhrìghde an Ear"
    ],
    "name:glv_x_preferred": [
      "Keeill Vreeshey Hiar"
    ],
    "name:guj_x_preferred": [
      "પૂર્વ કિલબ્રાઇડ"
    ],
    "name:hbs_x_preferred": [
      "East Kilbride"
    ],
    "name:heb_x_preferred": [
      "מזרח קילבריד"
    ],
    "name:hun_x_preferred": [
      "East Kilbride"
    ],
    "name:ita_x_preferred": [
      "East Kilbride"
    ],
    "name:jpn_x_preferred": [
      "イースト・キルブライド"
    ],
    "name:kan_x_preferred": [
      "ಈಸ್ಟ್ ಕಿಲ್ಬ್ರೈಡ್"
    ],
    "name:kor_x_preferred": [
      "이스트킬브라이드"
    ],
    "name:lit_x_preferred": [
      "Ist Kilbraidas"
    ],
    "name:nld_x_preferred": [
      "East Kilbride"
    ],
    "name:nno_x_preferred": [
      "East Kilbride"
    ],
    "name:nob_x_preferred": [
      "East Kilbride"
    ],
    "name:nor_x_preferred": [
      "East Kilbride"
    ],
    "name:pnb_x_preferred": [
      "ایسٹ کلبرائیڈ"
    ],
    "name:pol_x_preferred": [
      "East Kilbride"
    ],
    "name:por_x_preferred": [
      "East Kilbride"
    ],
    "name:rus_x_preferred": [
      "Ист-Килбрайд"
    ],
    "name:sco_x_preferred": [
      "East Kilbride"
    ],
    "name:slk_x_preferred": [
      "East Kilbride"
    ],
    "name:spa_x_preferred": [
      "East Kilbride"
    ],
    "name:srp_x_preferred": [
      "Ист Килбрајд"
    ],
    "name:swe_x_preferred": [
      "East Kilbride"
    ],
    "name:tam_x_preferred": [
      "கிழக்கு கிளபிரிடே"
    ],
    "name:tat_x_preferred": [
      "Ист-Килбрайд"
    ],
    "name:tel_x_preferred": [
      "ఈస్ట్ కిల్బ్రిడ్"
    ],
    "name:ukr_x_preferred": [
      "Іст-Кілбрайд"
    ],
    "name:und_x_variant": [
      "East Kilbridge"
    ],
    "name:urd_x_preferred": [
      "ایسٹ کیلبریدی"
    ],
    "name:zho_x_preferred": [
      "東基爾布萊德"
    ],
    "qs:a0": "United Kingdom",
    "qs:a1": "*South Lanarkshire",
    "qs:a1_lc": "GB11RF0000",
    "qs:a1r": "0Scotland",
    "qs:a1r_lc": "GB11000000",
    "qs:adm0": "United Kingdom",
    "qs:id": 0,
    "qs:la_lc": "*",
    "qs:level": "locality",
    "qs:loc": "East Kilbride",
    "qs:loc_alt": "East Kilbride",
    "qs:pop": 0,
    "qs:source": "RCustom EuroGlobalMap + UMZ Urban Polygons + Geonames + GeoPlanet",
    "qs:type": "urban core",
    "src:geom": "quattroshapes",
    "src:geom_alt": [
      "quattroshapes_pg"
    ],
    "src:lbl_centroid": "mapshaper",
    "src:population": "wikidata",
    "wd:latitude": 55.76667,
    "wd:longitude": -4.18333,
    "wd:wordcount": 3102,
    "wof:belongsto": [
      1880773061,
      102191581,
      85633159,
      1880762099,
      404227471,
      136253055,
      1360698969
    ],
    "wof:breaches": [],
    "wof:concordances": {
      "gn:id": 2650405,
      "gp:id": 24923,
      "qs_pg:id": 973443,
      "wd:id": "Q654226",
      "wk:page": "East Kilbride"
    },
    "wof:concordances_alt": {
      "qs_pg:id": 1037057
    },
    "wof:country": "GB",
    "wof:created": 1765384718,
    "wof:geom_alt": [
      "quattroshapes_pg"
    ],
    "wof:geomhash": "04b13d8f3d870c5a6e22c19f97af8749",
    "wof:hierarchy": [
      {
        "continent_id": 102191581,
        "country_id": 85633159,
        "county_id": 1360698969,
        "empire_id": 136253055,
        "locality_id": 101750623,
        "macrocounty_id": 1880762099,
        "macroregion_id": 404227471,
        "region_id": 1880773061
      }
    ],
    "wof:id": 101750623,
    "wof:lastmodified": 1765384718,
    "wof:name": "East Kilbride",
    "wof:parent_id": 1360698969,
    "wof:placetype": "locality",
    "wof:population": 75120,
    "wof:population_rank": 8,
    "wof:repo": "whosonfirst-data-admin-gb",
    "wof:superseded_by": [],
    "wof:supersedes": [],
    "wof:tags": []
  },
  "bbox": [
    -4.237981,
    55.73507,
    -4.134637,
    55.780057
  ],
  "geometry": {"type":"Polygon","coordinates":[[[-4.13739,55.780057],[-4.134637,55.771333],[-4.145461,55.776806],[-4.139241,55.765483],[-4.142518,55.76095],[-4.149698,55.760955],[-4.153982,55.749155],[-4.153997,55.749152],[-4.17403,55.744786],[-4.172727,55.742661],[-4.188364,55.742795],[-4.208087,55.73507],[-4.210655,55.736914],[-4.197815,55.743705],[-4.206377,55.740136],[-4.223487,55.744052],[-4.221518,55.746988],[-4.213381,55.745673],[-4.203086,55.752419],[-4.205401,55.753905],[-4.212382,55.750544],[-4.21536,55.752468],[-4.206723,55.7603],[-4.218621,55.752209],[-4.213888,55.749462],[-4.220297,55.748127],[-4.237981,55.754327],[-4.219674,55.761286],[-4.219671,55.761324],[-4.219533,55.763397],[-4.21917,55.768846],[-4.218746,55.775216],[-4.161864,55.778601],[-4.153559,55.779095],[-4.13739,55.780057]]]}
}
