{
  "id": 1360806037,
  "type": "Feature",
  "properties": {
    "edtf:cessation": "",
    "edtf:inception": "",
    "geom:area": 0,
    "geom:area_square_m": 0,
    "geom:bbox": "-2.316670,52.300000,-2.316670,52.300000",
    "geom:latitude": 52.3,
    "geom:longitude": -2.31667,
    "gn:admin1_code": "ENG",
    "gn:admin2_code": "Q4",
    "gn:admin3_code": "47UC",
    "gn:admin4_code": "47UC003",
    "gn:asciiname": "Astley",
    "gn:country_code": "GB",
    "gn:dem": 72,
    "gn:feature_class": "P",
    "gn:feature_code": "PPL",
    "gn:geonameid": 2656878,
    "gn:latitude": 52.3,
    "gn:longitude": -2.31667,
    "gn:modification_date": "2018-07-03",
    "gn:name": "Astley",
    "gn:population": 0,
    "gn:timezone": "Europe/London",
    "iso:country": "GB",
    "lbl:bbox": "-2.32167,52.295,-2.31167,52.305",
    "lbl:max_zoom": 18,
    "mz:hierarchy_label": 1,
    "mz:is_current": 1,
    "mz:min_zoom": 15,
    "name:fra_x_preferred": [
      "Astley"
    ],
    "name:pol_x_preferred": [
      "Astley"
    ],
    "src:geom": "geonames",
    "src:population": "wikidata",
    "wof:belongsto": [
      1880762691,
      102191581,
      1880762019,
      404429203,
      85633159,
      404227469,
      1360759499,
      136253055,
      1880771695
    ],
    "wof:breaches": [],
    "wof:concordances": {
      "gn:id": 2656878,
      "wk:page": "Astley%2C_Worcestershire"
    },
    "wof:country": "GB",
    "wof:created": 1765390346,
    "wof:geomhash": "a566ee900bb5e54876a642d340dd3bff",
    "wof:hierarchy": [
      {
        "continent_id": 102191581,
        "country_id": 85633159,
        "county_id": 1880771695,
        "empire_id": 136253055,
        "localadmin_id": 404429203,
        "locality_id": 1360759499,
        "macrocounty_id": 1880762019,
        "macroregion_id": 404227469,
        "neighbourhood_id": 1360806037,
        "region_id": 1880762691
      }
    ],
    "wof:id": 1360806037,
    "wof:lastmodified": 1765390346,
    "wof:name": "Astley",
    "wof:parent_id": 1360759499,
    "wof:placetype": "neighbourhood",
    "wof:population": 1029,
    "wof:population_rank": 3,
    "wof:repo": "whosonfirst-data-admin-gb",
    "wof:superseded_by": [],
    "wof:supersedes": [
      1193045449
    ],
    "wof:tags": []
  },
  "bbox": [
    -2.31667,
    52.3,
    -2.31667,
    52.3
  ],
  "geometry": {"type":"Point","coordinates":[-2.31667,52.3]}
}
