{
  "id": 1360793333,
  "type": "Feature",
  "properties": {
    "edtf:cessation": "",
    "edtf:inception": "",
    "geom:area": 0,
    "geom:area_square_m": 0,
    "geom:bbox": "0.623820,52.447740,0.623820,52.447740",
    "geom:latitude": 52.44774,
    "geom:longitude": 0.62382,
    "gn:country": "GB",
    "gn:fcode": "PPL",
    "gn:population": 0,
    "iso:country": "GB",
    "lbl:bbox": "0.61882,52.44274,0.62882,52.45274",
    "lbl:latitude": 52.44774,
    "lbl:longitude": 0.62382,
    "lbl:max_zoom": 18,
    "mz:hierarchy_label": 1,
    "mz:is_current": 1,
    "mz:min_zoom": 15,
    "mz:note": "Quattroshapes Point Gazetteer import 20170519",
    "name:eng_x_preferred": [
      "Brandon"
    ],
    "name:eng_x_variant": [
      "Brundon"
    ],
    "name:fas_x_preferred": [
      "براندون، سافک"
    ],
    "name:nld_x_preferred": [
      "Brandon"
    ],
    "name:nld_x_variant": [
      "Brundon"
    ],
    "name:pol_x_preferred": [
      "Brandon"
    ],
    "name:pol_x_variant": [
      "Brundon"
    ],
    "name:swe_x_preferred": [
      "Brandon"
    ],
    "name:swe_x_variant": [
      "Brundon"
    ],
    "name:urd_x_preferred": [
      "برینڈن، سفولک"
    ],
    "qs_pg:aaroncc": "GB",
    "qs_pg:gn_country": "GB",
    "qs_pg:gn_fcode": "PPL",
    "qs_pg:gn_id": 2654896,
    "qs_pg:gn_pop": 0,
    "qs_pg:name": "Brundon",
    "qs_pg:name_adm0": "United Kingdom",
    "qs_pg:name_adm1": "England",
    "qs_pg:photos": 50,
    "qs_pg:photos_1k": 10,
    "qs_pg:photos_9k": 1,
    "qs_pg:photos_9r": 2,
    "qs_pg:photos_all": 50,
    "qs_pg:photos_sr": 2,
    "qs_pg:pop_sr": 0,
    "qs_pg:qs_id": 1325430,
    "qs_pg:qs_pg_placetype": "locality",
    "qs_pg:qs_pg_placetype_gp": "Town",
    "qs_pg:woe_adm0": 23424975,
    "qs_pg:woe_id": 14288,
    "src:geom": "qs_pg",
    "src:lbl_centroid": "qs_pg",
    "src:population": "wikidata",
    "woe:adm0_id": 23424975,
    "woe:name_adm0": "United Kingdom",
    "woe:name_adm1": "England",
    "woe:placetype": "Town",
    "wof:belongsto": [
      1880762685,
      102191581,
      1880762001,
      404445765,
      85633159,
      404227469,
      101853563,
      136253055,
      1880771639
    ],
    "wof:breaches": [],
    "wof:concordances": {
      "gn:id": 2654896,
      "gp:id": 14288,
      "qs_pg:id": 1325430
    },
    "wof:country": "GB",
    "wof:created": 1497291425,
    "wof:geomhash": "506283f9a6e3c5e8c2d32cdab94b8bd1",
    "wof:hierarchy": [
      {
        "continent_id": 102191581,
        "country_id": 85633159,
        "county_id": 1880771639,
        "empire_id": 136253055,
        "localadmin_id": 404445765,
        "locality_id": 101853563,
        "macrocounty_id": 1880762001,
        "macroregion_id": 404227469,
        "neighbourhood_id": 1360793333,
        "region_id": 1880762685
      }
    ],
    "wof:id": 1360793333,
    "wof:lastmodified": 1765389586,
    "wof:name": "Brandon",
    "wof:parent_id": 101853563,
    "wof:placetype": "neighbourhood",
    "wof:population": 9208,
    "wof:population_rank": 5,
    "wof:repo": "whosonfirst-data-admin-gb",
    "wof:superseded_by": [],
    "wof:supersedes": [
      1125805007
    ],
    "wof:tags": []
  },
  "bbox": [
    0.62382,
    52.44774,
    0.62382,
    52.44774
  ],
  "geometry": {"type":"Point","coordinates":[0.62382,52.44774]}
}
