{
  "id": 85861781,
  "type": "Feature",
  "properties": {
    "edtf:cessation": "",
    "edtf:inception": "",
    "geom:area": 0.00002911400799999448,
    "geom:area_square_m": 224693.059435,
    "geom:bbox": "-0.303830,51.377781,-0.296631,51.383595",
    "geom:latitude": 51.38061646668332,
    "geom:longitude": -0.29972988235533027,
    "gn:id": "",
    "iso:country": "GB",
    "lbl:latitude": 51.382893,
    "lbl:longitude": -0.306084,
    "lbl:max_zoom": 18,
    "mps:latitude": 51.380478,
    "mps:longitude": -0.29973,
    "mz:hierarchy_label": 1,
    "mz:is_current": 1,
    "mz:is_funky": 0,
    "mz:is_hard_boundary": 0,
    "mz:is_landuse_aoi": 0,
    "mz:is_official": 0,
    "mz:max_zoom": 18,
    "mz:min_zoom": 15,
    "mz:tier_locality": 7,
    "mz:tier_metro": 1,
    "name:eng_x_preferred": [
      "Southborough"
    ],
    "name:fra_x_preferred": [
      "Southborough"
    ],
    "name:gle_x_preferred": [
      "Southborough"
    ],
    "name:hin_x_preferred": [
      "साउथबरो"
    ],
    "name:tat_x_preferred": [
      "St. James's"
    ],
    "name:urd_x_preferred": [
      "ساؤتھبرو، بروملی"
    ],
    "name:urd_x_variant": [
      "ساؤتھبرو"
    ],
    "src:geom": "quattroshapes",
    "src:geom_alt": [
      "quattroshapes_pg"
    ],
    "src:lbl_centroid": "mz",
    "src:population": "wikidata",
    "wof:belongsto": [
      1880762729,
      102191581,
      1880762179,
      85633159,
      404227469,
      101750367,
      136253055,
      1158857309,
      1880771825
    ],
    "wof:breaches": [],
    "wof:concordances": {
      "fct:id": "0ab4a1e8-8f76-11e1-848f-cfd5bf3ef515",
      "gn:id": 2637474,
      "gp:id": 20094348,
      "qs_pg:id": 237556,
      "wd:id": "Q121541",
      "wk:page": "Southborough, Kent"
    },
    "wof:country": "GB",
    "wof:created": 1765391376,
    "wof:geom_alt": [
      "quattroshapes_pg"
    ],
    "wof:geomhash": "3ac7f1c9e146d31ed308dada655bd83f",
    "wof:hierarchy": [
      {
        "borough_id": 1158857309,
        "continent_id": 102191581,
        "country_id": 85633159,
        "county_id": 1880771825,
        "empire_id": 136253055,
        "locality_id": 101750367,
        "macrocounty_id": 1880762179,
        "macroregion_id": 404227469,
        "neighbourhood_id": 85861781,
        "region_id": 1880762729
      }
    ],
    "wof:id": 85861781,
    "wof:lang": [
      "eng"
    ],
    "wof:lastmodified": 1765391376,
    "wof:name": "Southborough",
    "wof:parent_id": 1158857309,
    "wof:placetype": "neighbourhood",
    "wof:population": 11967,
    "wof:population_rank": 6,
    "wof:repo": "whosonfirst-data-admin-gb",
    "wof:superseded_by": [],
    "wof:supersedes": [],
    "wof:tags": []
  },
  "bbox": [
    -0.30383,
    51.377781,
    -0.296631,
    51.383595
  ],
  "geometry": {"type":"Polygon","coordinates":[[[-0.302124,51.383595],[-0.299377,51.382129],[-0.297134,51.383327],[-0.296631,51.382924],[-0.296631,51.382067],[-0.296631,51.380353],[-0.296631,51.378638],[-0.296631,51.377781],[-0.298842,51.377781],[-0.299377,51.378638],[-0.302124,51.378638],[-0.303194,51.380353],[-0.30383,51.380862],[-0.303078,51.382067],[-0.302124,51.383595]]]}
}
