{
  "id": 420782299,
  "type": "Feature",
  "properties": {
    "edtf:cessation": "",
    "edtf:inception": "",
    "geom:area": 0,
    "geom:area_square_m": 0,
    "geom:bbox": "-1.827107,52.564520,-1.827107,52.564520",
    "geom:latitude": 52.56452,
    "geom:longitude": -1.827107,
    "iso:country": "GB",
    "lbl:bbox": "-1.83210712261,52.5595199666,-1.82210712261,52.5695199666",
    "lbl:latitude": 52.56452,
    "lbl:longitude": -1.827107,
    "lbl:max_zoom": 18,
    "mz:hierarchy_label": 1,
    "mz:is_current": -1,
    "mz:is_funky": 0,
    "mz:is_hard_boundary": 0,
    "mz:is_landuse_aoi": 0,
    "mz:is_official": 0,
    "mz:max_zoom": 18,
    "mz:min_zoom": 12,
    "mz:tier_locality": 0,
    "name:ast_x_preferred": [
      "Sutton Coldfield"
    ],
    "name:azb_x_preferred": [
      "ساتن کولدفیلد"
    ],
    "name:aze_x_preferred": [
      "Satton-Koldfield"
    ],
    "name:ben_x_preferred": [
      "সাটন কোল্ডফিল্ড"
    ],
    "name:cat_x_preferred": [
      "Sutton Coldfield"
    ],
    "name:cat_x_variant": [
      "Royal Sutton Coldfield"
    ],
    "name:ceb_x_preferred": [
      "Sutton Coldfield"
    ],
    "name:ceb_x_variant": [
      "Royal Sutton Coldfield"
    ],
    "name:cym_x_preferred": [
      "Sutton Coldfield"
    ],
    "name:cym_x_variant": [
      "Royal Sutton Coldfield"
    ],
    "name:dan_x_preferred": [
      "Sutton Coldfield"
    ],
    "name:dan_x_variant": [
      "Royal Sutton Coldfield"
    ],
    "name:deu_x_preferred": [
      "Sutton Coldfield"
    ],
    "name:deu_x_variant": [
      "Royal Sutton Coldfield"
    ],
    "name:eng_x_preferred": [
      "Sutton Coldfield"
    ],
    "name:epo_x_preferred": [
      "Sutton Coldfield"
    ],
    "name:epo_x_variant": [
      "Royal Sutton Coldfield"
    ],
    "name:fas_x_preferred": [
      "ساتن کولدفیلد"
    ],
    "name:fin_x_preferred": [
      "Sutton Coldfield"
    ],
    "name:fin_x_variant": [
      "Royal Sutton Coldfield"
    ],
    "name:fra_x_preferred": [
      "Sutton Coldfield"
    ],
    "name:fra_x_variant": [
      "Royal Sutton Coldfield"
    ],
    "name:gle_x_preferred": [
      "Sutton Coldfield"
    ],
    "name:guj_x_preferred": [
      "સટન કોલ્ડફિલ્ડ"
    ],
    "name:hbs_x_preferred": [
      "Sutton Coldfield"
    ],
    "name:heb_x_preferred": [
      "סאטון קולדפילד"
    ],
    "name:hun_x_preferred": [
      "Royal Sutton Coldfield"
    ],
    "name:hye_x_preferred": [
      "Սաթոն Քոլդֆիլդ"
    ],
    "name:ita_x_preferred": [
      "Sutton Coldfield"
    ],
    "name:ita_x_variant": [
      "Royal Sutton Coldfield"
    ],
    "name:jpn_x_preferred": [
      "サットン・コールドフィールド"
    ],
    "name:kan_x_preferred": [
      "ಸುಟ್ಟನ್ ಕೋಲ್ಡ್ಫೀಲ್ಡ್"
    ],
    "name:kor_x_preferred": [
      "서턴콜드필드"
    ],
    "name:lat_x_preferred": [
      "Sutton Magna"
    ],
    "name:lit_x_preferred": [
      "Saton Koldfildas"
    ],
    "name:lld_x_preferred": [
      "Sutton Coldfield"
    ],
    "name:nld_x_preferred": [
      "Sutton Coldfield"
    ],
    "name:nld_x_variant": [
      "Royal Sutton Coldfield"
    ],
    "name:nno_x_preferred": [
      "Sutton Coldfield"
    ],
    "name:nno_x_variant": [
      "Royal Sutton Coldfield"
    ],
    "name:pol_x_preferred": [
      "Sutton Coldfield"
    ],
    "name:pol_x_variant": [
      "Royal Sutton Coldfield"
    ],
    "name:por_x_preferred": [
      "Royal Sutton Coldfield"
    ],
    "name:ron_x_preferred": [
      "Sutton Coldfield"
    ],
    "name:ron_x_variant": [
      "Royal Sutton Coldfield"
    ],
    "name:rus_x_preferred": [
      "Саттон-Колдфилд"
    ],
    "name:slv_x_preferred": [
      "Royal Sutton Coldfield"
    ],
    "name:spa_x_preferred": [
      "Sutton Coldfield"
    ],
    "name:spa_x_variant": [
      "Royal Sutton Coldfield"
    ],
    "name:srp_x_preferred": [
      "Сатон Колдфилд"
    ],
    "name:swa_x_preferred": [
      "Sutton Coldfield"
    ],
    "name:swe_x_preferred": [
      "Sutton Coldfield"
    ],
    "name:swe_x_variant": [
      "Royal Sutton Coldfield"
    ],
    "name:tam_x_preferred": [
      "சுட்டோன் கோல்டுபிஎல்ட்"
    ],
    "name:tel_x_preferred": [
      "సుట్టన్ కోల్డ్ ఫీల్డ్"
    ],
    "name:tur_x_preferred": [
      "Sutton Coldfield"
    ],
    "name:ukr_x_preferred": [
      "Саттон-Колдфілд"
    ],
    "name:urd_x_preferred": [
      "سوتٹن کولدفیلڈ"
    ],
    "name:urd_x_variant": [
      "سٹن کولڈ فیلڈ"
    ],
    "name:war_x_preferred": [
      "Sutton Coldfield"
    ],
    "name:war_x_variant": [
      "Royal Sutton Coldfield"
    ],
    "name:zho_x_preferred": [
      "薩頓寇德菲爾"
    ],
    "src:geom": "unknown",
    "src:population": "wikidata",
    "wd:latitude": 52.563,
    "wd:longitude": -1.822,
    "wd:wordcount": 11953,
    "wof:belongsto": [
      1880773161,
      102191581,
      85633159,
      1880762069,
      404227469,
      101750467,
      136253055,
      1360699077
    ],
    "wof:breaches": [],
    "wof:concordances": {
      "gp:id": 28224,
      "wd:id": "Q868196"
    },
    "wof:country": "GB",
    "wof:created": 1458871837,
    "wof:geomhash": "00d4163d464f893e22f2fd89ddf7b576",
    "wof:hierarchy": [
      {
        "continent_id": 102191581,
        "country_id": 85633159,
        "county_id": 1360699077,
        "empire_id": 136253055,
        "locality_id": 101750467,
        "macrocounty_id": 1880762069,
        "macroregion_id": 404227469,
        "neighbourhood_id": 420782299,
        "region_id": 1880773161
      }
    ],
    "wof:id": 420782299,
    "wof:lastmodified": 1765390908,
    "wof:name": "Sutton Coldfield",
    "wof:parent_id": 101750467,
    "wof:placetype": "neighbourhood",
    "wof:population": 96475,
    "wof:population_rank": 8,
    "wof:repo": "whosonfirst-data-admin-gb",
    "wof:superseded_by": [],
    "wof:supersedes": [],
    "wof:tags": []
  },
  "bbox": [
    -1.827107,
    52.56452,
    -1.827107,
    52.56452
  ],
  "geometry": {"type":"Point","coordinates":[-1.827107,52.56452]}
}
