{
  "id": 1360794469,
  "type": "Feature",
  "properties": {
    "edtf:cessation": "",
    "edtf:inception": "",
    "geom:area": 0,
    "geom:area_square_m": 0,
    "geom:bbox": "1.128570,51.373000,1.128570,51.373000",
    "geom:latitude": 51.373,
    "geom:longitude": 1.12857,
    "gn:country": "GB",
    "gn:fcode": "PPL",
    "gn:population": 36642,
    "iso:country": "GB",
    "lbl:bbox": "1.12357,51.368,1.13357,51.378",
    "lbl:latitude": 51.373,
    "lbl:longitude": 1.12857,
    "lbl:max_zoom": 18,
    "mz:hierarchy_label": 1,
    "mz:is_current": 1,
    "mz:min_zoom": 15,
    "mz:note": "Quattroshapes Point Gazetteer import 20170519",
    "name:ara_x_preferred": [
      "هيرن باي"
    ],
    "name:ast_x_preferred": [
      "Herne Bay"
    ],
    "name:cat_x_preferred": [
      "Herne Bay"
    ],
    "name:ceb_x_preferred": [
      "Herne Bay"
    ],
    "name:ces_x_preferred": [
      "Herne Bay"
    ],
    "name:cym_x_preferred": [
      "Herne Bay"
    ],
    "name:deu_x_preferred": [
      "Herne Bay"
    ],
    "name:eng_x_preferred": [
      "Herne Bay"
    ],
    "name:fas_x_preferred": [
      "هرن بی"
    ],
    "name:fra_x_preferred": [
      "Herne Bay"
    ],
    "name:hun_x_preferred": [
      "Herne Bay"
    ],
    "name:ita_x_preferred": [
      "Herne Bay"
    ],
    "name:jpn_x_preferred": [
      "ハーン・ベイ"
    ],
    "name:lld_x_preferred": [
      "Herne Bay"
    ],
    "name:nld_x_preferred": [
      "Herne Bay"
    ],
    "name:nno_x_preferred": [
      "Herne Bay i Kent"
    ],
    "name:nob_x_preferred": [
      "Herne Bay"
    ],
    "name:pol_x_preferred": [
      "Herne Bay"
    ],
    "name:ron_x_preferred": [
      "Herne Bay"
    ],
    "name:rus_x_preferred": [
      "Герн Бэй"
    ],
    "name:spa_x_preferred": [
      "Herne Bay"
    ],
    "name:swe_x_preferred": [
      "Herne Bay"
    ],
    "name:vol_x_preferred": [
      "Herne Bay"
    ],
    "name:zho_x_preferred": [
      "荷尼灣"
    ],
    "name:zho_x_variant": [
      "赫恩贝"
    ],
    "qs_pg:aaroncc": "GB",
    "qs_pg:gn_country": "GB",
    "qs_pg:gn_fcode": "PPL",
    "qs_pg:gn_id": 2647057,
    "qs_pg:gn_pop": 36642,
    "qs_pg:name": "Herne Bay",
    "qs_pg:name_adm0": "United Kingdom",
    "qs_pg:name_adm1": "England",
    "qs_pg:photos": 3734,
    "qs_pg:photos_1k": 757,
    "qs_pg:photos_9k": 17,
    "qs_pg:photos_9r": 12,
    "qs_pg:photos_all": 3734,
    "qs_pg:photos_sr": 21,
    "qs_pg:pop_sr": 7,
    "qs_pg:qs_id": 1249352,
    "qs_pg:qs_pg_placetype": "locality",
    "qs_pg:qs_pg_placetype_gp": "Town",
    "qs_pg:woe_adm0": 23424975,
    "qs_pg:woe_id": 23078,
    "src:geom": "qs_pg",
    "src:lbl_centroid": "qs_pg",
    "src:population": "wikidata",
    "woe:adm0_id": 23424975,
    "woe:name_adm0": "United Kingdom",
    "woe:name_adm1": "England",
    "woe:placetype": "Town",
    "wof:belongsto": [
      1880762705,
      102191581,
      85633159,
      1880762057,
      404227469,
      136253055,
      1880771515
    ],
    "wof:breaches": [],
    "wof:concordances": {
      "gn:id": 2647057,
      "gp:id": 23078,
      "qs_pg:id": 1249352,
      "wd:id": "Q929286"
    },
    "wof:country": "GB",
    "wof:created": 1497293207,
    "wof:geomhash": "1186adf98fea8f53b390131fce4fbbe8",
    "wof:hierarchy": [
      {
        "continent_id": 102191581,
        "country_id": 85633159,
        "county_id": 1880771515,
        "empire_id": 136253055,
        "locality_id": -1,
        "macrocounty_id": 1880762057,
        "macroregion_id": 404227469,
        "neighbourhood_id": 1360794469,
        "region_id": 1880762705
      }
    ],
    "wof:id": 1360794469,
    "wof:lastmodified": 1765389650,
    "wof:name": "Herne Bay",
    "wof:parent_id": -1,
    "wof:placetype": "neighbourhood",
    "wof:population": 38385,
    "wof:population_rank": 7,
    "wof:repo": "whosonfirst-data-admin-gb",
    "wof:superseded_by": [],
    "wof:supersedes": [
      1125846919
    ],
    "wof:tags": []
  },
  "bbox": [
    1.12857,
    51.373,
    1.12857,
    51.373
  ],
  "geometry": {"type":"Point","coordinates":[1.12857,51.373]}
}
