{
  "id": 85788395,
  "type": "Feature",
  "properties": {
    "edtf:cessation": "",
    "edtf:inception": "",
    "geom:area": 0.0001380012170000025,
    "geom:area_square_m": 1016883.379435,
    "geom:bbox": "-2.831461,53.416080,-2.809132,53.425901",
    "geom:latitude": 53.42108639005109,
    "geom:longitude": -2.8198431678437705,
    "iso:country": "GB",
    "lbl:latitude": 53.420991,
    "lbl:longitude": -2.821655,
    "lbl:max_zoom": 18,
    "mps:latitude": 53.420991,
    "mps:longitude": -2.819843,
    "mz:hierarchy_label": 1,
    "mz:is_current": -1,
    "mz:is_funky": 0,
    "mz:is_hard_boundary": 0,
    "mz:is_landuse_aoi": 0,
    "mz:is_official": 0,
    "mz:max_zoom": 18,
    "mz:min_zoom": 16,
    "mz:tier_locality": 4,
    "name:afr_x_preferred": [
      "Huyton"
    ],
    "name:ast_x_preferred": [
      "Huyton"
    ],
    "name:bel_x_preferred": [
      "Хайтан"
    ],
    "name:bul_x_preferred": [
      "Хуйтон"
    ],
    "name:cat_x_preferred": [
      "Huyton"
    ],
    "name:ceb_x_preferred": [
      "Huyton"
    ],
    "name:cym_x_preferred": [
      "Huyton"
    ],
    "name:deu_x_preferred": [
      "Huyton"
    ],
    "name:eng_x_preferred": [
      "Huyton"
    ],
    "name:est_x_preferred": [
      "Huyton"
    ],
    "name:fas_x_preferred": [
      "هویتون"
    ],
    "name:fra_x_preferred": [
      "Huyton"
    ],
    "name:gle_x_preferred": [
      "Huyton"
    ],
    "name:heb_x_preferred": [
      "הוייטאון"
    ],
    "name:hye_x_preferred": [
      "Հյուտոն"
    ],
    "name:ita_x_preferred": [
      "Huyton"
    ],
    "name:jpn_x_preferred": [
      "ハイトン"
    ],
    "name:kor_x_preferred": [
      "하이턴"
    ],
    "name:lld_x_preferred": [
      "Huyton"
    ],
    "name:ltz_x_preferred": [
      "Huyton"
    ],
    "name:nld_x_preferred": [
      "Huyton"
    ],
    "name:nno_x_preferred": [
      "Huyton"
    ],
    "name:nob_x_preferred": [
      "Huyton"
    ],
    "name:pol_x_preferred": [
      "Huyton"
    ],
    "name:rus_x_preferred": [
      "Хейтон"
    ],
    "name:rus_x_variant": [
      "Хайтон"
    ],
    "name:slv_x_preferred": [
      "Huyton"
    ],
    "name:swe_x_preferred": [
      "Huyton"
    ],
    "name:szl_x_preferred": [
      "Huyton"
    ],
    "name:und_x_variant": [
      "Huyton with Roby"
    ],
    "name:vol_x_preferred": [
      "Huyton"
    ],
    "name:zho_x_preferred": [
      "海頓"
    ],
    "qs:gn_fcode": "PPL",
    "qs:gn_local": 0,
    "qs:gn_namadm1": "ENG",
    "qs:gn_name": "Huyton",
    "qs:local_max": 5855,
    "qs:local_sum": 84556,
    "qs:localhoods": 70,
    "qs:name": "Huyton",
    "qs:name_adm0": "United Kingdom",
    "qs:name_adm1": "England",
    "qs:name_adm2": "Merseyside",
    "qs:name_lau": "Knowsley Metropolitan Borough",
    "qs:name_local": "Liverpool",
    "qs:photo_max": 3,
    "qs:photo_sum": 6,
    "qs:placetype": "Suburb",
    "qs:quad_count": 3,
    "qs:woe_adm0": 23424975,
    "qs:woe_adm1": 24554868,
    "qs:woe_adm2": 12602161,
    "qs:woe_lau": 12695849,
    "qs:woe_local": 26734,
    "qs:woe_ver": "7.10.0",
    "src:geom": "quattroshapes",
    "src:geom_alt": [
      "quattroshapes_pg"
    ],
    "src:lbl_centroid": "yerbashapes",
    "src:population": "wikidata",
    "wd:latitude": 53.41,
    "wd:longitude": -2.843,
    "wd:wordcount": 3306,
    "wof:belongsto": [
      1880773063,
      102191581,
      85633159,
      1880762035,
      404227469,
      1360832423,
      136253055,
      1360698941
    ],
    "wof:breaches": [],
    "wof:concordances": {
      "gn:id": 2646329,
      "gp:id": 24254,
      "qs_pg:id": 424960,
      "wd:id": "Q1639484",
      "wk:page": "Huyton"
    },
    "wof:country": "GB",
    "wof:created": 1765391078,
    "wof:geom_alt": [
      "quattroshapes_pg"
    ],
    "wof:geomhash": "a602b1239e9a6c55b0e4e47f87b50036",
    "wof:hierarchy": [
      {
        "continent_id": 102191581,
        "country_id": 85633159,
        "county_id": 1360698941,
        "empire_id": 136253055,
        "locality_id": 1360832423,
        "macrocounty_id": 1880762035,
        "macroregion_id": 404227469,
        "neighbourhood_id": 85788395,
        "region_id": 1880773063
      }
    ],
    "wof:id": 85788395,
    "wof:lang": [
      "eng"
    ],
    "wof:lastmodified": 1765391078,
    "wof:name": "Huyton",
    "wof:parent_id": 1360832423,
    "wof:placetype": "neighbourhood",
    "wof:population": 33193,
    "wof:population_rank": 7,
    "wof:repo": "whosonfirst-data-admin-gb",
    "wof:superseded_by": [],
    "wof:supersedes": [],
    "wof:tags": []
  },
  "bbox": [
    -2.831461,
    53.41608,
    -2.809132,
    53.425901
  ],
  "geometry": {"type":"Polygon","coordinates":[[[-2.809488,53.420244],[-2.814451,53.41608],[-2.816042,53.41608],[-2.817993,53.417717],[-2.823486,53.417717],[-2.828004,53.417717],[-2.828979,53.419354],[-2.82898,53.419354],[-2.831461,53.423518],[-2.831238,53.424264],[-2.823486,53.424264],[-2.817993,53.424264],[-2.816043,53.425901],[-2.81445,53.425901],[-2.809132,53.421438],[-2.809488,53.420244]]]}
}
