{
  "id": 1125997627,
  "type": "Feature",
  "properties": {
    "edtf:cessation": "",
    "edtf:inception": "",
    "geom:area": 0.0017610512200001026,
    "geom:area_square_m": 12962214.072224,
    "geom:bbox": "-2.105887,53.454751,-2.010195,53.483642",
    "geom:latitude": 53.468537082219264,
    "geom:longitude": -2.0636946019113145,
    "gn:country": "GB",
    "gn:fcode": "PPL",
    "gn:population": 19306,
    "iso:country": "GB",
    "lbl:latitude": 53.47497,
    "lbl:longitude": -2.08809,
    "lbl:max_zoom": 15,
    "lbl:min_zoom": 10.5,
    "mz:hierarchy_label": 1,
    "mz:is_current": 1,
    "mz:min_zoom": 10,
    "mz:note": "Quattroshapes Point Gazetteer import 20170519",
    "name:ara_x_preferred": [
      "داكينفيلد"
    ],
    "name:ast_x_preferred": [
      "Dukinfield"
    ],
    "name:azb_x_preferred": [
      "داکینفیلد"
    ],
    "name:ben_x_preferred": [
      "ডাকিনফিল্ড"
    ],
    "name:bul_x_preferred": [
      "Дукинфиелд"
    ],
    "name:cat_x_preferred": [
      "Dukinfield"
    ],
    "name:ceb_x_preferred": [
      "Dukinfield"
    ],
    "name:cym_x_preferred": [
      "Dukinfield"
    ],
    "name:deu_x_preferred": [
      "Dukinfield"
    ],
    "name:eng_x_preferred": [
      "Dukinfield"
    ],
    "name:eus_x_preferred": [
      "Dukinfield"
    ],
    "name:fas_x_preferred": [
      "داکینفیلد"
    ],
    "name:fra_x_preferred": [
      "Dukinfield"
    ],
    "name:gle_x_preferred": [
      "Dukinfield"
    ],
    "name:guj_x_preferred": [
      "ડકિનફિલ્ડ"
    ],
    "name:heb_x_preferred": [
      "דנקנפילד"
    ],
    "name:ita_x_preferred": [
      "Dukinfield"
    ],
    "name:jpn_x_preferred": [
      "ダキンフィールド・スタリーブリッジ"
    ],
    "name:kan_x_preferred": [
      "ಡುಕಿನ್ಫೀಲ್ಡ್"
    ],
    "name:kor_x_preferred": [
      "더킨필드"
    ],
    "name:lit_x_preferred": [
      "Dakinfildas Stalibridžas"
    ],
    "name:lld_x_preferred": [
      "Dukinfield"
    ],
    "name:nld_x_preferred": [
      "Dukinfield"
    ],
    "name:nno_x_preferred": [
      "Dukinfield"
    ],
    "name:pol_x_preferred": [
      "Dukinfield"
    ],
    "name:por_x_preferred": [
      "Dukinfield"
    ],
    "name:ron_x_preferred": [
      "Dukinfield"
    ],
    "name:rus_x_preferred": [
      "Дакинвилд"
    ],
    "name:slv_x_preferred": [
      "Dukinfield"
    ],
    "name:spa_x_preferred": [
      "Dukinfield"
    ],
    "name:swe_x_preferred": [
      "Dukinfield"
    ],
    "name:szl_x_preferred": [
      "Dukinfield"
    ],
    "name:tam_x_preferred": [
      "டுகின்பீல்ட்"
    ],
    "name:tel_x_preferred": [
      ""
    ],
    "name:urd_x_preferred": [
      "دوکینفیلڈ"
    ],
    "name:zho_x_preferred": [
      "杜金菲尔德"
    ],
    "nav:latitude": 53.47497,
    "nav:longitude": -2.08809,
    "qs_pg:aaroncc": "GB",
    "qs_pg:gn_country": "GB",
    "qs_pg:gn_fcode": "PPL",
    "qs_pg:gn_id": 2650815,
    "qs_pg:gn_pop": 19306,
    "qs_pg:name": "Dukinfield",
    "qs_pg:name_adm0": "United Kingdom",
    "qs_pg:name_adm1": "England",
    "qs_pg:photos": 501,
    "qs_pg:photos_1k": 102,
    "qs_pg:photos_9k": 2,
    "qs_pg:photos_9r": 5,
    "qs_pg:photos_all": 501,
    "qs_pg:photos_sr": 7,
    "qs_pg:pop_sr": 6,
    "qs_pg:qs_id": 905640,
    "qs_pg:qs_pg_placetype": "locality",
    "qs_pg:qs_pg_placetype_gp": "Town",
    "qs_pg:woe_adm0": 23424975,
    "qs_pg:woe_id": 18598,
    "src:geom": "whosonfirst",
    "src:geom_alt": [
      "qs_pg"
    ],
    "src:lbl_centroid": "qs_pg",
    "src:population": "wikidata",
    "woe:adm0_id": 23424975,
    "woe:name_adm0": "United Kingdom",
    "woe:name_adm1": "England",
    "woe:placetype": "Town",
    "wof:belongsto": [
      1880773095,
      102191581,
      85633159,
      1360817329,
      1880762163,
      404227469,
      136253055,
      1360698931
    ],
    "wof:breaches": [],
    "wof:concordances": {
      "gn:id": 2650815,
      "gp:id": 18598,
      "qs_pg:id": 905640,
      "wd:id": "Q1976179"
    },
    "wof:country": "GB",
    "wof:created": 1497299448,
    "wof:geom_alt": [
      "qs_pg"
    ],
    "wof:geomhash": "e0dc5ff1e23afa28229f3829b50835a6",
    "wof:hierarchy": [
      {
        "continent_id": 102191581,
        "country_id": 85633159,
        "county_id": 1360698931,
        "empire_id": 136253055,
        "localadmin_id": 1360817329,
        "locality_id": 1125997627,
        "macrocounty_id": 1880762163,
        "macroregion_id": 404227469,
        "region_id": 1880773095
      }
    ],
    "wof:id": 1125997627,
    "wof:lastmodified": 1765387429,
    "wof:name": "Dukinfield",
    "wof:parent_id": 1360817329,
    "wof:placetype": "locality",
    "wof:population": 21155,
    "wof:population_rank": 7,
    "wof:repo": "whosonfirst-data-admin-gb",
    "wof:superseded_by": [],
    "wof:supersedes": [],
    "wof:tags": []
  },
  "bbox": [
    -2.105887,
    53.454751,
    -2.010195,
    53.483642
  ],
  "geometry": {"type":"Polygon","coordinates":[[[-2.093491,53.455987],[-2.096012,53.458989],[-2.101224,53.463725],[-2.103418,53.466991],[-2.103967,53.47042],[-2.105887,53.474828],[-2.104515,53.47744],[-2.101772,53.479562],[-2.099578,53.481194],[-2.094092,53.482337],[-2.089704,53.4825],[-2.085315,53.482663],[-2.079829,53.4825],[-2.075166,53.482173],[-2.068309,53.480215],[-2.060903,53.482826],[-2.057337,53.482337],[-2.055143,53.4825],[-2.052126,53.483153],[-2.050754,53.483642],[-2.041154,53.474501],[-2.040331,53.47091],[-2.03512,53.47091],[-2.030457,53.469277],[-2.024148,53.466501],[-2.015645,53.461276],[-2.010195,53.45842],[-2.01287,53.457544],[-2.017561,53.456008],[-2.025066,53.45503],[-2.031868,53.454751],[-2.038201,53.455449],[-2.045941,53.456566],[-2.05204,53.457544],[-2.056731,53.457265],[-2.060953,53.456706],[-2.06494,53.456008],[-2.069631,53.457265],[-2.075495,53.45894],[-2.080655,53.461733],[-2.092382,53.460337],[-2.092617,53.456008],[-2.093491,53.455987]]]}
}
