{
  "id": 1126067259,
  "type": "Feature",
  "properties": {
    "edtf:cessation": "",
    "edtf:inception": "",
    "geom:area": 0,
    "geom:area_square_m": 0,
    "geom:bbox": "-0.001459,51.605097,-0.001459,51.605097",
    "geom:latitude": 51.605097,
    "geom:longitude": -0.001459,
    "gn:country": null,
    "iso:country": "GB",
    "lbl:bbox": "-0.006459,51.6000975,0.003541,51.6100975",
    "lbl:latitude": 51.605097,
    "lbl:longitude": -0.001459,
    "lbl:max_zoom": 18,
    "mz:hierarchy_label": 1,
    "mz:is_current": 1,
    "mz:min_zoom": 15,
    "mz:note": "Quattroshapes Point Gazetteer import 20170519",
    "name:azb_x_preferred": [
      "هایمز پارک"
    ],
    "name:eng_x_preferred": [
      "Highams Park"
    ],
    "name:fas_x_preferred": [
      "هایمز پارک"
    ],
    "name:fra_x_preferred": [
      "Highams Park"
    ],
    "name:gle_x_preferred": [
      "Highams Park"
    ],
    "name:heb_x_preferred": [
      "הייאמס פארק"
    ],
    "name:ita_x_preferred": [
      "Highams Park"
    ],
    "name:jpn_x_preferred": [
      "ハイアムズ・パーク"
    ],
    "name:nob_x_preferred": [
      "Highams Park"
    ],
    "name:swe_x_preferred": [
      "Orton Brimbles"
    ],
    "name:ukr_x_preferred": [
      "Гігемс Парк"
    ],
    "name:urd_x_preferred": [
      "ہائمز پارک"
    ],
    "name:vie_x_preferred": [
      "Highams Park"
    ],
    "name:zho_x_preferred": [
      "海伊漢姆斯公園"
    ],
    "qs_pg:aaroncc": "GB",
    "qs_pg:gn_country": null,
    "qs_pg:name": "Highams Park",
    "qs_pg:name_adm0": "United Kingdom",
    "qs_pg:name_adm1": "England",
    "qs_pg:photos": 36,
    "qs_pg:photos_1k": 7,
    "qs_pg:photos_9k": 1,
    "qs_pg:photos_9r": 2,
    "qs_pg:photos_all": 36,
    "qs_pg:photos_sr": 2,
    "qs_pg:pop_sr": 0,
    "qs_pg:qs_id": 976922,
    "qs_pg:qs_pg_placetype": "neighbourhood",
    "qs_pg:qs_pg_placetype_gp": "Suburb",
    "qs_pg:woe_adm0": 23424975,
    "qs_pg:woe_id": 44408,
    "src:geom": "qs_pg",
    "src:lbl_centroid": "qs_pg",
    "src:population": "wikidata",
    "woe:adm0_id": 23424975,
    "woe:name_adm0": "United Kingdom",
    "woe:name_adm1": "England",
    "woe:placetype": "Suburb",
    "wof:belongsto": [
      1880762729,
      102191581,
      1880762179,
      85633159,
      404227469,
      101750367,
      136253055,
      1158857287,
      1880771825
    ],
    "wof:breaches": [],
    "wof:concordances": {
      "gp:id": 44408,
      "qs_pg:id": 976922,
      "wd:id": "Q4576305"
    },
    "wof:country": "GB",
    "wof:created": 1497309081,
    "wof:geomhash": "67eb226152e67ce5081fddd8f36290e8",
    "wof:hierarchy": [
      {
        "borough_id": 1158857287,
        "continent_id": 102191581,
        "country_id": 85633159,
        "county_id": 1880771825,
        "empire_id": 136253055,
        "locality_id": 101750367,
        "macrocounty_id": 1880762179,
        "macroregion_id": 404227469,
        "neighbourhood_id": 1126067259,
        "region_id": 1880762729
      }
    ],
    "wof:id": 1126067259,
    "wof:lastmodified": 1765388064,
    "wof:name": "Highams Park",
    "wof:parent_id": 1158857287,
    "wof:placetype": "neighbourhood",
    "wof:population": 11355,
    "wof:population_rank": 6,
    "wof:repo": "whosonfirst-data-admin-gb",
    "wof:superseded_by": [],
    "wof:supersedes": [],
    "wof:tags": []
  },
  "bbox": [
    -0.001459,
    51.605097,
    -0.001459,
    51.605097
  ],
  "geometry": {"type":"Point","coordinates":[-0.001459,51.605097]}
}
