{
  "id": 1242902809,
  "type": "Feature",
  "properties": {
    "edtf:cessation": "",
    "edtf:inception": "",
    "geom:area": 0,
    "geom:area_square_m": 0,
    "geom:bbox": "-2.779810,57.183610,-2.779810,57.183610",
    "geom:latitude": 57.18361,
    "geom:longitude": -2.77981,
    "gn:admin1_code": "SCT",
    "gn:admin2_code": "T6",
    "gn:asciiname": "Leochel-Cushnie",
    "gn:country_code": "GB",
    "gn:dem": 311,
    "gn:feature_class": "P",
    "gn:feature_code": "PPL",
    "gn:geonameid": 2644616,
    "gn:latitude": 57.18361,
    "gn:longitude": -2.77981,
    "gn:modification_date": "2011-03-03",
    "gn:name": "Leochel-Cushnie",
    "gn:population": 0,
    "gn:timezone": "Europe/London",
    "iso:country": "GB",
    "lbl:bbox": "-2.79981,57.16361,-2.75981,57.20361",
    "lbl:max_zoom": 18,
    "lbl:min_zoom": 13.5,
    "mz:hierarchy_label": 1,
    "mz:is_current": -1,
    "mz:min_zoom": 12,
    "name:eus_x_preferred": [
      "Leochel-Cushnie"
    ],
    "name:und_x_variant": [
      "Leochel"
    ],
    "src:geom": "geonames",
    "src:population": "wikidata",
    "wof:belongsto": [
      1880773121,
      102191581,
      85633159,
      1880762109,
      404227471,
      136253055,
      1360699031
    ],
    "wof:breaches": [],
    "wof:concordances": {
      "gn:id": 2644616
    },
    "wof:country": "GB",
    "wof:created": 1765388330,
    "wof:geomhash": "6a25f04601ff0b6907be45a3a3d68b2a",
    "wof:hierarchy": [
      {
        "continent_id": 102191581,
        "country_id": 85633159,
        "county_id": 1360699031,
        "empire_id": 136253055,
        "locality_id": 1242902809,
        "macrocounty_id": 1880762109,
        "macroregion_id": 404227471,
        "region_id": 1880773121
      }
    ],
    "wof:id": 1242902809,
    "wof:lastmodified": 1765388330,
    "wof:name": "Leochel-Cushnie",
    "wof:parent_id": 1360699031,
    "wof:placetype": "locality",
    "wof:population": 650,
    "wof:population_rank": 2,
    "wof:repo": "whosonfirst-data-admin-gb",
    "wof:superseded_by": [],
    "wof:supersedes": [],
    "wof:tags": []
  },
  "bbox": [
    -2.77981,
    57.18361,
    -2.77981,
    57.18361
  ],
  "geometry": {"type":"Point","coordinates":[-2.77981,57.18361]}
}
